{"type":"FeatureCollection", "features": [
{"type":"Feature","geometry":{"type":"Polygon","coordinates":[[[89.6726517508796,26.6512836762419],[89.6703299967005,26.6516858817598],[89.6671177154094,26.6524710406354],[89.665261732372,26.6527803350534],[89.6636912786562,26.6530896350325],[89.661692526539,26.6533751366257],[89.6594558378639,26.6535416533665],[89.6576517302283,26.6536223883759],[89.659017787122,26.6511284104165],[89.6600598209802,26.6496214279504],[89.6609688579763,26.6479974426782],[89.6619458962067,26.6463154586219],[89.66246692853,26.644923466216],[89.6625339619825,26.6435294649657],[89.6623439932488,26.6422514589241],[89.6622200271522,26.6408574539552],[89.6615770651115,26.6393464386683],[89.6608711032422,26.6378344221543],[89.6606091222341,26.6370724156583],[89.6625531201285,26.6369674533086],[89.6648191215735,26.6366834968991],[89.6668891235376,26.6363975366704],[89.6691541222216,26.6362285804525],[89.6703201249925,26.6359986027284],[89.6707421228323,26.6360466110318],[89.6706531151379,26.6363746099021],[89.6691589927324,26.6415995904176],[89.6684609311247,26.6442235816467],[89.6676289096672,26.6451955672306],[89.6668608894314,26.6461105539552],[89.6671148694373,26.6469145603773],[89.6673028509983,26.647660565408],[89.6683218430001,26.6478915856765],[89.6694718374403,26.6480086082874],[89.6699188363523,26.6480096169944],[89.6704898183756,26.6486986293809],[89.6709358075943,26.6491016388078],[89.6711227808822,26.6501906444517],[89.6716307616547,26.6509376557193],[89.672270757334,26.651053668398],[89.6726517508796,26.6512836762419]]]},"properties":{"compartment":"Jainti BL6B"},"id":"comptt.102"}
]}