{"type":"FeatureCollection", "features": [
{"type":"Feature","geometry":{"type":"Polygon","coordinates":[[[89.6533339971272,26.6844173605383],[89.6523069841542,26.685056341682],[89.6491899718072,26.6858772824084],[89.646189957012,26.6867882255779],[89.6438039473417,26.6874261802196],[89.6412799354958,26.6881681323585],[89.6397429287642,26.6886001031766],[89.636222913678,26.6895760363184],[89.6340779020192,26.6902729957609],[89.6326028852636,26.6911139685264],[89.6315209098225,26.6902059457849],[89.6304319288405,26.6895279233248],[89.6305354813447,26.6886659440137],[89.6305609544784,26.6884539238948],[89.6310219940006,26.6867719298357],[89.63271305434,26.6841049579675],[89.6349191106047,26.6815549963442],[89.6371281696374,26.6788900345638],[89.6381682063478,26.6772660518844],[89.6395992504928,26.6752950761923],[89.6410942944576,26.6733251017459],[89.6418093207184,26.6721661135715],[89.6422663574732,26.6705981196247],[89.6425943888871,26.6692641235892],[89.6425554172718,26.6680921206971],[89.6453215260837,26.6678657641806],[89.6511987900101,26.6675327480901],[89.6563622156749,26.6671997280924],[89.6588844459557,26.666938036761],[89.6625012264982,26.6665573865399],[89.6660704188885,26.6661053552607],[89.6702820720561,26.6655581663255],[89.6731961359952,26.6655217930442],[89.6732034035416,26.6656227133715],[89.6733073702442,26.6669917179165],[89.672732348098,26.6679657085023],[89.6715153192472,26.6692806872024],[89.6699803035893,26.6700806587566],[89.6691482737965,26.6713966449586],[89.6681892581425,26.6721396276318],[89.6673582490897,26.672596612274],[89.6669072100542,26.6742576065321],[89.6662641714742,26.6759185970465],[89.6651141562758,26.6766615759926],[89.6650461379609,26.6774265760701],[89.6650069466683,26.6778979761708],[89.6644425906331,26.6777896549707],[89.6636050265435,26.6776278283469],[89.6623772290195,26.6776468444478],[89.6616157985419,26.6777420097793],[89.6608543630072,26.6780465654943],[89.6602356906941,26.6786176244801],[89.6598168988221,26.6791506172922],[89.6593029218899,26.6799025186492],[89.6588079795103,26.6804640600284],[89.6576372588628,26.6814348589817],[89.6567616032566,26.6821677232512],[89.6552768042828,26.6831004460093],[89.654629575948,26.683509694139],[89.653830065449,26.6840236494907],[89.6533339971272,26.6844173605383]]]},"properties":{"compartment":"Jainti BL2B"},"id":"comptt.137"}
]}