{"type":"FeatureCollection", "features": [
{"type":"Feature","geometry":{"type":"Polygon","coordinates":[[[89.7285212405091,26.5839896383435],[89.7280178225282,26.5843700392706],[89.7275776688424,26.5841499503004],[89.7269590148559,26.5839595879159],[89.7259120601477,26.5838405873389],[89.7242702379664,26.5836739951086],[89.7228901511734,26.5836739682793],[89.7217242221675,26.5837453257472],[89.7205820748239,26.5837453035438],[89.7190116436279,26.5835311226142],[89.7173698208836,26.5833883204311],[89.7161087166821,26.5832693256939],[89.7138958201233,26.5833406728113],[89.7126242622108,26.5833771681621],[89.7125203225536,26.5821253238045],[89.7130363599393,26.5805203308378],[89.7121443786324,26.5798293122106],[89.7112544110955,26.5785652925542],[89.7122774252241,26.577878311154],[89.7136834467054,26.576848336556],[89.714963468481,26.5758183595076],[89.7159874936414,26.5746723772661],[89.7162445233748,26.5734103799014],[89.7167695479165,26.5723383880992],[89.7162926034813,26.5700723745945],[89.7161666175434,26.5694993710753],[89.715660657334,26.5678923582405],[89.7143886851383,26.5668583315957],[89.7140147521222,26.5641063191893],[89.7149097968315,26.5621583329357],[89.7145328362588,26.5605533226141],[89.7149248854929,26.5584653263266],[89.7161168813995,26.5585203495809],[89.7169568766125,26.5586383661167],[89.7174728670075,26.5589883767934],[89.7186988557286,26.5593394012629],[89.7210268362714,26.5599244475767],[89.7239988208726,26.5602785059696],[89.726971802668,26.5607495646043],[89.7285417917774,26.5610515956697],[89.7283305914634,26.5615013224114],[89.7282353942473,26.5626434627068],[89.7281401721668,26.5644042641631],[89.7281163424946,26.5656415860234],[89.7282828206277,26.5694487364067],[89.7284730901261,26.5727799863593],[89.7285444324897,26.5747549414543],[89.728687112648,26.5780624104382],[89.7286157042093,26.5792521412843],[89.7288060380227,26.5803228969947],[89.7291153495687,26.5810605443928],[89.7291629217212,26.5817981767029],[89.7290439219704,26.5826309859536],[89.7289487318914,26.5830592849074],[89.7287107832876,26.5834400009964],[89.7285212405091,26.5839896383435]]]},"properties":{"compartment":"Dhawla BL2"},"id":"comptt.32"}
]}