{"type":"FeatureCollection", "features": [
{"type":"Feature","geometry":{"type":"Polygon","coordinates":[[[89.7408545871544,26.5725138265205],[89.7406083160646,26.5726136618897],[89.7399658606838,26.5728991899417],[89.7393472009681,26.5729467580074],[89.7371343100828,26.5727801546854],[89.7316377745111,26.5727086677278],[89.7284730901261,26.5727799863593],[89.7282828206277,26.5694487364067],[89.7281163424946,26.5656415860234],[89.7281401721668,26.5644042641631],[89.7282353942473,26.5626434627068],[89.7283305914634,26.5615013224114],[89.7285417917774,26.5610515956697],[89.7286370917919,26.5610880146844],[89.7292457836857,26.5613206098509],[89.732568750918,26.5623646763682],[89.7353847185833,26.5634397330998],[89.7372516926001,26.564341771072],[89.7389916722453,26.5650218061609],[89.7398065987211,26.5659225936935],[89.7400683355384,26.5664460797663],[89.7403181560931,26.5672313061012],[89.7404727934357,26.5681593008561],[89.7406512221444,26.5694442167467],[89.7407463707573,26.5707410210414],[89.7408415150781,26.5722162956727],[89.7408545871544,26.5725138265205]]]},"properties":{"compartment":"SRD BL4"},"id":"comptt.24"}
]}