{"type":"FeatureCollection", "features": [
{"type":"Feature","geometry":{"type":"Polygon","coordinates":[[[89.766049238201,26.5950030586507],[89.7658048748402,26.595616385399],[89.7651538368788,26.5972553758503],[89.7644857778644,26.5997703676345],[89.7648487663668,26.6002133755394],[89.7647827248408,26.6019443775456],[89.7649437231474,26.6019993807829],[89.7651097065138,26.6026743852963],[89.7650236922874,26.6032733847614],[89.764939679838,26.6037983841249],[89.7648556692184,26.6042473833437],[89.7647716585745,26.6046973825644],[89.7646856443226,26.6052973820314],[89.7646016373146,26.6055963809649],[89.7643686365728,26.6056493765313],[89.7636326423793,26.6054783618834],[89.7620186494068,26.6053403302123],[89.7585576592115,26.6052632627155],[89.7568126584798,26.6054602291322],[89.7548946645064,26.6053931916822],[89.752805670135,26.605359150968],[89.7495076776879,26.6053610867974],[89.7479466876698,26.6050960559224],[89.7472117049446,26.6044490403985],[89.7454787466013,26.6028850037261],[89.7444397772406,26.6017119812973],[89.7444217818803,26.6015209805867],[89.7438507889047,26.6012839690306],[89.7411688403343,26.5994049133108],[89.7393599112843,26.5966308728937],[89.7378979474924,26.5952668418876],[89.7372749936003,26.5946573786234],[89.7373479956302,26.5920724851751],[89.7373599508474,26.5897763010831],[89.7372766996617,26.5885865672235],[89.7370506739393,26.5875990809687],[89.7369079248749,26.5867424765799],[89.7368484496074,26.5861357142808],[89.7368841666947,26.5854218736311],[89.7369294055487,26.5842178622433],[89.7370864613237,26.5835468540331],[89.7372292430108,26.583047175868],[89.7376147316903,26.5822334018298],[89.7380573065472,26.5824047307569],[89.7388139689614,26.582647455925],[89.7396705701152,26.5829330031171],[89.7405271619561,26.5831900002558],[89.7417406846901,26.5833756241998],[89.7433825015876,26.5833471060676],[89.7442962170763,26.5834470540217],[89.745109979362,26.5836897803022],[89.746180730369,26.5839610616339],[89.7469802244057,26.5841323975029],[89.748036695447,26.5844036785578],[89.7488076412674,26.5845036337374],[89.749492917629,26.5845893072243],[89.750592221321,26.5847463688971],[89.7516772502387,26.5851033106712],[89.7526623317911,26.5853603103131],[89.7539615091875,26.5857600863339],[89.7551892953751,26.5862169710754],[89.7559602329565,26.5866595669066],[89.7569453059246,26.5872734872276],[89.7576305823289,26.5877731915023],[89.7580017656374,26.5880158991815],[89.7584015095673,26.5882300573622],[89.7589011826191,26.5888867983262],[89.7593151931188,26.5896577578415],[89.7596149907507,26.5901431745937],[89.7601289361733,26.5906999756469],[89.7604715674854,26.5910283529346],[89.7611282870464,26.591399556413],[89.7621704840055,26.5918421575256],[89.7627129979513,26.592042048458],[89.7634268111972,26.5926702435367],[89.764026420238,26.5934840267473],[89.7645403680645,26.5939408976135],[89.765054326922,26.5943549283989],[89.7655254482828,26.5946690281612],[89.766049238201,26.5950030586507]]]},"properties":{"compartment":"SRD BL2"},"id":"comptt.54"}
]}