{"type":"FeatureCollection", "features": [
{"type":"Feature","geometry":{"type":"Polygon","coordinates":[[[89.6606091222341,26.6370724156583],[89.6589363649645,26.6367098324323],[89.6564997998657,26.6367478550725],[89.6541774485345,26.637033350389],[89.6519312347319,26.6374140173613],[89.649837300569,26.6377946872973],[89.6466392985975,26.6381943757768],[89.6436887692524,26.6384608188306],[89.6471914285653,26.6344062796175],[89.6495899884112,26.6316842213327],[89.6530789112631,26.6274837915055],[89.6544383680274,26.6274832780097],[89.6588363705365,26.6269433626037],[89.6634253744383,26.6263274507747],[89.666065371888,26.6261725018641],[89.6666953712805,26.626135514056],[89.6689153478369,26.6268895586427],[89.6690843289324,26.6276575633426],[89.6694142245567,26.6278066400369],[89.669131342962,26.6283157854673],[89.6689029147907,26.6286774616863],[89.6684650706962,26.6293056343192],[89.6678559188437,26.6298576534777],[89.6674371274554,26.6303716162709],[89.6668279778962,26.630828465254],[89.6660855677372,26.631323371713],[89.6653431730827,26.6315898577527],[89.6646007816395,26.6317230935478],[89.6636870724397,26.6317801858687],[89.6629446714565,26.6318943816286],[89.6622022735929,26.6322941179119],[89.6614789120146,26.6328461448446],[89.6610981782433,26.6334552785504],[89.660907809889,26.634235736275],[89.6607554963966,26.635225595124],[89.6606602941432,26.6361583449798],[89.6606091222341,26.6370724156583]]]},"properties":{"compartment":"Jainti BL7A"},"id":"comptt.91"}
]}