{"type":"FeatureCollection", "features": [
{"type":"Feature","geometry":{"type":"Polygon","coordinates":[[[89.6425554172718,26.6680921206971],[89.6398194210589,26.6682080675999],[89.6337344052698,26.6694699513323],[89.6308843955219,26.6701588970524],[89.6291173946035,26.670373863014],[89.6290306311276,26.6672120955983],[89.6292210457949,26.6649278051711],[89.6293162657577,26.6632621840094],[89.6296018478873,26.6610730856073],[89.6296018811838,26.6596929931082],[89.6296019121817,26.6584080807814],[89.6296926647889,26.657047290084],[89.6316958773058,26.6567424985443],[89.6341705205196,26.6563618360479],[89.6355506106366,26.6562190926664],[89.6364072143122,26.655981158917],[89.6370734684468,26.6557432314603],[89.6386915002902,26.6555053125396],[89.642260699739,26.6551722514455],[89.6454967588505,26.6548867839503],[89.6473527378386,26.6547440498371],[89.6494466708507,26.6544109700112],[89.6533014076841,26.6537447938705],[89.6563471172818,26.653459312668],[89.6576517302283,26.6536223883759],[89.6575987278462,26.6537263875338],[89.6566106837704,26.6556513718111],[89.6553776475643,26.6572743507614],[89.6539516300121,26.6581433245724],[89.6510366035558,26.6595292703205],[89.6484465874977,26.6604522215513],[89.6460465653902,26.661607176904],[89.6444925510021,26.6623581479989],[89.6434545297278,26.6633431295708],[89.6429324931905,26.6649091222511],[89.6428624625142,26.6661871232126],[89.642534431105,26.6675211192491],[89.6425554172718,26.6680921206971]]]},"properties":{"compartment":"Jainti BL3A"},"id":"comptt.118"}
]}