{"type":"FeatureCollection", "features": [
{"type":"Feature","geometry":{"type":"Polygon","coordinates":[[[88.86909393640303,26.77758052798314],[88.87227250144409,26.78056337419896],[88.87541232945942,26.78397481110392],[88.87675148236364,26.78526422084009],[88.87987615983788,26.79158691301794],[88.88155052896771,26.79285670411603],[88.88257266405081,26.79434404772479],[88.88323939522931,26.79599351907043],[88.88396017709702,26.79694910195888],[88.88473797519556,26.79758448635299],[88.88599176346172,26.79826991379877],[88.88671017487077,26.79890565836602],[88.88725138026221,26.79970242839513],[88.8873794073154,26.80087521205238],[88.88739144743515,26.80242214856039],[88.8875178963526,26.80338143412872],[88.88823876267132,26.80433699223019],[88.88866035366533,26.80502789324616],[88.88878445131627,26.80569386620618],[88.88903348500958,26.80713270088447],[88.88945800337565,26.80819672451225],[88.89005626763075,26.80867328563037],[88.89095308337171,26.80930760252771],[88.89191308088525,26.81042183573002],[88.89233596986969,26.81127263489869],[88.8924674076783,26.81287212114595],[88.89223627451533,26.81372704139279],[88.89141343373504,26.8149591136335],[88.89058565242962,26.81555125578025],[88.89041600168072,26.81667259936371],[88.89072416111809,26.81805746794046],[88.89103420793371,26.81968262441824],[88.89128539128419,26.82138796856678],[88.89130616309261,26.82155142280936],[88.89147541361632,26.82288019032847],[88.89112784043584,26.82405596034591],[88.89084435054095,26.82581825766727],[88.89106582883764,26.82642776858514],[88.89126971870154,26.82698916048031],[88.89139573806195,26.8278951348529],[88.89116582124151,26.8289099629655],[88.89028344075041,26.83014240324229],[88.88951747006926,26.83105426986147],[88.88875239586645,26.83207245698153],[88.88947554575984,26.83329479965078],[88.88966919376152,26.83524080542506],[88.88957143997239,26.8379617215101],[88.88982523117485,26.83998716551996],[88.8905484454704,26.84120949984014],[88.89115399156954,26.84259277129332],[88.89104883393387,26.84435365984953],[88.89010899294405,26.84585327259464],[88.88994347263188,26.84750792776103],[88.89044162940874,26.84898861665958],[88.89055238712838,26.84931790867583],[88.89079724640632,26.85019633818283],[88.89095474760364,26.85059105119486],[88.88966479077389,26.85091900657281],[88.88782657025865,26.85103124606964],[88.88518282658622,26.85136962643183],[88.88195900076093,26.85211376851091],[88.87917725883742,26.85236377236602],[88.87666978447174,26.85258917651997],[88.8750326737368,26.85285907581922],[88.87142038828902,26.85345477149471],[88.86712807133418,26.85417610709385],[88.86654260446275,26.85364437781302],[88.8661435586941,26.85263795409485],[88.86534764564014,26.85088795342591],[88.86499192962782,26.84913553821501],[88.86399598013102,26.84681645966164],[88.8626990430669,26.84349033858284],[88.85922359193714,26.8366459775609],[88.85832541114965,26.83428254052797],[88.85757765703312,26.83240076257067],[88.85678053667182,26.83071388923849],[88.85837835578951,26.83060718315377],[88.86299839269681,26.83050518859142],[88.87058562880783,26.82997754938184],[88.87363287192584,26.82921868794569],[88.8738215604489,26.82915152478569],[88.87359757993592,26.82633952140593],[88.87336045631343,26.82465126030327],[88.87303389322538,26.82300416430466],[88.87225802056008,26.82123883960115],[88.87076260395219,26.81919645773546],[88.86935906508737,26.81743497456174],[88.86894912217295,26.8165927686752],[88.86831641436298,26.81595302558394],[88.86730825635189,26.81310294077839],[88.86489351299949,26.80806911142577],[88.86402554405815,26.80594243265972],[88.86292723803292,26.80301247635885],[88.86224026585592,26.80110580436047],[88.86123665600111,26.79881888243979],[88.86075263255087,26.79775428294001],[88.86306521895375,26.79706104447397],[88.86605669844343,26.79708734732698],[88.86755230849143,26.79707819427612],[88.86847809837754,26.79615954040609],[88.86864087081888,26.79599805855237],[88.87056603101495,26.79348111406227],[88.87182134533481,26.7917825326793],[88.87229297186938,26.79114418145377],[88.87316573710851,26.78955089007488],[88.87308332140054,26.78952178328463],[88.87165541814892,26.78937037463622],[88.870579298642,26.78907294699593],[88.87052354750982,26.78905749505399],[88.87039693079251,26.78804460194136],[88.87020033813876,26.78564532075514],[88.87001099896334,26.78420635904264],[88.86910231064813,26.78197136531946],[88.8691080278757,26.78190702383244],[88.86932136981513,26.7795162236156],[88.86925141024257,26.77812983355049],[88.86909393640303,26.77758052798314]]]},"properties":{"id":null,"description":null,"altitudeMode":null,"tessellate":-1,"extrude":0,"visibility":-1,"drawOrder":null,"icon":null,"AREA":"752541","PERIMETER":"6781.79","division":"Gorumara","beat":"KHUNIA","range":"Gorumara North","layer":"Gorumara_North","path":"C:\\Users\\user\\Downloads\\Gorumara_North.geojson"}},
{"type":"Feature","geometry":{"type":"Polygon","coordinates":[[[88.82525489371413,26.81372351516106],[88.829788361653,26.81377232280922],[88.83202634266802,26.81364213887368],[88.83473639185318,26.81348431705135],[88.83507056194576,26.81348234637563],[88.83512525851917,26.8146076691005],[88.83543593690088,26.81617147274681],[88.83553121633653,26.81778195611218],[88.84447113779369,26.81750468164508],[88.84990707043322,26.81760640324821],[88.8579834708072,26.81740114881245],[88.8585049392342,26.81744988356331],[88.85839227531757,26.81719503417749],[88.85833810174594,26.81649335308617],[88.85823298584354,26.81552911490887],[88.8567508731966,26.80700538141461],[88.85624081743264,26.80420070510981],[88.85572930918327,26.80119888438806],[88.85562426423698,26.80051104585312],[88.85730717831628,26.8004063832011],[88.85815300367386,26.80017759848237],[88.85874888856941,26.79986063404891],[88.86003531186743,26.79855570102346],[88.86062780725557,26.79779142535377],[88.86075263255087,26.79775428294001],[88.86123665600111,26.79881888243979],[88.86224026585592,26.80110580436047],[88.86292723803292,26.80301247635885],[88.86402554405815,26.80594243265972],[88.86489351299949,26.80806911142577],[88.86730825635189,26.81310294077839],[88.86831641436298,26.81595302558394],[88.86894912217295,26.8165927686752],[88.86935906508737,26.81743497456174],[88.87076260395219,26.81919645773546],[88.87225802056008,26.82123883960115],[88.87303389322538,26.82300416430466],[88.87336045631343,26.82465126030327],[88.87359757993592,26.82633952140593],[88.8738215604489,26.82915152478569],[88.87363287192584,26.82921868794569],[88.87058562880783,26.82997754938184],[88.86299839269681,26.83050518859142],[88.85837835578951,26.83060718315377],[88.85678053667182,26.83071388923849],[88.85757765703312,26.83240076257067],[88.85832541114965,26.83428254052797],[88.85922359193714,26.8366459775609],[88.8626990430669,26.84349033858284],[88.86399598013102,26.84681645966164],[88.86499192962782,26.84913553821501],[88.86534764564014,26.85088795342591],[88.8661435586941,26.85263795409485],[88.86654260446275,26.85364437781302],[88.86712807133418,26.85417610709385],[88.86541916369644,26.85364392350877],[88.86397106735433,26.85196333832888],[88.8625302548136,26.8512481270761],[88.85929603141422,26.85062390788606],[88.85552477024359,26.85016419233172],[88.85431407939441,26.8500358470253],[88.85193362225525,26.84978367343171],[88.84995711164682,26.84939308763765],[88.84910582978948,26.84895200689945],[88.8458145670003,26.84724561568395],[88.84239877216181,26.84630056115259],[88.83880245389983,26.84519572816689],[88.83736247794829,26.84456063337677],[88.83690631723728,26.84411826626356],[88.83546517580736,26.84272135552669],[88.83105465604683,26.84065540548058],[88.8302604894788,26.84036251067758],[88.82781432381458,26.83946019770908],[88.82427532128992,26.83815440059347],[88.82392739867025,26.83693968277868],[88.8240837883583,26.83585825551058],[88.82397144568496,26.83546602027191],[88.82330912533212,26.83473317242082],[88.82363193544434,26.83394551460964],[88.823001466552,26.83283256399041],[88.82291101385482,26.83267288805933],[88.8228388354084,26.83026661105168],[88.82293448825595,26.82835068133671],[88.82237763133732,26.82705255827042],[88.82252842892731,26.82518538348199],[88.82251672625021,26.82356481472109],[88.8227779889207,26.8218442250389],[88.82198536790827,26.81821466400808],[88.82317601214848,26.81631690672053],[88.82474929924393,26.8143432968722],[88.82525489371413,26.81372351516106]]]},"properties":{"id":null,"description":null,"altitudeMode":null,"tessellate":-1,"extrude":0,"visibility":-1,"drawOrder":null,"icon":null,"AREA":"1500770","PERIMETER":"5372.59","division":"Gorumara","beat":"MURTI","range":"Gorumara North","layer":"Gorumara_North","path":"C:\\Users\\user\\Downloads\\Gorumara_North.geojson"}},
{"type":"Feature","geometry":{"type":"Polygon","coordinates":[[[88.8355482,26.8883013],[88.8347092,26.8901163],[88.8345192,26.8907803],[88.8340262,26.8906523],[88.8307562,26.8894133],[88.83013911964318,26.88923564754526],[88.82938414499925,26.889028031528834],[88.8301279,26.8892357],[88.8307109,26.8901957],[88.8318459,26.8919997],[88.8328439,26.8934817],[88.83285770979506,26.89348765061752],[88.8318621,26.8920092],[88.8307271,26.8902052],[88.8301441,26.8892452],[88.8307671,26.8894182],[88.8340371,26.8906572],[88.8345301,26.8907852],[88.8367275819846,26.89208668021338],[88.83803850091621,26.89247578582887],[88.836728686165,26.89208207833607],[88.834522,26.8907755],[88.834712,26.8901115],[88.835551,26.8882965],[88.83645414300922,26.88526245737988],[88.83726184915982,26.88535806651722],[88.83916755519695,26.88549034604825],[88.84197719995693,26.88575972359289],[88.84643981211063,26.88612625330264],[88.84781134990085,26.88627429624324],[88.85063349397907,26.88654476509948],[88.85079288795298,26.88657341539665],[88.8509409,26.8883045],[88.8511319,26.8898725],[88.8510179,26.8925885],[88.85090818116639,26.896542597204427],[88.8509715048519,26.89654616657205],[88.8510206,26.8925981],[88.8511346,26.8898821],[88.8509436,26.8883141],[88.85079984959238,26.88657405718584],[88.85165100882296,26.88666236078377],[88.85461095001853,26.8869620086585],[88.8601689540974,26.88759437997467],[88.8621766557862,26.88788898912554],[88.86524465461174,26.88895195791104],[88.86421542353672,26.89028208539867],[88.86221980445131,26.89306396278657],[88.86012875369775,26.89758511355115],[88.85973940703866,26.89810194813568],[88.85849093651646,26.897991501822876],[88.85849287674365,26.8979919097995],[88.85973804755581,26.89810342396221],[88.85947815888596,26.89859987265521],[88.85891496345309,26.89891979390099],[88.85867106431188,26.90082371339758],[88.8579346900471,26.90408545868461],[88.85759639857959,26.90715298615113],[88.85748684313961,26.90799209483023],[88.85718921369146,26.91151118878737],[88.8572210310125,26.91510559911466],[88.85579607384807,26.91526104330789],[88.8536321058578,26.91529923074162],[88.85312888892223,26.91524645972456],[88.849818,26.9110292],[88.848553,26.9098302],[88.847467,26.9086302],[88.846421,26.9068662],[88.844382,26.9042642],[88.84203,26.9017032],[88.8412151,26.9007832],[88.8400431,26.9000662],[88.8394551,26.8993652],[88.8383221,26.8978842],[88.8372821,26.8968042],[88.8364211,26.8956422],[88.8348861,26.8943642],[88.83487617235298,26.894359922193555],[88.8364049,26.8956327],[88.8372659,26.8967947],[88.8383059,26.8978747],[88.8394389,26.8993557],[88.8400269,26.9000567],[88.8411989,26.9007737],[88.8420138,26.9016937],[88.8443658,26.9042547],[88.8464048,26.9068567],[88.8474508,26.9086207],[88.8485368,26.9098207],[88.8498018,26.9110197],[88.85309922130375,26.91529813728047],[88.8483389716281,26.9153797764724],[88.84554194411773,26.91550024467097],[88.84355008463814,26.91547202409568],[88.84020340429242,26.91562702756498],[88.8379788646148,26.91566887527621],[88.83683712408408,26.91568457478662],[88.83533263575832,26.91570390471473],[88.83429975601518,26.9156453174952],[88.83333549247165,26.91560660369822],[88.83294040482028,26.91470521869944],[88.83262111648197,26.91382450116205],[88.831731514798,26.91280419077127],[88.83142333335766,26.91237812648689],[88.83144950227094,26.91177131675364],[88.83109280567376,26.91118078144562],[88.83062622056826,26.90883714933245],[88.82960808530348,26.90692585178852],[88.82837076798877,26.9052987069938],[88.82822136216397,26.90335042857451],[88.82755089427658,26.90185300723438],[88.82666161783061,26.9012849340969],[88.82534651842705,26.90045627256738],[88.82446712329745,26.89886414384221],[88.82412107309828,26.89684381724324],[88.82422322822377,26.89593367425602],[88.82465998629253,26.89442800397206],[88.82547307376619,26.89371022601947],[88.82545985352729,26.89233901901584],[88.8253413651637,26.89052391733489],[88.82557963510206,26.8895377635409],[88.82571239864748,26.88834481318271],[88.8264669352093,26.88846218794744],[88.82725234735248,26.88739436675478],[88.82874654292112,26.88597666179531],[88.82994569857625,26.88637419075418],[88.83118653663841,26.88650645915387],[88.8343177924367,26.88583398444064],[88.8363004790173,26.88570583648571],[88.8355482,26.8883013]],[[88.84047210376578,26.89312340603244],[88.83808872164285,26.89249069229355],[88.83847351367261,26.89260490586997],[88.84055702086131,26.89315489084361],[88.84047210376578,26.89312340603244]],[[88.8436902044574,26.89436744275066],[88.84282044501946,26.894020518051796],[88.84392142302296,26.89449416009834],[88.84459550488533,26.89480064452702],[88.8436902044574,26.89436744275066]],[[88.85077258080419,26.89653495381572],[88.8489715228156,26.896096473219863],[88.85043807514532,26.89651609872762],[88.85077258080419,26.89653495381572]],[[88.85837104798667,26.897966292549484],[88.8578000771851,26.89783161183685],[88.85684325582741,26.89764503971325],[88.85837104798667,26.897966292549484]],[[88.85317866562723,26.89680038307813],[88.85271271679763,26.89664145386546],[88.85229854060755,26.896620967626742],[88.85268997784223,26.89664303177827],[88.85341317558287,26.896903216019],[88.85463896869459,26.89724189990481],[88.85594148061342,26.897469201125066],[88.85568928107143,26.89742002433387],[88.85432035544908,26.89715341660871],[88.85317866562723,26.89680038307813]]]},"properties":{"id":null,"description":"description: <br>AREA: 1252920.00000000000<br>PERIMETER: 4816.65000000000<br>GORU_CHAPR: 48<br>GORU_CHA_1: 99<br>DIVISION: WL-II<br>BLOCK: PANGJHORA<br>COMP_NO: 2A<br>STATUS: WLS<br>AOI: x<br>Longitude: 88.846<br>Latitude: 26.889","altitudeMode":null,"tessellate":-1,"extrude":0,"visibility":-1,"drawOrder":null,"icon":null,"AREA":"1252920.00000000000","PERIMETER":"4816.65000000000","division":"Gorumara","beat":"CHAPRAMARI","range":"Gorumara North","layer":"Gorumara_North_Chapramari","path":"C:\\Users\\user\\Downloads\\Gorumara_North_Chapramari.geojson"}}
]}