{"type":"FeatureCollection", "features": [
{"type":"Feature","geometry":{"type":"Polygon","coordinates":[[[89.7071436600636,26.7343785028615],[89.705352631755,26.7357214703681],[89.7032145956176,26.7374214317555],[89.7012335694345,26.7386953954154],[89.6997295610274,26.7391893669454],[89.6978315673482,26.7391143297209],[89.6961715817106,26.7386842964893],[89.6943566084634,26.7377582593119],[89.692144634489,26.7369012145088],[89.6900906532352,26.7363291733227],[89.6884296624465,26.7361121404724],[89.6874016615018,26.7362521206485],[89.6855826435663,26.7371710868106],[89.6837606290812,26.7379480526502],[89.6819376077188,26.7390090189927],[89.6799595919148,26.7398559819105],[89.6776635820359,26.7404899382216],[89.6750545832585,26.7406968876309],[89.6728405920958,26.7405508441086],[89.6711016049606,26.7401918094757],[89.6697596254542,26.7394787819496],[89.669208645724,26.7386967697501],[89.6688176810922,26.7372757595038],[89.6687437277147,26.7353587545395],[89.6681957789326,26.7332987400553],[89.6674898219251,26.7315937231382],[89.6663088712599,26.7296736965526],[89.6639439372341,26.7271836458059],[89.6626039800648,26.7255476166444],[89.6603960370584,26.7234125696261],[89.6602511397579,26.7233154366195],[89.6608366250513,26.7230387275434],[89.6613148985693,26.7228459965278],[89.6617467717666,26.7226711146389],[89.6621144054639,26.7224819514697],[89.6624713305694,26.7222356879867],[89.6627854248273,26.7220286837394],[89.6633350824951,26.7216574937899],[89.6638561896264,26.7213112933287],[89.6642845053388,26.7210329011801],[89.6647841919168,26.7207116903461],[89.66534099784,26.7204118806662],[89.6658763839008,26.7201085105616],[89.6661226561618,26.7199907351532],[89.6662975479892,26.7198979383972],[89.6664688690476,26.7198372616303],[89.6666901589493,26.7198194259176],[89.6669471353961,26.7199407811569],[89.6672469500122,26.7201335273635],[89.6677751823533,26.7203976581606],[89.6683712254825,26.7206225302096],[89.6686746024233,26.7207188963093],[89.6691849986092,26.7208259864702],[89.6696668351228,26.720922366054],[89.6702843008802,26.7210365883187],[89.671051667748,26.7210901433986],[89.6717655064726,26.7210723073023],[89.6726613762312,26.7209938046482],[89.6735037056863,26.7209331509819],[89.6740533550641,26.7209046016605],[89.6753953724625,26.7208796478157],[89.6759307487644,26.7209795884522],[89.6766195944407,26.7210902521049],[89.677404809801,26.7212044776459],[89.6788396244755,26.7212830358046],[89.6811096288891,26.7212902101389],[89.68287993467,26.721290244704],[89.6844289611531,26.721283144936],[89.6851428001451,26.7212545988212],[89.6854426109867,26.7211903645565],[89.6859779921322,26.7210904348255],[89.6864705440712,26.7209619542053],[89.687020206393,26.7208120546606],[89.6875198874513,26.7207192642456],[89.6881837569095,26.7206764471288],[89.6892473735163,26.7207121679625],[89.689939801525,26.720726451509],[89.6906679080663,26.7207978558581],[89.6916530026151,26.7209263653309],[89.6927808568256,26.7210548775917],[89.6944869313936,26.7211120110112],[89.6962358279365,26.7210834951087],[89.6992696314374,26.7210550042973],[89.7005616797604,26.7209979194216],[89.7020250483707,26.7209122878386],[89.7036597393431,26.7207124493889],[89.7048375705339,26.7205482820839],[89.7059440217214,26.7203912633985],[89.7067490014856,26.72032246899],[89.7067509994226,26.7204074691872],[89.7067899575335,26.7221334731606],[89.7068109186621,26.7237364765536],[89.7068538706283,26.725715481076],[89.7069818452315,26.7267514855039],[89.7071436600636,26.7343785028615]]]},"properties":{"compartment":"Hatipota BL1"},"id":"comptt.177"}
]}