{"type":"FeatureCollection", "features": [
{"type":"Feature","geometry":{"type":"Polygon","coordinates":[[[89.7362934349348,26.6995490069221],[89.7362693971978,26.7011110093911],[89.7361083975978,26.7011100062465],[89.7348623735037,26.702225984023],[89.734567363062,26.7026859791291],[89.7331383235934,26.7044549545577],[89.7321692799257,26.7063529392056],[89.7304682585168,26.7074019079668],[89.7291042360299,26.7084628833279],[89.7272112012282,26.710083849409],[89.7253971644507,26.7117788171676],[89.7222971485587,26.7127357584315],[89.7193021271501,26.7139107021506],[89.7169590743379,26.7163196609018],[89.7146850333486,26.7182336200699],[89.712320034539,26.7184145742248],[89.709919009789,26.7196705296796],[89.7085290067498,26.7199315030219],[89.7073550000299,26.7203234808258],[89.7067490014856,26.72032246899],[89.7067492035098,26.7198258780696],[89.706784913015,26.7190168572611],[89.7068087236173,26.7185766569067],[89.7067849326036,26.7182078357556],[89.7065945819829,26.7178390213523],[89.7062971595988,26.7175534750134],[89.7059402482191,26.7172322474465],[89.7054762639242,26.7170418780327],[89.7051312467558,26.7169585911411],[89.7046910515407,26.7168039122584],[89.7043817271683,26.7166016558426],[89.7040842962242,26.7162566293936],[89.7038106763758,26.7158640133212],[89.7035941466227,26.7154618783459],[89.7034870849979,26.7151263656317],[89.7034514018214,26.7148479744175],[89.7034299896481,26.7145267434022],[89.7033086484021,26.7141769603829],[89.703123057135,26.7138343161225],[89.7027304565303,26.7134845178076],[89.7022664757484,26.7131490081259],[89.7019452523827,26.7129063014038],[89.7014669909435,26.7125993414967],[89.7008316786667,26.7123423386167],[89.7000107797661,26.7119639918887],[89.699675272979,26.7118640451536],[89.6992469771026,26.7117355465542],[89.6988115429708,26.711535667683],[89.6981262620223,26.711228703736],[89.6975766174704,26.7110573626887],[89.6970055512416,26.7109574213558],[89.6956992281376,26.7108003455649],[89.6944785731041,26.7107146615789],[89.6930294896502,26.7105861430552],[89.6925083922686,26.7105290227778],[89.6921015051342,26.7104504946902],[89.6916375098628,26.7103005853558],[89.6912591866342,26.710057867522],[89.6909593846009,26.7097580511152],[89.6905881956738,26.7093368730906],[89.6903526372878,26.7088800176474],[89.6899814647512,26.7081947191348],[89.6897744700968,26.7075808139588],[89.6896459876736,26.7068669701305],[89.689488969635,26.7059746754152],[89.6892677062382,26.7048967691029],[89.6892106198598,26.7039259461929],[89.6890964429402,26.7025696514558],[89.6890393760697,26.700792187054],[89.6889823109217,26.6989433425204],[89.6890251901931,26.6969017595803],[89.6892465243755,26.6950529204779],[89.6894607082045,26.6940464127941],[89.6897462625536,26.6930113464493],[89.6902074557182,26.6920080035891],[89.6906607104011,26.6925971035211],[89.691805685443,26.6935171275604],[89.6925106976025,26.6929451402543],[89.6933406969902,26.6928891563421],[89.6934666800327,26.6935781600765],[89.6937846709617,26.6939221669175],[89.692888662034,26.6943791502841],[89.6916736497282,26.6950071277437],[89.6917366301614,26.6958101304593],[89.6917976106228,26.6966121331342],[89.6924345979886,26.6970721464139],[89.6931995836485,26.6975901622989],[89.6929415648639,26.6983921587505],[89.6927475417669,26.699366156769],[89.6937055463895,26.6990811749337],[89.6946005497594,26.6988541919763],[89.6949195503824,26.6987971980951],[89.6957495497714,26.6987412141862],[89.6959405514959,26.6986512177462],[89.6959705524649,26.6986082182519],[89.6969295640291,26.6980362359031],[89.6979505518421,26.6984402565743],[89.6985245365771,26.6990152688413],[89.6996105159164,26.6997632914208],[89.7006975244004,26.6993063117831],[89.7014035462901,26.6983323237502],[89.7026775265671,26.6990233498936],[89.7033175125261,26.6995413633451],[89.7043384989401,26.7000033841277],[89.7058704910912,26.7001784143492],[89.7067014779792,26.7006394314238],[89.7074644497628,26.7017314483466],[89.7082904186385,26.7029374667124],[89.7087333759066,26.7046604785671],[89.7106513796363,26.7043195153672],[89.7132093734906,26.7043245653039],[89.7155733678066,26.704329611455],[89.7176823655335,26.7042186524128],[89.7201743609612,26.7041657009552],[89.7219633566645,26.7041697358829],[89.7231143511327,26.7042867585689],[89.7230523943243,26.7025077540287],[89.7230604748216,26.6991797479553],[89.7232625562533,26.6957937455588],[89.7232015966422,26.6941297412535],[89.7230966317379,26.692688736507],[89.723036636425,26.6925007349844],[89.7266475869009,26.6941988086256],[89.7303885752701,26.6943178818504],[89.7348765456283,26.6951099709205],[89.7358715215597,26.6960089920288],[89.7367684950341,26.6970190114346],[89.7366654621312,26.6983890120012],[89.7362934349348,26.6995490069221]]]},"properties":{"compartment":"Hatipota BL2B"},"id":"comptt.162"}
]}