{"type":"FeatureCollection", "features": [
{"type":"Feature","geometry":{"type":"Polygon","coordinates":[[[89.28409882580024,26.55846147301861],[89.26679975290631,26.558864192128794],[89.25549517945905,26.559125652027262],[89.25506660214205,26.559145636761798],[89.25455201096656,26.559162318286383],[89.25403741439521,26.559179000710344],[89.25360858886535,26.55919290243054],[89.25309399229394,26.55920958215654],[89.25275224901714,26.559220615938727],[89.25240950479485,26.559295229990937],[89.2519847181203,26.559378321952067],[89.25138108866639,26.559479162933087],[89.2510640443702,26.55953250262297],[89.25060215076871,26.558941323383408],[89.2505288470287,26.55863715917758],[89.25048150851484,26.55828071558261],[89.25032228354661,26.55798004614229],[89.24996256012412,26.557687579418314],[89.24951420761465,26.55734750798115],[89.24951877706997,26.556886426467486],[89.24946739250623,26.556453214044666],[89.24935470025929,26.555945655567598],[89.24933195640472,26.555511214670844],[89.24930729699423,26.555025369425323],[89.24928309803659,26.554591355706577],[89.24925931996171,26.554157153130177],[89.24929954034155,26.553822403880872],[89.24948210361623,26.553482084230836],[89.24948223401793,26.552918229992372],[89.24951993899407,26.55253228323835],[89.24950186441959,26.55217418309212],[89.24947475075919,26.551637027926574],[89.24939831288191,26.55125561915156],[89.24932316643105,26.550899793390784],[89.24929992615074,26.550439371080188],[89.2491897915757,26.549956789474322],[89.24913654721394,26.549394618766712],[89.24911561909062,26.548959683242856],[89.24909721806222,26.548601670330868],[89.24908126678707,26.548294815353472],[89.24900416161285,26.547887819966945],[89.2489803088942,26.547453202803126],[89.24885346491556,26.546984254020174],[89.24870022403616,26.546516245028727],[89.24845672180032,26.546167162384677],[89.24824161745676,26.54581701224538],[89.24805050972333,26.54538907254772],[89.24802835132743,26.54492873387403],[89.24815109529686,26.544513816359597],[89.24836053211294,26.544121024865433],[89.24868529978681,26.54376195974669],[89.24918669520986,26.54354931774685],[89.24980335224296,26.543370336471924],[89.25022521342294,26.543276176554343],[89.25081381520545,26.543098262774663],[89.25119925833917,26.542877148261823],[89.25147740335956,26.542712068707033],[89.25181267151765,26.542544678793945],[89.25228678330848,26.54229471582852],[89.25276132317657,26.542070249542405],[89.25317957088055,26.5417463659021],[89.25337489733369,26.541457973107015],[89.25353821331794,26.541195891777022],[89.25366424790678,26.54090839470672],[89.25366700702682,26.54044638958925],[89.25364143300578,26.539985490637946],[89.25368113447684,26.539599796593393],[89.2536939426214,26.53924098148616],[89.25381115755891,26.53869835754324],[89.25398541199723,26.538178700486696],[89.25407535049709,26.53768811761256],[89.25422608676456,26.537271895181846],[89.25435334533068,26.536959119068115],[89.25456875814172,26.536693977345237],[89.25486720895458,26.53637415234533],[89.25519119511762,26.536026936693816],[89.2556901560759,26.53577439717077],[89.25616355470436,26.535498979794113],[89.25655490818252,26.535278676469773],[89.25702780588858,26.53500306753756],[89.25750879479511,26.534881122166098],[89.25784369333184,26.534713521811625],[89.25823571590564,26.534543566132697],[89.25857087974236,26.53437606380436],[89.25878937542939,26.53416214116993],[89.25912226038406,26.533943607711365],[89.25945520559333,26.533725102131825],[89.26000019205526,26.53372895033084],[89.26049697845286,26.533914206175723],[89.26079991508408,26.534235407138397],[89.26164372198025,26.53504773416563],[89.26186855698836,26.535525865926047],[89.26228592065877,26.53584244797065],[89.26287231460572,26.53610094730095],[89.26345351496781,26.53625708669523],[89.26394114266964,26.536263163414333],[89.26433906299741,26.53619593009813],[89.26479676485889,26.536177562344676],[89.26514003518452,26.536163784730945],[89.26585521024981,26.5361351179414],[89.2663379816126,26.5360391009238],[89.26681823397439,26.535891997917417],[89.26732539854834,26.535717920645595],[89.26763231378033,26.535551859031102],[89.26791062157798,26.535386949448196],[89.2682683188279,26.535090749638414],[89.26864684347709,26.53463993478522],[89.26896939522146,26.53421695305002],[89.2692633503234,26.533795136836147],[89.26947004600589,26.533350989556595],[89.26970347583477,26.532879422847145],[89.26993693714002,26.532407788688545],[89.27002094371164,26.531790077649987],[89.2699946996957,26.53127786877866],[89.26991804148446,26.530896302622295],[89.26984528453232,26.530591515186302],[89.26982967679822,26.530284365231296],[89.26969716529203,26.529930732017704],[89.26962180390319,26.52957473268782],[89.26945175469478,26.529043315196873],[89.26969102562038,26.528674788310866],[89.27008988663903,26.528632796266606],[89.27057579303846,26.528612852001572],[89.27106171652508,26.52859290323994],[89.27151907394614,26.528574128992886],[89.27192056098517,26.528583267903514],[89.27232191222652,26.52859207316567],[89.27266450356404,26.528576873723807],[89.27306426480402,26.528559136395074],[89.27363821663045,26.528585375015098],[89.27409825762857,26.528617425953485],[89.27458441403951,26.52859732250846],[89.27515802592222,26.528600555571245],[89.27587511834207,26.528600290271243],[89.27639018076229,26.528580923370953],[89.27679052656163,26.528564676218878],[89.27724806744442,26.52854610611797],[89.27759381630165,26.528583395607257],[89.2780617200724,26.528769694665755],[89.27810973667505,26.529152652972584],[89.27810315004041,26.529589128135797],[89.27801077887443,26.530029062091614],[89.27797560009395,26.530466655112093],[89.27799372592978,26.530825096101353],[89.27804432808335,26.53125917097401],[89.27820800289709,26.53166297736459],[89.27875384191634,26.531691839306973],[89.27929970072068,26.531720451237902],[89.27937887163768,26.532153178026817],[89.27931636425888,26.532617513287676],[89.27913690364522,26.533035365289948],[89.2788443712708,26.533483269936994],[89.2786349335554,26.533875049693847],[89.2786282794716,26.53431064532009],[89.27865024001665,26.53474534791951],[89.27866578120091,26.53505269842333],[89.27856693851345,26.535364668744535],[89.2782887503256,26.535529866110494],[89.27777400176882,26.53555055501414],[89.2772877904992,26.535569910223217],[89.27674931512882,26.535693211772355],[89.27630332154109,26.53594194086793],[89.27591457160025,26.53618848730889],[89.27549823945225,26.53646119682685],[89.27502183259156,26.53668463698648],[89.27474336561392,26.536849478220915],[89.27440784384697,26.53701692119398],[89.27413454617243,26.537284198806788],[89.27374057836505,26.537428450962295],[89.27338240987035,26.53770033849986],[89.27312015497125,26.53817307792525],[89.2731320521026,26.538967855582143],[89.27315459810626,26.53940331001479],[89.2737723334265,26.540276081376078],[89.27490212563265,26.53997294419605],[89.27535281278216,26.540930137615817],[89.27412672656726,26.54159548754177],[89.2759502252228,26.54519303293216],[89.27605177127231,26.54601404471242],[89.27672737346956,26.54582867555297],[89.27687100779082,26.545306544461482],[89.27738053938043,26.545183861645967],[89.27847174257693,26.545241913783343],[89.27945719809128,26.545460273672745],[89.28018738464016,26.546302802632283],[89.280722683605,26.54781977456298],[89.28243052135156,26.552154817091207],[89.28301520029135,26.555771634953032],[89.28409882580024,26.55846147301861]]]},"properties":{"compartment":"TR-3","Area_in_Ha":899.123,"Shape_Area":0.00072556537,"beat":"Bangdaki","range":"Jaldapara West","division":"Jaldapara"}}
]}