{"type":"FeatureCollection", "features": [
{"type":"Feature","geometry":{"type":"Polygon","coordinates":[[[89.40583897289036,26.55361037881596],[89.40602261804946,26.55232442473249],[89.40682588620575,26.551645005812418],[89.40793350742547,26.55127451840434],[89.40902898240165,26.55148612168722],[89.41045501398776,26.55153598010145],[89.41026168313022,26.5508636793154],[89.4095673759337,26.550495547231776],[89.4091256981925,26.549970827891457],[89.40916698516827,26.549009023647557],[89.40948064801353,26.54822678164072],[89.4099151006015,26.547777253717356],[89.41029355960018,26.547545885134525],[89.41064957961447,26.547348557689816],[89.41095375641078,26.546621052919306],[89.4112993811616,26.545997597910855],[89.41226813626554,26.545959221141175],[89.41335324205852,26.54584788237395],[89.41449922655812,26.546053584305525],[89.41565420787543,26.546079991998056],[89.41613816814203,26.546283904278823],[89.41622928205578,26.54663905914532],[89.41562944684154,26.546799353407494],[89.41479266095257,26.547449908586486],[89.41443452123622,26.548737290793383],[89.41542380876183,26.550183829620096],[89.41587469735947,26.55090478282949],[89.4166567837836,26.551262398241136],[89.41775530566287,26.551470256746995],[89.4181043136632,26.55170852492853],[89.41786953575053,26.55203038419495],[89.41737127536413,26.552688827327586],[89.4172820122551,26.553595302581186],[89.41770437705543,26.554329700655217],[89.41827629821267,26.554483349826796],[89.41937045028612,26.554946355889683],[89.41973602829512,26.55556671363297],[89.41925940020121,26.55657467827882],[89.41827573163977,26.55699458613128],[89.41724496198549,26.55719031008482],[89.41604377530007,26.557183995045364],[89.41530821710057,26.55719154755195],[89.41448162412769,26.556945376128283],[89.41347078524859,26.55760226793035],[89.41283578024712,26.558160612921995],[89.4128438966286,26.55847775074767],[89.41283669126034,26.558988393],[89.4140045112992,26.56049204057524],[89.41469135142478,26.561339717254214],[89.41500446298562,26.562015599140636],[89.41468652386402,26.562457340733715],[89.4140370056034,26.56279642741322],[89.41290308460975,26.56262829555942],[89.41252062182929,26.56243696479413],[89.41209357605777,26.562208817582928],[89.41171534818483,26.561974128703127],[89.41088318660985,26.562170330196636],[89.41083233444476,26.56245349523266],[89.41079271481198,26.562662447314153],[89.41077844167182,26.562803084195025],[89.41074612723202,26.562958916021216],[89.41088011722371,26.563161392084623],[89.4111282851423,26.56431023103238],[89.41167788782434,26.56513211965165],[89.41234000918416,26.56599926755223],[89.41186971231741,26.56661362142154],[89.4110607982173,26.56727933287499],[89.41085702892877,26.567867831235446],[89.41084172156826,26.5682825607916],[89.41101779083846,26.570048340958238],[89.41100585773421,26.570778955584387],[89.41078303810679,26.570971461763577],[89.40408288201945,26.57087192479952],[89.39383597425086,26.570778962778945],[89.38298560789957,26.570550249894154],[89.38322300283937,26.57034000908419],[89.38346037529612,26.5701045719685],[89.38368994073824,26.569878573237588],[89.38396110522086,26.569664925795735],[89.38424134206434,26.569524532631135],[89.38472437782781,26.5692962828972],[89.38511671336568,26.569065685033365],[89.38545548977908,26.568875386689797],[89.38577924391706,26.568687421187576],[89.38614430121856,26.568554181230525],[89.3865668503799,26.56844780312366],[89.38699938381455,26.568486580091644],[89.38747114207962,26.568636147240454],[89.38805027400099,26.568642813914778],[89.38837605161353,26.568555323369537],[89.38878888180153,26.568424279556893],[89.38934153678258,26.56837222140092],[89.38985970815907,26.568328675328132],[89.3903384496598,26.56817548391149],[89.39047775194678,26.56770898668043],[89.39033591626958,26.56734927764711],[89.39002837421015,26.567098370393524],[89.38973694980047,26.566721275666396],[89.38987401097688,26.56630618278416],[89.39007984690744,26.56597994471872],[89.39031370031705,26.565754969416332],[89.39055656673224,26.56551536664091],[89.39098887263845,26.565243887395525],[89.39142800889556,26.565011196809337],[89.39173613731293,26.56483472374356],[89.39205330931281,26.564667557761652],[89.39235307763249,26.564467544941294],[89.39273071375152,26.56417913056248],[89.39315955277118,26.56381072508492],[89.3933215008866,26.563420789837608],[89.39331730195198,26.562906937005607],[89.39325108666839,26.562388860957242],[89.39339480012995,26.562034150355828],[89.39371397132277,26.56194239702404],[89.39427589201887,26.561914961406387],[89.39474484619774,26.561892775131525],[89.39517040538993,26.561825444688566],[89.39557056682827,26.561701677290614],[89.39592412809611,26.561508339238515],[89.3962325919606,26.561387207753512],[89.396534107663,26.561248487327873],[89.3968308587572,26.56111297028741],[89.39727353384654,26.560976927143543],[89.39771441209052,26.56079631719632],[89.39801198786301,26.560698598661475],[89.39831631934271,26.560576884415752],[89.39862691100319,26.560429019683568],[89.3989760476066,26.5603378940786],[89.39945669027412,26.560176480160465],[89.39986818586812,26.559962192401315],[89.40016468065556,26.55966354014032],[89.40034313402845,26.559415806594245],[89.40045564641099,26.55912011220346],[89.40048328887275,26.558742828618676],[89.40038379327751,26.558234145089784],[89.40032373475259,26.55763541694097],[89.4004815405907,26.55731818828383],[89.40086605292606,26.55725579601824],[89.4011990511953,26.557245407049948],[89.4015795219774,26.55720690887182],[89.40202186971356,26.557130031225995],[89.40250468244517,26.557118451555368],[89.40290226282923,26.55711732200683],[89.40327662991263,26.557167476298048],[89.40361796129991,26.55734076126714],[89.40399578088062,26.557465015198318],[89.40438325288488,26.557349345296075],[89.40457904428752,26.557076606999885],[89.40479758404132,26.556810637900696],[89.40494702798304,26.556543374677062],[89.40514161789139,26.55621483704516],[89.40535484355127,26.555786807415302],[89.40555868928215,26.555272682088685],[89.4057361767832,26.554737548599064],[89.40583897289036,26.55361037881596]]]},"properties":{"compartment":"BN-5","Area_in_Ha":450.825,"Shape_Area":0.00036344452,"beat":"Bania Beat","range":"Kodalbasti","division":"Jaldapara"}},
{"type":"Feature","geometry":{"type":"Polygon","coordinates":[[[89.38424134206434,26.569524532631135],[89.38396110522086,26.569664925795735],[89.38368994073824,26.569878573237588],[89.38346037529612,26.5701045719685],[89.38322300373869,26.57034000908419],[89.38298560789957,26.570550249894154],[89.38173047268322,26.570535727641754],[89.38161837308951,26.568220995902266],[89.38101661872201,26.546240406769414],[89.38457013150645,26.54592461702748],[89.40583897289036,26.55361037881596],[89.4057361767832,26.554737548599064],[89.40555868928215,26.555272682088685],[89.40535484355127,26.555786806515982],[89.40514161879071,26.55621483704516],[89.40494702798304,26.556543374677062],[89.40479758404132,26.556810637900696],[89.40457904428752,26.557076606999885],[89.4043832537842,26.557349345296075],[89.40399578088062,26.557465015198318],[89.4036179604006,26.55734076126714],[89.40327662991263,26.557167476298048],[89.40290226372855,26.55711732200683],[89.40250468154585,26.557118451555368],[89.40202186971356,26.557130030326675],[89.4015795219774,26.55720690887182],[89.40119905029599,26.557245407049948],[89.40086605292606,26.55725579601824],[89.4004815405907,26.55731818828383],[89.40032373475259,26.55763541694097],[89.4003837923782,26.558234145089784],[89.40048328977207,26.558742828618676],[89.40045564551167,26.55912011220346],[89.40034313312913,26.559415806594245],[89.40016468065556,26.55966354014032],[89.39986818676749,26.559962192401315],[89.39945669027412,26.560176480160465],[89.3989760476066,26.56033789317928],[89.39862691100319,26.560429020582887],[89.39831631934271,26.560576883516433],[89.39801198876233,26.560698598661475],[89.39771441209052,26.560796316297],[89.39727353384654,26.560976927143543],[89.3968308587572,26.56111297028741],[89.39653410856232,26.561248486428553],[89.39623259285992,26.56138720865283],[89.39592412809611,26.561508339238515],[89.39557056772759,26.561701677290614],[89.39517040449061,26.561825444688566],[89.39474484619774,26.561892775131525],[89.39427589111955,26.561914961406387],[89.39371397132277,26.56194239702404],[89.39339480012995,26.562034149456508],[89.3932510875677,26.562388860957242],[89.39331730195198,26.562906937005607],[89.3933215008866,26.563420789837608],[89.39315955277118,26.56381072508492],[89.39273071375152,26.56417913056248],[89.39235307763249,26.564467544941294],[89.3920533084135,26.564667557761652],[89.39173613641361,26.56483472374356],[89.39142800979488,26.565011196809337],[89.39098887263845,26.565243887395525],[89.39055656763156,26.56551536754023],[89.39031370031705,26.565754969416332],[89.39007984690744,26.56597994561804],[89.38987401097688,26.56630618278416],[89.38973694980047,26.566721275666396],[89.39002837421015,26.567098369494204],[89.39033591537026,26.56734927854643],[89.39047775194678,26.56770898668043],[89.39033845055911,26.56817548481081],[89.38985970815907,26.568328675328132],[89.38934153678258,26.5683722205016],[89.38878888180153,26.568424280456213],[89.38837605251285,26.568555323369537],[89.38805027400099,26.568642813914778],[89.38747114207962,26.568636147240454],[89.38699938381455,26.568486580091644],[89.38656684948057,26.56844780312366],[89.38614430121856,26.568554181230525],[89.38577924391706,26.568687420288256],[89.38545548977908,26.568875386689797],[89.38511671336568,26.569065685033365],[89.38472437872713,26.5692962828972],[89.38424134206434,26.569524532631135]]]},"properties":{"compartment":"BN-6","Area_in_Ha":433.011,"Shape_Area":0.00034942692,"beat":"Bania Beat","range":"Kodalbasti","division":"Jaldapara"}},
{"type":"Feature","geometry":{"type":"Polygon","coordinates":[[[89.39877623533505,26.59545268779135],[89.38305744574461,26.59583313698971],[89.38407454660307,26.595084152811467],[89.38767717676035,26.591592709436043],[89.40141041885579,26.578573863592965],[89.40213038101234,26.57821270755045],[89.40519841367592,26.578432096264294],[89.40530279169053,26.577491326263726],[89.40542218478606,26.576958896136205],[89.40572238028369,26.576555725566323],[89.40599464913379,26.576204470160235],[89.40623053321258,26.57592462272322],[89.40664612252061,26.57568707040201],[89.40694462099754,26.5755131532095],[89.40731181688687,26.575306791175535],[89.4077270347749,26.57506829546554],[89.40805300034577,26.574870656855353],[89.40839944258028,26.574655959904703],[89.40877836293117,26.574362347444435],[89.40910796625968,26.574089339351588],[89.40930096256943,26.57373964876581],[89.40954319046591,26.574177650078525],[89.40956875459443,26.574551661030398],[89.40955743482783,26.574891431194658],[89.40954622927512,26.5752316006579],[89.40945855257019,26.57556984017606],[89.4092921132405,26.57597418975712],[89.40890073548064,26.576236674882693],[89.40850761303597,26.576568591267517],[89.40811593939912,26.57683083087818],[89.40791024736006,26.57726929893903],[89.40785828003567,26.57771308918774],[89.40799967414569,26.578057282217856],[89.40822223746636,26.578267329673565],[89.4085213456836,26.578479357436436],[89.40893297797459,26.57876242804366],[89.40942348530564,26.57897937240017],[89.40972683202773,26.579054247255783],[89.41002815617452,26.579197681927553],[89.41032985803656,26.5793418954122],[89.41063157698574,26.57948611519214],[89.41096598988855,26.57980171247908],[89.41145238282127,26.580155115466255],[89.41174649170728,26.580538204174843],[89.41189081580853,26.580815078453156],[89.41211174326241,26.58109396001828],[89.41225611053113,26.581370888255947],[89.412477060468,26.581649694278042],[89.41269805447172,26.581928561453992],[89.41291909074351,26.58220747629406],[89.41309752792864,26.58262217887051],[89.41319722946861,26.583103451962813],[89.41317767101276,26.583718747422324],[89.41316027092984,26.58426584549244],[89.41318010907486,26.58484830760335],[89.4132766270148,26.585432905604137],[89.41341478716276,26.5859159791392],[89.41355299137751,26.58639919206911],[89.41369556989468,26.586745539874812],[89.41384034185836,26.587023427689076],[89.41390625227177,26.587367980447993],[89.41405107369815,26.587645984274786],[89.41435155967679,26.5878593151553],[89.41465209242017,26.588072611861605],[89.4148759345768,26.588284050568518],[89.41513176112193,26.588702393600613],[89.41515305706798,26.589252271475175],[89.41491417734744,26.589521032070024],[89.41459416528858,26.589925229665653],[89.41435087888999,26.590331449836583],[89.41407016900314,26.590702517307363],[89.41386619646784,26.591075624440577],[89.41355018729138,26.591342819315685],[89.41338782368916,26.591613862389863],[89.41314642047098,26.59195176376295],[89.4127467536598,26.59242358498051],[89.41250963840912,26.59262406724696],[89.41199532332558,26.594264311049187],[89.4137470344981,26.594859235065712],[89.41078818492684,26.59518250356973],[89.41011846519507,26.59516385882506],[89.39877623533505,26.59545268779135]]]},"properties":{"compartment":"BN-4","Area_in_Ha":443.567,"Shape_Area":0.00035794527,"beat":"Bania Beat","range":"Kodalbasti","division":"Jaldapara"}},
{"type":"Feature","geometry":{"type":"Polygon","coordinates":[[[89.40930096256943,26.57373964876581],[89.40910796625968,26.574089339351588],[89.40877836293117,26.574362347444435],[89.40839944258028,26.574655959904703],[89.40805300034577,26.574870656855353],[89.4077270347749,26.57506829546554],[89.40731181688687,26.575306791175535],[89.40694462099754,26.5755131532095],[89.40664612252061,26.57568707040201],[89.40623053321258,26.57592462272322],[89.40599464913379,26.576204470160235],[89.40572238028369,26.576555725566323],[89.40542218478606,26.576958896136205],[89.40530279169053,26.577491326263726],[89.40519841367592,26.578432096264294],[89.40213038101234,26.57821270755045],[89.40141041885579,26.578573863592965],[89.38767717676035,26.591592709436043],[89.38407454660307,26.595084152811467],[89.38305744574461,26.59583313698971],[89.38173047268322,26.570535727641754],[89.38298560789957,26.570550249894154],[89.39383597335154,26.570778962778945],[89.40408288201945,26.57087192479952],[89.41078303810679,26.570971461763577],[89.41053179180881,26.571442800944567],[89.41009264565912,26.57180690046812],[89.40911483887879,26.572432398736282],[89.40930096256943,26.57373964876581]]]},"properties":{"compartment":"BN-3","Area_in_Ha":456.545,"Shape_Area":0.00036841817,"beat":"Bania Beat","range":"Kodalbasti","division":"Jaldapara"}},
{"type":"Feature","geometry":{"type":"Polygon","coordinates":[[[89.38173047268322,26.570535727641754],[89.38305744574461,26.59583313698971],[89.37176804835678,26.59551165184132],[89.36889963371118,26.595282089996488],[89.36892486419117,26.588793950880188],[89.36930697353807,26.569596600702596],[89.37585630702301,26.569470551724635],[89.37629319407569,26.56840072271524],[89.3777728720205,26.568273394002006],[89.37858817400507,26.568238672077086],[89.38161837308951,26.568220995902266],[89.38173047268322,26.570535727641754]]]},"properties":{"compartment":"BN-2","Area_in_Ha":438.61,"Shape_Area":0.00035394549,"beat":"Bania Beat","range":"Kodalbasti","division":"Jaldapara"}}
]}