{"type":"FeatureCollection", "features": [
{"type":"Feature","geometry":{"type":"Polygon","coordinates":[[[89.35979641627165,26.613460867125355],[89.35847143430931,26.613582245923965],[89.35553038951593,26.61373247677244],[89.35281721314391,26.61395361107037],[89.35152740906273,26.61410167455267],[89.35183351400553,26.613155442969344],[89.35273829853372,26.611111414360323],[89.35320056625318,26.610183701616563],[89.3538126754147,26.608962698369908],[89.3542606879804,26.607040652903834],[89.35367027406397,26.603087526368313],[89.35404792996803,26.601329823012975],[89.35417143206598,26.600749989620397],[89.35459242719884,26.59906703071897],[89.35506688432929,26.597077228531305],[89.35590427366338,26.594953752014078],[89.35775517915823,26.595139250675913],[89.36230355526493,26.595244574777382],[89.36889963371118,26.595282089996488],[89.3688752890634,26.595622424935016],[89.36886343959611,26.59643695530127],[89.36873846710665,26.59713927006129],[89.36867736896545,26.59800001299027],[89.36845533354688,26.598664997791445],[89.36821134567714,26.59920485362113],[89.36780036719324,26.599830654960783],[89.36744702985658,26.600381246897086],[89.36691615825418,26.60109045496057],[89.36635248298074,26.60158990964669],[89.36585449059231,26.602357647387578],[89.36566639109111,26.602687412594094],[89.36493882516669,26.603182632372636],[89.36454305421864,26.603518869100583],[89.36462453279603,26.60484962740844],[89.36469936718208,26.605515466565578],[89.36387876819066,26.607490479402145],[89.36077752086595,26.61016431223328],[89.35989234875296,26.611298470647966],[89.35979641627165,26.613460867125355]]]},"properties":{"compartment":"MB-6A","Area_in_Ha":247.906,"Shape_Area":0.00020005244,"beat":"CC Line Beat","range":"Kodalbasti","division":"Jaldapara"}},
{"type":"Feature","geometry":{"type":"Polygon","coordinates":[[[89.35152740906273,26.61410167455267],[89.3468523112852,26.61464491093392],[89.3457779424981,26.614559793699584],[89.34611191833045,26.61294247271701],[89.34670447263335,26.612063632730496],[89.34758834612535,26.61082633017105],[89.3484599897368,26.609492492584536],[89.34903460796085,26.608072286806646],[89.34954510362371,26.60647102231985],[89.35059697227251,26.6037312898672],[89.35073947794461,26.60345510896616],[89.35176272926662,26.601757462337048],[89.35216963651959,26.59962550611226],[89.35300477574987,26.59564453656617],[89.35303046668275,26.594835506453535],[89.35505036738061,26.594884889126376],[89.35590427366338,26.594953752014078],[89.35506688432929,26.597077228531305],[89.35459242719884,26.59906703071897],[89.35417143206598,26.600749989620397],[89.35404792996803,26.601329823012975],[89.35367027406397,26.603087526368313],[89.3542606879804,26.607040652903834],[89.3538126754147,26.608962698369908],[89.35320056625318,26.610183701616563],[89.35273829853372,26.611111414360323],[89.35183351400553,26.613155442969344],[89.35152740906273,26.61410167455267]]]},"properties":{"compartment":"MB-6B","Area_in_Ha":92.128,"Shape_Area":0.00007434471,"beat":"CC Line Beat","range":"Kodalbasti","division":"Jaldapara"}},
{"type":"Feature","geometry":{"type":"Polygon","coordinates":[[[89.35152740906273,26.61410167455267],[89.35095498698314,26.615400532108936],[89.35072602588542,26.616029429814375],[89.35000809529743,26.6192365273439],[89.34965601071639,26.621488326325277],[89.34938223550182,26.624906692589832],[89.34844223082433,26.629403487181264],[89.34896203626903,26.630868703128215],[89.34096274923155,26.63077558912221],[89.34051411613359,26.629037423538307],[89.34052427307682,26.628455138593836],[89.3405322527613,26.62805436291859],[89.34055832320809,26.62714681387439],[89.34067266211372,26.62654028590555],[89.34083356251898,26.625632027296263],[89.34098997800515,26.62479826223006],[89.34110537271482,26.62416862438255],[89.3413884613085,26.622656224605123],[89.34146766729907,26.62219843191218],[89.3425055047253,26.62081897441618],[89.34283275542737,26.620409882709964],[89.34306397832,26.620127699733587],[89.34401679294069,26.61968816507681],[89.34489345566851,26.61928198807334],[89.34518689096228,26.61882911647058],[89.34563355004838,26.61810179066515],[89.34599517014107,26.61703267571744],[89.34640359005368,26.615864394326366],[89.34667763776281,26.615073500841447],[89.3468523112852,26.61464491093392],[89.35152740906273,26.61410167455267]]]},"properties":{"compartment":"BD-7B","Area_in_Ha":140.812,"Shape_Area":0.00011363084,"beat":"CC Line Beat","range":"Kodalbasti","division":"Jaldapara"}},
{"type":"Feature","geometry":{"type":"Polygon","coordinates":[[[89.3694325063052,26.613063014246734],[89.35979641627165,26.613460867125355],[89.35989234875296,26.611298470647966],[89.36077752086595,26.61016431223328],[89.36387876819066,26.607490479402145],[89.36469936718208,26.605515466565578],[89.36462453279603,26.60484962740844],[89.36454305421864,26.603518869100583],[89.36493882516669,26.603182632372636],[89.36566639109111,26.602687412594094],[89.36585449059231,26.602357647387578],[89.36635248298074,26.60158990964669],[89.36691615825418,26.60109045496057],[89.36744702985658,26.600381246897086],[89.36780036719324,26.599830654960783],[89.36821134567714,26.59920485362113],[89.36845533354688,26.598664997791445],[89.36867736896545,26.59800001299027],[89.36873846710665,26.59713927006129],[89.36886343959611,26.59643695530127],[89.3688752890634,26.595622424935016],[89.36889963371118,26.595282089996488],[89.37176804835678,26.59551165184132],[89.37192503581178,26.59595650778664],[89.37208065180067,26.59623902261285],[89.37227102748597,26.59668003575507],[89.37234322865714,26.597140583071507],[89.37239572118563,26.597586880630104],[89.37254609142906,26.59807717931841],[89.3726400364086,26.598644000420336],[89.37276163644043,26.599159764311707],[89.37288791924215,26.599510647398517],[89.37302775842437,26.59987262632069],[89.37327005107204,26.600356578493347],[89.37348076132815,26.60080789606758],[89.37369821020428,26.60113190201571],[89.37390530878304,26.601367529787694],[89.37416050580276,26.601634621240805],[89.37442237669137,26.601905544705176],[89.3746574127095,26.602163036794764],[89.37491711443334,26.602501004717624],[89.37509682775647,26.602843753436503],[89.37533999724315,26.603305306194954],[89.37549755576765,26.603759485411956],[89.37548461722139,26.604068741579226],[89.375429405143,26.604428002750183],[89.37530150536026,26.6048704629016],[89.37526520242722,26.60546555958797],[89.37523491955596,26.60585018343926],[89.37520489748806,26.60621278739029],[89.37517888010132,26.606677872685736],[89.37515394999485,26.607224358317524],[89.37513893851127,26.60764945975484],[89.375224291368,26.608136555058024],[89.37532778804706,26.608431243107418],[89.3752945158293,26.608881749493207],[89.3751763512077,26.609262383951886],[89.37502893883453,26.60961069227966],[89.37497421418868,26.61001443212041],[89.37491843283948,26.6104259295131],[89.37491501721433,26.610919150098766],[89.37495372133725,26.611263981647483],[89.37499341561369,26.611600073584555],[89.3751226508897,26.612802678500884],[89.3694325063052,26.613063014246734]]]},"properties":{"compartment":"MB-5B","Area_in_Ha":207.993,"Shape_Area":0.00016784413,"beat":"CC Line Beat","range":"Kodalbasti","division":"Jaldapara"}}
]}
