{"type":"FeatureCollection", "features": [
{"type":"Feature","geometry":{"type":"Polygon","coordinates":[[[89.38161837308951,26.568220995902266],[89.37858817400507,26.568238672077086],[89.3777728720205,26.568273394002006],[89.37629319407569,26.56840072271524],[89.37585630702301,26.569470551724635],[89.36930697353807,26.569596600702596],[89.36962160944978,26.546575149723424],[89.38101661872201,26.546240406769414],[89.38161837308951,26.568220995902266]]]},"properties":{"compartment":"BN-7","Area_in_Ha":331.487,"Shape_Area":0.00026749997,"beat":"Chilapata Beat","range":"Jaldapara East","division":"Jaldapara"}},
{"type":"Feature","geometry":{"type":"Polygon","coordinates":[[[89.35121390539746,26.55190001037721],[89.3484608800656,26.553084318586457],[89.34760217230246,26.551389709867294],[89.34824321265421,26.549351030425782],[89.34554910370821,26.546590436399583],[89.343206598206,26.5442294255476],[89.3424494742639,26.541623757730292],[89.34274706532489,26.540428328504618],[89.35816811096959,26.544168655659007],[89.35649657975341,26.544831270746613],[89.35659157514112,26.545819907163036],[89.36277136910348,26.546313625073765],[89.36181008376843,26.54714494937997],[89.35856434237058,26.548217861265357],[89.35588255773393,26.549129172173593],[89.35349731285078,26.54991235577063],[89.3519366788347,26.550509304161096],[89.35156287472694,26.550938711552362],[89.35123581018456,26.55132910545393],[89.35121390539746,26.55190001037721]]]},"properties":{"compartment":"CP-4A","Area_in_Ha":135.815,"Shape_Area":0.00010959856,"beat":"Chilapata Beat","range":"Jaldapara East","division":"Jaldapara"}},
{"type":"Feature","geometry":{"type":"Polygon","coordinates":[[[89.36930697353807,26.569596600702596],[89.36817001373521,26.569750453120946],[89.3646509467838,26.569756387747134],[89.36101253889763,26.56982000219142],[89.36051233417692,26.56987640587147],[89.35704373627948,26.570577123435555],[89.3563364545638,26.570459166557328],[89.35626235942038,26.570001803740297],[89.35623794282685,26.56965519153391],[89.35619950400394,26.56913741855709],[89.35613849309703,26.568523712199635],[89.35607019138627,26.567944090147705],[89.35602925874338,26.56721208876695],[89.35599707560459,26.566557348143135],[89.35593912958723,26.566161233654043],[89.35610332241043,26.56404351909316],[89.3561312508566,26.563690818476516],[89.35638036666063,26.561800252879436],[89.35640407908505,26.56140151057133],[89.35649318211472,26.559865145660012],[89.3565091306919,26.559315017773883],[89.35652193523919,26.55885495789005],[89.35654303243507,26.558193788912263],[89.35661330725839,26.55704401377028],[89.35662352535547,26.55654142045023],[89.35732484636463,26.555273247762216],[89.35761087843935,26.55468213507254],[89.35777504608154,26.55440165001619],[89.35954164193328,26.55252806901524],[89.360960693881,26.551044342322598],[89.36197207774927,26.54850962022283],[89.36277136910348,26.546313625073765],[89.36389698935466,26.54608225828963],[89.36692762191228,26.5463242721475],[89.36962160944978,26.546575149723424],[89.36930697353807,26.569596600702596]]]},"properties":{"compartment":"BN-8A","Area_in_Ha":337.948,"Shape_Area":0.00027271426,"beat":"Chilapata Beat","range":"Jaldapara East","division":"Jaldapara"}},
{"type":"Feature","geometry":{"type":"Polygon","coordinates":[[[89.36930697353807,26.569596600702596],[89.36892486419117,26.588793950880188],[89.36889963371118,26.595282089996488],[89.36230355526493,26.595244574777382],[89.35775517915823,26.595139250675913],[89.35792312934899,26.59324310478553],[89.35816657942416,26.590559206742057],[89.35829295485604,26.587443519003273],[89.35825235226429,26.587055161166802],[89.35719216488656,26.58296663270397],[89.35584129863707,26.579476203763818],[89.35632748472568,26.575609400453516],[89.35646046657735,26.57462806023682],[89.35704373627948,26.570577123435555],[89.36051233417692,26.56987640587147],[89.36101253889763,26.56982000219142],[89.3646509467838,26.569756387747134],[89.36817001373521,26.569750453120946],[89.36930697353807,26.569596600702596]]]},"properties":{"compartment":"BN-1A","Area_in_Ha":372.63,"Shape_Area":0.00030070116,"beat":"Chilapata Beat","range":"Jaldapara East","division":"Jaldapara"}},
{"type":"Feature","geometry":{"type":"Polygon","coordinates":[[[89.35662352535547,26.55654142045023],[89.35433699995264,26.558770973801472],[89.35256480761984,26.556742768763797],[89.35221882943551,26.55552959591415],[89.35193993078326,26.554553571590134],[89.35121390539746,26.55190001037721],[89.35123581018456,26.55132910545393],[89.35156287472694,26.550938711552362],[89.3519366788347,26.550509304161096],[89.35349731285078,26.54991235577063],[89.35588255773393,26.549129172173593],[89.35856434237058,26.548217861265357],[89.36181008376843,26.54714494937997],[89.36277136910348,26.546313625073765],[89.36197207774927,26.54850962022283],[89.360960693881,26.551044342322598],[89.35954164193328,26.55252806901524],[89.35777504608154,26.55440165001619],[89.35761087843935,26.55468213507254],[89.35732484636463,26.555273247762216],[89.35662352535547,26.55654142045023]]]},"properties":{"compartment":"CP-3A","Area_in_Ha":79.51,"Shape_Area":0.00006416241,"beat":"Chilapata Beat","range":"Jaldapara East","division":"Jaldapara"}},
{"type":"Feature","geometry":{"type":"Polygon","coordinates":[[[89.35704373627948,26.570577123435555],[89.35646046657735,26.57462806023682],[89.35632748472568,26.575609400453516],[89.35584129863707,26.579476203763818],[89.35719216488656,26.58296663270397],[89.35825235226429,26.587055161166802],[89.35829295485604,26.587443519003273],[89.35816657942416,26.590559206742057],[89.35792312934899,26.59324310478553],[89.35775517915823,26.595139250675913],[89.35590427366338,26.594953752014078],[89.35505036738061,26.594884889126376],[89.35303046668275,26.594835506453535],[89.35304668055994,26.593042246602465],[89.3528703396945,26.59163397842542],[89.35277421116098,26.590729911556252],[89.35291565293511,26.58956870962828],[89.35313670719336,26.58697721512641],[89.3533399063117,26.58579054709611],[89.3534433823063,26.585149621857624],[89.35349275238866,26.584076245922063],[89.35327734947015,26.583503291443776],[89.35305650295533,26.582932583471973],[89.35262447673824,26.580627985293347],[89.35270659113633,26.579272910216673],[89.35308846306219,26.57827717365268],[89.35330320587832,26.57765235617137],[89.35375149813319,26.57645874807281],[89.35399155236831,26.575302443852763],[89.35404663494432,26.574852028298494],[89.35418413049331,26.57361080019831],[89.35405584490138,26.573137369194285],[89.35364806710464,26.572708481611187],[89.35335508147188,26.571736058172576],[89.35329394376055,26.571407441400368],[89.35415338087387,26.57130463809864],[89.35460554471018,26.571041470387627],[89.35544843699586,26.570578547961645],[89.3559818887532,26.57057786087961],[89.3563364545638,26.570459166557328],[89.35704373627948,26.570577123435555]]]},"properties":{"compartment":"BN-1B","Area_in_Ha":118.451,"Shape_Area":0.00009558668,"beat":"Chilapata Beat","range":"Jaldapara East","division":"Jaldapara"}},
{"type":"Feature","geometry":{"type":"Polygon","coordinates":[[[89.3563364545638,26.570459166557328],[89.3559818887532,26.57057786087961],[89.35544843699586,26.570578547961645],[89.35460554471018,26.571041470387627],[89.35415338087387,26.57130463809864],[89.35329394376055,26.571407441400368],[89.35306769771614,26.570259204998365],[89.35337272617045,26.56866513238998],[89.35342067262599,26.56823665309912],[89.35346517287951,26.567356525283458],[89.35349889655691,26.566750771630836],[89.35283083787294,26.565184731789998],[89.35268818291337,26.564651516554306],[89.35222444570167,26.56269435615968],[89.35274196776766,26.560319324877014],[89.35433699995264,26.558770973801472],[89.35662352535547,26.55654142045023],[89.35661330725839,26.55704401377028],[89.35654303243507,26.558193788912263],[89.35652193523919,26.55885495789005],[89.3565091306919,26.559315017773883],[89.35649318211472,26.559865145660012],[89.35640407908505,26.56140151057133],[89.35638036666063,26.561800252879436],[89.3561312508566,26.563690818476516],[89.35610332241043,26.56404351909316],[89.35593912958723,26.566161233654043],[89.35599707560459,26.566557348143135],[89.35602925874338,26.56721208876695],[89.35607019138627,26.567944090147705],[89.35613849309703,26.568523712199635],[89.35619950400394,26.56913741855709],[89.35623794282685,26.56965519153391],[89.35626235942038,26.570001803740297],[89.3563364545638,26.570459166557328]]]},"properties":{"compartment":"BN-8B","Area_in_Ha":51.652,"Shape_Area":0.0000416813,"beat":"Chilapata Beat","range":"Jaldapara East","division":"Jaldapara"}}
]}