{"type":"FeatureCollection", "features": [
{"type":"Feature","geometry":{"type":"Polygon","coordinates":[[[89.22664086418462,26.7282327540384],[89.22503301576114,26.72821287272592],[89.22049438560748,26.72814041704669],[89.2200828639331,26.7281495082932],[89.20738799346117,26.728877310739335],[89.20332759219468,26.728548184950853],[89.20522103742098,26.71741178832343],[89.20453355607879,26.712166234384256],[89.2013871969616,26.706030530584542],[89.20477127117726,26.702003817921934],[89.20647934634479,26.69784731600089],[89.20744333414262,26.6983283984369],[89.20865444394747,26.699144490026242],[89.20909220244323,26.699473187737453],[89.20996747751713,26.699960457509178],[89.2103576312997,26.70020594724673],[89.21065319528878,26.700540412310204],[89.21143582850073,26.70103302315556],[89.21172935732403,26.701196521702173],[89.21222029722901,26.70152678063647],[89.21408143610944,26.702335897084026],[89.21447621780328,26.70258415133759],[89.2156608506678,26.70324367095867],[89.21606261469799,26.703667127535937],[89.21707471712455,26.704860715849406],[89.21747650543642,26.705199585792286],[89.21778417250164,26.70562981246593],[89.21798862617419,26.705887759612494],[89.21941345356811,26.707347428541027],[89.21972122945124,26.707693175599616],[89.22092827162248,26.70836810600332],[89.22123061380182,26.708537138078498],[89.22286038320016,26.709738916517836],[89.2231684810406,26.709998569678305],[89.22532184023078,26.711553890499715],[89.22614578380092,26.71311380505813],[89.22684240135578,26.71597023264019],[89.2282413192815,26.719544328208258],[89.22991203121535,26.720519476592642],[89.23169929798428,26.719995021653006],[89.23151158249357,26.721878014059143],[89.23109069797738,26.723308700536165],[89.22769621320975,26.726383318035744],[89.22664086418462,26.7282327540384]]]},"properties":{"compartment":"DMC-2","Area_in_Ha":713.116,"Shape_Area":0.00057546342,"beat":"Dumchi","range":"Madarihat","division":"Jaldapara"}},
{"type":"Feature","geometry":{"type":"Polygon","coordinates":[[[89.22664086418462,26.7282327540384],[89.22615812609672,26.73101876290565],[89.22325157300173,26.73254761757852],[89.22153131651709,26.735908542345385],[89.22113668141276,26.739194707369904],[89.21106909666156,26.74034839726079],[89.20513123831603,26.74073638007991],[89.19489679425169,26.74263653874533],[89.1945799388132,26.74284672559594],[89.1922899923893,26.742702492326202],[89.19302322494195,26.737223782851345],[89.19164713720568,26.7344239145321],[89.19028743601643,26.731657270766505],[89.19363210194001,26.72251510009187],[89.19249466099984,26.715442638167247],[89.19500480372875,26.712695981834145],[89.19502658351007,26.711457187299402],[89.19527205975783,26.708471275329146],[89.19886458962918,26.708628151268215],[89.2013871969616,26.706030530584542],[89.20453355607879,26.712166234384256],[89.20522103742098,26.71741178832343],[89.20332759219468,26.728548184950853],[89.20738799346117,26.728877310739335],[89.2200828639331,26.7281495082932],[89.22049438560748,26.72814041704669],[89.22503301576114,26.72821287272592],[89.22664086418462,26.7282327540384]]]},"properties":{"compartment":"DMC-1","Area_in_Ha":755.48,"Shape_Area":0.00060965016,"beat":"Dumchi","range":"Madarihat","division":"Jaldapara"}}
]}