{"type":"FeatureCollection", "features": [
{"type":"Feature","geometry":{"type":"Polygon","coordinates":[[[89.30892568377334,26.745799199873204],[89.30815127666017,26.745842842173488],[89.30756660671358,26.745860249451027],[89.30717778482699,26.745878683754313],[89.30516686116175,26.74598618511442],[89.30275865658678,26.745490341206335],[89.30203453416647,26.744556676749255],[89.30084201694558,26.74303466501783],[89.30072362209756,26.74224059692608],[89.30042392032772,26.740730419373392],[89.29969921334805,26.7381248531795],[89.2995114034286,26.737519921507214],[89.29892442672099,26.736912358418635],[89.29845548423327,26.736448326229322],[89.29793404292178,26.736398356299162],[89.2953071744866,26.7362359162546],[89.29472248295627,26.728724951195602],[89.29676007961405,26.72828416108524],[89.29925530978477,26.728310716266606],[89.30034193633134,26.72829699620945],[89.30329284758693,26.72820775018755],[89.30638001062903,26.728119788397578],[89.31145634543407,26.72864087087953],[89.31159727009799,26.728998282145028],[89.31214824514547,26.730776032288134],[89.312271140201,26.731112604463192],[89.3136518585465,26.733228626499965],[89.31479956254981,26.734585961572918],[89.31522622521021,26.736514153905148],[89.31520400745904,26.737747802519095],[89.31482088817353,26.739707176145316],[89.31467189749014,26.74016915338376],[89.31444226459888,26.740401302578107],[89.3128888935077,26.741798945265145],[89.31264116535755,26.74215757870934],[89.3121003022872,26.742925941479086],[89.31200306848689,26.743328380900095],[89.31147620516282,26.74556891407417],[89.30892568377334,26.745799199873204]]]},"properties":{"compartment":"HM-1","Area_in_Ha":332.901,"Shape_Area":0.00026864145,"beat":"Hasimara Beat","range":"Nilpara","division":"Jaldapara"}},
{"type":"Feature","geometry":{"type":"Polygon","coordinates":[[[89.29472248295627,26.728724951195602],[89.29459932799665,26.726072775837963],[89.29169487302005,26.723177896842515],[89.29021536594644,26.719631958148398],[89.2881620077705,26.716403698671797],[89.28719813058933,26.715748427448034],[89.28622472958767,26.713374661511466],[89.28593679274883,26.71099644393081],[89.28605515522128,26.708270992712187],[89.28632562542731,26.7063904590525],[89.28563249184606,26.70486498852847],[89.28546271333363,26.703504369131394],[89.28633165987827,26.702145902711266],[89.28648862754818,26.70089092487632],[89.28593724420853,26.69982572197955],[89.28543969338722,26.698930749054853],[89.28527034025404,26.698665995839065],[89.28481511152825,26.698005016618254],[89.28426924462997,26.69753061524574],[89.28377210479886,26.697190218254036],[89.28412050126019,26.69609549421176],[89.29542752356144,26.69862768741791],[89.29825258458919,26.699253879063292],[89.29845203533324,26.702640923739693],[89.2984984007806,26.703444215278353],[89.29871702327205,26.70381144803997],[89.30138787395128,26.709557177921454],[89.30381037594816,26.713533504267843],[89.30651186293221,26.7173502099443],[89.3082325349036,26.720271552390273],[89.30897062019801,26.7216514046886],[89.31110384086963,26.726344756905064],[89.31145634543407,26.72864087087953],[89.30638001062903,26.728119788397578],[89.30329284758693,26.72820775018755],[89.30034193633134,26.72829699620945],[89.29925530978477,26.728310716266606],[89.29676007961405,26.72828416108524],[89.29472248295627,26.728724951195602]]]},"properties":{"compartment":"HM-4","Area_in_Ha":597.758,"Shape_Area":0.00048237308,"beat":"Hasimara Beat","range":"Nilpara","division":"Jaldapara"}},
{"type":"Feature","geometry":{"type":"Polygon","coordinates":[[[89.31918000105628,26.74353649661208],[89.31507621199762,26.745270138606088],[89.31147620516282,26.74556891407417],[89.31200306758757,26.743328380000776],[89.31210030318653,26.742925940579767],[89.31264116625687,26.74215757781002],[89.31288889260838,26.741798945265145],[89.31444226369956,26.740401302578107],[89.31467189659082,26.74016915338376],[89.31482088817353,26.739707176145316],[89.31520400655972,26.737747801619776],[89.31522622610953,26.736514153905148],[89.31479956165049,26.734585961572918],[89.31365185764719,26.733228627399285],[89.31227114110033,26.731112603563872],[89.31214824514547,26.730776032288134],[89.31159727099731,26.728998282145028],[89.31145634543407,26.72864087087953],[89.31260109156716,26.7285534909509],[89.31525316440207,26.7283239956559],[89.31849000520964,26.728047436140344],[89.31889449328628,26.728020686705406],[89.3240892706034,26.727757224916047],[89.32703802258675,26.728936049059485],[89.32703069311208,26.730146164214148],[89.327341325242,26.7316545332302],[89.32753095269135,26.73216400906182],[89.32747046698853,26.7326263091569],[89.32824056904707,26.732769174557802],[89.3286858431772,26.733547737438187],[89.32874034838841,26.73764306657432],[89.3284512981889,26.738397637341166],[89.32787001329052,26.73928164932869],[89.31918000105628,26.74353649661208]]]},"properties":{"compartment":"HM-2","Area_in_Ha":264.818,"Shape_Area":0.00021169716,"beat":"Hasimara Beat","range":"Nilpara","division":"Jaldapara"}},
{"type":"Feature","geometry":{"type":"Polygon","coordinates":[[[89.32931500708196,26.699511395434627],[89.3307578838693,26.702642092858355],[89.33252999706178,26.70950065103426],[89.33322072405724,26.717154744995526],[89.33316078424286,26.718106140486043],[89.33124479211352,26.721186964207106],[89.32989243478812,26.72277256430243],[89.32946154441481,26.724224489168876],[89.3282293922727,26.72637123384544],[89.32703802348607,26.728936049059485],[89.3240892706034,26.727757224916047],[89.31889449328628,26.728020686705406],[89.31849000520964,26.728047435240967],[89.31525316350275,26.728323996555275],[89.31260109156716,26.7285534909509],[89.31145634543407,26.72864087087953],[89.31110384086963,26.726344756905064],[89.30897062019801,26.7216514046886],[89.3082325349036,26.720271552390273],[89.30381037594816,26.713533504267843],[89.30138787395128,26.709557177921454],[89.29871702327205,26.70381144803997],[89.2984984007806,26.703444215278353],[89.29845203533324,26.702640923739693],[89.30039485693715,26.70278326213787],[89.3015553861722,26.703486371898578],[89.30380943076068,26.703835145175844],[89.3076065563975,26.70542658187128],[89.31024648388819,26.705155301376124],[89.31305362412553,26.704410743660958],[89.31817403830127,26.70307473061439],[89.32016194651669,26.70279306924482],[89.32472666510358,26.70218427048775],[89.3260009981476,26.700778139099896],[89.32931500708196,26.699511395434627]]]},"properties":{"compartment":"HM-3A","Area_in_Ha":814.575,"Shape_Area":0.00065733766,"beat":"Hasimara Beat","range":"Nilpara","division":"Jaldapara"}},
{"type":"Feature","geometry":{"type":"Polygon","coordinates":[[[89.31817403830127,26.70307473061439],[89.31305362412553,26.704410743660958],[89.31024648388819,26.705155301376124],[89.3076065563975,26.70542658187128],[89.30380943076068,26.703835145175844],[89.3015553861722,26.703486371898578],[89.30039485693715,26.70278326213787],[89.29845203533324,26.702640923739693],[89.29825258458919,26.699253879063292],[89.30337067221882,26.70065482765824],[89.30656340397798,26.702188955056272],[89.30847612167571,26.70310596316972],[89.30998095096015,26.7029150604817],[89.31116102426193,26.702752200453745],[89.31225155926211,26.702606075909728],[89.31333967058936,26.701926381797136],[89.31817403830127,26.70307473061439]]]},"properties":{"compartment":"HM-3B","Area_in_Ha":57.957,"Shape_Area":0.00004676994,"beat":"Hasimara Beat","range":"Nilpara","division":"Jaldapara"}}
]}