{"type":"FeatureCollection", "features": [
{"type":"Feature","geometry":{"type":"Polygon","coordinates":[[[89.30941290318299,26.66133055476132],[89.30828548158973,26.66141112142617],[89.30626596220446,26.660861011526492],[89.30420066912563,26.660368872825245],[89.3019011629084,26.659861621017058],[89.29716416119714,26.660561551674334],[89.29619567319185,26.660729356174897],[89.28949865933572,26.662083817014604],[89.27783131376418,26.662345709486942],[89.27610329163366,26.659988091777052],[89.2754964417075,26.658698660914524],[89.2749092743436,26.656059602168966],[89.27495250925097,26.654089182170082],[89.27501426119926,26.653196848755613],[89.27423502922329,26.652890504593188],[89.27419552290513,26.65208263820324],[89.27465739941948,26.65129921808449],[89.27452681066382,26.650398318627538],[89.27414537940581,26.64886058135079],[89.27453453494087,26.64771885244312],[89.27552982993774,26.645850132277815],[89.27702117298878,26.644008594121374],[89.27812474546067,26.64263990061096],[89.27789386341112,26.641740676590985],[89.27746378602495,26.640832322653637],[89.27752018790642,26.638587833361896],[89.27710829301338,26.637387392214407],[89.27967221789862,26.637818012791115],[89.28339296501338,26.638402955232266],[89.28950732340434,26.637801955395958],[89.2923859390599,26.63739757703661],[89.29385035640888,26.637269998311808],[89.29621961854065,26.636262444656154],[89.29652184380808,26.636131414333363],[89.29952238145279,26.634834270884937],[89.30077635024844,26.63438285618389],[89.30145609022645,26.634138905186376],[89.30171463182484,26.635446711896293],[89.30341448449093,26.64398968047942],[89.30851084270131,26.657800919876593],[89.30941290318299,26.66133055476132]]]},"properties":{"compartment":"JP-5","Area_in_Ha":889.481,"Shape_Area":0.00071778448,"beat":"Hollong Beat","range":"jaldapara North","division":"Jaldapara"}}
]}