{"type":"FeatureCollection", "features": [
{"type":"Feature","geometry":{"type":"Polygon","coordinates":[[[89.25459369724138,26.813800547857056],[89.25493348988869,26.812162314938917],[89.25470713142903,26.810153284346654],[89.25471934961837,26.806248484679884],[89.25504030326744,26.805093320800154],[89.25595816034087,26.803634034982792],[89.25612487036653,26.803420564707324],[89.25697006042003,26.802327577255937],[89.25719481538846,26.801726307623028],[89.25738585477342,26.800808833660824],[89.25761194253715,26.799420222865024],[89.25854640379356,26.799403683433297],[89.25912164794573,26.79948282197472],[89.26115402134104,26.799891293148733],[89.26514115484048,26.799666699158877],[89.26711828647979,26.799792004397545],[89.26930146628968,26.799428809591916],[89.27119835502015,26.799779244816364],[89.27362734832354,26.800479816690256],[89.27698086897198,26.801920238328364],[89.27828223653603,26.805737649972627],[89.28005886522453,26.80719896016393],[89.2826518741847,26.808023312925627],[89.28556920565438,26.808245368129292],[89.28764989063001,26.807994975287954],[89.28906876451191,26.80805400408906],[89.29051240752165,26.809712451968153],[89.29239817073903,26.8108002979954],[89.29524814478611,26.810455324353768],[89.30208610309126,26.813689208190453],[89.30323133305961,26.814628793783868],[89.30280067291278,26.817278294557696],[89.30372529019007,26.820681983886516],[89.3039275809931,26.82604910188462],[89.30382678228023,26.826125715129706],[89.3033748648582,26.826437678256298],[89.30292345375443,26.826675807042932],[89.30233380516103,26.826936901816623],[89.30165867420851,26.827307625746357],[89.3012577852187,26.827513880761046],[89.30089973453516,26.8277304069328],[89.3003860426818,26.828070356062142],[89.30074092865101,26.828776474055076],[89.29822722100948,26.83023671675113],[89.29817224365416,26.830632597416468],[89.29759557137857,26.830917629445082],[89.2969614719944,26.831229738261868],[89.29611105328252,26.83166610190915],[89.29514870045222,26.832030152869322],[89.29438844057415,26.83211201635652],[89.29358268309443,26.832377732746238],[89.29260502740016,26.833084097153403],[89.2921963340936,26.833863903796157],[89.29125799675921,26.83386698847079],[89.28894412117432,26.834608626986608],[89.28649163038449,26.833553893097758],[89.28275761737018,26.831842525512172],[89.28057455087486,26.830564527730814],[89.27989783261893,26.828918611005122],[89.27904000799003,26.82714639079336],[89.27854538536133,26.82676025877896],[89.27777191714034,26.82688657935222],[89.27679956834544,26.827448500048263],[89.27631918018608,26.827924545381507],[89.2759718224417,26.828593874807552],[89.27450487529984,26.82849284047228],[89.27369720855938,26.827883155883],[89.27196315467592,26.826285583113247],[89.2703173269831,26.824594752445932],[89.26910934322166,26.822780933193542],[89.26789586370319,26.821685445626883],[89.26793945474208,26.821390834019837],[89.26776399701089,26.821124131973136],[89.26743942448991,26.82066400464015],[89.26599972500736,26.81994115116322],[89.26506389858014,26.818882051065827],[89.26449923854909,26.817443326448426],[89.26364625137347,26.81631697414906],[89.26180004843354,26.814041720848763],[89.26115017763863,26.813893450522357],[89.25839795630071,26.81469778527463],[89.25492186165462,26.815495840061033],[89.25459369724138,26.813800547857056]]]},"properties":{"compartment":"Titi-1B","Area_in_Ha":0,"Shape_Area":0.001013252,"beat":"Hollapara Beat","range":"Lankapara","division":"Jaldapara"}},
{"type":"Feature","geometry":{"type":"Polygon","coordinates":[[[89.31929299007948,26.821055467835606],[89.31614557335956,26.821120390793453],[89.31376635573281,26.82208139374137],[89.30904220983018,26.82542878371146],[89.3069544948541,26.826791207148517],[89.30580436358059,26.826585720154924],[89.30494664057505,26.826466610345847],[89.30392777344804,26.82604912886427],[89.30389617037201,26.82506975996148],[89.30372902057792,26.82067833983359],[89.30279844799003,26.817267723926363],[89.3032421528032,26.81463456833069],[89.30208325583766,26.813697842581405],[89.2952464675505,26.810455210139878],[89.29237341779907,26.810785180391804],[89.29059133472236,26.80974689870044],[89.28908275886226,26.80802774838196],[89.28560735759356,26.8082381321841],[89.28274505563985,26.80802060326829],[89.28005945338111,26.807158696616625],[89.27823405805538,26.805668612616444],[89.27695310690041,26.801914864879166],[89.27366559559084,26.80046474315344],[89.27113650324708,26.799743388846366],[89.26933563063488,26.79941086991579],[89.26712071644795,26.799780369868245],[89.26511090344547,26.79965532992958],[89.26125463929026,26.799863798175807],[89.25854562857796,26.799394760359974],[89.26023081420078,26.796475585280064],[89.26041600529447,26.795236854597192],[89.26077672336714,26.79415073526826],[89.26099369740126,26.793582403305322],[89.2616491628786,26.79250774673517],[89.26241187340929,26.792532112966683],[89.26671005002885,26.79278829834135],[89.27132147760415,26.79310861257244],[89.27835204191325,26.793961218435527],[89.28838278144025,26.794909462701582],[89.29622907671057,26.794697647178737],[89.29870976034721,26.79474303776101],[89.29877429030131,26.79590674160289],[89.29980219831288,26.797225807824816],[89.30376153376784,26.79616292697756],[89.30796252425114,26.797737896187016],[89.31043034578391,26.799181120112678],[89.31166242418158,26.79984137987583],[89.31277697917432,26.801185810576726],[89.3132685737857,26.801813147958455],[89.31532782072242,26.804665248902154],[89.31571910585211,26.804625194896857],[89.31735639538141,26.810521664643147],[89.31845173905657,26.814627310801825],[89.3189143422232,26.818281528769603],[89.31929299007948,26.821055467835606]]]},"properties":{"compartment":"TITI-2B","Area_in_Ha":1147.287,"Shape_Area":0.00084966484,"beat":"Hollapara Beat","range":"Lankapara","division":"Jaldapara"}}
]}