{"type":"FeatureCollection", "features": [
{"type":"Feature","geometry":{"type":"Polygon","coordinates":[[[89.32094890726631,26.67269341237113],[89.31836163598075,26.672700669900053],[89.31695657388684,26.672739356935836],[89.31307918735467,26.6729014309563],[89.30988438625548,26.673057593733006],[89.30998923731352,26.67203662848766],[89.31013914170808,26.670447928429212],[89.31069716294377,26.6695457204587],[89.31131334063821,26.668564868573867],[89.3110834316551,26.667699816993036],[89.310122179595,26.66394834184257],[89.30941290318299,26.66133055476132],[89.30851084270131,26.657800919876593],[89.30341448449093,26.64398968047942],[89.30171463182484,26.635446711896293],[89.30145609022645,26.634138905186376],[89.3026547300318,26.633711333311453],[89.30767248749538,26.63278020314391],[89.3111925976603,26.643604821005738],[89.31240388373232,26.64397094400391],[89.31473838616762,26.644689233421445],[89.31654328234669,26.650073978131616],[89.31682827030846,26.65077783792691],[89.32026786506998,26.657901938024054],[89.3226238972751,26.662696008913713],[89.3248194040923,26.66680826778736],[89.32561602805731,26.66834523344579],[89.32634861040009,26.669922454557707],[89.32678145859751,26.671009756495096],[89.32580490727071,26.67109631084611],[89.32397627348627,26.671808828414726],[89.32302524761712,26.6725121836904],[89.3219069424515,26.672668147716877],[89.32153464290951,26.672693001380935],[89.32094890726631,26.67269341237113]]]},"properties":{"compartment":"JP-3","Area_in_Ha":537.682,"Shape_Area":0.0004338932,"beat":"JP Beat","range":"jaldapara North","division":"Jaldapara"}},
{"type":"Feature","geometry":{"type":"Polygon","coordinates":[[[89.32380572965076,26.64467323538156],[89.31473838616762,26.644689233421445],[89.31240388373232,26.64397094400391],[89.3111925976603,26.643604821005738],[89.30767248749538,26.63278020314391],[89.30940438750252,26.632336050468382],[89.3089304258985,26.630120839505196],[89.30874278235359,26.629316115346512],[89.31045554928426,26.628968896997037],[89.31200619542966,26.629662712264405],[89.31538426577129,26.628355379497236],[89.3185327050204,26.62700833716508],[89.32215478211754,26.62523796775804],[89.32368375550095,26.623450754049088],[89.32420951086027,26.622655492556987],[89.32423360729518,26.62188031652346],[89.3233023853968,26.618776291192944],[89.32682130216142,26.61704712962137],[89.32861873216882,26.616517284145402],[89.3305780680235,26.615931922620177],[89.33055341670689,26.61677599571567],[89.33039936284035,26.61828127556049],[89.32997566614415,26.6228429319558],[89.3285356698853,26.62748351735047],[89.32810107790249,26.6291085581135],[89.32730117410995,26.633928858629986],[89.3260084948962,26.64165143596506],[89.32380572965076,26.64467323538156]]]},"properties":{"compartment":"MLG-2","Area_in_Ha":444.27,"Shape_Area":0.0003585124,"beat":"JP Beat","range":"jaldapara North","division":"Jaldapara"}},
{"type":"Feature","geometry":{"type":"Polygon","coordinates":[[[89.33309930029253,26.664485402579317],[89.33230157555732,26.668259199802264],[89.3328749140461,26.670936987851746],[89.33509815865318,26.673408195332],[89.3342119757022,26.676574754121646],[89.33382889598681,26.676903221606437],[89.33094461010575,26.677778913965767],[89.32854965074586,26.67963999528962],[89.32617044301162,26.6806888404177],[89.32618430965823,26.6772876350164],[89.32714936764927,26.67540605004922],[89.3274659056271,26.673222515906446],[89.32733185628018,26.672816203105356],[89.32678145859751,26.671009756495096],[89.32634861040009,26.669922454557707],[89.32561602805731,26.66834523344579],[89.3248194040923,26.66680826778736],[89.3226238972751,26.662696008913713],[89.32026786506998,26.657901938024054],[89.31682827030846,26.65077783792691],[89.31654328234669,26.650073978131616],[89.31473838616762,26.644689233421445],[89.32380572965076,26.64467323538156],[89.32560324779172,26.64473851357161],[89.32745165227198,26.644790958436033],[89.33214671050234,26.644993313090993],[89.33720291937931,26.64499077070758],[89.33714725404258,26.645445709851685],[89.33689853753754,26.64754337582616],[89.33659205667811,26.650146851096338],[89.33569933475655,26.651205112126263],[89.33412835853699,26.653172288270525],[89.3335747601671,26.65505142888037],[89.33387483875288,26.656708504394032],[89.33415394424918,26.658324747089466],[89.334170930644,26.65886740700529],[89.33389790996063,26.660657479658994],[89.33309930029253,26.664485402579317]]]},"properties":{"compartment":"MLG-1","Area_in_Ha":520.498,"Shape_Area":0.00042002616,"beat":"JP Beat","range":"jaldapara North","division":"Jaldapara"}}
]}