{"type":"FeatureCollection", "features": [
{"type":"Feature","geometry":{"type":"Polygon","coordinates":[[[89.3038541801264,26.546877357004462],[89.30585452956296,26.535488371391295],[89.30790736703142,26.534344432849366],[89.30980331057441,26.534181232877643],[89.31109455716813,26.534588846997735],[89.31314261563926,26.53671383707399],[89.32033990436315,26.547162030203594],[89.3038541801264,26.546877357004462]]]},"properties":{"compartment":"SK-4","Area_in_Ha":169.623,"Shape_Area":0.00013688047,"beat":"Salkumar Beat","range":"Jaldapar South","division":"Jaldapara"}},
{"type":"Feature","geometry":{"type":"Polygon","coordinates":[[[89.32033990436315,26.547162030203594],[89.32435040314863,26.553089872799433],[89.32334731192896,26.555386851022433],[89.31664395605378,26.554891921724845],[89.31191778757591,26.554979708147073],[89.3106062486795,26.553546639365948],[89.30962341648751,26.552433327236315],[89.30867180515975,26.551374715470786],[89.30355662144098,26.54830546062857],[89.3038541801264,26.546877357004462],[89.32033990436315,26.547162030203594]]]},"properties":{"compartment":"SK-3","Area_in_Ha":149.817,"Shape_Area":0.00012089805,"beat":"Salkumar Beat","range":"Jaldapar South","division":"Jaldapara"}},
{"type":"Feature","geometry":{"type":"Polygon","coordinates":[[[89.32334731192896,26.555386851022433],[89.32007741923758,26.56329383434303],[89.31361514642191,26.56280902511645],[89.31044832323158,26.56256642130336],[89.30954897240719,26.561932081800194],[89.30962341648751,26.552433327236315],[89.3106062486795,26.553546639365948],[89.31191778757591,26.554979708147073],[89.31664395605378,26.554891921724845],[89.32334731192896,26.555386851022433]]]},"properties":{"compartment":"SK-2","Area_in_Ha":122.974,"Shape_Area":0.00009923666,"beat":"Salkumar Beat","range":"Jaldapar South","division":"Jaldapara"}},
{"type":"Feature","geometry":{"type":"Polygon","coordinates":[[[89.3095489733065,26.561932081800194],[89.30926795944885,26.561990144729464],[89.30843972521319,26.562093010084425],[89.30809429291736,26.5622671008461],[89.30781714524511,26.56242708484217],[89.30752756534491,26.562600975055034],[89.3072087898538,26.5627786028503],[89.30687987360733,26.563000043817],[89.30665148537781,26.56313503565343],[89.30645690895926,26.563028645855354],[89.30624708363604,26.562818212590514],[89.30568455140099,26.562537473925317],[89.3052229680656,26.562408721585257],[89.30482346133374,26.562224701408866],[89.30458090878199,26.56213766861856],[89.30416766220793,26.562493254260346],[89.3038498705751,26.56297897090286],[89.3035132714204,26.562940996130123],[89.30281770607235,26.56276735682809],[89.30208330530036,26.562278791133338],[89.30168668719091,26.56124080621828],[89.3014597351787,26.560635867351436],[89.30132015500124,26.56035239204931],[89.30118944123979,26.559965325639325],[89.30101878319033,26.55955925295723],[89.30130809329393,26.558804073349336],[89.3020058979539,26.557920466056714],[89.30248345684612,26.557330538673455],[89.3033107890617,26.556807146732467],[89.3034252277921,26.556449513334428],[89.30361155472951,26.55609517505235],[89.30334277884623,26.555663050809187],[89.30319498695911,26.55526013564679],[89.30298397093355,26.554861545324115],[89.30278712912275,26.554512988783472],[89.30251210834717,26.554033929822083],[89.30236195214246,26.553760633946126],[89.30162898039316,26.553601057342973],[89.30121961799102,26.553505132056273],[89.30086658912182,26.55341616122689],[89.3003863619411,26.553249063593455],[89.3000997354145,26.553156685232864],[89.29966552114695,26.552998466606027],[89.29912414906028,26.552798888158236],[89.29882235636671,26.55231091961332],[89.29861251935233,26.551975038117575],[89.29847114232939,26.55174351844869],[89.29823408823262,26.55136378870793],[89.29819459360567,26.551175560603667],[89.29805425979629,26.550693960158185],[89.29881067777063,26.549482985251643],[89.29986863482969,26.54853444241064],[89.30210377117214,26.548760300847277],[89.30334494441371,26.549328414274953],[89.3035566223403,26.54830546062857],[89.30867180515975,26.551374714571466],[89.30962341558819,26.552433327236315],[89.3095489733065,26.561932081800194]]]},"properties":{"compartment":"SK-1","Area_in_Ha":131.712,"Shape_Area":0.00010916396,"beat":"Salkumar Beat","range":"Jaldapar South","division":"Jaldapara"}}
]}