{"type":"FeatureCollection", "features": [
{"type":"Feature","geometry":{"type":"Polygon","coordinates":[[[89.35349275238866,26.584076245922063],[89.35136673888394,26.58407205598064],[89.34955794504316,26.58409995115187],[89.34921141737306,26.58410412220752],[89.3470632032043,26.58410820962621],[89.34648955085214,26.58412211854096],[89.34434177825051,26.584228692700037],[89.34216635779126,26.584498471327436],[89.34076026057761,26.584646006008427],[89.33991459208482,26.57963516882802],[89.33860716398948,26.57250526180843],[89.33802237353376,26.57010367174712],[89.33772260701278,26.569006175994275],[89.3370665281978,26.568128515018998],[89.33658749261878,26.567153469157347],[89.33682058250395,26.566410800018446],[89.33731105925801,26.565754979308906],[89.33742345293007,26.565163290153748],[89.33716559661502,26.5641311463354],[89.33708600571464,26.56364927519394],[89.33686399457775,26.562786689554116],[89.33663959484147,26.561975742086872],[89.3371853475258,26.561088750645354],[89.33773882448725,26.56004698408111],[89.3383873849699,26.55919131962378],[89.33816752321269,26.55858716046913],[89.33796702925508,26.55758328054401],[89.33789438112086,26.556015337737676],[89.33793923750585,26.555006693204405],[89.33801469602145,26.55444446404084],[89.34055814604164,26.55463011378879],[89.34125281026905,26.554671955646313],[89.34223998618648,26.554710261369507],[89.34322064022041,26.554643430949625],[89.34464973219946,26.554437713729556],[89.34622415641974,26.554212806775638],[89.34807965115505,26.553306949356283],[89.3484608800656,26.553084318586457],[89.35121390539746,26.55190001037721],[89.35193993078326,26.554553571590134],[89.35221882943551,26.55552959591415],[89.35256480761984,26.556742768763797],[89.35433699995264,26.558770973801472],[89.35274196776766,26.560319324877014],[89.35222444570167,26.56269435615968],[89.35268818291337,26.564651516554306],[89.35283083787294,26.565184731789998],[89.35349889655691,26.566750771630836],[89.35346517287951,26.567356525283458],[89.35342067262599,26.56823665309912],[89.35337272617045,26.56866513238998],[89.35306769771614,26.570259204998365],[89.35329394376055,26.571407441400368],[89.35335508147188,26.571736058172576],[89.35364806710464,26.572708481611187],[89.35405584490138,26.573137369194285],[89.35418413049331,26.57361080019831],[89.35404663494432,26.574852028298494],[89.35399155236831,26.575302443852763],[89.35375149813319,26.57645874807281],[89.35330320587832,26.57765235617137],[89.35308846306219,26.57827717365268],[89.35270659113633,26.579272910216673],[89.35262447673824,26.580627985293347],[89.35305650295533,26.582932583471973],[89.35327734947015,26.583503291443776],[89.35349275238866,26.584076245922063]]]},"properties":{"compartment":"CP-3B","Area_in_Ha":551.971,"Shape_Area":0.00044542421,"beat":"Sisamara","range":"Chilapata","division":"Jaldapara"}},
{"type":"Feature","geometry":{"type":"Polygon","coordinates":[[[89.3305780680235,26.615931922620177],[89.32861873216882,26.616517284145402],[89.32682130216142,26.61704712962137],[89.3233023853968,26.618776291192944],[89.3229714654608,26.61792933307231],[89.32292447678321,26.616982844282916],[89.3226783593189,26.61596547362774],[89.32259444447811,26.61486601915152],[89.32243190910538,26.613979160809663],[89.322032682962,26.613530296585964],[89.32130464579285,26.61295922348944],[89.32117303360866,26.612141921412615],[89.32165093244464,26.61135754621381],[89.32266575621975,26.610719593234705],[89.3241201425306,26.6101613894366],[89.32481245682948,26.608574122897494],[89.3250206642723,26.607826029048056],[89.32507097144821,26.607470088174068],[89.3252442672092,26.606601004932486],[89.32529724717028,26.60622510000843],[89.32574315891969,26.605365569365574],[89.32650602593242,26.604795704957894],[89.32688498945078,26.604085504042814],[89.32679979307602,26.603420259337554],[89.32638309940057,26.602686107677755],[89.32565193708729,26.602071601823013],[89.32494902697607,26.601540890299873],[89.3242812830548,26.60056866561149],[89.32430103216694,26.59921933540403],[89.3248789140307,26.598217825192535],[89.32563930700849,26.597506944390034],[89.32659508309666,26.597006531026636],[89.32759995317537,26.596965718892875],[89.32891977212984,26.596825870717396],[89.3306576148571,26.596036852318946],[89.33235453663264,26.5951546578612],[89.33520017324946,26.593938639556598],[89.3353052941041,26.59242718946325],[89.33637844880644,26.591994482459427],[89.33786847794795,26.591286652157294],[89.33922230296696,26.59079545054965],[89.33986881119677,26.587115741298476],[89.34076026057761,26.584646006008427],[89.34216635779126,26.584498471327436],[89.34434177825051,26.584228692700037],[89.34648955085214,26.58412211854096],[89.3470632032043,26.58410820962621],[89.34921141737306,26.58410412220752],[89.34955794504316,26.58409995115187],[89.35136673888394,26.58407205598064],[89.35349275238866,26.584076245922063],[89.3534433823063,26.585149621857624],[89.3533399063117,26.58579054709611],[89.35313670719336,26.58697721512641],[89.35291565293511,26.58956870962828],[89.35277421116098,26.590729911556252],[89.35222175762806,26.590867708378084],[89.35073248751434,26.59115537901755],[89.34940219145801,26.591415464751947],[89.34715963391005,26.591825583483967],[89.34592617505297,26.591767504366885],[89.34441023734263,26.59171110068678],[89.34366738564137,26.5926023755992],[89.34327025132109,26.593046307041504],[89.34335025231235,26.593604985681623],[89.34285157014392,26.594351995848],[89.34258992588445,26.59559858120963],[89.34172353161574,26.596665905607097],[89.34139046679667,26.597933994658206],[89.34085142935004,26.598681722483548],[89.33996148003831,26.59998915417617],[89.33940376277349,26.60131508762123],[89.33853535492273,26.60198814923376],[89.33777438008366,26.60332032757111],[89.33749179600966,26.60399436944465],[89.33733768458654,26.60600489201221],[89.33660646022003,26.606527568992192],[89.3361254065623,26.607170421477804],[89.33599291304256,26.60746287291329],[89.33593473769804,26.608115920113676],[89.33666520483541,26.609039680337048],[89.33668179013256,26.60978911867295],[89.33620243259622,26.610137587979352],[89.33665893835939,26.61193353680335],[89.33673343819765,26.61346849427565],[89.33362725449427,26.614805079291045],[89.3327072723228,26.615371505590588],[89.3305780680235,26.615931922620177]]]},"properties":{"compartment":"CP-2","Area_in_Ha":504.189,"Shape_Area":0.00040686581,"beat":"Sisamara","range":"Chilapata","division":"Jaldapara"}},
{"type":"Feature","geometry":{"type":"Polygon","coordinates":[[[89.35303046668275,26.594835506453535],[89.35300477574987,26.59564453656617],[89.35216963651959,26.59962550611226],[89.35176272926662,26.601757462337048],[89.35073947794461,26.60345510896616],[89.35059697227251,26.6037312898672],[89.34954510362371,26.60647102231985],[89.34903460796085,26.608072286806646],[89.3484599897368,26.609492492584536],[89.34758834612535,26.61082633017105],[89.34670447263335,26.612063632730496],[89.34611191833045,26.61294247271701],[89.3457779424981,26.614559793699584],[89.34256232479152,26.613641281020364],[89.3393774063423,26.613540956250176],[89.33673343819765,26.61346849427565],[89.33665893835939,26.61193353680335],[89.33620243259622,26.610137587979352],[89.33668179013256,26.60978911867295],[89.33666520483541,26.609039680337048],[89.33593473769804,26.608115920113676],[89.33599291304256,26.60746287291329],[89.3361254065623,26.607170421477804],[89.33660646022003,26.606527568992192],[89.33733768458654,26.60600489201221],[89.33749179600966,26.60399436944465],[89.33777438008366,26.60332032757111],[89.33853535492273,26.60198814923376],[89.33940376277349,26.60131508762123],[89.33996148003831,26.59998915417617],[89.34085142935004,26.598681722483548],[89.34139046679667,26.597933994658206],[89.34172353161574,26.596665905607097],[89.34258992588445,26.59559858120963],[89.34285157014392,26.594351995848],[89.34335025231235,26.593604985681623],[89.34327025132109,26.593046307041504],[89.34366738564137,26.5926023755992],[89.34441023734263,26.59171110068678],[89.34592617505297,26.591767504366885],[89.34715963391005,26.591825583483967],[89.34940219145801,26.591415464751947],[89.35073248751434,26.59115537901755],[89.35222175762806,26.590867708378084],[89.35277421116098,26.590729911556252],[89.3528703396945,26.59163397842542],[89.35304668055994,26.593042246602465],[89.35303046668275,26.594835506453535]]]},"properties":{"compartment":"CP-1","Area_in_Ha":316.384,"Shape_Area":0.00025531258,"beat":"Sisamara","range":"Chilapata","division":"Jaldapara"}}
]}