{"type":"FeatureCollection", "features": [
{"type":"Feature","geometry":{"type":"Polygon","coordinates":[[[89.3026547300318,26.633711333311453],[89.30145609022645,26.634138906085695],[89.30077635114776,26.63438285618389],[89.29952238235211,26.634834270884937],[89.29652184380808,26.636131414333363],[89.29621961943997,26.636262443756834],[89.2938503573082,26.637269998311808],[89.2923859390599,26.63739757703661],[89.28950732340434,26.637801955395958],[89.28339296501338,26.638402955232266],[89.27967221789862,26.637818012791115],[89.27710829301338,26.637387393113727],[89.27695026414341,26.636394598232187],[89.2764760381387,26.635549257092578],[89.27503590788092,26.63415212971705],[89.27497396977293,26.633273741190237],[89.27488165886155,26.63137767264152],[89.27445175594386,26.630671058222788],[89.27456514156808,26.628974942239836],[89.27411877116441,26.627945742801842],[89.27523729126801,26.62673096376301],[89.27612392477937,26.625576161410777],[89.27604802919325,26.624096995180253],[89.27520069425668,26.62313896269302],[89.27574767091835,26.621804897577988],[89.27679308603217,26.62148405904213],[89.27611792540199,26.619446569403692],[89.2766804513418,26.619119844805027],[89.27603419582152,26.617883071946267],[89.2754856318565,26.61784448293656],[89.27415074386181,26.61387663539847],[89.27415904910089,26.611873096066574],[89.27272893998867,26.61001540069026],[89.27215461404427,26.606699700131117],[89.27215256269068,26.6025194138399],[89.27138754899624,26.59956811767455],[89.27255968488163,26.598400716719766],[89.27183495002299,26.597159997635856],[89.27222985762188,26.594422538669278],[89.27239991132689,26.5948689612336],[89.27250418232222,26.595253046391008],[89.2725144651705,26.595660882643642],[89.27252449530926,26.596055390044285],[89.27268275620429,26.59652936064151],[89.27297477056925,26.59697355828314],[89.27328198527545,26.597322238930246],[89.27355604737375,26.59754837885464],[89.27390269285507,26.597771232656328],[89.27426037661513,26.59800148068382],[89.27471350722266,26.598303446047225],[89.27516300816637,26.59852583040282],[89.27558522098121,26.59873477169242],[89.27597616526788,26.598883265050688],[89.27639805072954,26.599025015292284],[89.27696688181618,26.59912144599798],[89.27762403622035,26.599262585599888],[89.27838309820146,26.59942714624583],[89.27874844328608,26.599499357309526],[89.27909709875217,26.599480402298752],[89.27971694657987,26.599616368100953],[89.2800451460667,26.599682938616752],[89.28051921379074,26.59973759491413],[89.28114570041379,26.599794370014195],[89.28162904824205,26.59986459717345],[89.28211472081779,26.599842849767754],[89.2826388582967,26.599819624775932],[89.28333365562378,26.599690278883315],[89.28386744642557,26.599515748353156],[89.28431244626245,26.59934046419113],[89.2845794297969,26.59924480600307],[89.2844764115572,26.600077291334003],[89.28570125940564,26.601072141166412],[89.28659985120225,26.60132297557493],[89.28725687610398,26.601569760336247],[89.28692808576261,26.603344182987712],[89.28736275059055,26.605145310108014],[89.28677580535918,26.606226778143366],[89.28655326092434,26.6073958734209],[89.28673326562779,26.607697594168712],[89.28547823203485,26.610043446048223],[89.28663376283794,26.60990037829987],[89.28781436673967,26.61123866573189],[89.28720868593217,26.61189325886687],[89.28944053705118,26.615519617636323],[89.29403608439782,26.622471547923624],[89.2961329661635,26.62242632191726],[89.29719002479987,26.62454377027882],[89.30035234598404,26.623996783724635],[89.3026547300318,26.633711333311453]]]},"properties":{"compartment":"TR-1","Area_in_Ha":895.276,"Shape_Area":0.00072203995,"beat":"TEC","range":"Jaldapara West","division":"Jaldapara"}}
]}