{"type":"FeatureCollection", "features": [
{"type":"Feature","geometry":{"type":"Polygon","coordinates":[[[89.27251869108477,26.75091435031709],[89.27287985701986,26.74998312212341],[89.27583535032124,26.748907602204156],[89.27516512247246,26.748877791476957],[89.27260089091845,26.748930728270523],[89.27227260239874,26.74462757660143],[89.273328714049,26.744600326244097],[89.27433129175574,26.744302478876364],[89.27515048510685,26.7437080072188],[89.27603727240228,26.7426024724262],[89.27651569014705,26.741502482853377],[89.27612250115254,26.740299163875363],[89.27518752008802,26.739659199112793],[89.27347852491403,26.739015827718333],[89.27236389887491,26.738682931971766],[89.27177328620826,26.73839934785167],[89.27155527975242,26.738121214522494],[89.27145627878429,26.73763184303516],[89.27130146049404,26.73692485449851],[89.27114860992049,26.73650005793138],[89.2712070029009,26.736078718358215],[89.27130227797778,26.735779754032478],[89.27153011042634,26.734876919234466],[89.27172998924766,26.734228137518585],[89.2725991309452,26.73255156110571],[89.27348472304158,26.732747278763952],[89.2759737550848,26.733559810836653],[89.27711810821415,26.733531986711853],[89.27797961286888,26.733767435518757],[89.27381526706097,26.738475397221862],[89.28195263150877,26.741209959472087],[89.28288157002851,26.742246572021713],[89.28366177327229,26.745283745348615],[89.2836095595336,26.746892301538537],[89.28341989791,26.747724611501667],[89.2830786249786,26.748058006371934],[89.28230029052605,26.747841241879883],[89.28116927164461,26.74845834767467],[89.27895127368237,26.74913604169501],[89.27882816368884,26.74965254932573],[89.2790494194425,26.74990647721579],[89.27921723198972,26.750099505188075],[89.27825814010112,26.751635657859367],[89.27723062509335,26.751289304657746],[89.27251869108477,26.75091435031709]]]},"properties":{"compartment":"Hantapara RL","Area_in_Ha":0,"Shape_Area":0.00011502581,"beat":"Titi Beat","range":"jaldapara North","division":"Jaldapara"}},
{"type":"Feature","geometry":{"type":"Polygon","coordinates":[[[89.28366177327229,26.745283745348615],[89.28289389613644,26.742308896838153],[89.28194843077551,26.741206585215764],[89.2738771620015,26.738451042681504],[89.2780121980046,26.733736952998015],[89.2770808942679,26.733516215301165],[89.27916317014427,26.733191304635056],[89.29536742186906,26.736139867760755],[89.29845548423327,26.736448326229322],[89.2995114034286,26.737519921507214],[89.29969921334805,26.7381248531795],[89.30060655195086,26.741401625684546],[89.3008243020999,26.74301245805856],[89.3026721759802,26.745354710851302],[89.30516975967674,26.746016434710725],[89.30892323671804,26.745801745853953],[89.3086491521367,26.747369268676835],[89.30879025936304,26.749812189780812],[89.30883640537587,26.75037004194394],[89.31062682426858,26.753347431039174],[89.30866365730202,26.761173248746502],[89.30757784464186,26.76957529266565],[89.30983360603614,26.775603888109003],[89.31081486801179,26.777679175353683],[89.31389028141143,26.7785078169822],[89.31455877716587,26.780859869687276],[89.31442594370242,26.784402008745758],[89.31540330531834,26.7859111709638],[89.31788171636816,26.788115241125524],[89.31990200467385,26.790375856160892],[89.31967733873824,26.79717923103675],[89.32236480978821,26.803416067197816],[89.31630954584892,26.80461280943365],[89.31229122116298,26.795660137605296],[89.30732318991335,26.784853490895955],[89.30533646160848,26.783687258160512],[89.30231260184513,26.78183788331171],[89.30026553172894,26.780817989158948],[89.29812834055053,26.77892841371539],[89.29668667155272,26.770708862923755],[89.2908153369583,26.75812245338858],[89.28512110405575,26.760301153675357],[89.28473634170888,26.75936420489421],[89.28364908114025,26.757726340698127],[89.28082587811184,26.7519060336366],[89.28005226510004,26.749950712355542],[89.27921723198972,26.750099505188075],[89.27882816368884,26.74965254932573],[89.27895127368237,26.74913604169501],[89.28116553855881,26.748456699217343],[89.28229178293947,26.74784030928288],[89.28308033189188,26.74804292474124],[89.28344544675002,26.747688509117438],[89.2835830969824,26.74688250702212],[89.28366177327229,26.745283745348615]]]},"properties":{"compartment":"Titi-4","Area_in_Ha":0,"Shape_Area":0.00108555277,"beat":"Titi Beat","range":"jaldapara North","division":"Jaldapara"}}
]}