{"type":"FeatureCollection", "features": [
{"type":"Feature","geometry":{"type":"Polygon","coordinates":[[[89.7582638088943,26.5574901663574],[89.7579947992531,26.5579171619413],[89.757483758239,26.559673155344],[89.7569137028445,26.5620331487445],[89.7566666831795,26.5628751455415],[89.7554085978736,26.5665451280524],[89.75577456817,26.5677461374415],[89.755979562292,26.567971141852],[89.754688572897,26.5676531161596],[89.7542995780198,26.5674771082662],[89.7508126224368,26.565962037634],[89.7489386335211,26.5656800006845],[89.7469066454283,26.56537896063],[89.7447656514141,26.5653349189442],[89.7423466592938,26.5652388717594],[89.7389916722453,26.5650218061609],[89.7389310026755,26.5641773333904],[89.738740724286,26.5612148941101],[89.7385623047091,26.5595492575047],[89.7385028314213,26.558859215049],[89.7381697356225,26.5578836267398],[89.7377295586407,26.5569675264632],[89.7374202510704,26.5560633187516],[89.7370514559218,26.5550639397056],[89.7367064552887,26.554290611548],[89.736568374383,26.5540191972062],[89.7374107853488,26.5538040243113],[89.7394951984274,26.5534756941774],[89.7422220596872,26.5531616565482],[89.7446062759133,26.5530903227221],[89.7464908015789,26.5530903593258],[89.750859487028,26.5528620137498],[89.7532437056715,26.5526907397366],[89.7551282361509,26.5524908959634],[89.7568557269928,26.5522910591398],[89.7583119574298,26.5521340371284],[89.7597719037839,26.5520634253032],[89.7597679319814,26.5522221855775],[89.7597549201954,26.5527141862589],[89.7592428974225,26.5537111782055],[89.7588908886932,26.554108172121],[89.7588338415546,26.5560761747483],[89.7586738236894,26.5568351730801],[89.7582638088943,26.5574901663574]]]},"properties":{"compartment":"SRD BL5"},"id":"comptt.18"}
]}