{"type":"FeatureCollection", "features": [
{"type":"Feature","geometry":{"type":"Polygon","coordinates":[[[89.736568374383,26.5540191972062],[89.7367064552887,26.554290611548],[89.7370514559218,26.5550639397056],[89.7374202510704,26.5560633187516],[89.7377295586407,26.5569675264632],[89.7381697356225,26.5578836267398],[89.7385028314213,26.558859215049],[89.7385623047091,26.5595492575047],[89.738740724286,26.5612148941101],[89.7389310026755,26.5641773333904],[89.7389916722453,26.5650218061609],[89.7372516926001,26.564341771072],[89.7353847185833,26.5634397330998],[89.732568750918,26.5623646763682],[89.7292457836857,26.5613206098509],[89.7286370917919,26.5610880146844],[89.7288089911869,26.5602177992943],[89.729094557959,26.5590756626963],[89.7293230055479,26.5579049649346],[89.72936586945,26.5569055938899],[89.7292516829714,26.5555207390704],[89.7291089390143,26.5544499742866],[89.7289804650812,26.5537932405578],[89.7285093701084,26.5523798287541],[89.7282524119553,26.5514946621016],[89.7279240763052,26.5500955330982],[89.7277670558619,26.5492960285479],[89.7276100466656,26.547611362336],[89.7274815967141,26.5459552567326],[89.7274530783045,26.5446417937129],[89.7274959273932,26.5438422930437],[89.7276958229704,26.5427572548873],[89.7279242685444,26.5420862580622],[89.7282954944083,26.5409726731776],[89.7287095340058,26.5401160696062],[89.7293234569086,26.5391024296194],[89.7296803887582,26.5385741955555],[89.7301229776695,26.5381601733687],[89.730722616903,26.5377176041765],[89.7314221845358,26.5373321470311],[89.7322216960484,26.5367753715031],[89.7326214536888,26.5364184585913],[89.7332924823484,26.5355761400314],[89.7336065729262,26.5351050152414],[89.7337779131482,26.5346624377343],[89.7338778538772,26.5342055788143],[89.733920699532,26.53354884841],[89.7338921759671,26.5324495357875],[89.7338065233559,26.532149723561],[89.7336240590779,26.5314979996163],[89.7357094645096,26.5323356808432],[89.7360553162496,26.5326468181416],[89.7357551686156,26.5334107837548],[89.7355410048395,26.5340056407183],[89.7353149356678,26.5348265478761],[89.7351959445358,26.5357188472465],[89.735065054572,26.5365635562962],[89.7350293466715,26.5373130870141],[89.7350055273156,26.5381221080748],[89.7349222249561,26.5390619882271],[89.7347913372726,26.5398115270972],[89.7345533684085,26.5406205340003],[89.7343867990858,26.541025041528],[89.7340774549533,26.5416436966867],[89.733839506937,26.5420006127388],[89.733542050778,26.5427025482846],[89.7332565060187,26.5433449939495],[89.7328757611991,26.5444157485715],[89.7326497043023,26.5451414855476],[89.7326377797712,26.5461646572406],[89.7326496640371,26.5468190087021],[89.7327091273358,26.5475090511546],[89.7329232617045,26.5481396164987],[89.7332325749961,26.5488058737585],[89.7336370694955,26.5494126427549],[89.7341010532858,26.5500432129516],[89.7346007147083,26.5507689540208],[89.7352193584264,26.5513876271997],[89.7357071298752,26.552113378039],[89.7360640321969,26.5528153262924],[89.7363614523696,26.55361245357],[89.736568374383,26.5540191972062]]]},"properties":{"compartment":"SRD BL6"},"id":"comptt.14"}
]}