{"type":"FeatureCollection", "features": [
{"type":"Feature","geometry":{"type":"Polygon","coordinates":[[[89.5606059157103,26.5646602217738],[89.5579789929069,26.5646292307471],[89.5549903997998,26.5646482127921],[89.5491675237785,26.5646632098394],[89.5490021649222,26.5633821143771],[89.5490311928956,26.5622131128835],[89.5491952242767,26.5608881137343],[89.5491852579554,26.5594851110723],[89.549147297625,26.5578351074325],[89.5492263359715,26.5562281061379],[89.5492673725382,26.5546991042432],[89.5494794111265,26.5530681054855],[89.5495294427018,26.5517461041292],[89.5497524846378,26.549974105336],[89.5500605403606,26.5476181071626],[89.5506695934906,26.5453391149601],[89.552120642507,26.5431451392304],[89.5526706434076,26.5430511497285],[89.5556106497244,26.5424862057346],[89.5576546527829,26.5421492447703],[89.5586776452876,26.5423572649721],[89.5588006443867,26.5423822674011],[89.5608376089755,26.5436513091389],[89.5612875981167,26.5440583185838],[89.5619825813121,26.5446883331738],[89.5627455463617,26.5460683504094],[89.5632070025791,26.5470132510295],[89.562852534128,26.5474019948431],[89.5623575921063,26.547954026221],[89.5618436187624,26.5485631573305],[89.5613106040956,26.5492293981713],[89.56104409197,26.5497623939448],[89.5609298671883,26.5503905728397],[89.5608655234845,26.5543047885099],[89.5606821541729,26.5605485059871],[89.5606059157103,26.5646602217738]]]},"properties":{"compartment":"Cheko BL9"},"id":"comptt.13"}
]}