{"type":"FeatureCollection", "features": [
{"type":"Feature","geometry":{"type":"Polygon","coordinates":[[[89.5903864019751,26.5909329666338],[89.5900124022613,26.5909589594151],[89.5883304050863,26.5910119268361],[89.5863894071756,26.591121889328],[89.5840634143895,26.5910578440315],[89.5839324148054,26.5910538414797],[89.5814124224499,26.5909917924195],[89.5812347027862,26.5909991308781],[89.5812491076171,26.5882964444486],[89.5814204345167,26.5879918772339],[89.5816298313235,26.5876873007585],[89.5818011600524,26.5873065934082],[89.5819344179595,26.5869639553861],[89.5820296059594,26.5866213166247],[89.5821818970213,26.5861454187347],[89.5822199906484,26.5855743484575],[89.582200963957,26.5850223171048],[89.5820677348611,26.5841657029917],[89.5819725761285,26.5832900595843],[89.5817251418819,26.5822430929149],[89.5809066427449,26.5806250341404],[89.5806591961505,26.5800920383868],[89.5798912960276,26.5793371110032],[89.5800524562055,26.5793186952294],[89.5805664176932,26.5792044950054],[89.5816086168633,26.5791331251142],[89.5828078618793,26.5792188085521],[89.5840356527121,26.57947581285],[89.5855347097982,26.579861322645],[89.5867624989189,26.5801897070717],[89.587633371996,26.5803896043391],[89.5890797160439,26.5804907726054],[89.5891666521056,26.5806459245706],[89.5892086502018,26.5807209255201],[89.5891776443443,26.580967925359],[89.5891076311352,26.5815249249941],[89.5889075678904,26.584177925846],[89.5893165147105,26.5863499376668],[89.5894284774828,26.5878879425879],[89.5896054488408,26.5890619481219],[89.5903864019751,26.5909329666338]]]},"properties":{"compartment":"Cheko BL3"},"id":"comptt.40"}
]}