{"type":"FeatureCollection", "features": [
{"type":"Feature","geometry":{"type":"Polygon","coordinates":[[[89.5798578894644,26.5658769664091],[89.5797290299051,26.5658687150142],[89.5808929926239,26.5673037401588],[89.5815779559809,26.5687607560478],[89.5833278903313,26.5713177945703],[89.5844858319998,26.5736298211697],[89.5855957852812,26.5754628459867],[89.5869547355986,26.577393875816],[89.5882286945972,26.5789719033685],[89.5890797160439,26.5804907726054],[89.587633371996,26.5803896043391],[89.5867624989189,26.5801897070717],[89.5855347097982,26.579861322645],[89.5840356527121,26.57947581285],[89.5828078618793,26.5792188085521],[89.5816086168633,26.5791331251142],[89.5805664176932,26.5792044950054],[89.5800524562055,26.5793186952294],[89.5798912960276,26.5793371110032],[89.5790114358912,26.5794376452282],[89.5771673532546,26.5797350499519],[89.5758698208731,26.5799783067284],[89.5758912129045,26.5782139524712],[89.5758150877753,26.5771860191666],[89.5756628332878,26.5761390543504],[89.5753963517655,26.575396647858],[89.5750537313426,26.5746161798201],[89.5746730337543,26.5737214908407],[89.5743304078456,26.5731694532092],[89.573911633494,26.5725603039985],[89.5734167284142,26.571989223378],[89.5730550584387,26.5716084956819],[89.5729408432879,26.571418133127],[89.5729027784074,26.5712087420165],[89.5728837566791,26.570866101039],[89.5729218334402,26.5705805612712],[89.5729408739032,26.5701427408636],[89.5729599239089,26.5697239604899],[89.5729408921799,26.5693813195123],[89.5728838032855,26.5689244575933],[89.5728267085028,26.5682962753701],[89.5725982964228,26.5675729196532],[89.5722937495539,26.5666401620872],[89.572122447333,26.5659167974791],[89.5717988591383,26.5650411496455],[89.574311558882,26.5652125187113],[89.5777570081802,26.5653077657449],[89.5790514313657,26.5654600711366],[89.5798578894644,26.5658769664091]]]},"properties":{"compartment":"Cheko BL7"},"id":"comptt.27"}
]}