{"type":"FeatureCollection", "features": [
{"type":"Feature","geometry":{"type":"Polygon","coordinates":[[[89.5661672372076,26.5811077784913],[89.5655805678375,26.5811422774806],[89.5640006012599,26.5811612768386],[89.5623825715775,26.5813135356934],[89.5605361129162,26.5814467500798],[89.5587277250786,26.5815418951383],[89.5574713672562,26.5815799408137],[89.556881263223,26.5818083597601],[89.5561578995186,26.5820367661191],[89.5550157618746,26.5820557839785],[89.5536071271744,26.5819796164964],[89.5526934135411,26.5818082784556],[89.5518748869309,26.5817511524641],[89.5509992536621,26.5815607751295],[89.5499903702653,26.581389435242],[89.5492597352929,26.5812551508217],[89.54922377906,26.5794361469234],[89.5491168153634,26.5779351422063],[89.5494749309826,26.5730821406184],[89.5497019976032,26.5702831400996],[89.5494810544003,26.5679391316873],[89.5491751200619,26.5652341209914],[89.5491871300855,26.5648151204871],[89.5491675237785,26.5646632098394],[89.5549903997998,26.5646482127921],[89.5579789929069,26.5646292307471],[89.5606059157103,26.5646602217738],[89.5611769856783,26.5646031227539],[89.5655171100051,26.5648125973416],[89.5701998771626,26.5648697983124],[89.5717988591383,26.5650411496455],[89.572122447333,26.5659167974791],[89.5722937495539,26.5666401620872],[89.5725982964228,26.5675729196532],[89.5728267085028,26.5682962753701],[89.5728838032855,26.5689244575933],[89.5729408921799,26.5693813195123],[89.5729599239089,26.5697239604899],[89.5729408739032,26.5701427408636],[89.5729218334402,26.5705805612712],[89.5728837566791,26.570866101039],[89.5729027784074,26.5712087420165],[89.5729408432879,26.571418133127],[89.5730550584387,26.5716084956819],[89.5734167284142,26.571989223378],[89.573911633494,26.5725603039985],[89.5743304078456,26.5731694532092],[89.5746730337543,26.5737214908407],[89.5750537313426,26.5746161798201],[89.5753963517655,26.575396647858],[89.5756628332878,26.5761390543504],[89.5758150877753,26.5771860191666],[89.5758912129045,26.5782139524712],[89.5758698208731,26.5799783067284],[89.5743119973812,26.5802703654628],[89.5724524460758,26.5805142297904],[89.5707392370723,26.580647446763],[89.569749376298,26.5807806777803],[89.5687404855711,26.580913908428],[89.5671985961527,26.5810471287271],[89.5661672372076,26.5811077784913]]]},"properties":{"compartment":"Cheko BL6"},"id":"comptt.30"}
]}