{"type":"FeatureCollection", "features": [
{"type":"Feature","geometry":{"type":"Polygon","coordinates":[[[89.5872873652879,26.6077462864325],[89.5844776162423,26.6079918922598],[89.5820600862008,26.6082393057138],[89.5779293471541,26.6086199461075],[89.571647571569,26.6090766748316],[89.5704433737978,26.6091069114819],[89.5702698879348,26.6081210563625],[89.5702794388132,26.6068361442701],[89.5703270460918,26.6061127939127],[89.5705364568636,26.6052276364127],[89.5708315260511,26.6043995906783],[89.5710504515342,26.6037333437508],[89.5711456427436,26.6032574447564],[89.5711456548726,26.602753003862],[89.571098138901,26.5996787374865],[89.5709364340162,26.5957383373567],[89.5709531906733,26.5917146512264],[89.5720974277756,26.5917186127781],[89.5740384270566,26.591550650181],[89.5764964264451,26.5913256975249],[89.5787614263347,26.5910997411183],[89.580928423152,26.5910117830538],[89.5812347027862,26.5909991308781],[89.5814124224499,26.5909917924195],[89.5839324148054,26.5910538414797],[89.5840634143895,26.5910578440315],[89.5863894071756,26.591121889328],[89.5883304050863,26.5910119268361],[89.5900124022613,26.5909589594151],[89.5903864019751,26.5909329666338],[89.5905633918585,26.5913359707919],[89.5910273722464,26.5921049811792],[89.5912272835444,26.5957749916207],[89.5899451898057,26.5998039739068],[89.5892091515897,26.6014679625756],[89.5887841346639,26.60221495565],[89.5885291209058,26.6028129517619],[89.5877150730636,26.6048849396398],[89.5872640090335,26.6075929357049],[89.5872873652879,26.6077462864325]]]},"properties":{"compartment":"Cheko BL2"},"id":"comptt.57"}
]}