{"type":"FeatureCollection", "features": [
{"type":"Feature","geometry":{"type":"Polygon","coordinates":[[[89.5709354307206,26.5917145902011],[89.5706774313533,26.59171458519],[89.5675724433934,26.5915305245557],[89.5653734475683,26.591581481936],[89.5634324483016,26.5917494445345],[89.5610394473627,26.5920333985594],[89.5581944504013,26.5921983435955],[89.5558674507283,26.5924232987983],[89.5533434529634,26.5925892500714],[89.5516614530532,26.5927582177025],[89.5505604460881,26.5931611970291],[89.549392428116,26.5940291758719],[89.5480324050679,26.5951281513906],[89.5461513903262,26.5959351162754],[89.5459983900559,26.5959621133512],[89.5462994190849,26.5947231170207],[89.5494284809605,26.5918261726963],[89.5495015136954,26.5904561717043],[89.5497095858753,26.5874301704205],[89.54941863521,26.5854061612099],[89.5492826934989,26.5829931543252],[89.5492637287032,26.5815291513813],[89.5492597352929,26.5812551508217],[89.5499903702653,26.581389435242],[89.5509992536621,26.5815607751295],[89.5518748869309,26.5817511524641],[89.5526934135411,26.5818082784556],[89.5536071271744,26.5819796164964],[89.5550157618746,26.5820557839785],[89.5561578995186,26.5820367661191],[89.556881263223,26.5818083597601],[89.5574713672562,26.5815799408137],[89.5587277250786,26.5815418951383],[89.5605361129162,26.5814467500798],[89.5623825715775,26.5813135356934],[89.5640006012599,26.5811612768386],[89.5655805678375,26.5811422774806],[89.5661672372076,26.5811077784913],[89.5669915643445,26.5819763063531],[89.5676768234608,26.5827758210746],[89.5683240135845,26.5835372549903],[89.5688189277387,26.5841464156798],[89.5699039284967,26.5856692894484],[89.5702846188142,26.586449758225],[89.5707795247347,26.5874015595239],[89.5710079345091,26.5882200954115],[89.5711411686321,26.588867319147],[89.5712553577704,26.5897239228842],[89.5712363031802,26.5903330735946],[89.5711601583354,26.5905424624871],[89.5710268990566,26.5909422106078],[89.5709126833902,26.5911896688283],[89.5709354307206,26.5917145902011]]]},"properties":{"compartment":"Cheko BL5"},"id":"comptt.47"}
]}