{"type":"FeatureCollection", "features": [
{"type":"Feature","geometry":{"type":"Polygon","coordinates":[[[89.5506700472065,26.6097432283425],[89.5483500476298,26.6099641836487],[89.5475970511765,26.6098941688935],[89.5470440518718,26.6099221581969],[89.546921065956,26.6093491548],[89.5466281155678,26.6073161455351],[89.5464971749434,26.6048601386752],[89.545991216128,26.603199125927],[89.5458842527399,26.6016871211927],[89.5457672872585,26.6002631164188],[89.5453073170472,26.59907110539],[89.5454603585835,26.5973271052992],[89.5459623867325,26.5961041129015],[89.5459983900559,26.5959621133512],[89.5461513903262,26.5959351162754],[89.5480324050679,26.5951281513906],[89.549392428116,26.5940291758719],[89.5505604460881,26.5931611970291],[89.5516614530532,26.5927582177025],[89.5533434529634,26.5925892500714],[89.5558674507283,26.5924232987983],[89.5581944504013,26.5921983435955],[89.5610394473627,26.5920333985594],[89.5634324483016,26.5917494445345],[89.5653734475683,26.591581481936],[89.5675724433934,26.5915305245557],[89.5706774313533,26.59171458519],[89.5709354307206,26.5917145902011],[89.5709531906733,26.5917146512264],[89.5709364340162,26.5957383373567],[89.571098138901,26.5996787374865],[89.5711456548726,26.602753003862],[89.5711456427436,26.6032574447564],[89.5710504515342,26.6037333437508],[89.5708315260511,26.6043995906783],[89.5705364568636,26.6052276364127],[89.5703270460918,26.6061127939127],[89.5702794388132,26.6068361442701],[89.5702698879348,26.6081210563625],[89.5704433737978,26.6091069114819],[89.5678594785845,26.6091717813802],[89.5620345687953,26.609342988482],[89.5540966915035,26.6096283747281],[89.5506700472065,26.6097432283425]]]},"properties":{"compartment":"Cheko BL1"},"id":"comptt.60"}
]}