{"type":"FeatureCollection", "features": [
{"type":"Feature","geometry":{"type":"Polygon","coordinates":[[[89.5812347027862,26.5909991308781],[89.580928423152,26.5910117830538],[89.5787614263347,26.5910997411183],[89.5764964264451,26.5913256975249],[89.5740384270566,26.591550650181],[89.5720974277756,26.5917186127781],[89.5709531906733,26.5917146512264],[89.5709354307206,26.5917145902011],[89.5709126833902,26.5911896688283],[89.5710268990566,26.5909422106078],[89.5711601583354,26.5905424624871],[89.5712363031802,26.5903330735946],[89.5712553577704,26.5897239228842],[89.5711411686321,26.588867319147],[89.5710079345091,26.5882200954115],[89.5707795247347,26.5874015595239],[89.5702846188142,26.586449758225],[89.5699039284967,26.5856692894484],[89.5688189277387,26.5841464156798],[89.5683240135845,26.5835372549903],[89.5676768234608,26.5827758210746],[89.5669915643445,26.5819763063531],[89.5661672372076,26.5811077784913],[89.5671985961527,26.5810471287271],[89.5687404855711,26.580913908428],[89.569749376298,26.5807806777803],[89.5707392370723,26.580647446763],[89.5724524460758,26.5805142297904],[89.5743119973812,26.5802703654628],[89.5758698208731,26.5799783067284],[89.5771673532546,26.5797350499519],[89.5790114358912,26.5794376452282],[89.5798912960276,26.5793371110032],[89.5806591961505,26.5800920383868],[89.5809066427449,26.5806250341404],[89.5817251418819,26.5822430929149],[89.5819725761285,26.5832900595843],[89.5820677348611,26.5841657029917],[89.582200963957,26.5850223171048],[89.5822199906484,26.5855743484575],[89.5821818970213,26.5861454187347],[89.5820296059594,26.5866213166247],[89.5819344179595,26.5869639553861],[89.5818011600524,26.5873065934082],[89.5816298313235,26.5876873007585],[89.5814204345167,26.5879918772339],[89.5812491076171,26.5882964444486],[89.5812347027862,26.5909991308781]]]},"properties":{"compartment":"Cheko BL4"},"id":"comptt.42"}
]}