{"type":"FeatureCollection", "features": [
{"type":"Feature","geometry":{"type":"Polygon","coordinates":[[[89.5871982998917,26.5538578385422],[89.5871582825267,26.5545858390651],[89.5873092678148,26.5551838430618],[89.587308260117,26.5555048436152],[89.5875612396389,26.5563328500014],[89.587584230323,26.5567188511364],[89.5876772266183,26.5568638531997],[89.5884752071646,26.5575938699862],[89.5891051969961,26.5579538828531],[89.5898261813761,26.5585318978755],[89.590735132715,26.5604679189727],[89.5911171014557,26.5617319286441],[89.5914210562249,26.5635859378568],[89.5916660123089,26.5653909458374],[89.5893510117927,26.5656469013632],[89.5877150158688,26.5656428696036],[89.5845470197901,26.5658008083998],[89.58318702188,26.5658517820958],[89.5811820241284,26.5659617433789],[89.5798578894644,26.5658769664091],[89.5790514313657,26.5654600711366],[89.5777570081802,26.5653077657449],[89.574311558882,26.5652125187113],[89.5717988591383,26.5650411496455],[89.5701998771626,26.5648697983124],[89.5655171100051,26.5648125973416],[89.5611769856783,26.5646031227539],[89.5606059157103,26.5646602217738],[89.5606821541729,26.5605485059871],[89.5608655234845,26.5543047885099],[89.5609298671883,26.5503905728397],[89.56104409197,26.5497623939448],[89.5613106040956,26.5492293981713],[89.5618436187624,26.5485631573305],[89.5623575921063,26.547954026221],[89.562852534128,26.5474019948431],[89.5632070025791,26.5470132510295],[89.5632505203362,26.5471023620311],[89.563418517623,26.5471983654589],[89.5636515172439,26.5471903699632],[89.5670474180561,26.5509804425343],[89.568412369656,26.5528594723392],[89.5688543539933,26.5534674819903],[89.5698783206213,26.5547545041353],[89.570462315691,26.5549005157231],[89.5724003155816,26.5547075529759],[89.5739293158748,26.5545395823389],[89.5755243091012,26.5546596134939],[89.5767993045257,26.5547206383368],[89.5785203002067,26.5547256717327],[89.580814297204,26.5546177160444],[89.5829202919052,26.554624756914],[89.5854052939391,26.5542878045239],[89.5868742984969,26.5539488324187],[89.5871982998917,26.5538578385422]]]},"properties":{"compartment":"Cheko BL8"},"id":"comptt.17"}
]}