{"type":"FeatureCollection", "features": [
{"type":"Feature","geometry":{"type":"Polygon","coordinates":[[[89.5469747859935,26.7254494398574],[89.5469379079888,26.7257628396277],[89.5468784143215,26.7263339094698],[89.5467237271494,26.7270596377263],[89.5464500607743,26.7281779843506],[89.5462834836304,26.7289037123747],[89.5460217224053,26.7298079088548],[89.5457599611794,26.7307120953346],[89.5456409793846,26.73121178389],[89.5454030052187,26.7322349510422],[89.5453791977148,26.7329606818511],[89.5453434681459,26.7341861133043],[89.5454386283272,26.7349951265808],[89.5455456890535,26.7357803600479],[89.5456527478429,26.7362324529306],[89.5457955048145,26.7367559466352],[89.5459858531072,26.7372199411642],[89.5462237784005,26.7378029168307],[89.5466877590961,26.7385524572016],[89.5471755254113,26.7394804583506],[89.547544330088,26.7400753265933],[89.5476989752992,26.7406702006563],[89.5478655161594,26.741443525265],[89.5479130933656,26.7419670071131],[89.5477941034973,26.7427998262532],[89.5476632211486,26.7433233046177],[89.5475204425746,26.7436921124783],[89.5471159200449,26.7442512855637],[89.5467351942865,26.7449413193433],[89.5463663587859,26.7456194633336],[89.5460213258187,26.7461905276004],[89.5457595755243,26.746642623284],[89.545509720878,26.7472731695128],[89.5452836587651,26.747796646018],[89.5452241550825,26.7483677158583],[89.5451527608527,26.7489625855081],[89.5450456713228,26.749367094127],[89.5447839201625,26.7498548798724],[89.5444388886342,26.7503664540333],[89.5441295487455,26.7508066487658],[89.5439391762531,26.7513420259877],[89.5438915722502,26.7519249960805],[89.543951048267,26.7524960682432],[89.5439153445217,26.7530671385475],[89.5438558414119,26.7536144183453],[89.5437606469501,26.7542211775503],[89.5436773579349,26.7546018865915],[89.5435464787504,26.7549944947242],[89.5433680082435,26.7554465920319],[89.5431181561858,26.7559700680706],[89.5429872790185,26.7562793960571],[89.5425470657076,26.7568742585033],[89.5423447964128,26.7572787652623],[89.5422258157562,26.757730853731],[89.5421068353874,26.7581710521788],[89.5419759562012,26.7585636703109],[89.5418569678505,26.7589205786125],[89.5417617897278,26.7592656073582],[89.5416784878275,26.7597652866068],[89.5416533179837,26.7601892559891],[89.5413084420173,26.7600433098669],[89.5409614441234,26.7599923030007],[89.5388234571931,26.75967426069],[89.5353704832135,26.758958192005],[89.5327605333393,26.757160137898],[89.5291245669076,26.7561520651425],[89.5283185718679,26.7560310491941],[89.5254875786107,26.7560469939463],[89.5229776377239,26.7538679411493],[89.5222596571688,26.7531399258659],[89.5221696611744,26.7529839238376],[89.5220376679746,26.7527169207965],[89.5241746821336,26.7519099611116],[89.5270057203189,26.75003901312],[89.5272207281575,26.7496930167142],[89.529045770645,26.7477490489513],[89.5292377777176,26.7474370521552],[89.5294843486947,26.7470411875302],[89.5306828302636,26.7451170763144],[89.5320558902743,26.7424960985389],[89.5321819556374,26.7397830962625],[89.5320670164894,26.7372810896512],[89.5336940959522,26.7338291153708],[89.5347231325985,26.732208132616],[89.5365511733136,26.7303361650084],[89.540305240369,26.7271762327154],[89.5441502941863,26.7245543031272],[89.545898324291,26.7231293347251],[89.5469583223462,26.7231003553509],[89.5471626119867,26.72309599142],[89.5471045236233,26.7238592695353],[89.5470807069901,26.7245493102825],[89.5469747859935,26.7254494398574]]]},"properties":{"compartment":"Santrabari BL1"},"id":"comptt.185"}
]}