{"type":"FeatureCollection", "features": [
{"type":"Feature","geometry":{"type":"Polygon","coordinates":[[[89.5783561582815,26.7460751390104],[89.5780986871407,26.7461450037926],[89.5769586824766,26.7464539820813],[89.575030656534,26.7477219466841],[89.5711746114138,26.7499788753874],[89.5682025670147,26.7521158211325],[89.565557553137,26.7529597709713],[89.5631330970541,26.7538667948691],[89.5627992922924,26.7532776976678],[89.562620845132,26.7527661032795],[89.5624780945122,26.7519808791054],[89.5623710248675,26.7515644662794],[89.5623591678433,26.7497917729177],[89.562561454432,26.7486734248928],[89.5629779049817,26.7465438092629],[89.5630731014585,26.7458537699028],[89.563096925028,26.7448781886448],[89.5631921563668,26.7427485667423],[89.5634182640005,26.7403453169109],[89.563537257615,26.7393578374892],[89.5636681411168,26.7387867690351],[89.56370384111,26.7383703589962],[89.5638109306377,26.7379658503718],[89.5639061096185,26.7375851415569],[89.5639775075061,26.7372520223619],[89.5640251068929,26.7368594125972],[89.5640013248097,26.7361217708296],[89.5638585763968,26.7356577772237],[89.5637396064847,26.735253264187],[89.5635849569491,26.734836850433],[89.5632399484621,26.734396642922],[89.5629068273533,26.7340635158324],[89.5623476653665,26.7337898644366],[89.5620145376344,26.7337303678303],[89.5616695179159,26.7337541611391],[89.5608961926389,26.7340515765721],[89.560325121755,26.7341467455953],[89.5598730263352,26.7340039665205],[89.559373339882,26.7339087766009],[89.5590640164109,26.7336708301448],[89.5588736620679,26.7334566760523],[89.5584691734412,26.7330283574034],[89.5583353351963,26.7325564339595],[89.5583591457914,26.7321162336479],[89.5584305342521,26.7317593144116],[89.5585019195454,26.731533265406],[89.5586922859824,26.7312477286171],[89.5589778304549,26.7310335838114],[89.559251464669,26.7308313387942],[89.5593704478283,26.7306885708641],[89.5594537325158,26.7304863221324],[89.5594061486807,26.7302364707632],[89.5592157946246,26.7300104166501],[89.5589183731379,26.72968919028],[89.5580379888597,26.7291299921157],[89.5575026168135,26.7288563411872],[89.5558727069918,26.7281900682111],[89.5554682040446,26.7279402098787],[89.554528325309,26.7275713808915],[89.5533861976538,26.7271787379171],[89.5527318515869,26.7270835549834],[89.5513993557718,26.7270478289238],[89.550173939403,26.7270240149746],[89.5493530340414,26.7269169187711],[89.5488890377896,26.7268098395307],[89.5485321218464,26.7266789623376],[89.5480681393368,26.726417212826],[89.547746916471,26.7261554660996],[89.5473543155104,26.7258223278555],[89.5469747859935,26.7254494398574],[89.5470807069901,26.7245493102825],[89.5471045236233,26.7238592695353],[89.5471626119867,26.72309599142],[89.5496723169782,26.7230424081898],[89.5497813173353,26.7230164102703],[89.550201318828,26.7229114182787],[89.5532023156313,26.7227344765076],[89.5550503199318,26.7223665119089],[89.5586823158559,26.7221615823982],[89.5628323126581,26.7218676628363],[89.5641648303726,26.7218210781661],[89.5642903102732,26.7218166911889],[89.5653439085655,26.7217803124204],[89.5652825596764,26.7242197147944],[89.5653824507405,26.7258187195703],[89.5654109920156,26.7265896614903],[89.5656536724129,26.7273748876138],[89.5659534640496,26.7281030147509],[89.566410305987,26.7288025849024],[89.5668956981988,26.7294878755861],[89.5675809716415,26.7301018000446],[89.5683661699992,26.7309155868074],[89.5688801187039,26.7313296275699],[89.5692941335096,26.7319149866858],[89.569693868696,26.7324860654982],[89.5701221527746,26.7330999749438],[89.5704933366488,26.7337281533006],[89.5708074068847,26.7340993600879],[89.5711500449761,26.7345562275847],[89.5721208435617,26.735341467924],[89.5727918342722,26.7360695923114],[89.5732486706972,26.7365835721396],[89.5735484650914,26.7371974790799],[89.5739053724547,26.7376828969076],[89.5742337236661,26.7384252946337],[89.5747191082654,26.7394246758816],[89.5750188988544,26.7401956331018],[89.5752044835286,26.7408095378139],[89.5754186226263,26.7412378427544],[89.5761609858943,26.7422657890718],[89.5766178271291,26.7429939192835],[89.5769461738685,26.7435078866066],[89.5774172974875,26.7441360769204],[89.5778598611772,26.7447642566771],[89.5780597199623,26.7452068413654],[89.5782595880554,26.7456779861048],[89.5783561582815,26.7460751390104]]]},"properties":{"compartment":"Santrabari BL3"},"id":"comptt.184"}
]}
