{"type":"FeatureCollection", "features": [
{"type":"Feature","geometry":{"type":"Polygon","coordinates":[[[89.5520353714922,26.7618455225411],[89.5501023779722,26.7617774846652],[89.5481703555847,26.7629004489007],[89.5460343701177,26.7625214065141],[89.5422844295616,26.7604563296516],[89.5416533179837,26.7601892559891],[89.5416784878275,26.7597652866068],[89.5417617897278,26.7592656073582],[89.5418569678505,26.7589205786125],[89.5419759562012,26.7585636703109],[89.5421068353874,26.7581710521788],[89.5422258157562,26.757730853731],[89.5423447964128,26.7572787652623],[89.5425470657076,26.7568742585033],[89.5429872790185,26.7562793960571],[89.5431181561858,26.7559700680706],[89.5433680082435,26.7554465920319],[89.5435464787504,26.7549944947242],[89.5436773579349,26.7546018865915],[89.5437606469501,26.7542211775503],[89.5438558414119,26.7536144183453],[89.5439153445217,26.7530671385475],[89.543951048267,26.7524960682432],[89.5438915722502,26.7519249960805],[89.5439391762531,26.7513420259877],[89.5441295487455,26.7508066487658],[89.5444388886342,26.7503664540333],[89.5447839201625,26.7498548798724],[89.5450456713228,26.749367094127],[89.5451527608527,26.7489625855081],[89.5452241550825,26.7483677158583],[89.5452836587651,26.747796646018],[89.545509720878,26.7472731695128],[89.5457595755243,26.746642623284],[89.5460213258187,26.7461905276004],[89.5463663587859,26.7456194633336],[89.5467351942865,26.7449413193433],[89.5471159200449,26.7442512855637],[89.5475204425746,26.7436921124783],[89.5476632211486,26.7433233046177],[89.5477941034973,26.7427998262532],[89.5479130933656,26.7419670071131],[89.5478655161594,26.741443525265],[89.5476989752992,26.7406702006563],[89.547544330088,26.7400753265933],[89.5471755254113,26.7394804583506],[89.5466877590961,26.7385524572016],[89.5462237784005,26.7378029168307],[89.5459858531072,26.7372199411642],[89.5457955048145,26.7367559466352],[89.5456527478429,26.7362324529306],[89.5455456890535,26.7357803600479],[89.5454386283272,26.7349951265808],[89.5453434681459,26.7341861133043],[89.5453791977148,26.7329606818511],[89.5454030052187,26.7322349510422],[89.5456409793846,26.73121178389],[89.5457599611794,26.7307120953346],[89.5460217224053,26.7298079088548],[89.5462834836304,26.7289037123747],[89.5464500607743,26.7281779843506],[89.5467237271494,26.7270596377263],[89.5468784143215,26.7263339094698],[89.5469379079888,26.7257628396277],[89.5469747859935,26.7254494398574],[89.5473543155104,26.7258223278555],[89.547746916471,26.7261554660996],[89.5480681393368,26.726417212826],[89.5485321218464,26.7266789623376],[89.5488890377896,26.7268098395307],[89.5493530340414,26.7269169187711],[89.550173939403,26.7270240149746],[89.5513993557718,26.7270478289238],[89.5527318515869,26.7270835549834],[89.5533861976538,26.7271787379171],[89.554528325309,26.7275713808915],[89.5554682040446,26.7279402098787],[89.5558727069918,26.7281900682111],[89.5575026168135,26.7288563411872],[89.5580379888597,26.7291299921157],[89.5589183731379,26.72968919028],[89.5592157946246,26.7300104166501],[89.5594061486807,26.7302364707632],[89.5594537325158,26.7304863221324],[89.5593704478283,26.7306885708641],[89.559251464669,26.7308313387942],[89.5589778304549,26.7310335838114],[89.5586922859824,26.7312477286171],[89.5585019195454,26.731533265406],[89.5584305342521,26.7317593144116],[89.5583591457914,26.7321162336479],[89.5583353351963,26.7325564339595],[89.5584691734412,26.7330283574034],[89.5588736620679,26.7334566760523],[89.5590640164109,26.7336708301448],[89.559373339882,26.7339087766009],[89.5598730263352,26.7340039665205],[89.560325121755,26.7341467455953],[89.5608961926389,26.7340515765721],[89.5616695179159,26.7337541611391],[89.5620145376344,26.7337303678303],[89.5623476653665,26.7337898644366],[89.5629068273533,26.7340635158324],[89.5632399484621,26.734396642922],[89.5635849569491,26.734836850433],[89.5637396064847,26.735253264187],[89.5638585763968,26.7356577772237],[89.5640013248097,26.7361217708296],[89.5640251068929,26.7368594125972],[89.5639775075061,26.7372520223619],[89.5639061096185,26.7375851415569],[89.5638109306377,26.7379658503718],[89.56370384111,26.7383703589962],[89.5636681411168,26.7387867690351],[89.563537257615,26.7393578374892],[89.5634182640005,26.7403453169109],[89.5631921563668,26.7427485667423],[89.563096925028,26.7448781886448],[89.5630731014585,26.7458537699028],[89.5629779049817,26.7465438092629],[89.562561454432,26.7486734248928],[89.5623591678433,26.7497917729177],[89.5623710248675,26.7515644662794],[89.5624780945122,26.7519808791054],[89.562620845132,26.7527661032795],[89.5627992922924,26.7532776976678],[89.5631330970541,26.7538667948691],[89.5626655341127,26.7540417164049],[89.562152501877,26.7554247088275],[89.5636964353646,26.7580107435489],[89.5640404293463,26.7582237506441],[89.5624704288186,26.7584067203019],[89.5604664292285,26.7585956814937],[89.5590674251044,26.7589096547224],[89.5575804189474,26.759316626396],[89.5557144178824,26.7595525903654],[89.554030409216,26.7600835584086],[89.5526253960256,26.7607725321783],[89.5520353714922,26.7618455225411]]]},"properties":{"compartment":"Santrabari BL2"},"id":"comptt.188"}
]}
