{"type":"FeatureCollection", "features": [
{"type":"Feature","geometry":{"type":"Polygon","coordinates":[[[89.5957646701853,26.7450463467999],[89.5955836704367,26.7450543432796],[89.5934396978773,26.744139299778],[89.590446708275,26.7440142411111],[89.5881607028146,26.7444721972902],[89.5850677023783,26.7448051374882],[89.5814447008618,26.7452370675135],[89.5783561582815,26.7460751390104],[89.5782595880554,26.7456779861048],[89.5780597199623,26.7452068413654],[89.5778598611772,26.7447642566771],[89.5774172974875,26.7441360769204],[89.5769461738685,26.7435078866066],[89.5766178271291,26.7429939192835],[89.5761609858943,26.7422657890718],[89.5754186226263,26.7412378427544],[89.5752044835286,26.7408095378139],[89.5750188988544,26.7401956331018],[89.5747191082654,26.7394246758816],[89.5742337236661,26.7384252946337],[89.5739053724547,26.7376828969076],[89.5735484650914,26.7371974790799],[89.5732486706972,26.7365835721396],[89.5727918342722,26.7360695923114],[89.5721208435617,26.735341467924],[89.5711500449761,26.7345562275847],[89.5708074068847,26.7340993600879],[89.5704933366488,26.7337281533006],[89.5701221527746,26.7330999749438],[89.569693868696,26.7324860654982],[89.5692941335096,26.7319149866858],[89.5688801187039,26.7313296275699],[89.5683661699992,26.7309155868074],[89.5675809716415,26.7301018000446],[89.5668956981988,26.7294878755861],[89.566410305987,26.7288025849024],[89.5659534640496,26.7281030147509],[89.5656536724129,26.7273748876138],[89.5654109920156,26.7265896614903],[89.5653824507405,26.7258187195703],[89.5652825596764,26.7242197147944],[89.5653439085655,26.7217803124204],[89.5669823058463,26.7217237435406],[89.5676003010969,26.7218567558322],[89.569722302879,26.7215657967145],[89.5708713085735,26.7212128185049],[89.5729043033727,26.7212198581787],[89.5739593143103,26.7206598777676],[89.5748313257737,26.7200968937806],[89.5750793398926,26.7194878975384],[89.5757783553638,26.7187769099129],[89.5759423752045,26.7179399116268],[89.5761113967977,26.7170299133085],[89.5767204012675,26.7167829247496],[89.5774134147451,26.7161549371526],[89.5785574311728,26.7153589580539],[89.5788174361663,26.7151259627115],[89.5798714399987,26.7148599827979],[89.5808484384836,26.7148230017893],[89.5830964613104,26.7136500435517],[89.5836944055885,26.7158930592081],[89.5840403821204,26.7168280676218],[89.5839703204636,26.7193840708058],[89.5845682487324,26.7222880876423],[89.5847241799914,26.7251130957156],[89.5865021679631,26.7254291309733],[89.5889141417921,26.7262651795315],[89.590842069981,26.7290362221004],[89.5924419942959,26.7320002586191],[89.5933639356666,26.7343282807732],[89.5932809014403,26.7357502816924],[89.5928568724575,26.7369902756294],[89.5939057906382,26.7402623019528],[89.5944867554702,26.7416553157852],[89.5949427249431,26.7428693268581],[89.5955276827597,26.7445513412871],[89.5957646701853,26.7450463467999]]]},"properties":{"compartment":"Santrabari BL4"},"id":"comptt.180"}
]}
