{"type":"FeatureCollection", "features": [
{"type":"Feature","geometry":{"type":"Polygon","coordinates":[[[89.8442320606551,26.7048031248308],[89.8419450583807,26.7051090807452],[89.8372130552425,26.7056779894031],[89.8337230313272,26.7069899237704],[89.8336330309729,26.7070129220568],[89.8254500135295,26.7084957650614],[89.8185449876738,26.7102086334732],[89.8109999772175,26.7113474882646],[89.8062699797961,26.7116853965066],[89.8061819807959,26.7116523947239],[89.8069360800497,26.7074834014208],[89.8088861289836,26.7052794352623],[89.8086921855024,26.7029634270071],[89.808969230703,26.7010704287667],[89.8078013259744,26.6972443985801],[89.8090033677031,26.6954074185094],[89.8103024086769,26.6935924403722],[89.8113294319964,26.6925324583789],[89.8114552148558,26.6924025005839],[89.8123891298119,26.6925233490518],[89.8131505580841,26.6925233639187],[89.8137454273105,26.6924995754877],[89.8143402882646,26.6924044069186],[89.8152206908747,26.6922140737407],[89.8161248934317,26.6920237310273],[89.8183139913516,26.6919048035401],[89.822668399561,26.6915717579176],[89.8264755338391,26.6914528620255],[89.8324717631965,26.6913339988812],[89.8363026939972,26.6913578737357],[89.8379445149124,26.6911675454261],[89.8407046973491,26.690810678631],[89.8420847882819,26.6906441452566],[89.8430345463759,26.6906348537854],[89.8430383889116,26.691356075268],[89.842908306687,26.6947650793802],[89.843403260935,26.6966090926461],[89.8433911761709,26.7001110992449],[89.8433911734105,26.7002250994674],[89.8434125416102,26.7003414399162],[89.8442320606551,26.7048031248308]]]},"properties":{"compartment":"Kumargram BL1"},"id":"comptt.157"}
]}