{"type":"FeatureCollection", "features": [
{"type":"Feature","geometry":{"type":"Polygon","coordinates":[[[89.7769903818602,26.6457083079776],[89.7763186428809,26.6457306855947],[89.7719186447401,26.6460716004946],[89.7680376425993,26.6465295257323],[89.7632476481868,26.6467544328128],[89.7605536595804,26.6465393799057],[89.7618257032242,26.6446094010298],[89.7647768458758,26.6384154467636],[89.7673429478718,26.6339424882481],[89.7689050136696,26.6310655132006],[89.7691390433237,26.6298135153755],[89.7702360746618,26.628409534069],[89.7705850646251,26.6279631400158],[89.7707973578583,26.6282236046467],[89.7710686125891,26.628416350297],[89.7715040464274,26.6286305091859],[89.7724463122026,26.6287161877017],[89.7737383556281,26.628866123153],[89.7753016492948,26.62898036382],[89.7763081554421,26.6290446335471],[89.7777144089547,26.6291802911971],[89.7787994438344,26.6292897625408],[89.7821068836957,26.6293969071701],[89.785164483275,26.629539737003],[89.7850573868779,26.6302297762377],[89.7848908137723,26.6307889440632],[89.7844148924334,26.6321333373651],[89.7840698545687,26.6329066521232],[89.7837605071957,26.6336561775307],[89.7833678665686,26.6345484715883],[89.78280866398,26.6359523433789],[89.7824279361938,26.6367256674399],[89.7820234058784,26.6376060612416],[89.7815831847827,26.6385221444156],[89.7811191666112,26.639319256898],[89.7807741296025,26.6400568815846],[89.7803934009524,26.6408658957119],[89.7801316474842,26.6414488617252],[89.7797866107613,26.6421745863882],[89.7794415697798,26.6426623705963],[89.7790251540805,26.6433524137994],[89.7786087315394,26.6439115767522],[89.7782755999557,26.6444231612371],[89.778132819659,26.6448633592951],[89.7781327402506,26.6456706230932],[89.7774286412313,26.6456937071569],[89.7769903818602,26.6457083079776]]]},"properties":{"compartment":"C Rydak BL4"},"id":"comptt.97"}
]}