{"type":"FeatureCollection", "features": [
{"type":"Feature","geometry":{"type":"Polygon","coordinates":[[[89.7980756881575,26.6417981020886],[89.7968976792748,26.6422770800506],[89.7956036682436,26.6428560559432],[89.7931426514951,26.6437820097562],[89.790165641551,26.6444749530634],[89.7871886316387,26.6451668963674],[89.7847296289257,26.6455118491018],[89.7829186275365,26.6457408142435],[89.7796846378528,26.645619750983],[89.7781327402506,26.6456706230932],[89.778132819659,26.6448633592951],[89.7782755999557,26.6444231612371],[89.7786087315394,26.6439115767522],[89.7790251540805,26.6433524137994],[89.7794415697798,26.6426623705963],[89.7797866107613,26.6421745863882],[89.7801316474842,26.6414488617252],[89.7803934009524,26.6408658957119],[89.7807741296025,26.6400568815846],[89.7811191666112,26.639319256898],[89.7815831847827,26.6385221444156],[89.7820234058784,26.6376060612416],[89.7824279361938,26.6367256674399],[89.78280866398,26.6359523433789],[89.7833678665686,26.6345484715883],[89.7837605071957,26.6336561775307],[89.7840698545687,26.6329066521232],[89.7844148924334,26.6321333373651],[89.7848908137723,26.6307889440632],[89.7850573868779,26.6302297762377],[89.785164483275,26.629539737003],[89.7867944086978,26.6295754588217],[89.7885552035377,26.6296230832131],[89.7902803078876,26.6296944969554],[89.7922671519313,26.6297540257743],[89.7946585050588,26.6298135524741],[89.7973829797301,26.6297779154818],[89.7999964324428,26.6298341765043],[89.8000459660609,26.6300941179695],[89.8003419274481,26.6316671267624],[89.8003368638471,26.6343041317381],[89.7994387801628,26.6378571210739],[89.7982837136761,26.6407211040721],[89.7980756881575,26.6417981020886]]]},"properties":{"compartment":"C Rydak BL3"},"id":"comptt.94"}
]}