{"type":"FeatureCollection", "features": [
{"type":"Feature","geometry":{"type":"Polygon","coordinates":[[[89.7919934779825,26.6096159217982],[89.7917917344937,26.6101948089816],[89.7913515119885,26.6111703822834],[89.7911492352484,26.6118842197149],[89.7909112768689,26.6126694365886],[89.790756584859,26.613597425357],[89.7906375953474,26.6144183346149],[89.7903758350125,26.6152868411841],[89.7901616688699,26.6159768783375],[89.7898880085609,26.6168453746745],[89.7896262465034,26.6177852613797],[89.7892574084167,26.6185704757029],[89.7889480667895,26.61908206066],[89.7887220089877,26.6194270769193],[89.7882223100881,26.6198434679864],[89.7876869329905,26.6201884782218],[89.7872943110165,26.6203074508041],[89.7867827284536,26.6204621011379],[89.7862235462483,26.6210212713194],[89.784795830784,26.6226273765906],[89.7839510977569,26.6236624321203],[89.7821069763573,26.6255540698231],[89.7814407066511,26.6264344585297],[89.7805364983485,26.6272791525332],[89.779441913309,26.6284212733957],[89.7788589402968,26.629016133177],[89.7787994438344,26.6292897625408],[89.7777144089547,26.6291802911971],[89.7763081554421,26.6290446335471],[89.7753016492948,26.62898036382],[89.7737383556281,26.628866123153],[89.7724463122026,26.6287161877017],[89.7715040464274,26.6286305091859],[89.7710686125891,26.628416350297],[89.7707973578583,26.6282236046467],[89.7705850646251,26.6279631400158],[89.7709310945035,26.6275205459121],[89.7714481458775,26.6253405518287],[89.7714542233415,26.6221265458231],[89.7714592786703,26.6198305415467],[89.7701843203927,26.6182205136555],[89.7698053821075,26.615695501469],[89.769936423299,26.6139735007406],[89.7709614513331,26.6127125182925],[89.7731334545777,26.6123715599237],[89.773648481033,26.6112245677621],[89.774202562729,26.6077805719786],[89.7767415358264,26.608656623069],[89.7793905140485,26.6093096758783],[89.7818015136561,26.6090977224043],[89.7841065124985,26.6089277669474],[89.7846234523121,26.6088899080136],[89.7846935121973,26.6088847782915],[89.7873445008385,26.6091058303192],[89.7897544900572,26.6093258776552],[89.7919934779825,26.6096159217982]]]},"properties":{"compartment":"C Rydak BL5"},"id":"comptt.79"}
]}