{"type":"FeatureCollection", "features": [
{"type":"Feature","geometry":{"type":"Polygon","coordinates":[[[89.4943868832781,26.5986899158271],[89.4915473147174,26.598927591102],[89.4898341044617,26.5991179181652],[89.4852084192108,26.5998221495625],[89.4822578893472,26.6001266627978],[89.4809444253504,26.600431207818],[89.4793454220774,26.6007357472939],[89.478787439283,26.6009108167601],[89.4788814469733,26.6005808180201],[89.4791464811612,26.5991298206807],[89.4800005472694,26.5962878323925],[89.4811156252456,26.5929238482729],[89.4816226513894,26.5917818561567],[89.4851448541411,26.5912970036918],[89.4885355933038,26.5909758389561],[89.4941749128172,26.5904048774377],[89.4979225628235,26.5900123395075],[89.5020112085346,26.5897161385168],[89.5020136492318,26.5897342484419],[89.5020746381277,26.5901902504139],[89.5011036042032,26.5917042341795],[89.4981995441236,26.5945091826435],[89.495780498367,26.5966671393996],[89.4940834868781,26.5973231075816],[89.4943868832781,26.5986899158271]]]},"properties":{"compartment":"Poro BL4"},"id":"comptt.51"}
]}