{"type":"FeatureCollection", "features": [
{"type":"Feature","geometry":{"type":"Polygon","coordinates":[[[89.5080809537229,26.5697502716058],[89.50284851622,26.5697750801438],[89.4982442820427,26.5695965305207],[89.4931403474256,26.569489361332],[89.4898122633346,26.5691749062365],[89.4899521848307,26.5686809781007],[89.4905432320597,26.5666499860699],[89.4910002615141,26.5653739927378],[89.4910022712461,26.564967992078],[89.4910072949037,26.5639809904767],[89.4906283390688,26.5621789800264],[89.4902483887948,26.5601449691586],[89.4900654421918,26.557936961812],[89.4903324888186,26.5559639635947],[89.4906625199663,26.5546299676975],[89.4908705342329,26.5540129706683],[89.4913525311047,26.5540929801504],[89.4955625063962,26.5546830627868],[89.4973495017717,26.5546890974433],[89.4996454820672,26.5552711429634],[89.5015564578399,26.5560821814166],[89.504744427591,26.5570112448383],[89.5055154273892,26.5569392596639],[89.5063103965345,26.5581432771635],[89.5079923662191,26.5592323116664],[89.5082213032982,26.5618323206108],[89.5077332681839,26.56334731377],[89.5065172089589,26.5659432946789],[89.5081941526633,26.5681153309694],[89.5080809537229,26.5697502716058]]]},"properties":{"compartment":"Poro BL9"},"id":"comptt.20"}
]}