{"type":"FeatureCollection", "features": [
{"type":"Feature","geometry":{"type":"Polygon","coordinates":[[[89.5020112085346,26.5897161385168],[89.4979225628235,26.5900123395075],[89.4941749128172,26.5904048774377],[89.4885355933038,26.5909758389561],[89.4851448541411,26.5912970036918],[89.4816226513894,26.5917818561567],[89.4822256823323,26.590429865543],[89.4834037629146,26.586949882438],[89.4851048588483,26.5827749082835],[89.4859569165615,26.5802809205339],[89.4868749796695,26.5775549336635],[89.4877220220733,26.5756989469075],[89.487856044003,26.5747709479124],[89.4886410907324,26.5727409596518],[89.489426141632,26.5705369710898],[89.4896561605083,26.5697259741566],[89.4898122633346,26.5691749062365],[89.4931403474256,26.569489361332],[89.4982442820427,26.5695965305207],[89.50284851622,26.5697750801438],[89.5080809537229,26.5697502716058],[89.5080581058613,26.5700803317344],[89.5079370649677,26.5717973323604],[89.5086479955689,26.5746153510358],[89.5088779325713,26.5772163600042],[89.5074198687477,26.5800273365792],[89.5057238211422,26.5821873074037],[89.5025847928539,26.5836932490872],[89.5016077225549,26.5867232353597],[89.5020112085346,26.5897161385168]]]},"properties":{"compartment":"Poro BL8"},"id":"comptt.43"}
]}