{"type":"FeatureCollection", "features": [
{"type":"Feature","geometry":{"type":"Polygon","coordinates":[[[89.4957750991898,26.6132771679264],[89.4956541003601,26.6132411655137],[89.4950521003137,26.613306153931],[89.4933910964928,26.6136391222374],[89.4876590853729,26.6147030127159],[89.4821520786167,26.6155629072123],[89.4808120751797,26.6158468816682],[89.4802431196085,26.6140588675522],[89.4799301748518,26.6117938575929],[89.4791692578293,26.6084218370383],[89.4784693266523,26.6056318186677],[89.4784133742524,26.6036568141994],[89.4784874242815,26.6015668120584],[89.4787484361623,26.6010448162323],[89.478787439283,26.6009108167601],[89.4793454220774,26.6007357472939],[89.4809444253504,26.600431207818],[89.4822578893472,26.6001266627978],[89.4852084192108,26.5998221495625],[89.4898341044617,26.5991179181652],[89.4915473147174,26.598927591102],[89.4943868832781,26.5986899158271],[89.4944224493397,26.5988501167937],[89.4945634338727,26.599479120615],[89.4955214001304,26.6007831414638],[89.4941133483837,26.6030841180859],[89.4940653466782,26.6031601172847],[89.4947803031589,26.6048961341602],[89.4957342486026,26.6070661564272],[89.4957922213917,26.608192159494],[89.4959561438854,26.6113991682061],[89.4957750991898,26.6132771679264]]]},"properties":{"compartment":"Poro BL3"},"id":"comptt.67"}
]}