{"type":"FeatureCollection", "features": [
{"type":"Feature","geometry":{"type":"Polygon","coordinates":[[[89.5747726698925,26.6320963264433],[89.5745424503037,26.6321027319767],[89.5713004561288,26.632191669077],[89.5686484628461,26.6321836174819],[89.565866468493,26.6322335634622],[89.5637964709459,26.632343523397],[89.5621144752144,26.6323384906752],[89.559462479159,26.6324464392882],[89.5593014795806,26.6324454361552],[89.5593365088453,26.6312264346845],[89.558443596396,26.6276814110634],[89.5571027088395,26.623147376992],[89.5564217538875,26.621345360575],[89.5583782966837,26.6210284780525],[89.5615608259916,26.6207310993986],[89.5668848779095,26.6201066018001],[89.5696509982641,26.6198092150509],[89.5737772259067,26.619486044699],[89.5738863803848,26.6197043672087],[89.5740672050522,26.6203230318226],[89.5746667960923,26.6214651855082],[89.5749047303891,26.62209337125],[89.5751045913425,26.6228643165051],[89.575256861576,26.623254550159],[89.5753520312619,26.6236733427533],[89.5754947791462,26.624577547135],[89.5755042585682,26.6262622003114],[89.5754851819522,26.6277850626451],[89.5754661151875,26.6288986542521],[89.575428032906,26.6294126144242],[89.5753899540616,26.6297838143429],[89.5752566947634,26.630183562461],[89.5751139166343,26.6305357203094],[89.5749996986642,26.6308783586963],[89.574914033145,26.6311162974527],[89.5747902949688,26.6314684556712],[89.5747726698925,26.6320963264433]]]},"properties":{"compartment":"S RVBK BL11"},"id":"comptt.85"}
]}