{"type":"FeatureCollection", "features": [
{"type":"Feature","geometry":{"type":"Polygon","coordinates":[[[89.5888254521009,26.6305750070756],[89.5852024462965,26.631183937689],[89.5828654447458,26.6314858927692],[89.5786914493903,26.6317178119934],[89.5751174492766,26.6320867431324],[89.5747726698925,26.6320963264433],[89.5747902949688,26.6314684556712],[89.574914033145,26.6311162974527],[89.5749996986642,26.6308783586963],[89.5751139166343,26.6305357203094],[89.5752566947634,26.630183562461],[89.5753899540616,26.6297838143429],[89.575428032906,26.6294126144242],[89.5754661151875,26.6288986542521],[89.5754851819522,26.6277850626451],[89.5755042585682,26.6262622003114],[89.5754947791462,26.624577547135],[89.5753520312619,26.6236733427533],[89.575256861576,26.623254550159],[89.5751045913425,26.6228643165051],[89.5749047303891,26.62209337125],[89.5746667960923,26.6214651855082],[89.5740672050522,26.6203230318226],[89.5738863803848,26.6197043672087],[89.5737772259067,26.619486044699],[89.5761052845831,26.6193037096376],[89.5780980875705,26.6189765678007],[89.5812508705836,26.6185304783048],[89.5842252011784,26.6182033655509],[89.586277485466,26.6178167347636],[89.5872587609213,26.6179059540015],[89.587136697489,26.6205539563518],[89.5873706371497,26.6230369653303],[89.587913570534,26.6257489807274],[89.5882705257694,26.6275719909227],[89.588805454269,26.6304870065296],[89.5888254521009,26.6305750070756]]]},"properties":{"compartment":"S RVBK BL12"},"id":"comptt.84"}
]}