{"type":"FeatureCollection", "features": [
{"type":"Feature","geometry":{"type":"Polygon","coordinates":[[[89.5872587609213,26.6179059540015],[89.586277485466,26.6178167347636],[89.5842252011784,26.6182033655509],[89.5812508705836,26.6185304783048],[89.5780980875705,26.6189765678007],[89.5761052845831,26.6193037096376],[89.5737772259067,26.619486044699],[89.5735818257915,26.6190952202063],[89.573115483734,26.6179816191636],[89.5727918983472,26.6169917511164],[89.5724302453424,26.6159067121607],[89.572021007262,26.6146217919261],[89.5717355006325,26.6136795147048],[89.571440482039,26.6124041167084],[89.5709741347797,26.6110906453148],[89.5707076558099,26.6102435486335],[89.5704792488061,26.6093107925405],[89.5704433737978,26.6091069114819],[89.571647571569,26.6090766748316],[89.5779293471541,26.6086199461075],[89.5820600862008,26.6082393057138],[89.5844776162423,26.6079918922598],[89.5872873652879,26.6077462864325],[89.5873100016571,26.6078949371376],[89.5871849836333,26.6086569360672],[89.5869609334712,26.6107649354728],[89.5869348456707,26.6144169414801],[89.5870368205173,26.6154519453089],[89.5872727675533,26.6176289537797],[89.5872587609213,26.6179059540015]]]},"properties":{"compartment":"S RVBK BL13"},"id":"comptt.72"}
]}