{"type":"FeatureCollection", "features": [
{"type":"Feature","geometry":{"type":"Polygon","coordinates":[[[89.5737772259067,26.619486044699],[89.5696509982641,26.6198092150509],[89.5668848779095,26.6201066018001],[89.5615608259916,26.6207310993986],[89.5583782966837,26.6210284780525],[89.5564217538875,26.621345360575],[89.5557607975105,26.6196003446489],[89.5541578868103,26.6160533072391],[89.5522319853113,26.6121562629437],[89.5506700472065,26.6097432283425],[89.5540966915035,26.6096283747281],[89.5620345687953,26.609342988482],[89.5678594785845,26.6091717813802],[89.5704433737978,26.6091069114819],[89.5704792488061,26.6093107925405],[89.5707076558099,26.6102435486335],[89.5709741347797,26.6110906453148],[89.571440482039,26.6124041167084],[89.5717355006325,26.6136795147048],[89.572021007262,26.6146217919261],[89.5724302453424,26.6159067121607],[89.5727918983472,26.6169917511164],[89.573115483734,26.6179816191636],[89.5735818257915,26.6190952202063],[89.5737772259067,26.619486044699]]]},"properties":{"compartment":"S RVBK BL14"},"id":"comptt.73"}
]}