{"type":"FeatureCollection", "features": [
{"type":"Feature","geometry":{"type":"Polygon","coordinates":[[[89.5588534757651,26.6981564433932],[89.5568575273463,26.6982960347352],[89.5548587895518,26.6984102159782],[89.5538023078084,26.6985910357044],[89.5503092524699,26.6991715486422],[89.5482629083664,26.6995522294259],[89.5471493135519,26.6998662982724],[89.5463593332212,26.699961453042],[89.5447413049552,26.700056601672],[89.5430185778726,26.7001136781949],[89.5416099388585,26.7002183509231],[89.5404202099895,26.7002944678681],[89.5389449395355,26.7004657594146],[89.5374316077988,26.7006941603192],[89.5358326044387,26.700998699687],[89.5339099912012,26.7013317827973],[89.5325394177337,26.7016172965835],[89.5312782034834,26.7019239425378],[89.5311678765848,26.7018070101833],[89.5311028784147,26.701738008796],[89.5303678990522,26.7009599931135],[89.5288869405948,26.699393961519],[89.5275349757491,26.6980789328792],[89.525883060658,26.6947348948618],[89.5257811414478,26.6913998870651],[89.5281741410267,26.6911689332841],[89.5321251420229,26.6907180094735],[89.5351661398016,26.6904950683317],[89.5367211357945,26.6905000986369],[89.5389861369711,26.6902171422717],[89.541640138558,26.6898771933857],[89.544360141387,26.6894792456838],[89.5471451412354,26.6891982994533],[89.5492151401403,26.6890303394904],[89.5503081387256,26.6889763606919],[89.5507907798579,26.6888968524593],[89.5508282103111,26.6892712713439],[89.5508710353779,26.6894711525299],[89.5512993201777,26.6900565019048],[89.5523985946903,26.6914128257115],[89.5536263657785,26.6928976322508],[89.5547970249379,26.6940540771011],[89.556410265755,26.6955103411075],[89.5572097323869,26.6963955182495],[89.5581805351435,26.6974234689838],[89.5586802056253,26.6977661193273],[89.5588657986111,26.6980373834233],[89.5588534757651,26.6981564433932]]]},"properties":{"compartment":"N RVBK BL9"},"id":"comptt.150"}
]}