{"type":"FeatureCollection", "features": [
{"type":"Feature","geometry":{"type":"Polygon","coordinates":[[[89.545898324291,26.7231293347251],[89.545415336504,26.7230876952307],[89.5430453782659,26.7236729900286],[89.5412607858205,26.7239584957184],[89.5393619750452,26.7241868890801],[89.5377772538319,26.7244010085434],[89.5360354819781,26.7246579550181],[89.5339225196761,26.7249720043521],[89.5326518863009,26.7252432400413],[89.5308672835263,26.7255430157548],[89.5291112462083,26.7256143616268],[89.5269554578252,26.7257713698512],[89.5263503078803,26.7258319581532],[89.5261613462822,26.7242639517357],[89.5259103933015,26.7223459434998],[89.525791446973,26.7201389373354],[89.5256024909974,26.7183379305134],[89.5256155653593,26.7152609254083],[89.5256226109833,26.7133729222568],[89.5265306114344,26.7132599397631],[89.5275986100582,26.7132059604918],[89.5286346094886,26.7131219805443],[89.5299286068465,26.7130970057301],[89.5312586055176,26.7130140315168],[89.5320346049019,26.7129590465508],[89.5332646052279,26.7128180702866],[89.5348826052605,26.7126491015385],[89.5377006050244,26.7123671559904],[89.5393826056042,26.7121691884395],[89.5408406053441,26.7120292166226],[89.5411126051721,26.7120082218894],[89.5413845966115,26.712334227764],[89.5432055113587,26.7156722691229],[89.5438524504267,26.7181252860413],[89.5444403744695,26.7212053029108],[89.5453173414161,26.7224813222551],[89.545898324291,26.7231293347251]]]},"properties":{"compartment":"Raimatong BL5"},"id":"comptt.168"}
]}