{"type":"FeatureCollection", "features": [
{"type":"Feature","geometry":{"type":"Polygon","coordinates":[[[89.5003827926223,26.7279236942818],[89.5002513225177,26.7279504527925],[89.4990843199629,26.728178430426],[89.4978543189719,26.7283484067307],[89.4982348077328,26.7275328227453],[89.4988820409515,26.7265049135956],[89.4997767417009,26.7255531394021],[89.5002336117185,26.724677506801],[89.5006714517837,26.7238018738283],[89.5011854398141,26.7230023824714],[89.5018707461555,26.7218412138303],[89.502567961545,26.720718125486],[89.5031033485991,26.7199567046102],[89.5041860386492,26.718600433377],[89.5047809146891,26.7178747037213],[89.5052330238995,26.7174464117956],[89.5057327252904,26.7169229406331],[89.5060777533337,26.7165541267222],[89.5063395024503,26.7161496211258],[89.5067083356099,26.7155666573083],[89.5071366552331,26.7147100641769],[89.5075768722377,26.7139605414622],[89.5078743150017,26.7134013662931],[89.5080291282812,26.7128885988094],[89.5097259581752,26.7130831798832],[89.5154095642627,26.7134469306728],[89.517705741122,26.7135151339458],[89.5197291048892,26.7133559929754],[89.5227527833277,26.7134469306728],[89.5256400552202,26.7133787273997],[89.5256024909974,26.7183379305134],[89.525791446973,26.7201389373354],[89.5259103933015,26.7223459434998],[89.5261613462822,26.7242639517357],[89.5263503078803,26.7258319581532],[89.5263583064572,26.7258899584103],[89.525053308432,26.7259439330501],[89.5222053102033,26.7261668778881],[89.5202623124349,26.7262768401819],[89.5186443166565,26.7262708086132],[89.5170253180528,26.7263817772286],[89.5151473229349,26.7263757405897],[89.5129463258536,26.7264846978508],[89.5113273272819,26.7265946664652],[89.508800325445,26.7269346177687],[89.5067283252436,26.7271595777472],[89.5049813255775,26.7273285439674],[89.5032313273487,26.7274385100273],[89.5019363265423,26.7276074850629],[89.5003827926223,26.7279236942818]]]},"properties":{"compartment":"Raimatong BL6"},"id":"comptt.170"}
]}