{"type":"FeatureCollection", "features": [
{"type":"Feature","geometry":{"type":"Polygon","coordinates":[[[89.5131813914065,26.7009813474503],[89.5131569925389,26.7017777891235],[89.513014185823,26.7033125390016],[89.5128594966677,26.7041215573896],[89.512669129614,26.7048472849377],[89.5124668594884,26.7052874817586],[89.5120147605676,26.7057038836691],[89.5113841808858,26.7065842729047],[89.5107060130486,26.7073932810885],[89.5100635456962,26.7081784899262],[89.5091474275343,26.7094395842532],[89.5086715109106,26.7101772062535],[89.5084692493456,26.7106768931758],[89.5083383581116,26.7115691921686],[89.5082431610996,26.7122830315482],[89.508064689761,26.7127708189133],[89.5080291282812,26.7128885988094],[89.5076839791416,26.712836241605],[89.5074103415583,26.7127648561472],[89.507017733413,26.7127291584321],[89.5062919958227,26.7127053442436],[89.505780417116,26.7127053342711],[89.5052450427829,26.7125268635263],[89.5047215687072,26.7123365029931],[89.5038768674573,26.7120628460545],[89.503329594305,26.7118367849962],[89.5026990548139,26.7114679520684],[89.5023897301969,26.7112775957103],[89.5018186668178,26.7110634242094],[89.5014141638795,26.7108135758937],[89.5007955160834,26.7103733630756],[89.500545673041,26.7101116177542],[89.5002482481066,26.7099331516492],[89.4998913359104,26.7096476042],[89.4993797669805,26.7092430935316],[89.4989514664025,26.7088980545889],[89.4984144901391,26.7083858432402],[89.4987488064793,26.7080883892429],[89.5000668660791,26.7054834104371],[89.5010959264529,26.7028764259919],[89.5015389829402,26.7004914305083],[89.5015645362526,26.7003516107648],[89.5017737136964,26.7004355449854],[89.5020830396956,26.7005688012427],[89.5025351255637,26.7006925402653],[89.5027635533767,26.7007591748313],[89.5032489597354,26.7008591244623],[89.5035392562429,26.7009733403161],[89.5038723726421,26.7010875570044],[89.5044719892872,26.7011637188199],[89.5052001048035,26.701273183197],[89.5058663497866,26.7014112064181],[89.5065135549332,26.70154446926],[89.5072226294638,26.7016967733408],[89.5078508048889,26.7018205157958],[89.5085694021554,26.7018585998649],[89.5097305681904,26.7019014525665],[89.5103777869026,26.7018871851541],[89.5110821061606,26.7018443688051],[89.511662699065,26.7016635398058],[89.5121338329353,26.7014541586239],[89.5125526171676,26.7012352564054],[89.5131813914065,26.7009813474503]]]},"properties":{"compartment":"Raimatong BL8"},"id":"comptt.159"}
]}