{"type":"FeatureCollection", "features": [
{"type":"Feature","geometry":{"type":"Polygon","coordinates":[[[89.4960517867442,26.7286287711907],[89.4938943209499,26.728682330076],[89.4914663224302,26.7288762830584],[89.4886783258718,26.7290272289466],[89.4859363321293,26.7290571755248],[89.4837353418265,26.7288881323131],[89.4826583505224,26.7286421108893],[89.4826013506678,26.7286421097777],[89.483510523487,26.7213991150921],[89.4841235638198,26.7196661240726],[89.4822516203427,26.7175250839113],[89.4848357542208,26.7117131243168],[89.4939397497113,26.7109423004309],[89.4952497651872,26.7101643246244],[89.4972887787677,26.7093883630283],[89.4982497970155,26.708532380283],[89.4984144901391,26.7083858432402],[89.4989514664025,26.7088980545889],[89.4993797669805,26.7092430935316],[89.4998913359104,26.7096476042],[89.5002482481066,26.7099331516492],[89.500545673041,26.7101116177542],[89.5007955160834,26.7103733630756],[89.5014141638795,26.7108135758937],[89.5018186668178,26.7110634242094],[89.5023897301969,26.7112775957103],[89.5026990548139,26.7114679520684],[89.503329594305,26.7118367849962],[89.5038768674573,26.7120628460545],[89.5047215687072,26.7123365029931],[89.5052450427829,26.7125268635263],[89.505780417116,26.7127053342711],[89.5062919958227,26.7127053442436],[89.507017733413,26.7127291584321],[89.5074103415583,26.7127648561472],[89.5076839791416,26.712836241605],[89.5080291282812,26.7128885988094],[89.5078743150017,26.7134013662931],[89.5075768722377,26.7139605414622],[89.5071366552331,26.7147100641769],[89.5067083356099,26.7155666573083],[89.5063395024503,26.7161496211258],[89.5060777533337,26.7165541267222],[89.5057327252904,26.7169229406331],[89.5052330238995,26.7174464117956],[89.5047809146891,26.7178747037213],[89.5041860386492,26.718600433377],[89.5031033485991,26.7199567046102],[89.502567961545,26.720718125486],[89.5018707461555,26.7218412138303],[89.5011854398141,26.7230023824714],[89.5006714517837,26.7238018738283],[89.5002336117185,26.724677506801],[89.4997767417009,26.7255531394021],[89.4988820409515,26.7265049135956],[89.4982348077328,26.7275328227453],[89.4978543189719,26.7283484067307],[89.4972713176943,26.7284623955571],[89.4966873164195,26.7285763843639],[89.4966313156426,26.7286143833372],[89.4960517867442,26.7286287711907]]]},"properties":{"compartment":"Raimatong BL7"},"id":"comptt.171"}
]}