{"type":"FeatureCollection", "features": [
{"type":"Feature","geometry":{"type":"Polygon","coordinates":[[[89.5312782034834,26.7019239425378],[89.529591485527,26.7020142698212],[89.528830056286,26.702061845064],[89.5277117039167,26.7022759736409],[89.5269978613958,26.7024544200393],[89.5261769474195,26.7027042444751],[89.5255939742835,26.7028945934447],[89.5253492980741,26.702763118447],[89.5250066510037,26.7026774516196],[89.5244831746176,26.7025822612515],[89.5240977065053,26.7025441836726],[89.5236694112599,26.7023918950602],[89.523193518089,26.7021586953796],[89.5226272192841,26.7017541736389],[89.5219562233863,26.7012401996679],[89.520837906545,26.700397846409],[89.519933727211,26.6996363974651],[89.5195672970984,26.6992651996793],[89.5190009988681,26.6988368778996],[89.5184061479506,26.6985227757626],[89.5179302642052,26.6983133761257],[89.5174067759819,26.6982943358921],[89.5170308243992,26.6983990187482],[89.5168166699954,26.6986036549306],[89.5165216030368,26.6989224897345],[89.5161075738486,26.6993460324019],[89.5156792656161,26.6997314947249],[89.5154793819812,26.6999028111272],[89.5148940259834,26.7002121302574],[89.5140469390357,26.7005880744028],[89.5132950225386,26.7009354603527],[89.5131813914065,26.7009813474503],[89.5125526171676,26.7012352564054],[89.5121338329353,26.7014541586239],[89.511662699065,26.7016635398058],[89.5110821061606,26.7018443688051],[89.5103777869026,26.7018871851541],[89.5097305681904,26.7019014525665],[89.5085694021554,26.7018585998649],[89.5078508048889,26.7018205157958],[89.5072226294638,26.7016967733408],[89.5065135549332,26.70154446926],[89.5058663497866,26.7014112064181],[89.5052001048035,26.701273183197],[89.5044719892872,26.7011637188199],[89.5038723726421,26.7010875570044],[89.5035392562429,26.7009733403161],[89.5032489597354,26.7008591244623],[89.5027635533767,26.7007591748313],[89.5025351255637,26.7006925402653],[89.5020830396956,26.7005688012427],[89.5017737136964,26.7004355449854],[89.5015645362526,26.7003516107648],[89.5017080048537,26.6995664322047],[89.5026190364096,26.6981644475343],[89.5029050462884,26.6977254523485],[89.5037171059831,26.6951684637521],[89.5045991615829,26.6927734767966],[89.5039471813373,26.6920234627999],[89.5030112467585,26.6894114400563],[89.5036152533676,26.6890744512388],[89.5045232722441,26.6881974674091],[89.5052832915425,26.6873184806924],[89.5060423173599,26.6861694934886],[89.5063463296503,26.6856284984739],[89.50657534867,26.6848165015296],[89.5063563884632,26.6831904944528],[89.5060604186744,26.6819694865774],[89.5059904466487,26.6808174832224],[89.5062984883375,26.6790574861765],[89.5064575304225,26.6772964862271],[89.506389573076,26.6755354818577],[89.5066986131111,26.6738434849472],[89.5077566299823,26.6730335041429],[89.5094946368928,26.6725655371675],[89.5107156370269,26.6724325607071],[89.5110858969647,26.6723922675505],[89.5113036370908,26.6723685720433],[89.5128876280889,26.6725766032408],[89.5142416098498,26.6731916306675],[89.5157435781892,26.674347661916],[89.5171735450445,26.6755726918849],[89.5177725206207,26.6765227051978],[89.5182164769692,26.6782857169057],[89.5190334061945,26.6811337377637],[89.5198543386817,26.6838457584662],[89.5215012739134,26.6863577949131],[89.5230691815235,26.6900218318315],[89.5246431136602,26.6926688671038],[89.525883060658,26.6947348948618],[89.5275349757491,26.6980789328792],[89.5288869405948,26.699393961519],[89.5303678990522,26.7009599931135],[89.5311028784147,26.701738008796],[89.5311678765848,26.7018070101833],[89.5312782034834,26.7019239425378]]]},"properties":{"compartment":"Raimatong BL10"},"id":"comptt.151"}
]}