{"type":"FeatureCollection", "features": [
{"type":"Feature","geometry":{"type":"Polygon","coordinates":[[[89.5411126051721,26.7120082218894],[89.5408406053441,26.7120292166226],[89.5393826056042,26.7121691884395],[89.5377006050244,26.7123671559904],[89.5348826052605,26.7126491015385],[89.5332646052279,26.7128180702866],[89.5320346049019,26.7129590465508],[89.5312586055176,26.7130140315168],[89.5299286068465,26.7130970057301],[89.5286346094886,26.7131219805443],[89.5275986100582,26.7132059604918],[89.5265306114344,26.7132599397631],[89.5256226109833,26.7133729222568],[89.5227527833277,26.7134469306727],[89.5197319466922,26.7133567034261],[89.5177028993189,26.7135158443966],[89.5154095198595,26.7134469306728],[89.5097257361601,26.7130829578673],[89.5080302454193,26.7128882943589],[89.5080586634498,26.7127746222371],[89.5082405388445,26.7122943575228],[89.5083456855572,26.7114972317692],[89.508467883088,26.7106773715912],[89.5086682302026,26.7101786351571],[89.509154178523,26.7094283991536],[89.5100635554969,26.7081751640115],[89.5108137915003,26.7072544198255],[89.5113906775181,26.7065780707012],[89.5120101905815,26.70570847897],[89.5124705626745,26.7052850503165],[89.5126694888876,26.7048474126478],[89.5128542060854,26.7041255946748],[89.5130161888588,26.7033043135953],[89.5131525954049,26.7018038415885],[89.5131813908624,26.7009813616233],[89.513188117943,26.7009785975258],[89.513197509214,26.7009748232562],[89.5132102751261,26.7009696502866],[89.5148593201462,26.700219791711],[89.5154788332088,26.6999071933767],[89.5161324479079,26.6993274655566],[89.5168258478496,26.6985942803724],[89.5170247740623,26.6983896705535],[89.5173998920636,26.6982930492502],[89.517934151035,26.6983101000684],[89.5183859977183,26.6985104471827],[89.5187724829317,26.6987164779031],[89.5190040898794,26.6988386754338],[89.5195639250782,26.6992592622836],[89.5199333594734,26.6996365116371],[89.519950765517,26.6996500102016],[89.520001207521,26.6996922820218],[89.5201038676558,26.6997789570145],[89.5201976471561,26.699858882725],[89.520326593969,26.6999672264659],[89.5204253466246,26.7000499939794],[89.5205450575777,26.7001512332127],[89.5208359871639,26.700397404401],[89.5213034637639,26.7007483670764],[89.521770940364,26.7011007506533],[89.5226121140636,26.7017401563373],[89.5231932627853,26.7021593222856],[89.523673527499,26.7023937710364],[89.5240969561519,26.702545807499],[89.5244820204637,26.702581330037],[89.525004912223,26.7026751095373],[89.5253544539969,26.7027632054315],[89.5255939742835,26.7028945934447],[89.5261769474195,26.7027042444751],[89.5269978613958,26.7024544200393],[89.5277117039167,26.7022759736409],[89.528830056286,26.702061845064],[89.529591485527,26.7020142698212],[89.5312782034834,26.7019239425378],[89.5318538573016,26.7025340248227],[89.5357987719394,26.7056581071762],[89.5411126051721,26.7120082218894]]]},"properties":{"compartment":"Raimatong BL9"},"id":"comptt.160"}
]}