{"type":"FeatureCollection", "features": [
{"type":"Feature","geometry":{"type":"Polygon","coordinates":[[[89.5218565155192,26.785216554189702],[89.521185735995,26.7857070524764],[89.5201546972181,26.7874120352887],[89.5189626222885,26.790623017570002],[89.5177635673964,26.7930089982756],[89.5171845078946,26.795519991318002],[89.51458244258251,26.798480945579502],[89.5126564072965,26.8001349107852],[89.51134837683091,26.8015258876175],[89.5098453406176,26.803173861079102],[89.5091653208232,26.8040598493147],[89.5076763708039,26.802157816900003],[89.5062604159082,26.8004487862508],[89.5041274490882,26.7993057425635],[89.5021544749419,26.798447702500802],[89.5000984855171,26.7982276619195],[89.49740950465271,26.797721608469402],[89.495054517479,26.797440561940203],[89.4942395332026,26.7968785450375],[89.491558565366,26.7958354908265],[89.4884865623118,26.7962844315408],[89.48460178286841,26.7962586955502],[89.48508745741181,26.7960203646357],[89.4858584044512,26.7956491790698],[89.4866483928284,26.795220893777802],[89.48748596877421,26.794887779579202],[89.4883901775535,26.7944309464702],[89.4892848547405,26.7940407332891],[89.4900558103959,26.793726657820002],[89.49100759651421,26.7933745158201],[89.4919118018305,26.7930604429554],[89.4931681567114,26.7927273369415],[89.4943483808632,26.7924323095047],[89.4956808848593,26.792127765028102],[89.4962233969423,26.7919850053872],[89.4974987924722,26.7916233496952],[89.49867901824581,26.791261692142502],[89.5005445143556,26.790814397837302],[89.50217208361501,26.790262388699603],[89.5030477280882,26.789986385339603],[89.5043707162765,26.7895105203784],[89.5057317732144,26.7890822462432],[89.5067501896378,26.7887110655085],[89.50796847647871,26.7883018286145],[89.5091106265171,26.7877688500173],[89.5103003671288,26.7872073123003],[89.5114234867553,26.7866933733629],[89.51304152674591,26.7861128139836],[89.5141551243199,26.7856845350076],[89.5154019720198,26.7852372186025],[89.5160682244913,26.7850659113279],[89.5170295278339,26.7848279797047],[89.5179146874429,26.7847518568744],[89.5192947755706,26.784685253734903],[89.52028462376201,26.7846567230338],[89.52103652932131,26.784761437913602],[89.5214077239948,26.784942285484302],[89.5218565155192,26.785216554189702]]]},"properties":{"compartment":"Adma BL1","Division":"BTR_W","Range":"Pana","Beat":"Adma","DIVISION":"BTR_W","BEAT_NAME":"Adma"},"id":"comptt.213"},
{"type":"Feature","geometry":{"type":"Polygon","coordinates":[[[89.48460178286841,26.7962586955502],[89.4837935750662,26.796253339741103],[89.483622575164,26.7962673364222],[89.481872577241,26.7963663023809],[89.4818096200779,26.7946082981356],[89.4815396557953,26.7931652903843],[89.4813286905579,26.791755283843102],[89.4807687777793,26.7882202668397],[89.47971484676731,26.785488241561],[89.4786819438797,26.7815942147066],[89.4792310205756,26.7783742199184],[89.4799770794168,26.775869230201103],[89.48122012449261,26.7738792510725],[89.4818931746112,26.7717412605531],[89.4823972078471,26.7703172679556],[89.4824592928434,26.7701418291862],[89.4826902271717,26.769489272258202],[89.4826762623581,26.7680392694978],[89.4828603208382,26.7656072689197],[89.4837533858616,26.762830281594002],[89.4840964363848,26.7607092846517],[89.4839484759441,26.759092278986802],[89.48329755142841,26.756045261048403],[89.4838635497173,26.756056272117203],[89.486021548476,26.7558803139454],[89.4867365606329,26.7560970108197],[89.4868777621483,26.756464171664803],[89.48708714100711,26.7569019965051],[89.4877152986518,26.7577586102418],[89.4881911749856,26.7582725904169],[89.4887051275323,26.758938851597602],[89.4891238967789,26.7593386104618],[89.4894094314388,26.759528966364602],[89.48990434556521,26.7597193363558],[89.4904373377496,26.759985847221802],[89.4907418995933,26.7602904236929],[89.4916365662438,26.7607473019494],[89.4924754284081,26.7612013067079],[89.49237893820771,26.761413567593202],[89.492378931288,26.7616990980848],[89.4924741064324,26.761889460271203],[89.4926834954382,26.761908494393],[89.4930071027689,26.7619846508435],[89.4935972075763,26.762136942629603],[89.49428247568281,26.7625557467335],[89.4957101342885,26.7632886458776],[89.4961479455622,26.7636027449695],[89.4963955398495,26.7638114401945],[89.4968141802571,26.7641643089495],[89.4975089678784,26.764602143274303],[89.49798484720941,26.7649923932419],[89.49872723378691,26.7654682985629],[89.4991840745508,26.7658014280608],[89.4999740398538,26.7663249243942],[89.501011472913,26.7669150556769],[89.5018204843978,26.7671815719397],[89.5026675541713,26.767514709061302],[89.50349560537781,26.767790745713203],[89.5046758061528,26.768047749211302],[89.5058274553858,26.768371382267702],[89.5071123526666,26.768761638043003],[89.50802605181211,26.769113816502003],[89.5088350575306,26.7696182831801],[89.5094061145445,26.7700941851608],[89.50986295230891,26.7705510548776],[89.5100723418543,26.7709603196777],[89.5102626754465,26.7716170545349],[89.5107004809502,26.772169104045602],[89.51108118983011,26.77258789221],[89.5119853597667,26.773320791147],[89.51271822129111,26.774006086655103],[89.51314650797211,26.774510545899002],[89.51386032885121,26.7752244010859],[89.514507521515,26.775871624856002],[89.5150690553185,26.7764807768866],[89.5154497690451,26.7766996947064],[89.5157257864998,26.7767758502324],[89.5158780608044,26.7769947635884],[89.5165918819133,26.777699098761403],[89.5173247336667,26.7783748742575],[89.5183621567983,26.7793742762694],[89.5189236915238,26.779945358237],[89.5198849713133,26.7806782482992],[89.5208843280039,26.7815348793222],[89.5216266967288,26.782334395224],[89.5221787054721,26.783152937438903],[89.5224071171102,26.7838858231799],[89.5225827572944,26.7846840780035],[89.5219597477765,26.785141066621],[89.5218565155192,26.785216554189702],[89.5214077239948,26.784942285484302],[89.52103652932131,26.784761437913602],[89.52028462376201,26.7846567230338],[89.5192947755706,26.784685253734903],[89.5179146874429,26.7847518568744],[89.5170295278339,26.7848279797047],[89.5160682244913,26.7850659113279],[89.5154019720198,26.7852372186025],[89.5141551243199,26.7856845350076],[89.51304152674591,26.7861128139836],[89.5114234867553,26.7866933733629],[89.5103003671288,26.7872073123003],[89.5091106265171,26.7877688500173],[89.50796847647871,26.7883018286145],[89.5067501896378,26.7887110655085],[89.5057317732144,26.7890822462432],[89.5043707162765,26.7895105203784],[89.5030477280882,26.789986385339603],[89.50217208361501,26.790262388699603],[89.5005445143556,26.790814397837302],[89.49867901824581,26.791261692142502],[89.4974987924722,26.7916233496952],[89.4962233969423,26.7919850053872],[89.4956808848593,26.792127765028102],[89.4943483808632,26.7924323095047],[89.4931681567114,26.7927273369415],[89.4919118018305,26.7930604429554],[89.49100759651421,26.7933745158201],[89.4900558103959,26.793726657820002],[89.4892848547405,26.7940407332891],[89.4883901775535,26.7944309464702],[89.48748596877421,26.794887779579202],[89.4866483928284,26.795220893777802],[89.4858584044512,26.7956491790698],[89.48508745741181,26.7960203646357],[89.48460178286841,26.7962586955502]]]},"properties":{"compartment":"Adma BL2","Division":"BTR_W","Range":"Pana","Beat":"Adma","DIVISION":"BTR_W","BEAT_NAME":"Adma"},"id":"comptt.208"},
{"type":"Feature","geometry":{"type":"Polygon","coordinates":[[[89.5391411584556,26.784178311606002],[89.5377937077462,26.7851473761663],[89.5354087080365,26.7853823299514],[89.5334676985493,26.785974293040802],[89.5322227134303,26.7854902678555],[89.5301917537604,26.784039225617303],[89.52824075867561,26.7840391874793],[89.52541775817271,26.7843531328439],[89.5226507573168,26.7846760793188],[89.5225827572944,26.7846840780035],[89.5224071171102,26.7838858231799],[89.5221787054721,26.783152937438903],[89.5216266967288,26.782334395224],[89.5208843280039,26.7815348793222],[89.5198849713133,26.7806782482992],[89.5189236915238,26.779945358237],[89.5183621567983,26.7793742762694],[89.5173247336667,26.7783748742575],[89.5165918819133,26.777699098761403],[89.5158780608044,26.7769947635884],[89.5157257864998,26.7767758502324],[89.5154497690451,26.7766996947064],[89.5150690553185,26.7764807768866],[89.514507521515,26.775871624856002],[89.51386032885121,26.7752244010859],[89.51314650797211,26.774510545899002],[89.51271822129111,26.774006086655103],[89.5119853597667,26.773320791147],[89.51108118983011,26.77258789221],[89.5107004809502,26.772169104045602],[89.5102626754465,26.7716170545349],[89.5100723418543,26.7709603196777],[89.50986295230891,26.7705510548776],[89.5094061145445,26.7700941851608],[89.5088350575306,26.7696182831801],[89.50802605181211,26.769113816502003],[89.5071123526666,26.768761638043003],[89.5058274553858,26.768371382267702],[89.5046758061528,26.768047749211302],[89.50349560537781,26.767790745713203],[89.5026675541713,26.767514709061302],[89.5018204843978,26.7671815719397],[89.501011472913,26.7669150556769],[89.4999740398538,26.7663249243942],[89.4991840745508,26.7658014280608],[89.49872723378691,26.7654682985629],[89.49798484720941,26.7649923932419],[89.4975089678784,26.764602143274303],[89.4968141802571,26.7641643089495],[89.4963955398495,26.7638114401945],[89.4969736089305,26.763789751417],[89.4980300855529,26.7638183220993],[89.4986011537555,26.7638326132769],[89.49921506081161,26.7638897253652],[89.4996433586854,26.763932563804],[89.500442857693,26.7638897493446],[89.5008140474423,26.763861206544803],[89.5016278295288,26.7636899021423],[89.5021560702643,26.763604252311],[89.5027842493624,26.7635757045304],[89.5032696577846,26.763589994035403],[89.5035980169515,26.763590000448502],[89.50398349389731,26.763675668125302],[89.50486151218941,26.763654275236803],[89.50521843388,26.7635472020225],[89.5056943258456,26.7634163410906],[89.5064438579831,26.7632497954413],[89.5070625181456,26.763178417400702],[89.5075384069399,26.7631784266953],[89.5082403489106,26.7630237801371],[89.508763829315,26.7629524102374],[89.50964422996971,26.762833447226402],[89.5110481098767,26.7626907143983],[89.5120474902322,26.7625717537111],[89.5133204970126,26.762571778574703],[89.51578323049941,26.7625837266966],[89.51643757625071,26.7626908196634],[89.5170919305604,26.7628573927338],[89.5175321251227,26.763035861642102],[89.5178771405024,26.7631905286501],[89.5187456319648,26.763452286069302],[89.5196379262517,26.763595073746803],[89.5209228289721,26.763761659135],[89.5217080429538,26.7639282347631],[89.5222791086293,26.7640472261252],[89.5228025818293,26.7642732867445],[89.52331416390591,26.7645469272145],[89.5236948677542,26.7647610950246],[89.5240636804789,26.7650228426853],[89.52471801700351,26.765510646318003],[89.525015441639,26.7657010024602],[89.5253485664728,26.765879469279103],[89.5256816787104,26.766165016284603],[89.52590771891,26.766545731364403],[89.5261932331901,26.7671643980214],[89.5263835803056,26.7676759926326],[89.52647875054551,26.7680686051768],[89.5265501026693,26.769210748563403],[89.5266333657255,26.769900791394],[89.5267184931714,26.7702722844685],[89.5267642215465,26.770471864947],[89.5269188764413,26.7710786390274],[89.5270735294154,26.771352272526702],[89.5274661377501,26.7717924809662],[89.5278230410801,26.7720304383553],[89.52813236655,26.7721851046694],[89.5284892836312,26.772268401788903],[89.5287510174896,26.772494447297902],[89.5291793177542,26.7728513762904],[89.5296670970034,26.773243996507603],[89.5302381543112,26.7737080084771],[89.5308092165253,26.773969760093802],[89.5311780221341,26.7741125375503],[89.5314992513261,26.7741125438277],[89.5318204759006,26.7743029004378],[89.5321416996091,26.774528957110302],[89.5324272239846,26.774731223043702],[89.5326889587087,26.7749215784914],[89.5330339709143,26.7752071257332],[89.5332957133291,26.775492671347703],[89.5337240021506,26.7759090804461],[89.5344735155462,26.7765158561557],[89.53505646964851,26.77711073859],[89.5355799307252,26.777836480091],[89.5359249380229,26.7783242776879],[89.5362342559873,26.778788284546],[89.53638890780431,26.7791095181313],[89.53649597512191,26.7796211011197],[89.5365435543207,26.780061302820503],[89.5364721664163,26.7803944320084],[89.5363293910011,26.7806323696342],[89.5362104155258,26.780870317725203],[89.5362579884774,26.781155849155102],[89.5364364413884,26.781429493122403],[89.53662679484711,26.781679337280803],[89.5369956026601,26.7821433453027],[89.5374238888797,26.782666834591602],[89.5380425337548,26.783226017664703],[89.53858979967511,26.783749519280402],[89.5391411584556,26.784178311606002]]]},"properties":{"compartment":"Adma BL3","Division":"BTR_W","Range":"Pana","Beat":"Adma","DIVISION":"BTR_W","BEAT_NAME":"Adma"},"id":"comptt.204"},
{"type":"Feature","geometry":{"type":"Polygon","coordinates":[[[89.54712789899091,26.762194378445102],[89.5463901668619,26.7624481043362],[89.5457417627147,26.7626860320871],[89.5444925340137,26.763173798538602],[89.5437489475094,26.7635188046175],[89.5423985856018,26.7641493393428],[89.5412683368944,26.7646252080963],[89.54053069936741,26.7650118543633],[89.5393647494527,26.7655412625123],[89.5382820907724,26.7660111921837],[89.5374433222025,26.766451376567503],[89.53620598843071,26.7671473436118],[89.5351352179921,26.7676886536387],[89.5341596271712,26.7682359055352],[89.53361829189531,26.7685095354371],[89.5330353138392,26.768902134733302],[89.5323155291566,26.7691698111377],[89.531554096166,26.769372056614003],[89.5305368735309,26.769586187113102],[89.52988847155581,26.769734884704],[89.5287165795998,26.76993712216],[89.52788971778641,26.770097716284702],[89.5271937263652,26.7702285729144],[89.5267184931714,26.7702722844685],[89.5266333657255,26.769900791394],[89.5265501026693,26.769210748563403],[89.52647875054551,26.7680686051768],[89.5263835803056,26.7676759926326],[89.5261932331901,26.7671643980214],[89.52590771891,26.766545731364403],[89.5256816787105,26.766165016284603],[89.5253485664728,26.765879469279103],[89.525015441639,26.7657010024602],[89.52471801700351,26.765510646318003],[89.5240636804789,26.7650228426853],[89.5236948677542,26.7647610950246],[89.52331416390591,26.7645469272145],[89.5228025818293,26.7642732867445],[89.5222791086293,26.7640472261252],[89.5217080429538,26.7639282347631],[89.5209228289721,26.763761659135],[89.5196379262517,26.763595073746803],[89.5187456319648,26.763452286069302],[89.5178771405024,26.7631905286501],[89.5175321251227,26.763035861642102],[89.5170919305604,26.7628573927338],[89.51643757625071,26.7626908196634],[89.51578323049941,26.7625837266966],[89.5133204970126,26.762571778574703],[89.5120474902322,26.7625717537111],[89.5110481098767,26.7626907143983],[89.50964422996971,26.762833447226402],[89.508763829315,26.7629524102374],[89.5082403489106,26.7630237801371],[89.5075384069399,26.7631784266953],[89.5070625181456,26.763178417400702],[89.5064438579831,26.7632497954413],[89.5056943258456,26.7634163410906],[89.50521843388,26.7635472020225],[89.50486151218941,26.763654275236803],[89.50398349389731,26.763675668125302],[89.5035980169515,26.763590000448502],[89.5032696577846,26.763589994035403],[89.5027842493624,26.7635757045304],[89.5021560702643,26.763604252311],[89.5016278295288,26.7636899021423],[89.5008140474423,26.763861206544803],[89.500442857693,26.7638897493446],[89.4996433586854,26.763932563804],[89.49921506081161,26.7638897253652],[89.4986011537555,26.7638326132769],[89.4980300855529,26.7638183220993],[89.4969736089305,26.763789751417],[89.4963955398495,26.7638114401945],[89.4961479455622,26.7636027449695],[89.4957101342885,26.7632886458776],[89.49428247568281,26.7625557467335],[89.4935972075764,26.762136942629603],[89.4930071027689,26.7619846508435],[89.4926834954382,26.761908494393],[89.4924741064324,26.761889460271203],[89.492378931288,26.7616990980848],[89.49237893820771,26.761413567593202],[89.4924754284081,26.7612013067079],[89.4925693078721,26.760994780589503],[89.4935782105275,26.7603666192084],[89.495862515162,26.7591103116482],[89.4977280321002,26.7582156665318],[89.4989693896116,26.7577755700112],[89.501287451538,26.7582786161438],[89.5023474432749,26.7585086372398],[89.5038484408733,26.7584506664499],[89.506624437642,26.7582937203866],[89.5068064410097,26.758135723667102],[89.50908047368381,26.756549765325],[89.5101095067473,26.7550777828666],[89.5109675546574,26.753010796035703],[89.51271259751151,26.751059826721303],[89.5152416353089,26.7492358729293],[89.5169036617803,26.7479699031763],[89.5178376679746,26.747616920796503],[89.5179696611744,26.747883923837602],[89.5180596571688,26.7480399258659],[89.5187776377239,26.7487679411493],[89.5212875786107,26.7509469939463],[89.5241185718679,26.7509310491941],[89.5249245669076,26.751052065142503],[89.5285605333393,26.752060137898003],[89.5311704832135,26.753858192005],[89.5346234571931,26.754574260690003],[89.5367614441234,26.7548923030007],[89.5371084420173,26.754943309866903],[89.5374533179837,26.755089255989102],[89.53808442956161,26.7553563296516],[89.5418343701177,26.7574214065141],[89.5439703555847,26.757800448900703],[89.5459023779722,26.7566774846652],[89.5478353714922,26.756745522541102],[89.54731136601491,26.7570255127982],[89.54682928996421,26.7602125089849],[89.5471212436554,26.7620925179936],[89.54712789899091,26.762194378445102]]]},"properties":{"compartment":"Ama BL4","Division":"BTR_W","Range":"Pana","Beat":"Adma","DIVISION":"BTR_W","BEAT_NAME":"Adma"},"id":"comptt.196"},
{"type":"Feature","geometry":{"type":"Polygon","coordinates":[[[89.54712789899091,26.762194378445102],[89.5471442350635,26.762444519061702],[89.5472461956985,26.7640575238897],[89.5474621440899,26.766163531812],[89.5474851129182,26.7674465345167],[89.54749909265661,26.768280536256402],[89.5456040374171,26.770753503572102],[89.5447420116562,26.7719044887485],[89.54457300628191,26.7721434858656],[89.5428499432801,26.7749184570639],[89.5426877099446,26.7758403552692],[89.54256890523891,26.776515454374],[89.5423558762932,26.777730452342603],[89.5408287832039,26.781724429499402],[89.539888739038,26.7836414144842],[89.5394177320169,26.783979405868802],[89.5391411584556,26.784178311606002],[89.53858979967511,26.783749519280402],[89.5380425337548,26.783226017664703],[89.5374238888797,26.782666834591602],[89.5369956026601,26.7821433453027],[89.53662679484711,26.781679337280803],[89.5364364413884,26.781429493122403],[89.5362579884774,26.781155849155102],[89.5362104155258,26.780870317725203],[89.5363293910011,26.7806323696342],[89.5364721664163,26.7803944320084],[89.5365435543206,26.780061302820503],[89.53649597512191,26.7796211011197],[89.53638890780431,26.7791095181313],[89.5362342559873,26.778788284546],[89.5359249380229,26.7783242776879],[89.5355799307252,26.777836480091],[89.53505646964851,26.77711073859],[89.5344735155462,26.7765158561557],[89.5337240021506,26.7759090804461],[89.5332957133291,26.775492671347703],[89.5330339709143,26.7752071257332],[89.5326889587087,26.7749215784914],[89.5324272239846,26.774731223043702],[89.5321416996091,26.774528957110302],[89.5318204759006,26.7743029004378],[89.531499251326,26.7741125438277],[89.5311780221341,26.7741125375503],[89.5308092165253,26.773969760093802],[89.5302381543112,26.7737080084771],[89.5296670970034,26.773243996507603],[89.5291793177542,26.7728513762904],[89.5287510174896,26.772494447298],[89.5284892836312,26.772268401788903],[89.52813236655,26.7721851046694],[89.5278230410801,26.7720304383553],[89.5274661377501,26.7717924809662],[89.5270735294154,26.771352272526702],[89.5269188764413,26.7710786390274],[89.5267642215465,26.770471864947],[89.5267184931714,26.7702722844685],[89.5271937263652,26.7702285729144],[89.52788971778641,26.770097716284702],[89.5287165795998,26.76993712216],[89.52988847155581,26.769734884704],[89.5305368735309,26.769586187113102],[89.531554096166,26.769372056614003],[89.5323155291566,26.7691698111377],[89.5330353138392,26.768902134733302],[89.53361829189531,26.7685095354371],[89.5341596271712,26.7682359055352],[89.5351352179921,26.7676886536387],[89.53620598843071,26.7671473436118],[89.5374433222025,26.766451376567503],[89.5382820907724,26.7660111921837],[89.5393647494527,26.7655412625123],[89.54053069936741,26.7650118543633],[89.5412683368944,26.7646252080963],[89.5423985856018,26.7641493393428],[89.5437489475094,26.7635188046175],[89.5444925340137,26.763173798538602],[89.5457417627147,26.7626860320871],[89.5463901668619,26.7624481043362],[89.54712789899091,26.762194378445102]]]},"properties":{"compartment":"Adma BL5","Division":"BTR_W","Range":"Pana","Beat":"Adma","DIVISION":"BTR_W","BEAT_NAME":"Adma"},"id":"comptt.202"}
]}
