{"type":"FeatureCollection", "features": [
{"type":"Feature","geometry":{"type":"Polygon","coordinates":[[[89.5188778579101,26.656885783194802],[89.5124171146321,26.6568639974172],[89.5048623378831,26.657101800804902],[89.5025423730064,26.6571314957086],[89.502131051839,26.6572228878622],[89.5021402489018,26.6569289375327],[89.5021830884302,26.656529187674803],[89.5022116483386,26.6561151575143],[89.5023258818164,26.655544088749203],[89.5024543807842,26.6551586205828],[89.5026542647338,26.6545590034348],[89.5027684978666,26.654002204694102],[89.5030540388473,26.6535167994103],[89.50326819381381,26.6532883731819],[89.5035680078763,26.6530885086698],[89.5039534934439,26.652817255700903],[89.5042961394636,26.6525317218736],[89.50452457645841,26.652217645774602],[89.5047672844497,26.651860729879],[89.50501000209701,26.651518084008103],[89.5052527135286,26.651018407865102],[89.5056239280776,26.6503759539748],[89.5057952545277,26.650090426813502],[89.50602369289841,26.649719230614902],[89.506237852681,26.649290934039403],[89.5063378041266,26.648805525143],[89.50643774419581,26.6483772263452],[89.5065377032091,26.647577726904302],[89.5065234493884,26.6464926847467],[89.5065377393277,26.6460786643071],[89.506466372922,26.6455218619538],[89.5063664465874,26.644965069045103],[89.50619514765481,26.6441084542285],[89.50603811455801,26.643423169986402],[89.5059096358864,26.6429663066957],[89.5057526059107,26.6425665529487],[89.5055812994097,26.6420240286767],[89.50543854008521,26.641595725157902],[89.5052386812481,26.641153140503903],[89.5051244718513,26.640724837540603],[89.5050816515874,26.640325086015302],[89.5050531133506,26.639839674619502],[89.5050531274486,26.6392543236059],[89.50515308645261,26.638454824165002],[89.5052530268602,26.6380122453421],[89.505324425964,26.637626776062902],[89.5053958154116,26.6372270267587],[89.505524313684,26.636870108639503],[89.5057099283452,26.6362419311608],[89.505952640112,26.635727974990303],[89.5062667475436,26.6349713097873],[89.5065951342512,26.6342432049113],[89.5069092396193,26.6335721998562],[89.5073518315709,26.6330296875221],[89.50759454093,26.632615671523702],[89.5076802120584,26.6321445323726],[89.5077230522626,26.631716232463003],[89.5077088001716,26.6309738408986],[89.5076517033757,26.6304313188478],[89.5075467662836,26.629906576254402],[89.5102045317735,26.6298165674172],[89.51254252899581,26.629688612654],[89.5147655256922,26.629594655714403],[89.5166895231646,26.6294996929596],[89.518007521385,26.629436718477603],[89.5187615210647,26.6293717330255],[89.5187605194542,26.6294387331226],[89.5189475108013,26.6297787373507],[89.51966047552911,26.631169753637103],[89.5202064550709,26.631962765635702],[89.5206784079238,26.63387177814],[89.52131830281411,26.638169798075502],[89.52114024241361,26.6406957990142],[89.5206111943268,26.642746792296602],[89.52045517823801,26.6434307904533],[89.5202691588747,26.644253788268202],[89.5196271211586,26.6458857786202],[89.5192640893444,26.647243773922],[89.51911706626541,26.648216772755802],[89.51882301005391,26.6505797711485],[89.5188588835848,26.6558227809749],[89.5188778579101,26.656885783194802]]]},"properties":{"compartment":"Dima BL4","division":"BTR_W","range":"WestRajabhatkhawa","beat":"Dima","DIVISION":"BTR_W","BEAT_NAME":"Dima"},"id":"comptt.110"},
{"type":"Feature","geometry":{"type":"Polygon","coordinates":[[[89.502131051839,26.6572228878622],[89.50173930072711,26.6573099403892],[89.50105519599751,26.6575776175392],[89.5003116092672,26.6579345236858],[89.4990029003772,26.6584401290913],[89.497813161188,26.6589457468115],[89.4966431732784,26.659396274820303],[89.4966288704289,26.6586863533165],[89.4965029651407,26.6547703441062],[89.4979730619535,26.650599365507002],[89.4987141480812,26.646947373615202],[89.4987431517907,26.6467903739081],[89.4996072652454,26.641990382421103],[89.50078333446821,26.6389934001131],[89.5005054137692,26.6357293890641],[89.4995405227355,26.6313043626519],[89.50036052469281,26.6311373783065],[89.50205953007371,26.630736410646502],[89.50500153303301,26.630306467103402],[89.5071175358574,26.629968507659303],[89.5074895363684,26.6299085147882],[89.5075467662836,26.629906576254402],[89.5076517033757,26.6304313188478],[89.5077088001716,26.6309738408986],[89.5077230522626,26.631716232463003],[89.5076802120584,26.6321445323726],[89.50759454093,26.632615671523702],[89.5073518315709,26.6330296875221],[89.5069092396193,26.6335721998562],[89.5065951342512,26.6342432049113],[89.5062667475436,26.6349713097873],[89.505952640112,26.635727974990303],[89.5057099283452,26.6362419311608],[89.505524313684,26.636870108639503],[89.5053958154116,26.6372270267587],[89.505324425964,26.637626776062902],[89.5052530268602,26.6380122453421],[89.50515308645261,26.638454824165002],[89.5050531274486,26.6392543236059],[89.5050531133506,26.639839674619502],[89.5050816515874,26.640325086015302],[89.5051244718513,26.640724837540603],[89.5052386812481,26.641153140503903],[89.50543854008521,26.641595725157902],[89.5055812994097,26.6420240286767],[89.5057526059107,26.6425665529487],[89.5059096358864,26.6429663066957],[89.50603811455801,26.643423169986402],[89.50619514765481,26.6441084542285],[89.5063664465874,26.644965069045103],[89.506466372922,26.6455218619538],[89.5065377393277,26.6460786643071],[89.5065234493884,26.6464926847467],[89.5065377032091,26.647577726904302],[89.50643774419581,26.6483772263452],[89.5063378041266,26.648805525143],[89.506237852681,26.649290934039403],[89.50602369289841,26.649719230614902],[89.5057952545277,26.650090426813502],[89.5056239280776,26.6503759539748],[89.5052527135286,26.651018407865102],[89.50501000209701,26.651518084008103],[89.5047672844497,26.651860729879],[89.50452457645841,26.652217645774602],[89.5042961394636,26.6525317218736],[89.5039534934439,26.652817255700903],[89.5035680078763,26.6530885086698],[89.50326819381381,26.6532883731819],[89.5030540388473,26.6535167994103],[89.5027684978666,26.654002204694102],[89.5026542647338,26.6545590034348],[89.5024543807842,26.6551586205828],[89.5023258818164,26.655544088749203],[89.5022116483386,26.6561151575143],[89.5021830884302,26.656529187674803],[89.5021402489018,26.6569289375327],[89.502131051839,26.6572228878622]]]},"properties":{"compartment":"Dima BL3","division":"BTR_W","range":"WestRajabhatkhawa","beat":"Dima","DIVISION":"BTR_W","BEAT_NAME":"Dima"},"id":"comptt.112"},
{"type":"Feature","geometry":{"type":"Polygon","coordinates":[[[89.5188778579101,26.656885783194802],[89.5188798564586,26.6569457833382],[89.5189347815046,26.6600487898095],[89.5190587284802,26.6622347960282],[89.5190076666026,26.6648057995103],[89.5194345620754,26.669094815289203],[89.51982651759481,26.670897826060802],[89.5201024861889,26.672170833651503],[89.5206724213711,26.674797849326],[89.5207893756358,26.6766808548839],[89.5212792982345,26.6798368699244],[89.5211372455325,26.6820348709868],[89.5211722033898,26.683776874702602],[89.5215501646085,26.685343884795902],[89.5215811414478,26.6862998870651],[89.521683060658,26.6896348948618],[89.5204431136602,26.687568867103803],[89.5188691815235,26.684921831831502],[89.5173012739134,26.6812577949131],[89.5156543386817,26.678745758466203],[89.5148334061945,26.676033737763703],[89.5140164769692,26.673185716905703],[89.5135725206207,26.671422705197802],[89.5129735450445,26.6704726918849],[89.5115435781892,26.669247661916],[89.51004160984981,26.6680916306675],[89.50868762808891,26.6674766032408],[89.50710363709081,26.6672685720433],[89.5068858969647,26.6672922675505],[89.5067656635267,26.6670369950624],[89.5066800054642,26.6669656032711],[89.5064658584134,26.666865668929002],[89.5061803215425,26.6667657231973],[89.5059661741475,26.66668005888],[89.5056663676569,26.666565842845802],[89.5054807715675,26.6664230689855],[89.50518096955321,26.6661232526301],[89.5048240597488,26.6657377650147],[89.5045385276984,26.665437948937303],[89.5042672869893,26.665081023039402],[89.50392464577101,26.664752655801102],[89.503510636454,26.664352897050403],[89.50323938712171,26.6639388610539],[89.5030252479894,26.6635105561445],[89.5028253788212,26.663082241513003],[89.5027111804695,26.662611108475],[89.50256842012391,26.6622256350294],[89.5022971711347,26.661797329009],[89.5021829696843,26.6614546761934],[89.5021115884699,26.661097754186603],[89.5020544958426,26.6607979425569],[89.50201167627691,26.6603696409826],[89.50199740423,26.6600412701368],[89.50195458535231,26.6595844185132],[89.501968877019,26.6590990079516],[89.5020259933962,26.6584137178777],[89.5020688404971,26.657699877476702],[89.5021259579249,26.657385788045],[89.502131051839,26.6572228878622],[89.5025423730064,26.6571314957086],[89.5048623378831,26.657101800804902],[89.5124171146321,26.6568639974172],[89.5188778579101,26.656885783194802]]]},"properties":{"compartment":"Dima BL2","division":"BTR_W","range":"WestRajabhatkhawa","beat":"Dima","DIVISION":"BTR_W","BEAT_NAME":"Dima"},"id":"comptt.143"},
{"type":"Feature","geometry":{"type":"Polygon","coordinates":[[[89.5068858969647,26.6672922675505],[89.50651563702691,26.667332560707102],[89.5052946368928,26.6674655371675],[89.5035566299823,26.6679335041429],[89.5024986131111,26.6687434849472],[89.50218957307601,26.6704354818577],[89.5022575304225,26.6721964862271],[89.50209848833751,26.6739574861765],[89.5017904466487,26.6757174832224],[89.5018604186744,26.676869486577402],[89.5021563884632,26.6780904944528],[89.50237534867,26.6797165015296],[89.5021463296503,26.6805284984739],[89.5018423173599,26.6810694934886],[89.5010832915425,26.682218480692402],[89.5003232722441,26.6830974674091],[89.4994152533676,26.6839744512388],[89.4988112467585,26.6843114400563],[89.49810329622001,26.682336422856302],[89.49763733007761,26.6809824114431],[89.49451534342461,26.6807563502521],[89.49394047040771,26.6755543300869],[89.4964295337927,26.672666373568003],[89.49702363649881,26.6683463776769],[89.4967487253644,26.6646903660139],[89.4966498452798,26.659727355521703],[89.4966431732784,26.659396274820303],[89.497813161188,26.6589457468115],[89.4990029003772,26.6584401290913],[89.5003116092672,26.6579345236858],[89.50105519599751,26.6575776175392],[89.50173930072711,26.6573099403892],[89.502131051839,26.6572228878622],[89.5021259579249,26.657385788045],[89.5020688404971,26.657699877476702],[89.5020259933962,26.6584137178777],[89.501968877019,26.6590990079516],[89.50195458535231,26.6595844185132],[89.50199740423,26.6600412701368],[89.50201167627691,26.6603696409826],[89.5020544958426,26.6607979425569],[89.5021115884699,26.661097754186603],[89.5021829696843,26.6614546761934],[89.5022971711347,26.661797329009],[89.50256842012391,26.6622256350294],[89.5027111804695,26.662611108475],[89.5028253788212,26.663082241513003],[89.5030252479894,26.6635105561445],[89.50323938712171,26.6639388610539],[89.503510636454,26.664352897050403],[89.50392464577101,26.664752655801102],[89.5042672869893,26.665081023039402],[89.5045385276984,26.665437948937303],[89.5048240597488,26.6657377650147],[89.50518096955321,26.6661232526301],[89.5054807715675,26.6664230689855],[89.5056663676569,26.666565842845802],[89.5059661741475,26.66668005888],[89.5061803215425,26.6667657231973],[89.5064658584134,26.666865668929002],[89.5066800054642,26.6669656032711],[89.5067656635267,26.6670369950624],[89.5068858969647,26.6672922675505]]]},"properties":{"compartment":"Dima BL1","division":"BTR_W","range":"WestRajabhatkhawa","beat":"Dima","DIVISION":"BTR_W","BEAT_NAME":"Dima"},"id":"comptt.134"}
]}
