{"type":"FeatureCollection", "features": [
{"type":"Feature","geometry":{"type":"Polygon","coordinates":[[[89.5038809537229,26.5646502716058],[89.49864851622,26.5646750801438],[89.49404428204271,26.5644965305207],[89.4889403474256,26.564389361332],[89.4856122633346,26.564074906236502],[89.4857521848307,26.563580978100703],[89.4863432320597,26.561549986069902],[89.4868002615141,26.5602739927378],[89.4868022712461,26.559867992078],[89.4868072949037,26.558880990476702],[89.48642833906881,26.5570789800264],[89.4860483887948,26.5550449691586],[89.48586544219181,26.552836961812],[89.4861324888186,26.5508639635947],[89.48646251996631,26.549529967697502],[89.4866705342329,26.5489129706683],[89.4871525311047,26.548992980150402],[89.4913625063962,26.5495830627868],[89.4931495017717,26.549589097443302],[89.4954454820672,26.5501711429634],[89.4973564578399,26.5509821814166],[89.50054442759101,26.5519112448383],[89.5013154273892,26.5518392596639],[89.5021103965345,26.5530432771635],[89.5037923662191,26.5541323116664],[89.5040213032982,26.556732320610802],[89.5035332681839,26.55824731377],[89.5023172089589,26.5608432946789],[89.5039941526633,26.5630153309694],[89.5038809537229,26.5646502716058]]]},"properties":{"compartment":"Poro BL9","division":"BTR_W","range":"WestDamanpur","beat":"Garam-West","DIVISION":"BTR_W","BEAT_NAME":"Garam-West"},"id":"comptt.20"},
{"type":"Feature","geometry":{"type":"Polygon","coordinates":[[[89.4978112085346,26.5846161385168],[89.4937225628235,26.5849123395075],[89.4899749128172,26.5853048774377],[89.4843355933038,26.585875838956103],[89.4809448541411,26.5861970036918],[89.4774226513894,26.5866818561567],[89.4780256823323,26.585329865543002],[89.47920376291461,26.581849882438],[89.4809048588483,26.5776749082835],[89.48175691656151,26.575180920533903],[89.4826749796695,26.5724549336635],[89.4835220220733,26.570598946907502],[89.483656044003,26.5696709479124],[89.4844410907324,26.5676409596518],[89.485226141632,26.565436971089802],[89.4854561605083,26.564625974156602],[89.4856122633346,26.564074906236502],[89.4889403474256,26.564389361332],[89.49404428204271,26.5644965305207],[89.49864851622,26.5646750801438],[89.5038809537229,26.5646502716058],[89.5038581058613,26.5649803317344],[89.50373706496771,26.566697332360402],[89.5044479955689,26.5695153510358],[89.5046779325713,26.572116360004202],[89.5032198687477,26.5749273365792],[89.5015238211422,26.5770873074037],[89.4983847928539,26.578593249087202],[89.4974077225549,26.5816232353597],[89.4978112085346,26.5846161385168]]]},"properties":{"compartment":"Poro BL8","division":"BTR_W","range":"WestDamanpur","beat":"Garam-West","DIVISION":"BTR_W","BEAT_NAME":"Garam-West"},"id":"comptt.43"},
{"type":"Feature","geometry":{"type":"Polygon","coordinates":[[[89.4901868832781,26.593589915827103],[89.4873473147174,26.593827591102002],[89.48563410446171,26.5940179181652],[89.48100841921081,26.5947221495625],[89.4780578893472,26.5950266627978],[89.4767444253504,26.595331207818003],[89.4751454220774,26.5956357472939],[89.474587439283,26.5958108167601],[89.4746814469733,26.5954808180201],[89.4749464811612,26.594029820680703],[89.4758005472694,26.5911878323925],[89.4769156252456,26.5878238482729],[89.4774226513894,26.5866818561567],[89.4809448541411,26.5861970036918],[89.4843355933038,26.585875838956103],[89.4899749128172,26.5853048774377],[89.4937225628235,26.5849123395075],[89.4978112085346,26.5846161385168],[89.4978136492318,26.5846342484419],[89.4978746381277,26.585090250413902],[89.4969036042032,26.5866042341795],[89.4939995441236,26.5894091826435],[89.491580498367,26.5915671393996],[89.4898834868781,26.592223107581603],[89.4901868832781,26.593589915827103]]]},"properties":{"compartment":"Poro BL4","division":"BTR_W","range":"WestDamanpur","beat":"Garam-West","DIVISION":"BTR_W","BEAT_NAME":"Garam-West"},"id":"comptt.51"},
{"type":"Feature","geometry":{"type":"Polygon","coordinates":[[[89.4901868832781,26.593589915827103],[89.4902224493397,26.5937501167937],[89.4903634338727,26.594379120615002],[89.4913214001304,26.5956831414638],[89.48991334838371,26.5979841180859],[89.4898653466782,26.5980601172847],[89.49058030315891,26.5997961341602],[89.4915342486026,26.601966156427203],[89.4915922213917,26.603092159494],[89.4917561438854,26.6062991682061],[89.4915750991898,26.608177167926403],[89.4914541003601,26.6081411655137],[89.4908521003137,26.608206153931],[89.4891910964928,26.608539122237403],[89.4834590853729,26.6096030127159],[89.47795207861671,26.610462907212302],[89.4766120751797,26.610746881668202],[89.4760431196085,26.6089588675522],[89.4757301748518,26.6066938575929],[89.4749692578293,26.6033218370383],[89.4742693266523,26.6005318186677],[89.4742133742524,26.5985568141994],[89.4742874242815,26.596466812058402],[89.47454843616231,26.5959448162323],[89.474587439283,26.5958108167601],[89.4751454220774,26.5956357472939],[89.4767444253504,26.595331207818003],[89.4780578893472,26.5950266627978],[89.48100841921081,26.5947221495625],[89.48563410446171,26.5940179181652],[89.4873473147174,26.593827591102002],[89.4901868832781,26.593589915827103]]]},"properties":{"compartment":"Poro BL3","division":"BTR_W","range":"WestDamanpur","beat":"Garam-West","DIVISION":"BTR_W","BEAT_NAME":"Garam-West"},"id":"comptt.67"}
]}
