{"type":"FeatureCollection", "features": [
{"type":"Feature","geometry":{"type":"Polygon","coordinates":[[[89.40724712414391,26.68378868634],[89.4058137052949,26.683895628618302],[89.4049095156407,26.6839788911581],[89.4040172153821,26.684085953969003],[89.403291477273,26.684085939843502],[89.4025538474736,26.6841573056054],[89.4012689382405,26.6842643607748],[89.399900750948,26.684300024204703],[89.39844928330041,26.684359486053502],[89.398104263627,26.6843832693779],[89.3974975017672,26.6845260278056],[89.3966527899553,26.6846925716416],[89.3962363755901,26.6849186139121],[89.3958080712562,26.685144655951103],[89.3950704305561,26.6856681224628],[89.3946778041203,26.685977445334],[89.3942732925497,26.686500918329102],[89.3939758444301,26.686869733151102],[89.3935594328904,26.687393205914002],[89.3934047555454,26.6877144334359],[89.3932857752368,26.688154631849702],[89.3932024848347,26.6885948309583],[89.39320247679801,26.6889279515103],[89.39320246359411,26.6894752324173],[89.3931310577063,26.6901414821318],[89.3930358822142,26.6903794206735],[89.3926075644357,26.690748232947],[89.3923339282621,26.6910337680935],[89.3918104287235,26.6914858486518],[89.39132262937851,26.6919260398851],[89.3906563756201,26.692568487979102],[89.3897164757366,26.693080050528803],[89.3891097895745,26.6934012492497],[89.3890143193303,26.6930073167393],[89.3880703458845,26.6920092967116],[89.3872073773647,26.6907982779101],[89.3871813880969,26.690356276673302],[89.38713640838421,26.6895202744152],[89.3876144242124,26.6888122825486],[89.3880894349097,26.6883172909755],[89.3893564348726,26.6881813154116],[89.3904634404424,26.687830336377303],[89.3907834567086,26.687121341432],[89.39078847724801,26.686269340118802],[89.3906375118952,26.6848493348288],[89.3911185397251,26.6836433421931],[89.3917595739121,26.6821563522048],[89.3919995886951,26.6815173558168],[89.39192560772311,26.680736353083102],[89.3910636528765,26.678957333363],[89.3903616992952,26.6771083166423],[89.39013172557381,26.6760433104042],[89.390772759795,26.674554320410103],[89.3924408014789,26.6726443496972],[89.39378982348221,26.6715853741856],[89.3953758448434,26.670527403284503],[89.3970398608928,26.6696814342508],[89.3989388660159,26.669263470498002],[89.4005208685695,26.6689865008126],[89.4023378568229,26.6692775366432],[89.404154846766,26.669498572358602],[89.4056548427186,26.6695046015497],[89.4067618380076,26.6695806232123],[89.40826282882651,26.669799652778803],[89.4096828164587,26.6701596810054],[89.41094279421421,26.6709467068328],[89.41156976683921,26.6720147208148],[89.4115647429122,26.673007722375303],[89.4111647165862,26.674142716487],[89.4104466842854,26.6755597048809],[89.4091716449185,26.6773296830231],[89.40773959913331,26.679382658578902],[89.40717856299351,26.680941650259403],[89.4071675097414,26.683150653726802],[89.4071665065117,26.683284653930603],[89.40724712414391,26.68378868634]]]},"properties":{"compartment":"Godamdabri BL4","division":"BTR_W","range":"Hamiltonganj","beat":"Godamdabri","DIVISION":"BTR_W","BEAT_NAME":"Godamdabri"},"id":"comptt.145"},
{"type":"Feature","geometry":{"type":"Polygon","coordinates":[[[89.4089064697493,26.704094372507402],[89.4082224215314,26.704094359183802],[89.407080283933,26.7041181369777],[89.40558121496821,26.7042370779781],[89.40467702560271,26.704308440486002],[89.4027734548238,26.7045463538061],[89.4017026941715,26.7046891031885],[89.4007033227594,26.7048556440008],[89.3998229204625,26.7050459871697],[89.39899010689301,26.7052839113445],[89.3984666225152,26.7055218515439],[89.39765759945891,26.7057359861422],[89.3969437613256,26.705735972238802],[89.39639649333131,26.705712171540302],[89.3958254199964,26.705498000062303],[89.395516095402,26.705307643721902],[89.3951591955289,26.7049269161393],[89.3950164322224,26.704665172924702],[89.3947784920375,26.704284457659103],[89.3942788062177,26.7041654777302],[89.3938029197612,26.7040702883043],[89.3931128769716,26.704260625181],[89.39266077528251,26.7043795965733],[89.39208970275631,26.7045461457275],[89.391732776797,26.704831669249202],[89.3915186198889,26.705140995590803],[89.3912568702326,26.705569301202402],[89.3909475329994,26.7059024157294],[89.39011471828691,26.7061879399821],[89.3888536004437,26.7062355054993],[89.387806640891,26.7063306652662],[89.3869976218642,26.706378229588502],[89.3861770048608,26.706343283548602],[89.3857150626927,26.7039982706766],[89.3859621117289,26.7019402720863],[89.3862071401991,26.7007342748642],[89.3868411521747,26.7001692862756],[89.3877941667176,26.6994633036648],[89.3888231690653,26.699254323355202],[89.3904841662583,26.6991903555914],[89.39175117653011,26.6986273793295],[89.3915961940734,26.697917375135702],[89.3908142253253,26.696707357906202],[89.38987025359721,26.6956383377575],[89.3893242876548,26.6942863248903],[89.3891097895745,26.6934012492497],[89.3897164757366,26.693080050528803],[89.3906563756201,26.692568487979102],[89.39132262937851,26.6919260398851],[89.3918104287235,26.6914858486518],[89.3923339282621,26.6910337680935],[89.3926075644357,26.690748232947],[89.3930358822142,26.6903794206735],[89.3931310577063,26.6901414821318],[89.39320246359411,26.6894752324173],[89.39320247679801,26.6889279515103],[89.3932024848347,26.6885948309583],[89.3932857752368,26.688154631849702],[89.3934047555454,26.6877144334359],[89.3935594328904,26.687393205914002],[89.3939758444301,26.686869733151102],[89.3942732925497,26.686500918329102],[89.3946778041203,26.685977445334],[89.3950704305561,26.6856681224628],[89.3958080712562,26.685144655951103],[89.3962363755901,26.6849186139121],[89.3966527899553,26.6846925716416],[89.3974975017672,26.6845260278056],[89.398104263627,26.6843832693779],[89.39844928330041,26.684359486053502],[89.399900750948,26.684300024204703],[89.4012689382405,26.6842643607748],[89.4025538474736,26.6841573056054],[89.403291477273,26.684085939843502],[89.4040172153821,26.684085953969003],[89.4049095156407,26.6839788911581],[89.4058137052949,26.683895628618302],[89.40724712414391,26.68378868634],[89.4074734594215,26.6852036631043],[89.4083584128248,26.6870396833919],[89.4091513848972,26.688111700616503],[89.4100723534746,26.6893147205527],[89.4098933511894,26.689428717258203],[89.4095203481784,26.6895937102718],[89.4087453435352,26.6898696956444],[89.4079093343699,26.6903396801525],[89.4076753241204,26.690789676347002],[89.4077013122767,26.691277677666502],[89.4076972957326,26.6919636787321],[89.4078212760794,26.6927646824814],[89.40760526380271,26.6932966791626],[89.4075592482834,26.693944679347002],[89.40755623542731,26.694477680176902],[89.4076382177394,26.6952016829801],[89.4081452025646,26.6957756938091],[89.4082681884618,26.696346697156002],[89.40860417648331,26.6968067044657],[89.4092361426117,26.6981417189989],[89.4089771313365,26.6986367147806],[89.408805111578,26.699473712826702],[89.4092250902047,26.7003137224069],[89.4095180737727,26.700962729195503],[89.409300053214,26.701837726409103],[89.4092960339081,26.7026377276653],[89.4092530211502,26.7031707277166],[89.4089080064258,26.7038177220759],[89.4089064697493,26.704094372507402]]]},"properties":{"compartment":"Godamdabri BL3","division":"BTR_W","range":"Hamiltonganj","beat":"Godamdabri","DIVISION":"BTR_W","BEAT_NAME":"Godamdabri"},"id":"comptt.155"},
{"type":"Feature","geometry":{"type":"Polygon","coordinates":[[[89.4049165202257,26.7239592478716],[89.4039127396554,26.7240912985276],[89.4031988997951,26.7241626747337],[89.4007956543525,26.7242340080136],[89.3992252084607,26.7242339774063],[89.3980592855378,26.724067394406703],[89.3963698739869,26.7239008012053],[89.3957036291827,26.723758017984302],[89.3947042652515,26.723615228271402],[89.39406181038571,26.7234724455143],[89.393457570543,26.7235314538366],[89.39326058166951,26.7230924492701],[89.3929666014361,26.7223064422386],[89.3930576413864,26.7206434412568],[89.3928296780373,26.7191514343423],[89.39244372026991,26.7174454239953],[89.3916607635636,26.7157384059129],[89.3899348248588,26.7133883683974],[89.3885478771433,26.7113743380466],[89.3879718987975,26.7105403254476],[89.3867959465858,26.708689299481403],[89.3861770048608,26.706343283548602],[89.3869976218642,26.706378229588502],[89.387806640891,26.7063306652662],[89.3888536004437,26.7062355054993],[89.39011471828691,26.7061879399821],[89.3909475329994,26.7059024157294],[89.3912568702326,26.705569301202402],[89.3915186198889,26.705140995590803],[89.391732776797,26.704831669249202],[89.39208970275631,26.7045461457275],[89.39266077528251,26.7043795965733],[89.3931128769716,26.704260625181],[89.3938029197612,26.7040702883043],[89.3942788062177,26.7041654777302],[89.3947784920375,26.704284457659103],[89.3950164322224,26.704665172924702],[89.3951591955289,26.7049269161393],[89.395516095402,26.705307643721902],[89.3958254199964,26.705498000062303],[89.39639649333131,26.705712171540302],[89.3969437613256,26.705735972238802],[89.39765759945891,26.7057359861422],[89.3984666225152,26.7055218515439],[89.39899010689301,26.7052839113445],[89.3998229204625,26.7050459871697],[89.4007033227594,26.7048556440008],[89.4017026941715,26.7046891031885],[89.4027734548238,26.7045463538061],[89.40467702560271,26.704308440486002],[89.40558121496821,26.7042370779781],[89.407080283933,26.7041181369777],[89.4082224215314,26.704094359183802],[89.4089064697493,26.704094372507402],[89.4089039889773,26.7045407232035],[89.4084799781527,26.7050347157685],[89.4079659639157,26.7056797068319],[89.407751950684,26.7062507036151],[89.4079139171265,26.7076227090575],[89.407484898947,26.7084217020321],[89.4072698820448,26.7091446990486],[89.4070128680293,26.7097526950551],[89.4067118568818,26.710246690014202],[89.406369846759,26.7107026841112],[89.40628383227241,26.7113116834502],[89.4058988167536,26.7119956770887],[89.4058958029435,26.7125676779829],[89.40580678479141,26.713328677516103],[89.40576077201051,26.713862677509102],[89.4056717547754,26.714585676978903],[89.40536973075041,26.715612672804703],[89.4054097168254,26.7161846745364],[89.40561669509461,26.717061680030103],[89.4059506711706,26.718015688127],[89.4057356505874,26.718890685394403],[89.4052656426313,26.7192706768683],[89.4048416345794,26.719649669236702],[89.4048386189514,26.720296670255102],[89.4047066036597,26.720943668759702],[89.4048325904249,26.721477672104],[89.4046575724892,26.722238669960102],[89.4047395547519,26.7229636727649],[89.4047355391238,26.7236106737638],[89.4048375340715,26.7238086760814],[89.4049165202257,26.7239592478716]]]},"properties":{"compartment":"Godamdabri BL2","division":"BTR_W","range":"Hamiltonganj","beat":"Godamdabri","DIVISION":"BTR_W","BEAT_NAME":"Godamdabri"},"id":"comptt.172"},
{"type":"Feature","geometry":{"type":"Polygon","coordinates":[[[89.4049165202257,26.7239592478716],[89.4051145205853,26.724336682359002],[89.4049825062332,26.724944680798302],[89.4051484790636,26.726050685874903],[89.40488645675771,26.7270016823511],[89.4047154424813,26.7276106800315],[89.4046674177287,26.728639680808403],[89.4047074029,26.7292486826017],[89.4051673795261,26.730165693095202],[89.4062603286718,26.7321507177081],[89.4068563180949,26.732523729948802],[89.4081533024715,26.7330297560785],[89.4098842822821,26.7336777909078],[89.4117382611204,26.734352828182303],[89.41254125421341,26.734551844171403],[89.4130682467202,26.734804854869303],[89.41325324016701,26.735055858895702],[89.4134362289024,26.7355018632087],[89.4135872183983,26.7359198668512],[89.4138642061867,26.7363948730458],[89.4140481949187,26.7368408773787],[89.4142961895312,26.7370368825421],[89.4145391843985,26.7372228875914],[89.4151621696154,26.737766900649202],[89.4156401467186,26.7386619114664],[89.4153031246865,26.739608906477002],[89.4151521251041,26.7396079035306],[89.4150321247637,26.7396349012355],[89.4147601222307,26.7397688961548],[89.4143671200133,26.7399028887145],[89.4142761195973,26.7399298869849],[89.4138531154985,26.7401448790947],[89.41333911427431,26.740250869247703],[89.413128112889,26.7403308652664],[89.4129151056058,26.7406548616534],[89.4131550977458,26.740953866833102],[89.4135170954468,26.741009873986602],[89.414090093251,26.741038885210003],[89.4142410947929,26.7409588880212],[89.414302097247,26.7408508890305],[89.414453101426,26.740661891659602],[89.4145441031485,26.7405808932991],[89.4147861031709,26.740553897973502],[89.415448096776,26.740746911206703],[89.4155090959637,26.7407739124415],[89.4155690964606,26.7407469135665],[89.415751100535,26.740558916801803],[89.4161441040595,26.740370924152],[89.41614410275291,26.7404249242423],[89.4162940984185,26.740587927440203],[89.4165950969569,26.7406159333573],[89.41671609727061,26.7405899356736],[89.41677609776761,26.7405629367986],[89.4169281019445,26.740373939447],[89.4169891024388,26.7403469405915],[89.417109101473,26.7403739429771],[89.4171690993328,26.7404559442843],[89.4172280952354,26.740618945707602],[89.4173170871402,26.740943947986903],[89.41743708353711,26.741079950554703],[89.4175270800121,26.7412159525375],[89.4177070729863,26.7414869565013],[89.4178260674258,26.7417039591853],[89.4179770643952,26.7418129623127],[89.4182170604553,26.7419499672228],[89.41833705554541,26.7421399698812],[89.4184860472935,26.742464973331],[89.4185740359093,26.7429259758188],[89.4187240322278,26.7430619789721],[89.4188150306842,26.743115980837402],[89.41908602731671,26.7432259863073],[89.4192360255953,26.743280989325],[89.4193270253584,26.7432809910999],[89.4195980252821,26.7432549963423],[89.4199000244718,26.743256002234503],[89.4204430243169,26.7432040127386],[89.420624024475,26.7431780162254],[89.4206840243189,26.743178017395802],[89.42107702523221,26.7430980249272],[89.4212880253124,26.7430720289992],[89.4214390248953,26.743073031946203],[89.4215000260434,26.743019033045503],[89.4217110254703,26.7430200371628],[89.422012022703,26.7431020431713],[89.4221630222861,26.7431030461182],[89.422344021162,26.7431300496938],[89.42288601902641,26.743160060316],[89.423158018295,26.7431610656232],[89.42345901552811,26.743243071631703],[89.42379001069891,26.743407078363102],[89.4240600047215,26.743625083995102],[89.4241500018739,26.7437330859318],[89.4243309981123,26.743869089690403],[89.4246909892631,26.744196097261],[89.4247509858401,26.744331098657902],[89.4247799792063,26.7446020996782],[89.424946971778,26.7448911034205],[89.4247599717074,26.7449140998114],[89.4230929691681,26.745198067769802],[89.4210965689269,26.7458396401919],[89.4206099563151,26.745996020671402],[89.4186679665262,26.7457829824329],[89.4161969830558,26.7453659335358],[89.4145539930503,26.7451299010938],[89.4126330082732,26.7447078629197],[89.4104660350783,26.743833819195302],[89.40986204594701,26.743449806774603],[89.4085060678294,26.7426917790645],[89.4068920927816,26.7418347461596],[89.4059701102401,26.7412127271431],[89.4048688848313,26.740674567446803],[89.404603129975,26.7405446993729],[89.4043681333718,26.7404296945989],[89.4015661798192,26.738812637270602],[89.3982552304073,26.7370795698324],[89.39653425172641,26.736384535124202],[89.3954502532863,26.7364375140774],[89.39302125298231,26.7367134671772],[89.3891262538982,26.737098391875403],[89.3858022574364,26.7373133274255],[89.38267325628661,26.7377012670633],[89.38048325668561,26.737923224733702],[89.3805392970938,26.7362462230613],[89.3805533566874,26.7337802192695],[89.3819364026113,26.731730242847302],[89.3858394391495,26.729794315726803],[89.3876784788464,26.727952348526102],[89.3904355160369,26.7261143992191],[89.3933065479535,26.7244824524696],[89.3934235675143,26.7236604533878],[89.393482569124,26.723587454416602],[89.393457570543,26.7235314538366],[89.39406181038571,26.7234724455143],[89.3947042652515,26.723615228271402],[89.3957036291827,26.723758017984302],[89.3963698739869,26.7239008012053],[89.3980592855378,26.724067394406703],[89.3992252084607,26.7242339774063],[89.4007956543525,26.7242340080136],[89.4031988997951,26.7241626747337],[89.4039127396554,26.7240912985276],[89.4049165202257,26.7239592478716]]]},"properties":{"compartment":"Godamdabri BL1","division":"BTR_W","range":"Hamiltonganj","beat":"Godamdabri","DIVISION":"BTR_W","BEAT_NAME":"Godamdabri"},"id":"comptt.183"}
]}
