{"type":"FeatureCollection", "features": [
{"type":"Feature","geometry":{"type":"Polygon","coordinates":[[[89.56066544720261,26.6696026191075],[89.560093631325,26.6694903677717],[89.5560009754713,26.6693237277663],[89.5493622930762,26.669276008388803],[89.5457217298195,26.6693711176563],[89.5424142851715,26.669490023454202],[89.5403917467593,26.669632754317302],[89.5392733938021,26.6698706829558],[89.5377981217355,26.670108594643402],[89.5375819317524,26.6701302104712],[89.53722706177031,26.6697516628969],[89.5366084222576,26.6689664294735],[89.5356804586818,26.6679670396523],[89.5351808063335,26.6668724780057],[89.5344194034886,26.665825491346602],[89.5338959471791,26.6648974895298],[89.533396273348,26.664278818718202],[89.5327538524989,26.663136664211603],[89.5320638311929,26.6620183088211],[89.5315165855126,26.6610665065024],[89.5306600097839,26.659733987497102],[89.5302079286994,26.658996347407],[89.5296844718089,26.658092135637002],[89.5292086047984,26.6571879347939],[89.5290570565454,26.65671641102],[89.530707671958,26.6567358631818],[89.5367039016029,26.6565456295631],[89.5407489772757,26.656307757884],[89.5477445913771,26.6558320032229],[89.5506398082659,26.655663399285203],[89.5516118080278,26.655573418048],[89.55871079798631,26.6552615556932],[89.562404784233,26.6554536279464],[89.5651147588331,26.6562296820796],[89.5651097264317,26.6575736843625],[89.5652946699454,26.659896692078803],[89.5661926144197,26.662106713479602],[89.567479567724,26.663910741739002],[89.56909052160171,26.6656577762108],[89.5699884773058,26.667401796794202],[89.57047335989681,26.668438178641303],[89.5707534359644,26.6690368145956],[89.5702454360818,26.669083804784],[89.56759143162,26.669539753897702],[89.5651974334969,26.6697067075634],[89.5622204410667,26.6696976495626],[89.56066544720261,26.6696026191075]]]},"properties":{"compartment":"N RVBK BL15","division":"BTR_W","range":"WestRajabhatkhawa","beat":"NorthRajabhatkhawa","DIVISION":"BTR_W","BEAT_NAME":"NorthRajabhatkhawa"},"id":"comptt.123"},
{"type":"Feature","geometry":{"type":"Polygon","coordinates":[[[89.5375819317524,26.6701302104712],[89.5368463418105,26.670203756275303],[89.53158774722401,26.6701084737046],[89.5303980173241,26.6702274307449],[89.5292320739216,26.6704891484978],[89.52816132028221,26.6707508681043],[89.5240924458668,26.670941139203702],[89.5217129895284,26.6710362730357],[89.51982651759481,26.670897826060802],[89.5194345620754,26.669094815289203],[89.5190076666026,26.6648057995103],[89.5190587284802,26.6622347960282],[89.5189347815046,26.6600487898095],[89.5188798564586,26.6569457833382],[89.5188778579101,26.656885783194802],[89.5266626032042,26.6566881943656],[89.5290570565454,26.65671641102],[89.5292086047984,26.6571879347939],[89.5296844718089,26.658092135637002],[89.5302079286994,26.658996347407],[89.5306600097839,26.659733987497102],[89.5315165855126,26.6610665065024],[89.5320638311929,26.6620183088211],[89.5327538524989,26.663136664211603],[89.533396273348,26.664278818718202],[89.5338959471791,26.6648974895298],[89.5344194034886,26.665825491346602],[89.5351808063335,26.6668724780057],[89.5356804586818,26.6679670396523],[89.5366084222576,26.6689664294735],[89.53722706177031,26.6697516628969],[89.5375819317524,26.6701302104712]]]},"properties":{"compartment":"N RVBK BL16","division":"BTR_W","range":"WestRajabhatkhawa","beat":"NorthRajabhatkhawa","DIVISION":"BTR_W","BEAT_NAME":"NorthRajabhatkhawa"},"id":"comptt.124"},
{"type":"Feature","geometry":{"type":"Polygon","coordinates":[[[89.56066544720261,26.6696026191075],[89.5605243962431,26.6717286201196],[89.5605823456307,26.673819624945903],[89.5610882756544,26.6766666398366],[89.5616601998787,26.679746656427103],[89.5621651542487,26.681584669517502],[89.5589371480138,26.682173607660502],[89.5555701481934,26.6825115426513],[89.55259114599521,26.6829084853061],[89.54974314205461,26.6833644306172],[89.547152140283,26.6837043807311],[89.54659077985791,26.683796852459302],[89.5461081387256,26.6838763606919],[89.5451979300626,26.6826723208404],[89.5441272060485,26.6812922075537],[89.54286613365521,26.6798645004773],[89.54167642476361,26.6786985452533],[89.5413909040906,26.6783416190646],[89.5412005589243,26.6777467443124],[89.5410340303543,26.676461828813],[89.5406295535231,26.675129328595602],[89.5403678354233,26.674248921952902],[89.53967782528011,26.673082966467803],[89.5391543672557,26.672226344770102],[89.538440554298,26.6711793690321],[89.5379408816193,26.670513108132802],[89.5375819317524,26.6701302104712],[89.5377981217355,26.670108594643402],[89.5392733938021,26.6698706829558],[89.5403917467593,26.669632754317302],[89.5424142851715,26.669490023454202],[89.5457217298195,26.6693711176563],[89.5493622930762,26.669276008388803],[89.5560009754713,26.6693237277663],[89.560093631325,26.6694903677717],[89.56066544720261,26.6696026191075]]]},"properties":{"compartment":"N RVBK BL11","division":"BTR_W","range":"WestRajabhatkhawa","beat":"NorthRajabhatkhawa","DIVISION":"BTR_W","BEAT_NAME":"NorthRajabhatkhawa"},"id":"comptt.132"},
{"type":"Feature","geometry":{"type":"Polygon","coordinates":[[[89.5461081387256,26.6838763606919],[89.54501514014031,26.683930339490402],[89.5429451412354,26.6840982994533],[89.540160141387,26.6843792456838],[89.537440138558,26.684777193385703],[89.5347861369711,26.6851171422717],[89.5325211357945,26.6854000986369],[89.5309661398016,26.6853950683317],[89.52792514202291,26.6856180094735],[89.5239741410267,26.6860689332841],[89.5215811414478,26.6862998870651],[89.5215501646085,26.685343884795902],[89.5211722033898,26.683776874702602],[89.5211372455325,26.6820348709868],[89.5212792982345,26.6798368699244],[89.5207893756358,26.6766808548839],[89.5206724213711,26.674797849326],[89.5201024861889,26.672170833651503],[89.51982651759481,26.670897826060802],[89.5217129895284,26.6710362730357],[89.5240924458668,26.670941139203702],[89.52816132028221,26.6707508681043],[89.5292320739216,26.6704891484978],[89.5303980173241,26.6702274307449],[89.53158774722401,26.6701084737046],[89.5368463418105,26.670203756275303],[89.5375819317524,26.6701302104712],[89.5379408816193,26.670513108132802],[89.538440554298,26.6711793690321],[89.5391543672557,26.672226344770102],[89.53967782528011,26.673082966467803],[89.5403678354233,26.674248921952902],[89.5406295535231,26.675129328595602],[89.5410340303543,26.676461828813],[89.5412005589243,26.6777467443124],[89.5413909040906,26.6783416190646],[89.54167642476361,26.6786985452533],[89.54286613365521,26.6798645004773],[89.5441272060485,26.6812922075537],[89.5451979300626,26.6826723208404],[89.5461081387256,26.6838763606919]]]},"properties":{"compartment":"N RVBK BL10","division":"BTR_W","range":"WestRajabhatkhawa","beat":"NorthRajabhatkhawa","DIVISION":"BTR_W","BEAT_NAME":"NorthRajabhatkhawa"},"id":"comptt.138"},
{"type":"Feature","geometry":{"type":"Polygon","coordinates":[[[89.5506398082659,26.655663399285203],[89.5477445913771,26.6558320032229],[89.5407489772757,26.656307757884],[89.5367039016029,26.6565456295631],[89.530707671958,26.6567358631818],[89.5290570565454,26.65671641102],[89.5289944713968,26.6565216794616],[89.5288755261143,26.655093994651303],[89.5289945614582,26.652785922934303],[89.5292087975273,26.6491929308234],[89.52918506123841,26.646551725744903],[89.5291851162816,26.6442674417531],[89.5293060944733,26.6430848720396],[89.5302281627265,26.6430619799385],[89.5326231621798,26.642837026140302],[89.5361171588071,26.6426160937309],[89.5396101512548,26.6425691616082],[89.5429771496155,26.6422902266279],[89.54647114487601,26.642127294323],[89.5497061408363,26.6419623569763],[89.5519941377991,26.6418534013027],[89.5517690949806,26.6436534000972],[89.551501041082,26.645917398872],[89.55123298018711,26.6484713981568],[89.5510289191017,26.651026398688103],[89.551216885029,26.6524204048034],[89.55108385037471,26.653871404771],[89.5506398082659,26.655663399285203]]]},"properties":{"compartment":"S RVBK BL2","division":"BTR_W","range":"WestRajabhatkhawa","beat":"NorthRajabhatkhawa","DIVISION":"BTR_W","BEAT_NAME":"NorthRajabhatkhawa"},"id":"comptt.108"},
{"type":"Feature","geometry":{"type":"Polygon","coordinates":[[[89.5290570565454,26.65671641102],[89.5266626032042,26.6566881943656],[89.5188778579101,26.656885783194802],[89.5188588835848,26.6558227809749],[89.51882301005391,26.6505797711485],[89.51911706626541,26.648216772755802],[89.5192640893444,26.647243773922],[89.5196271211586,26.6458857786202],[89.5202691588747,26.644253788268202],[89.52045517823801,26.6434307904533],[89.5205231779475,26.6434357917848],[89.5225301741585,26.643384830740303],[89.525052173255,26.6431608794135],[89.528159166657,26.6431129397753],[89.5291711647353,26.64308795942],[89.5292621645565,26.6430859611869],[89.5293060944733,26.6430848720396],[89.5291851162816,26.6442674417531],[89.52918506123841,26.646551725744903],[89.5292087975273,26.6491929308234],[89.5289945614582,26.652785922934303],[89.5288755261143,26.655093994651303],[89.5289944713968,26.6565216794616],[89.5290570565454,26.65671641102]]]},"properties":{"compartment":"S RVBK BL1","division":"BTR_W","range":"WestRajabhatkhawa","beat":"NorthRajabhatkhawa","DIVISION":"BTR_W","BEAT_NAME":"NorthRajabhatkhawa"},"id":"comptt.109"}
]}
