{"type":"FeatureCollection", "features": [
{"type":"Feature","geometry":{"type":"Polygon","coordinates":[[[89.4574433875935,26.5651972318281],[89.4567253965469,26.565316878107602],[89.455640355194,26.565488187356802],[89.45446014408411,26.5656594847602],[89.4529943927886,26.5658688466908],[89.4472646687423,26.5658116254805],[89.4406973736655,26.5658876482594],[89.4391304477089,26.5658858778724],[89.4390712608531,26.5653440758093],[89.4385773337396,26.562357061186002],[89.4380804121363,26.559140046118102],[89.4377164984012,26.555580033051303],[89.4372256015092,26.5513300163597],[89.4371106623294,26.5488040098671],[89.4371136788297,26.548115008762203],[89.43674172381401,26.5462769984512],[89.4401927449545,26.5450270632113],[89.4426227577818,26.544233108955],[89.4449237627019,26.54378315278],[89.4458207795825,26.542983168806202],[89.44633882221851,26.541148175734502],[89.4463448524537,26.539885173711003],[89.4487708433152,26.540009220924702],[89.4523418256451,26.5403682907239],[89.4523948245285,26.540409291820403],[89.453359803731,26.5411753118196],[89.4550177856306,26.541755344932202],[89.4547567615712,26.542787341628802],[89.4544947319792,26.5440503386984],[89.4547657057284,26.5451173457636],[89.4550586646848,26.546799354301],[89.455049617407,26.548773357482002],[89.45530258889491,26.5499363643628],[89.4560125745114,26.5504613790172],[89.4574345666139,26.5506404068847],[89.4585955621598,26.550703429496203],[89.4593065491408,26.5511714440748],[89.45936553231,26.5518674464036],[89.4584585151957,26.5526774302005],[89.45696851075401,26.5530204019006],[89.4562565000969,26.553540388982903],[89.455536467192,26.554989377489],[89.45533643291681,26.556440376078402],[89.45545738248,26.558531381978902],[89.45609333763541,26.5603343973758],[89.4571852999499,26.5617904210261],[89.4576352750911,26.562779431434702],[89.4576282402873,26.5642314337693],[89.4574762216305,26.5650254321725],[89.4574433875935,26.5651972318281]]]},"properties":{"compartment":"Poro BL11","division":"BTR_W","range":"Nimati","beat":"Poro-West","DIVISION":"BTR_W","BEAT_NAME":"Poro-West"},"id":"comptt.22"},
{"type":"Feature","geometry":{"type":"Polygon","coordinates":[[[89.4574433875935,26.5651972318281],[89.4571621830211,26.5666684288779],[89.4563101253615,26.569162416595102],[89.45578408356471,26.5709604094498],[89.4542809983246,26.5746723866037],[89.4533619366637,26.5773393733058],[89.4529658889047,26.5793713690737],[89.45217683664501,26.581632357604],[89.4505487796042,26.5841813303401],[89.4500907501387,26.585457323617],[89.4496987261454,26.5864983177755],[89.4438418234913,26.586398243949702],[89.4436107585829,26.5857941984437],[89.4435018057204,26.5838421930263],[89.4432138945918,26.580170181226602],[89.4427199758137,26.5768381660071],[89.4420980655773,26.573163147727],[89.4417311409282,26.5700611353638],[89.44071918767,26.568220112625802],[89.4391942329843,26.5664930801351],[89.4391702388731,26.566250079259202],[89.4391304477089,26.5658858778724],[89.4406973736655,26.5658876482594],[89.4472646687423,26.5658116254805],[89.4529943927886,26.5658688466908],[89.45446014408411,26.5656594847602],[89.455640355194,26.565488187356802],[89.4567253965469,26.565316878107602],[89.4574433875935,26.5651972318281]]]},"properties":{"compartment":"Poro BL6","division":"BTR_W","range":"Nimati","beat":"Poro-West","DIVISION":"BTR_W","BEAT_NAME":"Poro-West"},"id":"comptt.41"},
{"type":"Feature","geometry":{"type":"Polygon","coordinates":[[[89.4564539817049,26.5967929163791],[89.45772461155761,26.5966644508283],[89.461022533856,26.596635964806],[89.4643061868858,26.5965789184594],[89.4649944469235,26.5965046316951],[89.4647154326404,26.597128627342702],[89.4644534180016,26.5977656233423],[89.4645133997097,26.5985206257949],[89.4649633761978,26.5994516361202],[89.4652823544352,26.6003236438016],[89.4652143364657,26.601078643769203],[89.46482132073861,26.6017746373251],[89.4639763020261,26.6026426223967],[89.462742273175,26.6039736007024],[89.4611862507664,26.6050705723544],[89.4601432214054,26.6064025543672],[89.4593571718228,26.608548542755003],[89.4589621309764,26.6102895380459],[89.4581800995509,26.6116795252216],[89.4578190890986,26.612152519014202],[89.4524680886532,26.612738416072602],[89.4459070881046,26.613458289855902],[89.4414580885044,26.6139152042159],[89.43964708840821,26.614112169374],[89.43942109228101,26.6139751647532],[89.43814712660671,26.612683137828203],[89.4357441802203,26.6107090878299],[89.43338923440571,26.608706038721902],[89.4343982570026,26.6076580565486],[89.4354513095486,26.605359073119],[89.43583632288271,26.6047630795892],[89.43669735748631,26.603231093721902],[89.4379353808392,26.6021271158945],[89.43888940494371,26.601022132550302],[89.439373446683,26.5992331389253],[89.4398644802098,26.597785146011102],[89.43995148613651,26.5975291472675],[89.4399738100233,26.5973649574234],[89.4433622007003,26.5973922932449],[89.44921565746401,26.597321016755302],[89.4521423927427,26.597206863379],[89.4540126514058,26.597064129444902],[89.4564539817049,26.5967929163791]]]},"properties":{"compartment":"Poro BL1","division":"BTR_W","range":"Nimati","beat":"Poro-West","DIVISION":"BTR_W","BEAT_NAME":"Poro-West"},"id":"comptt.71"},
{"type":"Feature","geometry":{"type":"Polygon","coordinates":[[[89.4399738100233,26.5973649574234],[89.4401485204372,26.5960801486437],[89.4405165387583,26.595278154431803],[89.4410115632146,26.594207162230003],[89.4416785819466,26.5933561737377],[89.4423476006491,26.5925061852854],[89.44311162525611,26.591400198243],[89.4443556670292,26.5895282192191],[89.4445146741387,26.589215221775202],[89.4444246845012,26.5887932193144],[89.4442587099918,26.5877492143262],[89.44418572103041,26.5872972121447],[89.4438418234913,26.586398243949702],[89.4496987261454,26.5864983177755],[89.4506027250895,26.586446335230402],[89.4529947173627,26.5865143817656],[89.4573257003621,26.586763466239802],[89.4579242701286,26.5868215492662],[89.4575873570735,26.590794315707402],[89.45705391140291,26.593068478829302],[89.4565959202187,26.596779786701703],[89.4564539817049,26.5967929163791],[89.4540126514058,26.597064129444902],[89.4521423927427,26.597206863379],[89.44921565746401,26.597321016755302],[89.4433622007003,26.5973922932449],[89.4399738100233,26.5973649574234]]]},"properties":{"compartment":"Poro BL5","division":"BTR_W","range":"Nimati","beat":"Poro-West","DIVISION":"BTR_W","BEAT_NAME":"Poro-West"},"id":"comptt.218"}
]}
