{"type":"FeatureCollection", "features": [
{"type":"Feature","geometry":{"type":"Polygon","coordinates":[[[89.4248859888028,26.8151369500637],[89.42532026003511,26.8154512290822],[89.4278682057239,26.817413282197602],[89.4302961796391,26.8182263310435],[89.4328481420827,26.8194983830898],[89.4352771160016,26.8203114319629],[89.4356591038055,26.820772440210202],[89.4352660630342,26.8224924354189],[89.4356460396876,26.8234124444003],[89.4378170198672,26.823995487848002],[89.4380180173026,26.8240794919212],[89.4413939739847,26.825500560357302],[89.4449729503925,26.826088631365202],[89.4462769648961,26.8253526556315],[89.4464729626859,26.825422659584202],[89.4466839603153,26.825497663838803],[89.4469879569011,26.825605669968702],[89.44985792456491,26.826629727849102],[89.4466048407,26.8304266706266],[89.4434327820541,26.833177613208],[89.4396007223318,26.8360435430578],[89.436404714242,26.8367184816525],[89.4305467853041,26.8344243631662],[89.4297337951587,26.8341063467245],[89.4269298438149,26.832406289009402],[89.4212189686953,26.827883169706602],[89.4159670700587,26.8242780609525],[89.41502708661591,26.8236980415998],[89.414863087386,26.823684038368903],[89.414579087426,26.8237130328631],[89.4144380871154,26.823741030152302],[89.4140502616094,26.823597922328602],[89.41668165759481,26.8214214401535],[89.4176524944758,26.8206219578025],[89.4197083807143,26.8189087851399],[89.42239245901091,26.8170433345018],[89.4238011216856,26.815958320228102],[89.4248859888028,26.8151369500637]]]},"properties":{"compartment":"BL1","division":"BTR_W","range":"Hamiltonganj","beat":"Rangamati","DIVISION":"BTR_W","BEAT_NAME":"Rangamati"},"id":"comptt.217"},
{"type":"Feature","geometry":{"type":"Polygon","coordinates":[[[89.4248859888028,26.8151369500637],[89.4238011216856,26.815958320228102],[89.42239245901091,26.8170433345018],[89.4197083807143,26.8189087851399],[89.4176524944758,26.8206219578025],[89.41668165759481,26.8214214401535],[89.4140502616094,26.823597922328602],[89.4134840981701,26.823389010907402],[89.41077712954521,26.8223899563022],[89.40597919503621,26.8202128588529],[89.4032412524443,26.8181458018799],[89.39912631109691,26.816176718157703],[89.396383348558,26.8149316624689],[89.3905714473179,26.8114955431714],[89.38969595218,26.810978565204202],[89.3910456825855,26.810403220633003],[89.395642815417,26.8093753787815],[89.3982031193018,26.808937608096603],[89.4017437506136,26.808499856571903],[89.4075305995038,26.807919378713102],[89.41038595594,26.807757634254102],[89.4165059191486,26.807377033242002],[89.4191077350827,26.8072641739106],[89.41793546127731,26.8079590721584],[89.4184414264473,26.8093390843573],[89.4200953801617,26.811067119582003],[89.4227683115626,26.8136041760886],[89.4243902788108,26.8147782097696],[89.4248859888028,26.8151369500637]]]},"properties":{"compartment":"BL2","division":"BTR_W","range":"Hamiltonganj","beat":"Rangamati","DIVISION":"BTR_W","BEAT_NAME":"Rangamati"},"id":"comptt.216"},
{"type":"Feature","geometry":{"type":"Polygon","coordinates":[[[89.4191077350827,26.8072641739106],[89.4165059191486,26.807377033242002],[89.41038595594,26.807757634254102],[89.4075305995038,26.807919378713102],[89.4017437506136,26.808499856571903],[89.3982031193018,26.808937608096603],[89.395642815417,26.8093753787815],[89.3910456825855,26.810403220633003],[89.38969595218,26.810978565204202],[89.38954346476861,26.810888522075],[89.38850548244011,26.8102735007709],[89.3851915314213,26.8086164332665],[89.3810826025819,26.8061323488729],[89.3793736446983,26.8045833129275],[89.3786986989251,26.802422296181],[89.3780267830521,26.799028277465602],[89.37827184470031,26.796460278024803],[89.3780528976486,26.7943012701933],[89.37814590868061,26.7938362712445],[89.3804558904897,26.7943343171846],[89.3836478706021,26.7948063803127],[89.3877348538177,26.7950534605557],[89.3924598269718,26.7956465538389],[89.39705780884701,26.7958946440757],[89.401654787952,26.796257734488503],[89.4059977733206,26.796390819561303],[89.4072297699912,26.7963948436389],[89.40737219961011,26.7963954746852],[89.40995776254731,26.7964068969594],[89.4120077569821,26.796414937027002],[89.4119787505312,26.7966839369091],[89.4127367038983,26.798523954790202],[89.4142586328844,26.8012859891424],[89.4155295959906,26.8026690162913],[89.4166725511039,26.804395041514102],[89.4186675210758,26.8054170822156],[89.4196075069166,26.805899101395102],[89.41957650022451,26.806178101256002],[89.4194764793887,26.807047100755202],[89.4193524779649,26.8071190984518],[89.4191077350827,26.8072641739106]]]},"properties":{"compartment":"BL3","division":"BTR_W","range":"Hamiltonganj","beat":"Rangamati","DIVISION":"BTR_W","BEAT_NAME":"Rangamati"},"id":"comptt.215"}
]}
