{"type":"FeatureCollection", "features": [
{"type":"Feature","geometry":{"type":"Polygon","coordinates":[[[89.5830587609213,26.6128059540015],[89.582077485466,26.612716734763602],[89.5800252011784,26.613103365550902],[89.5770508705836,26.6134304783048],[89.5738980875705,26.613876567800702],[89.5719052845831,26.6142037096376],[89.5695772259067,26.614386044699],[89.56938182579151,26.613995220206302],[89.568915483734,26.612881619163602],[89.56859189834721,26.611891751116403],[89.5682302453424,26.610806712160702],[89.567821007262,26.609521791926102],[89.5675355006325,26.6085795147048],[89.567240482039,26.607304116708402],[89.5667741347797,26.6059906453148],[89.5665076558099,26.6051435486335],[89.5662792488061,26.604210792540503],[89.5662433737978,26.6040069114819],[89.567447571569,26.6039766748316],[89.5737293471541,26.6035199461075],[89.5778600862008,26.6031393057138],[89.5802776162423,26.6028918922598],[89.58308736528791,26.602646286432503],[89.5831100016571,26.602794937137602],[89.58298498363331,26.6035569360672],[89.5827609334712,26.605664935472802],[89.5827348456707,26.609316941480103],[89.5828368205173,26.610351945308903],[89.5830727675533,26.6125289537797],[89.5830587609213,26.6128059540015]]]},"properties":{"compartment":"S RVBK BL13","Division":"BTR_W","Range":"EastDamanpur","Beat":"SouthRajabhatkhawa","DIVISION":"BTR_W","BEAT_NAME":"SouthRajabhatkhawa"},"id":"comptt.72"},
{"type":"Feature","geometry":{"type":"Polygon","coordinates":[[[89.5695772259067,26.614386044699],[89.5654509982641,26.6147092150509],[89.5626848779095,26.6150066018001],[89.55736082599161,26.615631099398602],[89.5541782966837,26.615928478052503],[89.55222175388751,26.616245360575],[89.5515607975105,26.614500344648903],[89.5499578868103,26.6109533072391],[89.5480319853113,26.6070562629437],[89.5464700472065,26.6046432283425],[89.5498966915035,26.6045283747281],[89.5578345687953,26.604242988482],[89.5636594785845,26.604071781380203],[89.5662433737978,26.6040069114819],[89.5662792488061,26.604210792540503],[89.5665076558099,26.6051435486335],[89.5667741347797,26.6059906453148],[89.567240482039,26.607304116708402],[89.5675355006325,26.6085795147048],[89.567821007262,26.609521791926102],[89.5682302453424,26.610806712160702],[89.56859189834721,26.611891751116403],[89.568915483734,26.612881619163602],[89.56938182579151,26.613995220206302],[89.5695772259067,26.614386044699]]]},"properties":{"compartment":"S RVBK BL14","Division":"BTR_W","Range":"EastDamanpur","Beat":"SouthRajabhatkhawa","DIVISION":"BTR_W","BEAT_NAME":"SouthRajabhatkhawa"},"id":"comptt.73"},
{"type":"Feature","geometry":{"type":"Polygon","coordinates":[[[89.5830587609213,26.6128059540015],[89.582936697489,26.6154539563518],[89.5831706371497,26.6179369653303],[89.583713570534,26.620648980727402],[89.5840705257694,26.6224719909227],[89.58460545426901,26.6253870065296],[89.58462545210091,26.6254750070756],[89.58100244629651,26.626083937689],[89.57866544474581,26.6263858927692],[89.57449144939031,26.626617811993402],[89.5709174492766,26.626986743132402],[89.5705726698925,26.6269963264433],[89.57059029496881,26.6263684556712],[89.57071403314501,26.6260162974527],[89.5707996986642,26.6257783586963],[89.5709139166343,26.6254357203094],[89.5710566947634,26.625083562461],[89.57118995406161,26.6246838143429],[89.571228032906,26.624312614424202],[89.5712661151875,26.623798654252102],[89.5712851819522,26.6226850626451],[89.5713042585682,26.6211622003114],[89.5712947791462,26.619477547135002],[89.5711520312619,26.6185733427533],[89.571056861576,26.618154550159],[89.5709045913425,26.617764316505102],[89.5707047303891,26.61699337125],[89.5704667960923,26.6163651855082],[89.5698672050522,26.6152230318226],[89.56968638038481,26.614604367208702],[89.5695772259067,26.614386044699],[89.5719052845831,26.6142037096376],[89.5738980875705,26.613876567800702],[89.5770508705836,26.6134304783048],[89.5800252011784,26.613103365550902],[89.582077485466,26.612716734763602],[89.5830587609213,26.6128059540015]]]},"properties":{"compartment":"S RVBK BL12","Division":"BTR_W","Range":"EastDamanpur","Beat":"SouthRajabhatkhawa","DIVISION":"BTR_W","BEAT_NAME":"SouthRajabhatkhawa"},"id":"comptt.84"},
{"type":"Feature","geometry":{"type":"Polygon","coordinates":[[[89.5705726698925,26.6269963264433],[89.5703424503037,26.627002731976702],[89.5671004561288,26.627091669077],[89.5644484628461,26.6270836174819],[89.561666468493,26.627133563462202],[89.5595964709459,26.627243523397002],[89.5579144752144,26.6272384906752],[89.555262479159,26.6273464392882],[89.5551014795806,26.627345436155203],[89.55513650884531,26.6261264346845],[89.554243596396,26.6225814110634],[89.5529027088395,26.618047376992003],[89.55222175388751,26.616245360575],[89.5541782966837,26.615928478052503],[89.55736082599161,26.615631099398602],[89.5626848779095,26.6150066018001],[89.5654509982641,26.6147092150509],[89.5695772259067,26.614386044699],[89.56968638038481,26.614604367208702],[89.5698672050522,26.6152230318226],[89.5704667960923,26.6163651855082],[89.5707047303891,26.61699337125],[89.5709045913425,26.617764316505102],[89.571056861576,26.618154550159],[89.5711520312619,26.6185733427533],[89.5712947791462,26.619477547135002],[89.5713042585682,26.6211622003114],[89.5712851819522,26.6226850626451],[89.5712661151875,26.623798654252102],[89.571228032906,26.624312614424202],[89.57118995406161,26.6246838143429],[89.5710566947634,26.625083562461],[89.5709139166343,26.6254357203094],[89.5707996986642,26.6257783586963],[89.57071403314501,26.6260162974527],[89.57059029496881,26.6263684556712],[89.5705726698925,26.6269963264433]]]},"properties":{"compartment":"S RVBK BL11","Division":"BTR_W","Range":"EastDamanpur","Beat":"SouthRajabhatkhawa","DIVISION":"BTR_W","BEAT_NAME":"SouthRajabhatkhawa"},"id":"comptt.85"},
{"type":"Feature","geometry":{"type":"Polygon","coordinates":[[[89.58308736528791,26.602646286432503],[89.5802776162423,26.6028918922598],[89.5778600862008,26.6031393057138],[89.5737293471541,26.6035199461075],[89.567447571569,26.6039766748316],[89.5662433737978,26.6040069114819],[89.5660698879348,26.6030210563625],[89.5660794388132,26.601736144270102],[89.56612704609181,26.6010127939127],[89.56633645686361,26.6001276364127],[89.5666315260511,26.599299590678303],[89.56685045153421,26.5986333437508],[89.5669456427436,26.598157444756403],[89.5669456548726,26.597653003862],[89.566898138901,26.5945787374865],[89.5667364340162,26.5906383373567],[89.5667531906733,26.5866146512264],[89.5678974277756,26.5866186127781],[89.56983842705661,26.586450650181],[89.5722964264451,26.586225697524903],[89.5745614263347,26.5859997411183],[89.576728423152,26.585911783053803],[89.57703470278621,26.5858991308781],[89.5772124224499,26.585891792419503],[89.5797324148054,26.5859538414797],[89.57986341438951,26.5859578440315],[89.5821894071756,26.586021889328002],[89.5841304050863,26.5859119268361],[89.5858124022613,26.585858959415102],[89.5861864019751,26.585832966633802],[89.5863633918585,26.5862359707919],[89.5868273722464,26.587004981179202],[89.5870272835444,26.590674991620702],[89.5857451898057,26.5947039739068],[89.5850091515897,26.596367962575602],[89.5845841346639,26.59711495565],[89.5843291209058,26.597712951761903],[89.58351507306361,26.5997849396398],[89.5830640090335,26.602492935704902],[89.58308736528791,26.602646286432503]]]},"properties":{"compartment":"Cheko BL2","Division":"BTR_W","Range":"EastDamanpur","Beat":"SouthRajabhatkhawa","DIVISION":"BTR_W","BEAT_NAME":"SouthRajabhatkhawa"},"id":"comptt.57"},
{"type":"Feature","geometry":{"type":"Polygon","coordinates":[[[89.5464700472065,26.6046432283425],[89.5441500476298,26.6048641836487],[89.5433970511765,26.604794168893502],[89.5428440518718,26.6048221581969],[89.542721065956,26.6042491548],[89.5424281155678,26.602216145535102],[89.5422971749434,26.5997601386752],[89.541791216128,26.598099125927],[89.5416842527399,26.5965871211927],[89.5415672872585,26.595163116418803],[89.5411073170472,26.59397110539],[89.5412603585835,26.5922271052992],[89.5417623867325,26.5910041129015],[89.5417983900559,26.5908621133512],[89.5419513903262,26.5908351162754],[89.5438324050679,26.5900281513906],[89.545192428116,26.5889291758719],[89.5463604460881,26.588061197029102],[89.5474614530532,26.5876582177025],[89.5491434529634,26.5874892500714],[89.5516674507283,26.5873232987983],[89.5539944504013,26.5870983435955],[89.5568394473627,26.586933398559403],[89.5592324483016,26.5866494445345],[89.56117344756831,26.586481481936],[89.5633724433934,26.586430524555702],[89.5664774313533,26.586614585190002],[89.5667354307206,26.5866145902011],[89.5667531906733,26.5866146512264],[89.5667364340162,26.5906383373567],[89.566898138901,26.5945787374865],[89.5669456548726,26.597653003862],[89.5669456427436,26.598157444756403],[89.56685045153421,26.5986333437508],[89.5666315260511,26.599299590678303],[89.56633645686361,26.6001276364127],[89.56612704609181,26.6010127939127],[89.5660794388132,26.601736144270102],[89.5660698879348,26.6030210563625],[89.5662433737978,26.6040069114819],[89.5636594785845,26.604071781380203],[89.5578345687953,26.604242988482],[89.5498966915035,26.6045283747281],[89.5464700472065,26.6046432283425]]]},"properties":{"compartment":"Cheko BL1","Division":"BTR_W","Range":"EastDamanpur","Beat":"SouthRajabhatkhawa","DIVISION":"BTR_W","BEAT_NAME":"SouthRajabhatkhawa"},"id":"comptt.60"}
]}
