{"type":"FeatureCollection","features":[{"type":"Feature","geometry":{"type":"Polygon","coordinates":[[[89.52930675012861,26.643083865420003],[89.52926282021181,26.643084954567303],[89.52917182039062,26.643086952800402],[89.52815982231232,26.6431119331557],[89.52505282891032,26.643159872793902],[89.52253082981382,26.643383824120704],[89.52052383360281,26.6434347851652],[89.52045583389332,26.643429783833703],[89.52061184998212,26.642745785677004],[89.52114089806892,26.6406947923946],[89.52131895846942,26.638168791455904],[89.52067906357911,26.633870771520403],[89.52020711072622,26.631961759016104],[89.51966113118442,26.631168747017504],[89.51894816645661,26.629777730731103],[89.51876117510952,26.629437726503003],[89.51876217672002,26.629370726405902],[89.51983877340122,26.628981456661702],[89.52232292994601,26.628867284765803],[89.52604915374171,26.628738866997605],[89.52831915842691,26.628724641113504],[89.52896969772142,26.628686633697104],[89.52908799660281,26.629136206783503],[89.52921647322061,26.629678730230204],[89.52928784238672,26.630121312391804],[89.52928783001171,26.630635273290103],[89.52924498705542,26.631177793405303],[89.52930206322262,26.632576916961302],[89.52935915520281,26.633319309369504],[89.52940196996832,26.633947491300404],[89.52953044967751,26.634361514523103],[89.52963037980122,26.6347612671655],[89.52967319662852,26.635303788946903],[89.52967318149922,26.635931970044904],[89.52971600210842,26.636317441551803],[89.52967316224301,26.636731471442403],[89.52951608443662,26.637902160433704],[89.52943041123811,26.638458959740703],[89.52925907928481,26.638972917306404],[89.52913057825612,26.639444045630302],[89.52910201078721,26.640172166347302],[89.52910199359052,26.6408860075948],[89.52917336515802,26.641228649582203],[89.52924473466152,26.641656951719202],[89.52930183729612,26.6419567633542],[89.52933038103342,26.642213754358703],[89.52934465411862,26.642499285135603],[89.52930675012861,26.643083865420003]]]},"properties":{"compartment":"S RVBK BL8","Division":"BTR_W","Range":"WestRajabhatkhawa","Beat":"WestRajabhatkhawa","Compartment":null,"DIVISION":"BTR_W","BEAT_NAME":"WestRajabhatkhawa"},"id":"comptt.100"},{"type":"Feature","geometry":{"type":"Polygon","coordinates":[[[89.55510213523591,26.627344429535604],[89.55506210456102,26.628622431013103],[89.55473104247642,26.631234429184403],[89.55426799191032,26.6333814239664],[89.55303194469512,26.635468403603703],[89.55224487675562,26.638369393407803],[89.55203680173581,26.6415043948869],[89.55199479345441,26.641852394683102],[89.54970679649162,26.641961350356702],[89.54647180053132,26.6421262877034],[89.54297780527081,26.6422892200083],[89.53961080691012,26.642568154988602],[89.53611781446241,26.642615087111302],[89.53262381783512,26.642836019520704],[89.53022881838181,26.643060973318903],[89.52930675012861,26.643083865420003],[89.52934465411862,26.642499285135603],[89.52933038103342,26.642213754358703],[89.52930183729612,26.6419567633542],[89.52924473466152,26.641656951719202],[89.52917336515802,26.641228649582203],[89.52910199359052,26.6408860075948],[89.52910201078721,26.640172166347302],[89.52913057825612,26.639444045630302],[89.52925907928481,26.638972917306404],[89.52943041123811,26.638458959740703],[89.52951608443662,26.637902160433704],[89.52967316224301,26.636731471442403],[89.52971600210842,26.636317441551803],[89.52967318149922,26.635931970044904],[89.52967319662852,26.635303788946903],[89.52963037980122,26.6347612671655],[89.52953044967751,26.634361514523103],[89.52940196996832,26.633947491300404],[89.52935915520281,26.633319309369504],[89.52930206322262,26.632576916961302],[89.52924498705542,26.631177793405303],[89.52928783001171,26.630635273290103],[89.52928784238672,26.630121312391804],[89.52921647322061,26.629678730230204],[89.52908799660281,26.629136206783503],[89.52896969772142,26.628686633697104],[89.53051777604402,26.628596193642203],[89.53431539037541,26.6284392172154],[89.53757048469161,26.628339340339902],[89.54175356740181,26.628210931462004],[89.54570822966132,26.628125348219104],[89.54924886158321,26.628096867026503],[89.55338911925321,26.627768576968602],[89.55414578979021,26.6276686615084],[89.55510213523591,26.627344429535604]]]},"properties":{"compartment":"S RVBK BL7","Division":"BTR_W","Range":"WestRajabhatkhawa","Beat":"WestRajabhatkhawa","DIVISION":"BTR_W","BEAT_NAME":"WestRajabhatkhawa"},"id":"comptt.99"},{"type":"Feature","geometry":{"type":"Polygon","coordinates":[[[89.51876217672002,26.629370726405902],[89.51800817704031,26.629435711858005],[89.51669017881991,26.629498686340003],[89.51476618134751,26.629593649094804],[89.51254318465112,26.629687606034402],[89.51020518742881,26.629815560797603],[89.50754742193891,26.629905569634804],[89.50749019202371,26.629907508168603],[89.50711819151272,26.629967501039705],[89.50500218868832,26.630305460483804],[89.50206018572902,26.630735404026904],[89.50036118034812,26.631136371686903],[89.49954117839081,26.6313033560323],[89.49951218156922,26.6311743552456],[89.49912722273882,26.629504344874604],[89.49648930259701,26.626462288337102],[89.49529436305032,26.624075260988803],[89.49591740785051,26.6221482697727],[89.49599723362802,26.621899800895303],[89.49705233205101,26.621854991325],[89.49906535145281,26.621669430130204],[89.50104982196032,26.621441038306504],[89.50250605139321,26.621312576388505],[89.50550417348492,26.620912883970302],[89.50683191324562,26.6207844195549],[89.50904481388082,26.620527482121602],[89.51072947343842,26.620370474594303],[89.51321363408921,26.620084982384004],[89.51479835493342,26.619885142839802],[89.51608326652962,26.619685287467803],[89.51818194746771,26.619428347814104],[89.51966673822481,26.619242776352102],[89.52343579809401,26.618857378943304],[89.52451347774901,26.6187600597217],[89.52449113444561,26.618899659531003],[89.52454823159212,26.6194279015628],[89.52477664659352,26.6200275270495],[89.52511926993532,26.6206842648562],[89.52544761331221,26.621341002385602],[89.52573313954402,26.621883528883604],[89.52618998706662,26.622354668587604],[89.52653261796591,26.622697325847202],[89.52696090899562,26.6230256947473],[89.52731781642312,26.623511112534104],[89.52774610195422,26.624067921833703],[89.52824577249602,26.624824602870802],[89.52837425186641,26.625252906117304],[89.52850273123642,26.625681209364004],[89.52873114692052,26.626252284803403],[89.52880251711952,26.626652036889904],[89.52878823787552,26.627037507286],[89.52890242628152,26.627922671053604],[89.52894524002022,26.628593683059],[89.52896969772142,26.628686633697104],[89.52831915842691,26.628724641113504],[89.52604915374171,26.628738866997605],[89.52232292994601,26.628867284765803],[89.51983877340122,26.628981456661702],[89.51876217672002,26.629370726405902]]]},"properties":{"compartment":"S RVBK BL9","Division":"BTR_W","Range":"WestRajabhatkhawa","Beat":"WestRajabhatkhawa","DIVISION":"BTR_W","BEAT_NAME":"WestRajabhatkhawa"},"id":"comptt.88"},{"type":"Feature","geometry":{"type":"Polygon","coordinates":[[[89.55510213523591,26.627344429535604],[89.55414578979021,26.6276686615084],[89.55338911925321,26.627768576968602],[89.54924886158321,26.628096867026503],[89.54570822966132,26.628125348219104],[89.54175356740181,26.628210931462004],[89.53757048469161,26.628339340339902],[89.53431539037541,26.6284392172154],[89.53051777604402,26.628596193642203],[89.52896969772142,26.628686633697104],[89.52894524002022,26.628593683059],[89.52890242628152,26.627922671053604],[89.52878823787552,26.627037507286],[89.52880251711952,26.626652036889904],[89.52873114692052,26.626252284803403],[89.52850273123642,26.625681209364004],[89.52837425186641,26.625252906117304],[89.52824577249602,26.624824602870802],[89.52774610195422,26.624067921833703],[89.52731781642312,26.623511112534104],[89.52696090899562,26.6230256947473],[89.52653261796591,26.622697325847202],[89.52618998706662,26.622354668587604],[89.52573313954402,26.621883528883604],[89.52544761331221,26.621341002385602],[89.52511926993532,26.6206842648562],[89.52477664659352,26.6200275270495],[89.52454823159212,26.6194279015628],[89.52449113444561,26.618899659531003],[89.52451347774901,26.6187600597217],[89.52564869738671,26.618657541609505],[89.52751895410121,26.618600477864803],[89.53253009262471,26.6181437144767],[89.53724141985252,26.617772605411204],[89.53975414048861,26.617487123756604],[89.54330905232732,26.617044612086104],[89.54545057286482,26.616801943290504],[89.54747787231442,26.616616392375004],[89.55059020252182,26.616288082301402],[89.55222240954282,26.616244353955402],[89.55290336449481,26.618046370372404],[89.55424425205132,26.622580404443802],[89.55513716450062,26.626125428064903],[89.55510213523591,26.627344429535604]]]},"properties":{"compartment":"S RVBK BL10","Division":"BTR_W","Range":"WestRajabhatkhawa","Beat":"WestRajabhatkhawa","DIVISION":"BTR_W","BEAT_NAME":"WestRajabhatkhawa"},"id":"comptt.87"},{"type":"Feature","geometry":{"type":"Polygon","coordinates":[[[89.52451347774901,26.6187600597217],[89.52343579809401,26.618857378943304],[89.51966673822481,26.619242776352102],[89.51818194746771,26.619428347814104],[89.51608326652962,26.619685287467803],[89.51479835493342,26.619885142839802],[89.51321363408921,26.620084982384004],[89.51072947343842,26.620370474594303],[89.50904481388082,26.620527482121602],[89.50683191324562,26.6207844195549],[89.50550417348492,26.620912883970302],[89.50250605139321,26.621312576388505],[89.50104982196032,26.621441038306504],[89.49906535145281,26.621669430130204],[89.49705233205101,26.621854991325],[89.49599723362802,26.621899800895303],[89.49627143347452,26.621046274751002],[89.49507649393472,26.618658247405502],[89.49508855642462,26.616059243154403],[89.49244762063131,26.613666187709903],[89.49124664979881,26.612579162501504],[89.49150473768832,26.608897161169903],[89.49157575484512,26.608176161306805],[89.49168075381121,26.608208163401702],[89.49492275187802,26.607949225936203],[89.50012475303652,26.607357325972803],[89.50464094464792,26.606828154660302],[89.50476675446822,26.606813415213104],[89.50517875458931,26.606765423134103],[89.50872175030482,26.606574491635403],[89.51294374591981,26.606317573214803],[89.51874573582651,26.606134685621903],[89.52259073246502,26.6058757598763],[89.52351172903971,26.605922777852804],[89.52402372713891,26.605948787846103],[89.52844872324151,26.6056528733069],[89.52884772289842,26.605625881012404],[89.52901742260441,26.605615442292603],[89.52891723903451,26.605779372631503],[89.52874591328091,26.606036349751804],[89.52857458375051,26.6064503771465],[89.52850318603161,26.606778736333204],[89.52833185650091,26.607192763727802],[89.52816052765702,26.607578231072303],[89.52798920155962,26.6078494882173],[89.52784642092742,26.608306346241203],[89.52793207144362,26.608691818579302],[89.52814621301312,26.609020193314404],[89.52848885666671,26.609248620372103],[89.52893142075821,26.6094485093218],[89.52967381101372,26.6097768843228],[89.53001644226352,26.610105261555503],[89.53030195747391,26.610690618127904],[89.53053037316931,26.611261693565805],[89.53067312736032,26.611904147464102],[89.53074449481902,26.612418119750302],[89.53081587571202,26.6127893117869],[89.53084441636801,26.613174783016003],[89.53078730067122,26.6134174923306],[89.53043039018502,26.613474595493603],[89.53000207953322,26.613545967294],[89.52927396378851,26.6138600436917],[89.52866005810361,26.614159842284202],[89.52793192652082,26.6147166191053],[89.52706103082822,26.615459003475504],[89.52623296228151,26.616315588876702],[89.52576181211961,26.616786720541704],[89.52509078730361,26.617471988695204],[89.52484807966411,26.6178146245755],[89.52460536133742,26.618185820505502],[89.52451347774901,26.6187600597217]]]},"properties":{"compartment":"S RVBK BL16","Division":"BTR_W","Range":"WestRajabhatkhawa","Beat":"WestRajabhatkhawa","DIVISION":"BTR_W","BEAT_NAME":"WestRajabhatkhawa"},"id":"comptt.75"},{"type":"Feature","geometry":{"type":"Polygon","coordinates":[[[89.55222240954282,26.616244353955402],[89.55059020252182,26.616288082301402],[89.54747787231442,26.616616392375004],[89.54545057286482,26.616801943290504],[89.54330905232732,26.617044612086104],[89.53975414048861,26.617487123756604],[89.53724141985252,26.617772605411204],[89.53253009262471,26.6181437144767],[89.52751895410121,26.618600477864803],[89.52564869738671,26.618657541609505],[89.52451347774901,26.6187600597217],[89.52460536133742,26.618185820505502],[89.52484807966411,26.6178146245755],[89.52509078730361,26.617471988695204],[89.52576181211961,26.616786720541704],[89.52623296228151,26.616315588876702],[89.52706103082822,26.615459003475504],[89.52793192652082,26.6147166191053],[89.52866005810361,26.614159842284202],[89.52927396378851,26.6138600436917],[89.53000207953322,26.613545967294],[89.53043039018502,26.613474595493603],[89.53078730067122,26.6134174923306],[89.53084441636801,26.613174783016003],[89.53081587571202,26.6127893117869],[89.53074449481902,26.612418119750302],[89.53067312736032,26.611904147464102],[89.53053037316931,26.611261693565805],[89.53030195747391,26.610690618127904],[89.53001644226352,26.610105261555503],[89.52967381101372,26.6097768843228],[89.52893142075821,26.6094485093218],[89.52848885666671,26.609248620372103],[89.52814621301312,26.609020193314404],[89.52793207144362,26.608691818579302],[89.52784642092742,26.608306346241203],[89.52798920155962,26.6078494882173],[89.52816052765702,26.607578231072303],[89.52833185650091,26.607192763727802],[89.52850318603161,26.606778736333204],[89.52857458375051,26.6064503771465],[89.52874591328091,26.606036349751804],[89.52891723903451,26.605779372631503],[89.52901742260441,26.605615442292603],[89.53721571450012,26.605111042706703],[89.54284470752711,26.6048211515773],[89.54339770683181,26.604793162273904],[89.54415070328511,26.604863177029102],[89.54647070286181,26.6046422217229],[89.54803264096661,26.607055256324102],[89.54995854246562,26.610952300619502],[89.55156145316582,26.614499338029304],[89.55222240954282,26.616244353955402]]]},"properties":{"compartment":"S RVBK BL15","Division":"BTR_W","Range":"WestRajabhatkhawa","Beat":"WestRajabhatkhawa","DIVISION":"BTR_W","BEAT_NAME":"WestRajabhatkhawa"},"id":"comptt.74"}]}