{"type":"FeatureCollection", "features": [
{"type":"Feature","geometry":{"type":"Polygon","coordinates":[[[89.8651722743815,26.5946606473584],[89.864810576293,26.5958598926762],[89.8646582692043,26.5965832511341],[89.8644869294059,26.5974208194458],[89.8642774976777,26.599172098813],[89.8642203612034,26.6002761698721],[89.864008550019,26.6020048491477],[89.8634731045457,26.6047709641604],[89.8627204611134,26.608301736444],[89.8609204079875,26.6061072570737],[89.8574185107848,26.6021631811352],[89.857272509494,26.6022301784238],[89.8562904970688,26.6028361604909],[89.8549794920001,26.6031671356119],[89.8535225098102,26.6025621060556],[89.8531575512662,26.6008750956434],[89.8526995723995,26.6000400850903],[89.8525726021201,26.598818080224],[89.8535356197609,26.597997097364],[89.8507907451248,26.5930450342289],[89.845558910605,26.5866549199023],[89.8486599232155,26.5858449786635],[89.8515699320449,26.5852100340488],[89.8533829419639,26.5846310681953],[89.855582962198,26.5835881089617],[89.8591389905817,26.5820821752034],[89.8597859946395,26.5818541873457],[89.8603185027393,26.5814687969505],[89.8612512593842,26.58110713439],[89.8625076298967,26.580555127752],[89.8633642390021,26.5800982835219],[89.8642208539843,26.5798127696284],[89.8660292505337,26.579374983955],[89.8670381474732,26.5789942828367],[89.8670000161611,26.5815450671174],[89.8668096167147,26.583201176673],[89.8666001946398,26.5845527052583],[89.8662765518977,26.5859423116952],[89.8659909886113,26.58735094891],[89.8657815587374,26.5890260881307],[89.8657815321505,26.5901301603032],[89.8655340076845,26.5924144399804],[89.8651722743815,26.5946606473584]]]},"properties":{"compartment":"N Bholka BL1"},"id":"comptt.56"}
]}