{"type":"FeatureCollection", "features": [
{"type":"Feature","geometry":{"type":"Polygon","coordinates":[[[89.884503617402,26.5960910465626],[89.8841995819831,26.5967586919645],[89.8850915413565,26.5983637125121],[89.8862364890873,26.6004287389001],[89.8858534540195,26.6019187343925],[89.8840644110186,26.6038657034044],[89.884828376153,26.6052427210113],[89.8857193078604,26.6079947438167],[89.8863552622265,26.6098297598408],[89.8869902083199,26.6120077765267],[89.8877531458309,26.6145297963901],[89.8857090839927,26.6172797620103],[89.8834131139482,26.6162467152267],[89.880992146954,26.6150986657841],[89.8783141722565,26.6142936120165],[89.8757631806942,26.6141765620851],[89.8735931661853,26.6149765213863],[89.8728271595792,26.6153205071409],[89.8707861669032,26.6152034671463],[89.868107178413,26.6149714144965],[89.8677261930712,26.6143984059459],[89.863166337025,26.6088453061969],[89.8627204611134,26.608301736444],[89.8634731045457,26.6047709641604],[89.864008550019,26.6020048491477],[89.8642203612034,26.6002761698721],[89.8642774976777,26.599172098813],[89.8644869294059,26.5974208194458],[89.8646582692043,26.5965832511341],[89.864810576293,26.5958598926762],[89.8651722743815,26.5946606473584],[89.871568255232,26.5948701722921],[89.8767459438382,26.5948702730994],[89.8773550806651,26.5949464251097],[89.8781926428631,26.5951939019063],[89.8796964577254,26.5952700813368],[89.8811812435485,26.595308180322],[89.8828563734527,26.5955747134659],[89.884503617402,26.5960910465626]]]},"properties":{"compartment":"N Bholka BL2"},"id":"comptt.69"}
]}