{"type":"FeatureCollection", "features": [
{"type":"Feature","geometry":{"type":"Polygon","coordinates":[[[89.793655010208,26.6673895650579],[89.7917768649036,26.6673725283909],[89.7893855095007,26.6674081818153],[89.7870298528712,26.6674914160278],[89.785090595869,26.6675508583171],[89.7824375022287,26.6675389165474],[89.7800580476799,26.6675388701385],[89.7786184715551,26.6675150420158],[89.7776904851208,26.6674555338033],[89.7765245626826,26.667253260678],[89.7755846757021,26.6672175522793],[89.773704911456,26.6671580255051],[89.7733530325052,26.6671503161332],[89.773454280727,26.6667981299311],[89.7736684412727,26.6663412732369],[89.7739968241427,26.665777348566],[89.7744465510452,26.6650349659209],[89.7747535243087,26.6644567608048],[89.7750390674487,26.663885695284],[89.7752603686667,26.6634002886737],[89.7755316466671,26.6626293424932],[89.7757029805854,26.662036864704],[89.7758600352259,26.6614158265817],[89.7759599841349,26.6610374878089],[89.7760171122796,26.6602808274792],[89.7760314231075,26.6590030453204],[89.7760100241888,26.6581321632416],[89.775917245088,26.6572755597985],[89.7757673628423,26.6565545755009],[89.7755461024806,26.6553481788859],[89.775517562023,26.6545415467908],[89.7755104613357,26.6529139835476],[89.7752963283713,26.6522286980662],[89.7751464376767,26.6518574944363],[89.774996535086,26.6515648209562],[89.7748038041446,26.6512078965186],[89.7747181519235,26.65089380425],[89.7747038902277,26.6505511633186],[89.774689630594,26.6497088314342],[89.7747538873394,26.6494232921421],[89.7748895159884,26.6490521040777],[89.7750251536037,26.6487237360951],[89.7753178448217,26.6482311908603],[89.775624806179,26.6477315158898],[89.7758461048037,26.6473531794811],[89.7760745413443,26.6470605133749],[89.776267277105,26.6468035366409],[89.776509993613,26.6465108608128],[89.7766384881426,26.6463109929356],[89.7769903818602,26.6457083079776],[89.7774286412313,26.6456937071569],[89.7781327402506,26.6456706230932],[89.7796846378528,26.645619750983],[89.7829186275365,26.6457408142435],[89.7847296289257,26.6455118491018],[89.7871886316387,26.6451668963674],[89.790165641551,26.6444749530634],[89.7931426514951,26.6437820097562],[89.7956036682436,26.6428560559432],[89.7968976792748,26.6422770800506],[89.7980756881575,26.6417981020886],[89.7976406349149,26.6440450979293],[89.7965486093506,26.6452070788778],[89.7955945870688,26.6462200622284],[89.7936775389039,26.6483960290387],[89.7916294633913,26.6517169954862],[89.7912074339783,26.6529749896715],[89.7904774106753,26.6540089774217],[89.7911113566091,26.6561879939605],[89.7921262988903,26.658482018151],[89.7923782346192,26.6611190281231],[89.791479172989,26.6637550156461],[89.791861141651,26.6650160255145],[89.7937721012176,26.6665090656517],[89.7936910866864,26.6671180652404],[89.793655010208,26.6673895650579]]]},"properties":{"compartment":"C Rydak BL2"},"id":"comptt.115"}
]}