{"type":"FeatureCollection", "features": [
{"type":"Feature","geometry":{"type":"Polygon","coordinates":[[[89.7768752606381,26.7028658054679],[89.7763462676647,26.7026257946806],[89.7741332831676,26.7021957506497],[89.7723922872269,26.7021937166517],[89.771208277975,26.7026886944758],[89.7700202584219,26.7036096730319],[89.7691482295467,26.7048856584324],[89.7678781844012,26.7068716374094],[89.7666091306556,26.7092126170776],[89.7656550864927,26.7111276020848],[89.7647040371616,26.7132555875528],[89.7633570042183,26.7147445640702],[89.7616139687767,26.7163745331175],[89.7596319201555,26.7185714985677],[89.7591548989279,26.7194934909972],[89.7591538782916,26.7203454925926],[89.7594678534838,26.7213395006109],[89.7600968038378,26.7233285166704],[89.7608037488448,26.7255305346593],[89.7607227129026,26.7270215359041],[89.7604816842355,26.7282275334817],[89.7591336409759,26.730141510768],[89.7576285963335,26.7321274851193],[89.7554885566557,26.7339694467838],[89.7545405519994,26.7342524287916],[89.7534325580669,26.7341084068645],[89.7517725723283,26.7336793736111],[89.7497186012765,26.7326823315862],[89.7490276109571,26.7323493174536],[89.7493469423644,26.7318479827469],[89.7497181453408,26.7312769189218],[89.7499751367376,26.7307819930086],[89.7503558715366,26.7301347892254],[89.7508983996493,26.7293352983156],[89.7512600965681,26.7286024239978],[89.7515456527407,26.7279076282639],[89.7517074648186,26.7273936704538],[89.7517931377655,26.7268511511019],[89.7518502663131,26.7260802107604],[89.7518788323897,26.7254139600587],[89.751793183197,26.7249761375574],[89.7515647638749,26.7245573423027],[89.7513458631469,26.7241956573422],[89.7511745529997,26.7238054232576],[89.7510889010391,26.7234818109725],[89.7510793905152,26.723091580049],[89.7511841031841,26.722558581087],[89.7513935035339,26.722111254332],[89.751574353028,26.7217019870913],[89.7517361632577,26.7212641694244],[89.7519170136736,26.7208168321114],[89.7521359381506,26.720198175218],[89.7522120988094,26.7197508358597],[89.7522311398313,26.7192939753677],[89.752202599119,26.7189132640901],[89.7520598402859,26.7184659204555],[89.7519170846799,26.717885326569],[89.7516410893832,26.7173047300802],[89.7513270118693,26.7168193130277],[89.75118425073,26.7164671495734],[89.7510890813238,26.7160388469049],[89.7510890919266,26.7156010260774],[89.7511652474228,26.7149538163411],[89.751184306739,26.7141543152018],[89.7512890465972,26.7124982041161],[89.7514318348412,26.711317994673],[89.7515841484529,26.7103281357757],[89.751898274591,26.7088052890299],[89.7521362352359,26.7079296520204],[89.7524503680513,26.7061307747515],[89.7527740093222,26.7048077985678],[89.7529929478395,26.7036085605735],[89.7531357382398,26.7027519517405],[89.7533166231958,26.7008769417238],[89.7533071322377,26.6996776892693],[89.7534674086914,26.6989823410822],[89.7531694522089,26.6972123319166],[89.7532474798024,26.6960643312674],[89.7527964985816,26.6953313210779],[89.7512925355999,26.6939452891024],[89.7500735925872,26.69170626108],[89.7497036151656,26.6908082521625],[89.74920864865,26.6894712399768],[89.7491876908498,26.6877282362741],[89.7491537075897,26.6870392343089],[89.7491277193777,26.6865542328853],[89.7498395816406,26.6868058972508],[89.7506485911327,26.6871628337112],[89.7515408778425,26.6876268519995],[89.7519096806577,26.6878885996911],[89.7527067890272,26.6882931260106],[89.7533611391664,26.6886381594323],[89.7540392721279,26.6888642230933],[89.7550862222212,26.6891735741094],[89.7558000553884,26.6893877384451],[89.7566447617061,26.6894591350646],[89.7574775692024,26.6894829513619],[89.7582865835896,26.689637627443],[89.7589290280746,26.6898042002964],[89.7601544474708,26.6901254548205],[89.7609991491869,26.6903872118023],[89.7616534907676,26.6906727651144],[89.762617161922,26.6909464144414],[89.7638306701973,26.6913152588258],[89.765056091324,26.6915651232173],[89.766602733725,26.6917317237208],[89.7682921317695,26.6920648773281],[89.7693747843804,26.6922671588446],[89.7708857339907,26.69255271888],[89.7734674245172,26.6931119403382],[89.7744310979818,26.6932904194891],[89.7757041001594,26.6934927047239],[89.7771079831892,26.6936473924234],[89.7779883785746,26.6937544898138],[89.7787444816565,26.6939686249823],[89.7787444716032,26.6939708249863],[89.7787414288798,26.6957368282985],[89.7772893693737,26.6983338049066],[89.7760783093077,26.7009307862156],[89.7768752606381,26.7028658054679]]]},"properties":{"compartment":"N Rydak BL1"},"id":"comptt.175"}
]}