{"type":"FeatureCollection", "features": [
{"type":"Feature","geometry":{"type":"Polygon","coordinates":[[[89.4552764176824,26.6458744366094],[89.4550004174254,26.6459144313113],[89.454486462341,26.6441034182475],[89.4540445152525,26.6419524060083],[89.4538585507028,26.6404993999295],[89.4539315896516,26.638873398592],[89.4544586399499,26.6367274051967],[89.4553096838085,26.6348144184918],[89.4558347257297,26.6330164256447],[89.4560997543816,26.6317974287262],[89.4561478993892,26.6315841792999],[89.4577122603261,26.6313791893517],[89.4605105109698,26.63105563318],[89.4626044306675,26.6308462835152],[89.4643366808323,26.6306559668545],[89.4676108193646,26.6303704899959],[89.471075308796,26.6300279167394],[89.4739496956142,26.6298566523078],[89.4773380552577,26.6295140675724],[89.4791654761191,26.6292856826964],[89.482915508068,26.6288098547617],[89.4849333007464,26.6284862934221],[89.4863800112085,26.6283150012447],[89.487099002939,26.6281675249651],[89.4870399172798,26.6284089442314],[89.4869090413131,26.6286706821374],[89.4868138566871,26.6288729406348],[89.4867543611125,26.6291108798872],[89.4867067620721,26.6294915996159],[89.4866829632578,26.6298604097868],[89.4867781324247,26.6303006123925],[89.486861404198,26.6306337445832],[89.4870755396282,26.6312167097466],[89.4872896793523,26.6316212246038],[89.487491921683,26.6319186690458],[89.4876822740438,26.6322161032567],[89.4878964151992,26.632561128012],[89.4880153851633,26.6329656410196],[89.4880272665434,26.6333225618638],[89.4880272593851,26.6336199923748],[89.4880153613978,26.6339531127159],[89.4879201741936,26.634262441397],[89.4878130850147,26.6346550599898],[89.4876108232131,26.6351666369369],[89.4874799469578,26.6354402748628],[89.4873133682156,26.6358209822785],[89.4871943922165,26.6360827204152],[89.4870873144688,26.6364158489057],[89.4870348512873,26.6365535381223],[89.4856495632404,26.6366180113024],[89.481795573339,26.6366039363564],[89.478826577931,26.6367258788492],[89.477120578385,26.6368868459612],[89.4764525785405,26.6369508330852],[89.4744875763826,26.637247795395],[89.4737815781524,26.6372487816727],[89.4723335732644,26.637604754133],[89.4693265599972,26.6384736971625],[89.4672835458464,26.6392776588187],[89.4656175055829,26.6411266295815],[89.4643074739442,26.6425796065878],[89.4643044715203,26.6426806067014],[89.4631504260242,26.6446925876893],[89.4624134244138,26.6448375736069],[89.4610014232751,26.6450345464893],[89.458068420222,26.6454724902095],[89.4552764176824,26.6458744366094]]]},"properties":{"compartment":"Nimati Bl3"},"id":"comptt.95"}
]}