{"type":"FeatureCollection", "features": [
{"type":"Feature","geometry":{"type":"Polygon","coordinates":[[[89.487099002939,26.6281675249651],[89.4863800112085,26.6283150012447],[89.4849333007464,26.6284862934221],[89.482915508068,26.6288098547617],[89.4791654761191,26.6292856826964],[89.4773380552577,26.6295140675724],[89.4739496956142,26.6298566523078],[89.471075308796,26.6300279167394],[89.4676108193646,26.6303704899959],[89.4643366808323,26.6306559668545],[89.4626044306675,26.6308462835152],[89.4605105109698,26.63105563318],[89.4577122603261,26.6313791893517],[89.4561478993892,26.6315841792999],[89.4561997647843,26.6313544299178],[89.4564277884282,26.6303474326396],[89.4569538163859,26.6291294407934],[89.4578618377381,26.6281454567662],[89.4587748702383,26.6266974720469],[89.4596899097309,26.6249584868704],[89.4600199507608,26.6232174903231],[89.4600279954458,26.6213584873193],[89.4605530345527,26.6196764946591],[89.4612730675576,26.6182275061817],[89.4620190890986,26.6172525190142],[89.4644350893179,26.616987565492],[89.4685060867287,26.6166646440187],[89.4732550791387,26.6164787359503],[89.47657307695,26.616219799961],[89.4792880763457,26.615958852255],[89.4801640740552,26.6159618692772],[89.4802670737703,26.6159628712798],[89.4808120751797,26.6158468816682],[89.4808536262459,26.6162140631046],[89.4808536188082,26.6165233936346],[89.4808179197442,26.6169041135936],[89.4808179094455,26.6173324143273],[89.4808416890864,26.6177607155233],[89.480936857974,26.618212818147],[89.4811034112582,26.6184745618314],[89.4815198153405,26.6186768202678],[89.4817577510188,26.6188314951556],[89.4819600039263,26.6191051395541],[89.4820432759904,26.6194263717227],[89.4819599864735,26.619830870798],[89.4817577178294,26.6202115875208],[89.481579250556,26.620532804604],[89.4814245855111,26.6207588519865],[89.4813056083728,26.621068180205],[89.4812937009633,26.6213775105038],[89.4813412822586,26.6217344320401],[89.4813888655567,26.6220080734337],[89.4815673188095,26.6222698173497],[89.4820550952695,26.6227814177045],[89.4823763098778,26.6229717742724],[89.4828997842602,26.6231502447501],[89.4835422394863,26.6232811274581],[89.4843155535233,26.6234477027705],[89.4849342059483,26.6236975652207],[89.4855409612491,26.6242448479506],[89.4860644253291,26.6248516291646],[89.4864213344095,26.6252680368153],[89.4867187502053,26.6258272235554],[89.4868496078533,26.6263269069567],[89.4868852866,26.6267909084471],[89.4869685515051,26.6274095711279],[89.487099002939,26.6281675249651]]]},"properties":{"compartment":"Nimati BL6"},"id":"comptt.83"}
]}