{"type":"FeatureCollection", "features": [
{"type":"Feature","geometry":{"type":"Polygon","coordinates":[[[89.5001965779727,26.6270008075149],[89.4960882128021,26.6272301480606],[89.4927379394204,26.6273062230775],[89.4919003678704,26.6274584970612],[89.4899777558551,26.627744000186],[89.4878647947827,26.6280104495784],[89.487099002939,26.6281675249651],[89.4869685515051,26.6274095711279],[89.4868852866,26.6267909084471],[89.4868496078533,26.6263269069567],[89.4867187502053,26.6258272235554],[89.4864213344095,26.6252680368153],[89.4860644253291,26.6248516291646],[89.4855409612491,26.6242448479506],[89.4849342059483,26.6236975652207],[89.4843155535233,26.6234477027705],[89.4835422394863,26.6232811274581],[89.4828997842602,26.6231502447501],[89.4823763098778,26.6229717742724],[89.4820550952695,26.6227814177045],[89.4815673188095,26.6222698173497],[89.4813888655567,26.6220080734337],[89.4813412822586,26.6217344320401],[89.4812937009633,26.6213775105038],[89.4813056083728,26.621068180205],[89.4814245855111,26.6207588519865],[89.481579250556,26.620532804604],[89.4817577178294,26.6202115875208],[89.4819599864735,26.619830870798],[89.4820432759904,26.6194263717227],[89.4819600039263,26.6191051395541],[89.4817577510188,26.6188314951556],[89.4815198153405,26.6186768202678],[89.4811034112582,26.6184745618314],[89.480936857974,26.618212818147],[89.4808416890864,26.6177607155233],[89.4808179094455,26.6173324143273],[89.4808179197442,26.6169041135936],[89.4808536188082,26.6165233936346],[89.4808536262459,26.6162140631046],[89.4808120751797,26.6158468816682],[89.4821520786167,26.6155629072123],[89.4876590853729,26.6147030127159],[89.4933910964928,26.6136391222374],[89.4950521003137,26.613306153931],[89.4956541003601,26.6132411655137],[89.4957750991898,26.6132771679264],[89.495704082033,26.6139981677895],[89.4954459941435,26.6176801691211],[89.496646964976,26.6187671943295],[89.4992879007693,26.621160249774],[89.4992758382794,26.6237592540251],[89.5004707778192,26.6261472813706],[89.5001965779727,26.6270008075149]]]},"properties":{"compartment":"Nimati BL5"},"id":"comptt.77"}
]}