{"type":"FeatureCollection", "features": [
{"type":"Feature","geometry":{"type":"Polygon","coordinates":[[[89.5037405227355,26.6364043626519],[89.5035605247291,26.6363403590416],[89.5007835478006,26.6356723038965],[89.4967805582498,26.6356572260457],[89.4947725539997,26.6360441876743],[89.4926965496359,26.636443148001],[89.4896555575841,26.6364320888619],[89.4871315611509,26.6365490399947],[89.4870348512873,26.6365535381223],[89.4870873144688,26.6364158489057],[89.4871943922165,26.6360827204152],[89.4873133682156,26.6358209822785],[89.4874799469578,26.6354402748628],[89.4876108232131,26.6351666369369],[89.4878130850147,26.6346550599898],[89.4879201741936,26.634262441397],[89.4880153613978,26.6339531127159],[89.4880272593851,26.6336199923748],[89.4880272665434,26.6333225618638],[89.4880153851633,26.6329656410196],[89.4878964151992,26.632561128012],[89.4876822740438,26.6322161032567],[89.487491921683,26.6319186690458],[89.4872896793523,26.6316212246038],[89.4870755396282,26.6312167097466],[89.486861404198,26.6306337445832],[89.4867781324247,26.6303006123925],[89.4866829632578,26.6298604097868],[89.4867067620721,26.6294915996159],[89.4867543611125,26.6291108798872],[89.4868138566871,26.6288729406348],[89.4869090413131,26.6286706821374],[89.4870399172798,26.6284089442314],[89.487099002939,26.6281675249651],[89.4878647947827,26.6280104495784],[89.4899777558551,26.627744000186],[89.4919003678704,26.6274584970612],[89.4927379394204,26.6273062230775],[89.4960882128021,26.6272301480606],[89.5001965779727,26.6270008075149],[89.5001167521952,26.6272492763923],[89.499493707395,26.6291762676084],[89.5006886469417,26.6315632949567],[89.5033265670835,26.6346053514942],[89.5037115259139,26.6362753618652],[89.5037405227355,26.6364043626519]]]},"properties":{"compartment":"Nimati BL4"},"id":"comptt.89"}
]}