{"type":"FeatureCollection", "features": [
{"type":"Feature","geometry":{"type":"Polygon","coordinates":[[[89.5257811414478,26.6913998870651],[89.525883060658,26.6947348948618],[89.5246431136602,26.6926688671038],[89.5230691815235,26.6900218318315],[89.5215012739134,26.6863577949131],[89.5198543386817,26.6838457584662],[89.5190334061945,26.6811337377637],[89.5182164769692,26.6782857169057],[89.5177725206207,26.6765227051978],[89.5171735450445,26.6755726918849],[89.5157435781892,26.674347661916],[89.5142416098498,26.6731916306675],[89.5128876280889,26.6725766032408],[89.5113036370908,26.6723685720433],[89.5110858969647,26.6723922675505],[89.5109656635267,26.6721369950624],[89.5108800054642,26.6720656032711],[89.5106658584134,26.671965668929],[89.5103803215425,26.6718657231973],[89.5101661741475,26.67178005888],[89.5098663676569,26.6716658428458],[89.5096807715675,26.6715230689855],[89.5093809695532,26.6712232526301],[89.5090240597488,26.6708377650147],[89.5087385276984,26.6705379489373],[89.5084672869893,26.6701810230394],[89.508124645771,26.6698526558011],[89.507710636454,26.6694528970504],[89.5074393871217,26.6690388610539],[89.5072252479894,26.6686105561445],[89.5070253788212,26.668182241513],[89.5069111804695,26.667711108475],[89.5067684201239,26.6673256350294],[89.5064971711347,26.666897329009],[89.5063829696843,26.6665546761934],[89.5063115884699,26.6661977541866],[89.5062544958426,26.6658979425569],[89.5062116762769,26.6654696409826],[89.50619740423,26.6651412701368],[89.5061545853523,26.6646844185132],[89.506168877019,26.6641990079516],[89.5062259933962,26.6635137178777],[89.5062688404971,26.6627998774767],[89.5063259579249,26.662485788045],[89.506331051839,26.6623228878622],[89.5067423730064,26.6622314957086],[89.5090623378831,26.6622018008049],[89.5166171146321,26.6619639974172],[89.5230778579101,26.6619857831948],[89.5230798564586,26.6620457833382],[89.5231347815046,26.6651487898095],[89.5232587284802,26.6673347960282],[89.5232076666026,26.6699057995103],[89.5236345620754,26.6741948152892],[89.5240265175948,26.6759978260608],[89.5243024861889,26.6772708336515],[89.5248724213711,26.679897849326],[89.5249893756358,26.6817808548839],[89.5254792982345,26.6849368699244],[89.5253372455325,26.6871348709868],[89.5253722033898,26.6888768747026],[89.5257501646085,26.6904438847959],[89.5257811414478,26.6913998870651]]]},"properties":{"compartment":"Dima BL2"},"id":"comptt.143"}
]}