{"type":"FeatureCollection", "features": [
{"type":"Feature","geometry":{"type":"Polygon","coordinates":[[[89.5110858969647,26.6723922675505],[89.5107156370269,26.6724325607071],[89.5094946368928,26.6725655371675],[89.5077566299823,26.6730335041429],[89.5066986131111,26.6738434849472],[89.506389573076,26.6755354818577],[89.5064575304225,26.6772964862271],[89.5062984883375,26.6790574861765],[89.5059904466487,26.6808174832224],[89.5060604186744,26.6819694865774],[89.5063563884632,26.6831904944528],[89.50657534867,26.6848165015296],[89.5063463296503,26.6856284984739],[89.5060423173599,26.6861694934886],[89.5052832915425,26.6873184806924],[89.5045232722441,26.6881974674091],[89.5036152533676,26.6890744512388],[89.5030112467585,26.6894114400563],[89.50230329622,26.6874364228563],[89.5018373300776,26.6860824114431],[89.4987153434246,26.6858563502521],[89.4981404704077,26.6806543300869],[89.5006295337927,26.677766373568],[89.5012236364988,26.6734463776769],[89.5009487253644,26.6697903660139],[89.5008498452798,26.6648273555217],[89.5008431732784,26.6644962748203],[89.502013161188,26.6640457468115],[89.5032029003772,26.6635401290913],[89.5045116092672,26.6630345236858],[89.5052551959975,26.6626776175392],[89.5059393007271,26.6624099403892],[89.506331051839,26.6623228878622],[89.5063259579249,26.662485788045],[89.5062688404971,26.6627998774767],[89.5062259933962,26.6635137178777],[89.506168877019,26.6641990079516],[89.5061545853523,26.6646844185132],[89.50619740423,26.6651412701368],[89.5062116762769,26.6654696409826],[89.5062544958426,26.6658979425569],[89.5063115884699,26.6661977541866],[89.5063829696843,26.6665546761934],[89.5064971711347,26.666897329009],[89.5067684201239,26.6673256350294],[89.5069111804695,26.667711108475],[89.5070253788212,26.668182241513],[89.5072252479894,26.6686105561445],[89.5074393871217,26.6690388610539],[89.507710636454,26.6694528970504],[89.508124645771,26.6698526558011],[89.5084672869893,26.6701810230394],[89.5087385276984,26.6705379489373],[89.5090240597488,26.6708377650147],[89.5093809695532,26.6712232526301],[89.5096807715675,26.6715230689855],[89.5098663676569,26.6716658428458],[89.5101661741475,26.67178005888],[89.5103803215425,26.6718657231973],[89.5106658584134,26.671965668929],[89.5108800054642,26.6720656032711],[89.5109656635267,26.6721369950624],[89.5110858969647,26.6723922675505]]]},"properties":{"compartment":"Dima BL1"},"id":"comptt.134"}
]}