{"type":"FeatureCollection", "features": [
{"type":"Feature","geometry":{"type":"Polygon","coordinates":[[[89.506331051839,26.6623228878622],[89.5059393007271,26.6624099403892],[89.5052551959975,26.6626776175392],[89.5045116092672,26.6630345236858],[89.5032029003772,26.6635401290913],[89.502013161188,26.6640457468115],[89.5008431732784,26.6644962748203],[89.5008288704289,26.6637863533165],[89.5007029651407,26.6598703441062],[89.5021730619535,26.655699365507],[89.5029141480812,26.6520473736152],[89.5029431517907,26.6518903739081],[89.5038072652454,26.6470903824211],[89.5049833344682,26.6440934001131],[89.5047054137692,26.6408293890641],[89.5037405227355,26.6364043626519],[89.5045605246928,26.6362373783065],[89.5062595300737,26.6358364106465],[89.509201533033,26.6354064671034],[89.5113175358574,26.6350685076593],[89.5116895363684,26.6350085147882],[89.5117467662836,26.6350065762544],[89.5118517033757,26.6355313188478],[89.5119088001716,26.6360738408986],[89.5119230522626,26.636816232463],[89.5118802120584,26.6372445323726],[89.51179454093,26.6377156715237],[89.5115518315709,26.6381296875221],[89.5111092396193,26.6386721998562],[89.5107951342512,26.6393432049113],[89.5104667475436,26.6400713097873],[89.510152640112,26.6408279749903],[89.5099099283452,26.6413419311608],[89.509724313684,26.6419701086395],[89.5095958154116,26.6423270267587],[89.509524425964,26.6427267760629],[89.5094530268602,26.6431122453421],[89.5093530864526,26.643554824165],[89.5092531274486,26.6443543236059],[89.5092531133506,26.6449396746195],[89.5092816515874,26.6454250860153],[89.5093244718513,26.6458248375406],[89.5094386812481,26.6462531405039],[89.5096385400852,26.6466957251579],[89.5097812994097,26.6471240286767],[89.5099526059107,26.6476665529487],[89.5101096358864,26.6480663066957],[89.510238114558,26.6485231699864],[89.5103951476548,26.6492084542285],[89.5105664465874,26.6500650690451],[89.510666372922,26.6506218619538],[89.5107377393277,26.6511786643071],[89.5107234493884,26.6515926847467],[89.5107377032091,26.6526777269043],[89.5106377441958,26.6534772263452],[89.5105378041266,26.653905525143],[89.510437852681,26.6543909340394],[89.5102236928984,26.6548192306149],[89.5099952545277,26.6551904268135],[89.5098239280776,26.6554759539748],[89.5094527135286,26.6561184078651],[89.509210002097,26.6566180840081],[89.5089672844497,26.656960729879],[89.5087245764584,26.6573176457746],[89.5084961394636,26.6576317218736],[89.5081534934439,26.6579172557009],[89.5077680078763,26.6581885086698],[89.5074681938138,26.6583883731819],[89.5072540388473,26.6586167994103],[89.5069684978666,26.6591022046941],[89.5068542647338,26.6596590034348],[89.5066543807842,26.6602586205828],[89.5065258818164,26.6606440887492],[89.5064116483386,26.6612151575143],[89.5063830884302,26.6616291876748],[89.5063402489018,26.6620289375327],[89.506331051839,26.6623228878622]]]},"properties":{"compartment":"Dima BL3"},"id":"comptt.112"}
]}