{"type":"FeatureCollection", "features": [
{"type":"Feature","geometry":{"type":"Polygon","coordinates":[[[89.5230778579101,26.6619857831948],[89.5166171146321,26.6619639974172],[89.5090623378831,26.6622018008049],[89.5067423730064,26.6622314957086],[89.506331051839,26.6623228878622],[89.5063402489018,26.6620289375327],[89.5063830884302,26.6616291876748],[89.5064116483386,26.6612151575143],[89.5065258818164,26.6606440887492],[89.5066543807842,26.6602586205828],[89.5068542647338,26.6596590034348],[89.5069684978666,26.6591022046941],[89.5072540388473,26.6586167994103],[89.5074681938138,26.6583883731819],[89.5077680078763,26.6581885086698],[89.5081534934439,26.6579172557009],[89.5084961394636,26.6576317218736],[89.5087245764584,26.6573176457746],[89.5089672844497,26.656960729879],[89.509210002097,26.6566180840081],[89.5094527135286,26.6561184078651],[89.5098239280776,26.6554759539748],[89.5099952545277,26.6551904268135],[89.5102236928984,26.6548192306149],[89.510437852681,26.6543909340394],[89.5105378041266,26.653905525143],[89.5106377441958,26.6534772263452],[89.5107377032091,26.6526777269043],[89.5107234493884,26.6515926847467],[89.5107377393277,26.6511786643071],[89.510666372922,26.6506218619538],[89.5105664465874,26.6500650690451],[89.5103951476548,26.6492084542285],[89.510238114558,26.6485231699864],[89.5101096358864,26.6480663066957],[89.5099526059107,26.6476665529487],[89.5097812994097,26.6471240286767],[89.5096385400852,26.6466957251579],[89.5094386812481,26.6462531405039],[89.5093244718513,26.6458248375406],[89.5092816515874,26.6454250860153],[89.5092531133506,26.6449396746195],[89.5092531274486,26.6443543236059],[89.5093530864526,26.643554824165],[89.5094530268602,26.6431122453421],[89.509524425964,26.6427267760629],[89.5095958154116,26.6423270267587],[89.509724313684,26.6419701086395],[89.5099099283452,26.6413419311608],[89.510152640112,26.6408279749903],[89.5104667475436,26.6400713097873],[89.5107951342512,26.6393432049113],[89.5111092396193,26.6386721998562],[89.5115518315709,26.6381296875221],[89.51179454093,26.6377156715237],[89.5118802120584,26.6372445323726],[89.5119230522626,26.636816232463],[89.5119088001716,26.6360738408986],[89.5118517033757,26.6355313188478],[89.5117467662836,26.6350065762544],[89.5144045317735,26.6349165674172],[89.5167425289958,26.634788612654],[89.5189655256922,26.6346946557144],[89.5208895231646,26.6345996929596],[89.522207521385,26.6345367184776],[89.5229615210647,26.6344717330255],[89.5229605194542,26.6345387331226],[89.5231475108013,26.6348787373507],[89.5238604755291,26.6362697536371],[89.5244064550709,26.6370627656357],[89.5248784079238,26.63897177814],[89.5255183028141,26.6432697980755],[89.5253402424136,26.6457957990142],[89.5248111943268,26.6478467922966],[89.524655178238,26.6485307904533],[89.5244691588747,26.6493537882682],[89.5238271211586,26.6509857786202],[89.5234640893444,26.652343773922],[89.5233170662654,26.6533167727558],[89.5230230100539,26.6556797711485],[89.5230588835848,26.6609227809749],[89.5230778579101,26.6619857831948]]]},"properties":{"compartment":"Dima BL4"},"id":"comptt.110"}
]}