{"type":"FeatureCollection", "features": [
{"type":"Feature","geometry":{"type":"Polygon","coordinates":[[[89.5723735112233,26.6969428952391],[89.5722098099075,26.6970304617477],[89.571181877618,26.6972303120645],[89.5702681671165,26.697344514456],[89.5672319700265,26.6975348056093],[89.5651666000795,26.6977441657206],[89.5633867701189,26.6979249713473],[89.5616164517471,26.6980391470417],[89.5591703655144,26.6981342795308],[89.5588534757651,26.6981564433932],[89.5588657986111,26.6980373834233],[89.5586802056253,26.6977661193273],[89.5581805351435,26.6974234689838],[89.5572097323869,26.6963955182495],[89.556410265755,26.6955103411075],[89.5547970249379,26.6940540771011],[89.5536263657785,26.6928976322508],[89.5523985946903,26.6914128257115],[89.5512993201777,26.6900565019048],[89.5508710353779,26.6894711525299],[89.5508282103111,26.6892712713439],[89.5507907798579,26.6888968524593],[89.551352140283,26.6888043807311],[89.5539431420546,26.6884644306172],[89.5567911459952,26.6880084853061],[89.5597701481934,26.6876115426513],[89.5631371480138,26.6872736076605],[89.5663651542487,26.6866846695175],[89.5668931552853,26.6865876796341],[89.5706481569451,26.6861347519997],[89.5736861560872,26.6858598107096],[89.5726431027071,26.6881767944938],[89.5717930515751,26.6903807818359],[89.571464022944,26.6915997775843],[89.5713949796341,26.6933997794292],[89.571322937729,26.6951417811125],[89.571770905746,26.6964197921097],[89.5723618918914,26.696932804539],[89.5723735112233,26.6969428952391]]]},"properties":{"compartment":"N RVBK BL8"},"id":"comptt.144"}
]}