{"type":"FeatureCollection", "features": [
{"type":"Feature","geometry":{"type":"Polygon","coordinates":[[[89.5611068510389,26.714255855739],[89.5607356612698,26.7142844085503],[89.5603930152276,26.7141559116409],[89.5599218891595,26.7140416822513],[89.5596220826658,26.7139274662029],[89.5593365485532,26.7137133102565],[89.5591081318933,26.71318506487],[89.558865451482,26.7123998287523],[89.5585656546532,26.7118858619995],[89.5579660323561,26.7116288698533],[89.5575234531106,26.7116431412479],[89.5570237750429,26.7116145714537],[89.5570951697076,26.7110006717637],[89.5572379531587,26.7104296035413],[89.5573236295126,26.7097443240038],[89.5575235173079,26.7089876565674],[89.5577091420401,26.7079454483491],[89.5579233277428,26.7064463898819],[89.5581946246812,26.704890222427],[89.5583945493844,26.7030199730261],[89.5585801875689,26.7010069430944],[89.5587229913666,26.6995935433849],[89.5588229587144,26.6984514033187],[89.5588534757651,26.6981564433932],[89.5591703655144,26.6981342795308],[89.5616164517471,26.6980391470417],[89.5633867701189,26.6979249713473],[89.5651666000795,26.6977441657206],[89.5672319700265,26.6975348056093],[89.5702681671165,26.697344514456],[89.571181877618,26.6972303120645],[89.5722098099075,26.6970304617477],[89.5723735112233,26.6969428952391],[89.5734488663979,26.6978768274018],[89.5755087965994,26.7005548723115],[89.5778307289752,26.7031159221295],[89.5803466734613,26.7051559748129],[89.5813766371515,26.7065529973817],[89.5821175999561,26.7080160144342],[89.5815730926615,26.7079596037151],[89.5806213152949,26.7079476951328],[89.5798360983814,26.7079000897354],[89.5787891321141,26.7078524792339],[89.5780634059179,26.7077691849336],[89.5771830080904,26.707769167765],[89.5763977897411,26.7077810424739],[89.5743276542781,26.7078048021474],[89.5731855150868,26.7078880600231],[89.572257523354,26.7080546022223],[89.5711272806839,26.708280630583],[89.5702706687762,26.708447174174],[89.5692831966174,26.7086375152553],[89.5683195138256,26.7088516468424],[89.5676175612492,26.7090300934701],[89.5668918247053,26.7093750999286],[89.5663088478083,26.7097201091707],[89.5657258729248,26.7099818382653],[89.5649406496932,26.7101959833317],[89.56431008838,26.7103149412457],[89.563608148107,26.7103982077047],[89.5631084684834,26.7104338880237],[89.5625849797818,26.7104338778156],[89.5621804784843,26.7105290500958],[89.5620614938898,26.7107312981327],[89.562061487274,26.7110049386158],[89.5620971694189,26.711326169879],[89.5622637306639,26.7116711937364],[89.5623945934353,26.7119567367927],[89.5625968351669,26.7122779613041],[89.5627039079972,26.7125635038966],[89.5627276893081,26.7129204249909],[89.5626919927801,26.7131940647781],[89.5626087066578,26.7134558036162],[89.5624659335599,26.7135985710839],[89.562299368795,26.7138127182137],[89.562144696302,26.7139316854073],[89.5619900332336,26.7140744526431],[89.5617163910359,26.7141934175164],[89.5614427502766,26.7142529022848],[89.5611068510389,26.714255855739]]]},"properties":{"compartment":"N RVBK BL4"},"id":"comptt.161"}
]}