{"type":"FeatureCollection", "features": [
{"type":"Feature","geometry":{"type":"Polygon","coordinates":[[[89.5561941377991,26.6469534013027],[89.5539061408363,26.6470623569763],[89.550671144876,26.647227294323],[89.5471771496155,26.6473902266279],[89.5438101512548,26.6476691616082],[89.5403171588071,26.6477160937309],[89.5368231621798,26.6479370261403],[89.5344281627265,26.6481619799385],[89.5335060944733,26.6481848720396],[89.5335439984633,26.6476002917552],[89.5335297253781,26.6473147609783],[89.5335011816408,26.6470577699738],[89.5334440790062,26.6467579583388],[89.5333727095027,26.6463296562018],[89.5333013379352,26.6459870142144],[89.5333013551319,26.6452731729669],[89.5333299226008,26.6445450522499],[89.5334584236295,26.644073923926],[89.5336297555828,26.6435599663603],[89.5337154287813,26.6430031670533],[89.5338725065877,26.641832478062],[89.5339153464531,26.6414184481714],[89.5338725258439,26.6410329766645],[89.5338725409732,26.6404047955665],[89.5338297241459,26.6398622737851],[89.5337297940222,26.6394625211427],[89.533601314313,26.63904849792],[89.5335584995475,26.6384203159891],[89.5335014075673,26.6376779235809],[89.5334443314001,26.6362788000249],[89.5334871743564,26.6357362799097],[89.5334871867314,26.6352223190114],[89.5334158175653,26.6347797368498],[89.5332873409475,26.6342372134031],[89.5331690420661,26.6337876403167],[89.5347171203887,26.6336972002618],[89.5385147347201,26.633540223835],[89.5417698290363,26.6334403469595],[89.5459529117465,26.6333119380816],[89.549907574006,26.6332263548387],[89.5534482059279,26.6331978736461],[89.5575884635979,26.6328695835882],[89.5583451341349,26.632769668128],[89.5593014795806,26.6324454361552],[89.5592614489057,26.6337234376327],[89.5589303868211,26.636335435804],[89.558467336255,26.638482430586],[89.5572312890398,26.6405694102233],[89.5564442211003,26.6434704000274],[89.5562361460805,26.6466054015065],[89.5561941377991,26.6469534013027]]]},"properties":{"compartment":"S RVBK BL7"},"id":"comptt.99"}
]}