{"type":"FeatureCollection", "features": [
{"type":"Feature","geometry":{"type":"Polygon","coordinates":[[[89.5593014795806,26.6324454361552],[89.5583451341349,26.632769668128],[89.5575884635979,26.6328695835882],[89.5534482059279,26.6331978736461],[89.549907574006,26.6332263548387],[89.5459529117465,26.6333119380816],[89.5417698290363,26.6334403469595],[89.5385147347201,26.633540223835],[89.5347171203887,26.6336972002618],[89.5331690420661,26.6337876403167],[89.5331445843649,26.6336946896786],[89.5331017706262,26.6330236776732],[89.5329875822202,26.6321385139056],[89.5330018614642,26.6317530435095],[89.5329304912652,26.631353291423],[89.5327020755811,26.6307822159836],[89.5325735962111,26.6303539127369],[89.5324451168407,26.6299256094904],[89.5319454462989,26.6291689284533],[89.5315171607678,26.6286121191537],[89.5311602533403,26.6281267013669],[89.5307319623106,26.6277983324668],[89.5303893314113,26.6274556752072],[89.5299324838887,26.6269845355032],[89.5296469576569,26.6264420090052],[89.52931861428,26.6257852714758],[89.5289759909382,26.6251285336691],[89.5287475759368,26.6245289081824],[89.5286904787903,26.6240006661506],[89.5287128220937,26.6238610663413],[89.5298480417314,26.6237585482291],[89.5317182984459,26.6237014844844],[89.5367294369694,26.6232447210963],[89.5414407641972,26.6228736120308],[89.5439534848333,26.6225881303762],[89.547508396672,26.6221456187057],[89.5496499172095,26.6219029499101],[89.5516772166591,26.6217173989946],[89.5547895468665,26.621389088921],[89.5564217538875,26.621345360575],[89.5571027088395,26.623147376992],[89.558443596396,26.6276814110634],[89.5593365088453,26.6312264346845],[89.5593014795806,26.6324454361552]]]},"properties":{"compartment":"S RVBK BL10"},"id":"comptt.87"}
]}