{"type":"FeatureCollection", "features": [
{"type":"Feature","geometry":{"type":"Polygon","coordinates":[[[89.5564217538875,26.621345360575],[89.5547895468665,26.621389088921],[89.5516772166591,26.6217173989946],[89.5496499172095,26.6219029499101],[89.547508396672,26.6221456187057],[89.5439534848333,26.6225881303762],[89.5414407641972,26.6228736120308],[89.5367294369694,26.6232447210963],[89.5317182984459,26.6237014844844],[89.5298480417314,26.6237585482291],[89.5287128220937,26.6238610663413],[89.5288047056821,26.6232868271251],[89.5290474240088,26.6229156311951],[89.5292901316483,26.6225729953148],[89.5299611564643,26.6218877271613],[89.5304323066262,26.6214165954963],[89.5312603751729,26.6205600100951],[89.5321312708655,26.6198176257249],[89.5328594024483,26.6192608489038],[89.5334733081332,26.6189610503113],[89.5342014238779,26.6186469739136],[89.5346297345297,26.6185756021132],[89.5349866450159,26.6185184989502],[89.5350437607127,26.6182757896356],[89.5350152200567,26.6178903184065],[89.5349438391637,26.6175191263699],[89.534872471705,26.6170051540837],[89.534729717514,26.6163627001854],[89.5345013018186,26.6157916247475],[89.5342157866082,26.6152062681751],[89.5338731553584,26.6148778909424],[89.5331307651029,26.6145495159414],[89.5326882010114,26.6143496269917],[89.5323455573578,26.614121199934],[89.5321314157883,26.6137928251989],[89.5320457652721,26.6134073528608],[89.5321885459043,26.6129504948369],[89.5323598720017,26.6126792376919],[89.5325312008456,26.6122937703474],[89.5327025303763,26.6118797429528],[89.5327739280952,26.6115513837661],[89.5329452576256,26.6111373563714],[89.5331165833792,26.6108803792511],[89.5332167669491,26.6107164489122],[89.5414150588448,26.6102120493263],[89.5470440518718,26.6099221581969],[89.5475970511765,26.6098941688935],[89.5483500476298,26.6099641836487],[89.5506700472065,26.6097432283425],[89.5522319853113,26.6121562629437],[89.5541578868103,26.6160533072391],[89.5557607975105,26.6196003446489],[89.5564217538875,26.621345360575]]]},"properties":{"compartment":"S RVBK BL15"},"id":"comptt.74"}
]}