{"type":"FeatureCollection", "features": [
{"type":"Feature","geometry":{"type":"Polygon","coordinates":[[[89.5117467662836,26.6350065762544],[89.5116895363684,26.6350085147882],[89.5113175358574,26.6350685076593],[89.509201533033,26.6354064671034],[89.5062595300737,26.6358364106465],[89.5045605246928,26.6362373783065],[89.5037405227355,26.6364043626519],[89.5037115259139,26.6362753618652],[89.5033265670835,26.6346053514942],[89.5006886469417,26.6315632949567],[89.499493707395,26.6291762676084],[89.5001167521952,26.6272492763923],[89.5001965779727,26.6270008075149],[89.5012516763957,26.6269559979446],[89.5032646957975,26.6267704367498],[89.505249166305,26.6265420449261],[89.5067053957379,26.6264135830081],[89.5097035178296,26.6260138905899],[89.5110312575903,26.6258854261745],[89.5132441582255,26.6256284887412],[89.5149288177831,26.6254714812139],[89.5174129784339,26.6251859890036],[89.5189976992781,26.6249861494594],[89.5202826108743,26.6247862940874],[89.5223812918124,26.6245293544337],[89.5238660825695,26.6243437829717],[89.5276351424387,26.6239583855629],[89.5287128220937,26.6238610663413],[89.5286904787903,26.6240006661506],[89.5287475759368,26.6245289081824],[89.5289759909382,26.6251285336691],[89.52931861428,26.6257852714758],[89.5296469576569,26.6264420090052],[89.5299324838887,26.6269845355032],[89.5303893314113,26.6274556752072],[89.5307319623106,26.6277983324668],[89.5311602533403,26.6281267013669],[89.5315171607678,26.6286121191537],[89.5319454462989,26.6291689284533],[89.5324451168407,26.6299256094904],[89.5325735962111,26.6303539127369],[89.5327020755811,26.6307822159836],[89.5329304912652,26.631353291423],[89.5330018614642,26.6317530435095],[89.5329875822202,26.6321385139056],[89.5331017706262,26.6330236776732],[89.5331445843649,26.6336946896786],[89.5331690420661,26.6337876403167],[89.5325185027716,26.6338256477331],[89.5302484980864,26.6338398736172],[89.5265222742907,26.6339682913854],[89.5240381177459,26.6340824632813],[89.5229615210647,26.6344717330255],[89.522207521385,26.6345367184776],[89.5208895231646,26.6345996929596],[89.5189655256922,26.6346946557144],[89.5167425289958,26.634788612654],[89.5144045317735,26.6349165674172],[89.5117467662836,26.6350065762544]]]},"properties":{"compartment":"S RVBK BL9"},"id":"comptt.88"}
]}