{"type":"FeatureCollection", "features": [
{"type":"Feature","geometry":{"type":"Polygon","coordinates":[[[89.5335060944733,26.6481848720396],[89.5334621645565,26.6481859611869],[89.5333711647353,26.64818795942],[89.532359166657,26.6482129397753],[89.529252173255,26.6482608794135],[89.5267301741585,26.6484848307403],[89.5247231779475,26.6485357917848],[89.524655178238,26.6485307904533],[89.5248111943268,26.6478467922966],[89.5253402424136,26.6457957990142],[89.5255183028141,26.6432697980755],[89.5248784079238,26.63897177814],[89.5244064550709,26.6370627656357],[89.5238604755291,26.6362697536371],[89.5231475108013,26.6348787373507],[89.5229605194542,26.6345387331226],[89.5229615210647,26.6344717330255],[89.5240381177459,26.6340824632813],[89.5265222742907,26.6339682913854],[89.5302484980864,26.6338398736172],[89.5325185027716,26.6338256477331],[89.5331690420661,26.6337876403167],[89.5332873409475,26.6342372134031],[89.5334158175653,26.6347797368498],[89.5334871867314,26.6352223190114],[89.5334871743564,26.6357362799097],[89.5334443314001,26.6362788000249],[89.5335014075673,26.6376779235809],[89.5335584995475,26.6384203159891],[89.533601314313,26.63904849792],[89.5337297940222,26.6394625211427],[89.5338297241459,26.6398622737851],[89.5338725409732,26.6404047955665],[89.5338725258439,26.6410329766645],[89.5339153464531,26.6414184481714],[89.5338725065877,26.641832478062],[89.5337154287813,26.6430031670533],[89.5336297555828,26.6435599663603],[89.5334584236295,26.644073923926],[89.5333299226008,26.6445450522499],[89.5333013551319,26.6452731729669],[89.5333013379352,26.6459870142144],[89.5333727095027,26.6463296562018],[89.5334440790062,26.6467579583388],[89.5335011816408,26.6470577699738],[89.5335297253781,26.6473147609783],[89.5335439984633,26.6476002917552],[89.5335060944733,26.6481848720396]]]},"properties":{"compartment":"S RVBK BL8"},"id":"comptt.100"}
]}