{"type":"FeatureCollection", "features": [
{"type":"Feature","geometry":{"type":"Polygon","coordinates":[[[89.5287128220937,26.6238610663413],[89.5276351424387,26.6239583855629],[89.5238660825695,26.6243437829717],[89.5223812918124,26.6245293544337],[89.5202826108743,26.6247862940874],[89.5189976992781,26.6249861494594],[89.5174129784339,26.6251859890036],[89.5149288177831,26.6254714812139],[89.5132441582255,26.6256284887412],[89.5110312575903,26.6258854261745],[89.5097035178296,26.6260138905899],[89.5067053957379,26.6264135830081],[89.505249166305,26.6265420449261],[89.5032646957975,26.6267704367498],[89.5012516763957,26.6269559979446],[89.5001965779727,26.6270008075149],[89.5004707778192,26.6261472813706],[89.4992758382794,26.6237592540251],[89.4992879007693,26.621160249774],[89.496646964976,26.6187671943295],[89.4954459941435,26.6176801691211],[89.495704082033,26.6139981677895],[89.4957750991898,26.6132771679264],[89.4958800981559,26.6133091700213],[89.4991220962227,26.6130502325558],[89.5043240973812,26.6124583325924],[89.5088402889926,26.6119291612799],[89.5089660988129,26.6119144218327],[89.509378098934,26.6118664297537],[89.5129210946495,26.611675498255],[89.5171430902645,26.6114185798344],[89.5229450801712,26.6112356922415],[89.5267900768097,26.6109767664959],[89.5277110733844,26.6110237844724],[89.5282230714836,26.6110497944657],[89.5326480675862,26.6107538799265],[89.5330470672431,26.610726887632],[89.5332167669491,26.6107164489122],[89.5331165833792,26.6108803792511],[89.5329452576256,26.6111373563714],[89.5327739280952,26.6115513837661],[89.5327025303763,26.6118797429528],[89.5325312008456,26.6122937703474],[89.5323598720017,26.6126792376919],[89.5321885459043,26.6129504948369],[89.5320457652721,26.6134073528608],[89.5321314157883,26.6137928251989],[89.5323455573578,26.614121199934],[89.5326882010114,26.6143496269917],[89.5331307651029,26.6145495159414],[89.5338731553584,26.6148778909424],[89.5342157866082,26.6152062681751],[89.5345013018186,26.6157916247475],[89.534729717514,26.6163627001854],[89.534872471705,26.6170051540837],[89.5349438391637,26.6175191263699],[89.5350152200567,26.6178903184065],[89.5350437607127,26.6182757896356],[89.5349866450159,26.6185184989502],[89.5346297345297,26.6185756021132],[89.5342014238779,26.6186469739136],[89.5334733081332,26.6189610503113],[89.5328594024483,26.6192608489038],[89.5321312708655,26.6198176257249],[89.5312603751729,26.6205600100951],[89.5304323066262,26.6214165954963],[89.5299611564643,26.6218877271613],[89.5292901316483,26.6225729953148],[89.5290474240088,26.6229156311951],[89.5288047056821,26.6232868271251],[89.5287128220937,26.6238610663413]]]},"properties":{"compartment":"S RVBK BL16"},"id":"comptt.75"}
]}