{"type":"FeatureCollection", "features": [
{"type":"Feature","geometry":{"type":"Polygon","coordinates":[[[89.8597859946395,26.5818541873457],[89.8591389905817,26.5820821752034],[89.855582962198,26.5835881089617],[89.8533829419639,26.5846310681953],[89.8515699320449,26.5852100340488],[89.8486599232155,26.5858449786635],[89.845558910605,26.5866549199023],[89.8375181648346,26.5768347442889],[89.8361221944824,26.5757317149847],[89.8375081970238,26.5754977414883],[89.8394312078263,26.5748707776707],[89.8415352503688,26.572907814765],[89.8432873031709,26.5705508442387],[89.8458593750977,26.5673228879518],[89.8479093719692,26.5672639277036],[89.8490093722963,26.5671489488708],[89.849461376874,26.5669169572071],[89.8501733710876,26.5670919713964],[89.8505603660455,26.5672659792633],[89.851141349366,26.5679059918159],[89.8520463249935,26.5688360112386],[89.8528852937907,26.570056029947],[89.85391828169,26.5704640508388],[89.8554692712344,26.5707560815793],[89.8571502618884,26.5709901147356],[89.8582482398796,26.5718041376911],[89.8588922160827,26.5727341520442],[89.85927816634,26.574766163543],[89.8597271108459,26.577031176726],[89.8597900603857,26.5791221820582],[89.85978802128,26.5807471852106],[89.8597859946395,26.5818541873457]]]},"properties":{"compartment":"N Bholka BL5"},"id":"comptt.33"}
]}