{"type":"FeatureCollection", "features": [
{"type":"Feature","geometry":{"type":"Polygon","coordinates":[[[89.5491675237785,26.5646632098394],[89.5463548007162,26.5646631552669],[89.5435755975776,26.5646631013458],[89.5394258246379,26.5647962710692],[89.5357329069279,26.5650817299241],[89.5330107981923,26.5653101075137],[89.531071237979,26.5655194402519],[89.5312861910955,26.5641167719705],[89.5314892476822,26.5617367717497],[89.531692300089,26.5595307718322],[89.5315733519211,26.5573817657687],[89.5310843985742,26.5554867529736],[89.5310494019699,26.5553487520537],[89.5310614727657,26.552394747125],[89.5327335483081,26.549070773736],[89.5341506134714,26.5462057961991],[89.5361966275121,26.5454088344715],[89.5397706266612,26.5450759031798],[89.5439856296809,26.5445159839178],[89.5487236369645,26.543725074389],[89.552120642507,26.5431451392304],[89.5506695934906,26.5453391149601],[89.5500605403606,26.5476181071626],[89.5497524846378,26.549974105336],[89.5495294427018,26.5517461041292],[89.5494794111265,26.5530681054855],[89.5492673725382,26.5546991042432],[89.5492263359715,26.5562281061379],[89.549147297625,26.5578351074325],[89.5491852579554,26.5594851110723],[89.5491952242767,26.5608881137343],[89.5490311928956,26.5622131128835],[89.5490021649222,26.5633821143771],[89.5491675237785,26.5646632098394]]]},"properties":{"compartment":"Damanpur BL8"},"id":"comptt.15"}
]}