{"type":"FeatureCollection", "features": [
{"type":"Feature","geometry":{"type":"Polygon","coordinates":[[[89.5273107311308,26.5836927290104],[89.5271547305583,26.583732726052],[89.5277167416951,26.5832107360506],[89.528429757979,26.5824587485785],[89.5284327774923,26.581645747218],[89.5283108266054,26.5796127413022],[89.5284508806315,26.5773477400665],[89.5288509409419,26.5747937433715],[89.5289849782181,26.5732267432365],[89.5291830028055,26.5721817452543],[89.529511025653,26.5711957498974],[89.5301620476737,26.570210760809],[89.5303590666693,26.5693987632132],[89.5306921187735,26.5671927658208],[89.5310211499864,26.5658577698714],[89.5310391530366,26.5657287699952],[89.531071237979,26.5655194402519],[89.5330107981923,26.5653101075137],[89.5357329069279,26.5650817299241],[89.5394258246379,26.5647962710692],[89.5435755975776,26.5646631013458],[89.5463548007162,26.5646631552669],[89.5491675237785,26.5646632098394],[89.5491871300855,26.5648151204871],[89.5491751200619,26.5652341209914],[89.5494810544003,26.5679391316873],[89.5497019976032,26.5702831400996],[89.5494749309826,26.5730821406184],[89.5491168153634,26.5779351422063],[89.54922377906,26.5794361469234],[89.5492597352929,26.5812551508217],[89.5456960846982,26.5812299315965],[89.5434118076029,26.5813440974535],[89.5415082391126,26.5814773107347],[89.5396998490183,26.5816676359637],[89.5383102492606,26.5818008592223],[89.5372252082928,26.5819531184263],[89.5360830665531,26.5821434565885],[89.5338749251736,26.5824289542243],[89.531381251765,26.5828286565168],[89.5292111780146,26.5832093250573],[89.5280690358258,26.583418693252],[89.5273107311308,26.5836927290104]]]},"properties":{"compartment":"Damanpur BL7"},"id":"comptt.31"}
]}