{"type":"FeatureCollection", "features": [
{"type":"Feature","geometry":{"type":"Polygon","coordinates":[[[89.5459983900559,26.5959621133512],[89.5421003766674,26.5960884278652],[89.5367763377223,26.5961775546202],[89.5316605032805,26.5964748857861],[89.5278533784618,26.5966532721617],[89.5245254264972,26.5966636975512],[89.5243475007489,26.5935916887423],[89.5240205408173,26.5919576795461],[89.5240336171449,26.5887786742603],[89.5250026858206,26.5858186879143],[89.527206728652,26.5838067271905],[89.5273107311308,26.5836927290104],[89.5280690358258,26.583418693252],[89.5292111780146,26.5832093250573],[89.531381251765,26.5828286565168],[89.5338749251736,26.5824289542243],[89.5360830665531,26.5821434565885],[89.5372252082928,26.5819531184263],[89.5383102492606,26.5818008592223],[89.5396998490183,26.5816676359637],[89.5415082391126,26.5814773107347],[89.5434118076029,26.5813440974535],[89.5456960846982,26.5812299315965],[89.5492597352929,26.5812551508217],[89.5492637287032,26.5815291513813],[89.5492826934989,26.5829931543252],[89.54941863521,26.5854061612099],[89.5497095858753,26.5874301704205],[89.5495015136954,26.5904561717043],[89.5494284809605,26.5918261726963],[89.5462994190849,26.5947231170207],[89.5459983900559,26.5959621133512]]]},"properties":{"compartment":"Damanpur BL4"},"id":"comptt.49"}
]}