{"type":"FeatureCollection", "features": [
{"type":"Feature","geometry":{"type":"Polygon","coordinates":[[[89.5332167669491,26.6107164489122],[89.5330470672431,26.610726887632],[89.5326480675862,26.6107538799265],[89.5282230714836,26.6110497944657],[89.5277110733844,26.6110237844724],[89.5273151077222,26.6096367743594],[89.5268201490603,26.6079687618336],[89.5262562000625,26.60590574728],[89.5253673179906,26.6010917216202],[89.5245994218917,26.5968476993089],[89.5245325583801,26.5966814367848],[89.5245254264972,26.5966636975512],[89.5278533784618,26.5966532721617],[89.5316605032805,26.5964748857861],[89.5367763377223,26.5961775546202],[89.5421003766674,26.5960884278652],[89.5459983900559,26.5959621133512],[89.5459623867325,26.5961041129015],[89.5454603585835,26.5973271052992],[89.5453073170472,26.59907110539],[89.5457672872585,26.6002631164188],[89.5458842527399,26.6016871211927],[89.545991216128,26.603199125927],[89.5464971749434,26.6048601386752],[89.5466281155678,26.6073161455351],[89.546921065956,26.6093491548],[89.5470440518718,26.6099221581969],[89.5414150588448,26.6102120493263],[89.5332167669491,26.6107164489122]]]},"properties":{"compartment":"Damanpur BL3"},"id":"comptt.62"}
]}