{"type":"FeatureCollection", "features": [
{"type":"Feature","geometry":{"type":"Polygon","coordinates":[[[89.7693386126437,26.6671103502614],[89.766651407372,26.6671706179707],[89.7624873586935,26.6670991566307],[89.7613214285091,26.6672181041197],[89.7607146661727,26.6673727625808],[89.7601911722074,26.6675869027785],[89.7598937388702,26.6677534572943],[89.7591323008557,26.6681579532127],[89.7571930260779,26.6689550369056],[89.7555987834399,26.6692167463115],[89.753564348661,26.6696093173806],[89.7521961569419,26.6698115410818],[89.7513038572835,26.669882913816],[89.7506138065825,26.6699780805392],[89.7499342446363,26.6701237975625],[89.7505561575413,26.6682882262196],[89.7509741923014,26.6668092315742],[89.7515862343635,26.6650092401035],[89.7516492937054,26.6625462366737],[89.7509343602737,26.6598582176513],[89.7511974344924,26.656759216918],[89.7533744875681,26.6543522547982],[89.7558765104903,26.6531633013136],[89.7564115171244,26.6528373111235],[89.7574665420146,26.6517053295408],[89.7574675527539,26.6512603287169],[89.7588786020927,26.6490813520852],[89.7605536595804,26.6465393799057],[89.7632476481868,26.6467544328128],[89.7680376425993,26.6465295257323],[89.7719186447401,26.6460716004946],[89.7763186428809,26.6457306855947],[89.7769903818602,26.6457083079776],[89.7766384881426,26.6463109929356],[89.776509993613,26.6465108608128],[89.776267277105,26.6468035366409],[89.7760745413443,26.6470605133749],[89.7758461048037,26.6473531794811],[89.775624806179,26.6477315158898],[89.7753178448217,26.6482311908603],[89.7750251536037,26.6487237360951],[89.7748895159884,26.6490521040777],[89.7747538873394,26.6494232921421],[89.774689630594,26.6497088314342],[89.7747038902277,26.6505511633186],[89.7747181519235,26.65089380425],[89.7748038041446,26.6512078965186],[89.774996535086,26.6515648209562],[89.7751464376767,26.6518574944363],[89.7752963283713,26.6522286980662],[89.7755104613357,26.6529139835476],[89.775517562023,26.6545415467908],[89.7755461024806,26.6553481788859],[89.7757673628423,26.6565545755009],[89.775917245088,26.6572755597985],[89.7760100241888,26.6581321632416],[89.7760314231075,26.6590030453204],[89.7760171122796,26.6602808274792],[89.7759599841349,26.6610374878089],[89.7758600352259,26.6614158265817],[89.7757029805854,26.662036864704],[89.7755316466671,26.6626293424932],[89.7752603686667,26.6634002886737],[89.7750390674487,26.663885695284],[89.7747535243087,26.6644567608048],[89.7744465510452,26.6650349659209],[89.7739968241427,26.665777348566],[89.7736684412727,26.6663412732369],[89.773454280727,26.6667981299311],[89.7733530325052,26.6671503161332],[89.7720749860636,26.6671223036494],[89.7693386126437,26.6671103502614]]]},"properties":{"compartment":"C Rydak BL1"},"id":"comptt.117"}
]}