{"type":"FeatureCollection", "features": [
{"type":"Feature","geometry":{"type":"Polygon","coordinates":[[[89.7951769666901,26.6719431034892],[89.7934929289321,26.6736640739384],[89.7920449113277,26.6745290473473],[89.7908368827088,26.6758270262673],[89.7860098415514,26.6779859362219],[89.7835958104994,26.6794988920144],[89.7826277708641,26.6812298764354],[89.7835877110153,26.6836138997265],[89.7838246580645,26.6857809084951],[89.783580621981,26.6872959066298],[89.7823725985795,26.6883778851208],[89.7816465583726,26.6901088742582],[89.7789915435912,26.6909718240833],[89.778746491777,26.6931368234335],[89.7787444816565,26.6939686249823],[89.7779883785746,26.6937544898138],[89.7771079831892,26.6936473924234],[89.7757041001594,26.6934927047239],[89.7744310979818,26.6932904194891],[89.7734674245172,26.6931119403382],[89.7708857339907,26.69255271888],[89.7693747843804,26.6922671588446],[89.7682921317695,26.6920648773281],[89.766602733725,26.6917317237208],[89.765056091324,26.6915651232173],[89.7638306701973,26.6913152588258],[89.762617161922,26.6909464144414],[89.7625708740265,26.6904504025963],[89.762275855326,26.6891845144356],[89.7620664813613,26.6881280283441],[89.7616953269757,26.6866908283733],[89.761552578941,26.6857961438897],[89.7614193506531,26.6849109796101],[89.7613908189004,26.6841590676264],[89.7614193936888,26.683131136233],[89.7616002562831,26.6821793579554],[89.7618096632879,26.6814560006681],[89.7621332957808,26.6804947051573],[89.7624378850954,26.6796666595277],[89.7628852459207,26.6787624665384],[89.7631803147958,26.6779534607584],[89.7634849038785,26.6771349251458],[89.7637418996193,26.6764591688755],[89.764274930596,26.6751266767421],[89.7645985584824,26.67435573159],[89.7649316995663,26.6734515463701],[89.7653505099921,26.6725663928569],[89.7659501479305,26.6717669030329],[89.7662642491666,26.6712719782183],[89.7666449848487,26.6705867043413],[89.767244624166,26.6697301044074],[89.7676729365184,26.6691780717109],[89.7680726975563,26.668683158566],[89.7683986977868,26.6682286840592],[89.7687437273407,26.6678003899731],[89.7690887554577,26.6674315760001],[89.7693386126437,26.6671103502614],[89.7720749860636,26.6671223036494],[89.7733530325052,26.6671503161332],[89.773704911456,26.6671580255051],[89.7755846757021,26.6672175522793],[89.7765245626826,26.667253260678],[89.7776904851208,26.6674555338033],[89.7786184715551,26.6675150420158],[89.7800580476799,26.6675388701385],[89.7824375022287,26.6675389165474],[89.785090595869,26.6675508583171],[89.7870298528712,26.6674914160278],[89.7893855095007,26.6674081818153],[89.7917768649036,26.6673725283909],[89.793655010208,26.6673895650579],[89.7935130547111,26.6684580643397],[89.7940210036713,26.6705220782099],[89.7951769666901,26.6719431034892]]]},"properties":{"compartment":"N Rydak BL3"},"id":"comptt.140"}
]}