{"type":"FeatureCollection", "features": [
{"type":"Feature","geometry":{"type":"Polygon","coordinates":[[[89.5599648303726,26.716721078166103],[89.5586323126581,26.7167676628363],[89.5544823158559,26.717061582398202],[89.5508503199318,26.7172665119089],[89.5490023156313,26.7176344765076],[89.546001318828,26.7178114182787],[89.5455813173353,26.717916410270302],[89.5454723169782,26.717942408189803],[89.54296261198671,26.71799599142],[89.5427583223462,26.718000355350902],[89.541698324291,26.718029334725102],[89.5411173414161,26.7173813222551],[89.5402403744695,26.7161053029108],[89.5396524504267,26.7130252860413],[89.53900551135871,26.710572269122903],[89.5371845966115,26.707234227764],[89.5369126051721,26.7069082218894],[89.537224296415,26.7068245978202],[89.5377168484632,26.706688977186403],[89.5385163495724,26.70656050255],[89.5391873501402,26.706467715470602],[89.53978698054131,26.706389207024703],[89.5406935500042,26.706317844576102],[89.5419570485775,26.706246479087202],[89.5434917959581,26.7061965389249],[89.5453334920579,26.7061680247858],[89.5493880814444,26.7061895138852],[89.5501590296986,26.706182398905902],[89.5506944062959,26.706268069496502],[89.55128688171611,26.706396571276102],[89.55189364744611,26.706510793309302],[89.5524432964246,26.7064965340024],[89.5528237750429,26.706514571453702],[89.55332345311061,26.706543141247902],[89.55376603235611,26.7065288698533],[89.5543656546532,26.706785861999503],[89.55466545148201,26.7072998287523],[89.5549081318933,26.70808506487],[89.55513654855321,26.708613310256503],[89.5554220826658,26.7088274662029],[89.5557218891595,26.7089416822513],[89.5561930152276,26.709055911640903],[89.5565356612698,26.7091844085503],[89.5569068510389,26.709155855739002],[89.5570067831957,26.7094699482425],[89.5571209860074,26.7097554909739],[89.557306578642,26.710041025097702],[89.5576063796117,26.7103836815498],[89.5580346730122,26.711026141037802],[89.5585057787099,26.7119826919159],[89.5589055073457,26.7128250312007],[89.55919102040791,26.713496047955303],[89.5593623361702,26.714067122305902],[89.5596050100137,26.715123608906502],[89.5598048660341,26.716094434520702],[89.5599648303726,26.716721078166103]]]},"properties":{"compartment":"N RVBK BL1","Division":"BTR_E","Range":"Buxaduar","Beat":"Buxaroad","DIVISION":"BTR_E","BEAT_NAME":"Buxaroad"},"id":"comptt.166"},
{"type":"Feature","geometry":{"type":"Polygon","coordinates":[[[89.57791759995611,26.7029160144342],[89.5790206016874,26.702732035617],[89.5804466036884,26.7025040630206],[89.5810146042002,26.702425073956903],[89.58146857820411,26.7034540846435],[89.5817055526923,26.7044850911021],[89.5814075074824,26.706385088674402],[89.57998648694401,26.7073790627282],[89.5788964613104,26.7085500435517],[89.5766484384836,26.7097230017893],[89.5756714399987,26.7097599827979],[89.5746174361663,26.7100259627115],[89.5743574311728,26.710258958053902],[89.5732134147451,26.7110549371526],[89.5725204012675,26.711682924749603],[89.5719113967977,26.711929913308502],[89.57174237520451,26.7128399116268],[89.5715783553638,26.713676909912902],[89.5708793398926,26.7143878975384],[89.5706313257737,26.7149968937806],[89.5697593143103,26.7155598777676],[89.5687043033727,26.7161198581787],[89.5666713085735,26.7161128185049],[89.565522302879,26.716465796714502],[89.5634003010969,26.7167567558322],[89.5627823058463,26.7166237435406],[89.5611439085655,26.7166803124204],[89.5600903102732,26.7167166911889],[89.5599648303726,26.716721078166103],[89.5598048660341,26.716094434520702],[89.5596050100137,26.715123608906502],[89.5593623361702,26.714067122305902],[89.55919102040791,26.713496047955303],[89.5589055073457,26.7128250312007],[89.5585057787099,26.7119826919159],[89.5580346730122,26.711026141037802],[89.5576063796117,26.7103836815498],[89.557306578642,26.710041025097702],[89.5571209860074,26.7097554909739],[89.5570067831957,26.7094699482425],[89.5569068510389,26.709155855739002],[89.5572427502766,26.709152902284803],[89.5575163910359,26.709093417516403],[89.5577900332336,26.7089744526431],[89.557944696302,26.7088316854073],[89.558099368795,26.7087127182137],[89.55826593355991,26.7084985710839],[89.5584087066578,26.7083558036162],[89.5584919927801,26.708094064778102],[89.55852768930811,26.707820424990903],[89.5585039079972,26.7074635038966],[89.5583968351669,26.7071779613041],[89.5581945934353,26.7068567367927],[89.5580637306639,26.7065711937364],[89.55789716941891,26.706226169879002],[89.557861487274,26.705904938615802],[89.5578614938898,26.7056312981327],[89.5579804784843,26.705429050095802],[89.5583849797818,26.7053338778156],[89.55890846848341,26.705333888023702],[89.559408148107,26.7052982077047],[89.56011008838,26.7052149412457],[89.5607406496932,26.705095983331702],[89.5615258729248,26.7048818382653],[89.5621088478083,26.7046201091707],[89.5626918247053,26.7042750999286],[89.5634175612492,26.703930093470102],[89.5641195138256,26.703751646842402],[89.56508319661741,26.703537515255302],[89.5660706687762,26.703347174174002],[89.5669272806839,26.703180630583002],[89.568057523354,26.702954602222302],[89.56898551508681,26.702788060023103],[89.5701276542781,26.7027048021474],[89.5721977897411,26.702681042473902],[89.5729830080904,26.702669167765002],[89.5738634059179,26.7026691849336],[89.5745891321141,26.7027524792339],[89.57563609838141,26.7028000897354],[89.57642131529491,26.7028476951328],[89.5773730926615,26.7028596037151],[89.57791759995611,26.7029160144342]]]},"properties":{"compartment":"N RVBK BL2","Division":"BTR_E","Range":"Buxaduar","Beat":"Buxaroad","DIVISION":"BTR_E","BEAT_NAME":"Buxaroad"},"id":"comptt.165"},
{"type":"Feature","geometry":{"type":"Polygon","coordinates":[[[89.5528237750429,26.706514571453702],[89.5524432964246,26.7064965340024],[89.55189364744611,26.706510793309302],[89.55128688171611,26.706396571276102],[89.5506944062959,26.706268069496502],[89.5501590296986,26.706182398905902],[89.5493880814444,26.7061895138852],[89.5453334920579,26.7061680247858],[89.5434917959581,26.7061965389249],[89.5419570485775,26.706246479087202],[89.5406935500042,26.706317844576102],[89.53978698054131,26.706389207024703],[89.5391873501402,26.706467715470602],[89.5385163495724,26.70656050255],[89.5377168484632,26.706688977186403],[89.537224296415,26.7068245978202],[89.5369126051721,26.7069082218894],[89.5315987719394,26.7005581071762],[89.5276538573016,26.6974340248227],[89.5270782034834,26.6968239425378],[89.5283394177337,26.6965172965835],[89.5297099912012,26.6962317827973],[89.5316326044387,26.695898699687],[89.5332316077988,26.6955941603192],[89.5347449395355,26.695365759414603],[89.53622020998951,26.695194467868102],[89.5374099388585,26.695118350923103],[89.5388185778726,26.6950136781949],[89.5405413049552,26.694956601672],[89.5421593332212,26.694861453042],[89.5429493135519,26.694766298272402],[89.5440629083664,26.694452229425902],[89.5461092524699,26.694071548642203],[89.5496023078084,26.6934910357044],[89.5506587895518,26.6933102159782],[89.5526575273463,26.6931960347352],[89.55465347576511,26.6930564433932],[89.5546229587144,26.6933514033187],[89.5545229913666,26.6944935433849],[89.5543801875689,26.6959069430944],[89.5541945493844,26.697919973026103],[89.55399462468121,26.699790222427],[89.5537233277428,26.701346389881902],[89.5535091420401,26.702845448349102],[89.5533235173079,26.7038876565674],[89.5531236295126,26.7046443240038],[89.55303795315871,26.7053296035413],[89.5528951697076,26.7059006717637],[89.5528237750429,26.706514571453702]]]},"properties":{"compartment":"N RVBK BL3","Division":"BTR_E","Range":"Buxaduar","Beat":"Buxaroad","DIVISION":"BTR_E","BEAT_NAME":"Buxaroad"},"id":"comptt.158"},
{"type":"Feature","geometry":{"type":"Polygon","coordinates":[[[89.5569068510389,26.709155855739002],[89.5565356612698,26.7091844085503],[89.5561930152276,26.709055911640903],[89.5557218891595,26.7089416822513],[89.5554220826658,26.7088274662029],[89.55513654855321,26.708613310256503],[89.5549081318933,26.70808506487],[89.55466545148201,26.7072998287523],[89.5543656546532,26.706785861999503],[89.55376603235611,26.7065288698533],[89.55332345311061,26.706543141247902],[89.5528237750429,26.706514571453702],[89.5528951697076,26.7059006717637],[89.55303795315871,26.7053296035413],[89.5531236295126,26.7046443240038],[89.5533235173079,26.7038876565674],[89.5535091420401,26.702845448349102],[89.5537233277428,26.701346389881902],[89.55399462468121,26.699790222427],[89.5541945493844,26.697919973026103],[89.5543801875689,26.6959069430944],[89.5545229913666,26.6944935433849],[89.5546229587144,26.6933514033187],[89.55465347576511,26.6930564433932],[89.55497036551441,26.693034279530803],[89.5574164517471,26.692939147041702],[89.5591867701189,26.692824971347303],[89.5609666000795,26.6926441657206],[89.5630319700265,26.692434805609302],[89.5660681671165,26.692244514456],[89.566981877618,26.692130312064503],[89.56800980990751,26.691930461747702],[89.5681735112233,26.691842895239102],[89.5692488663979,26.6927768274018],[89.5713087965994,26.6954548723115],[89.5736307289752,26.6980159221295],[89.57614667346131,26.7000559748129],[89.5771766371515,26.7014529973817],[89.57791759995611,26.7029160144342],[89.5773730926615,26.7028596037151],[89.57642131529491,26.7028476951328],[89.57563609838141,26.7028000897354],[89.5745891321141,26.7027524792339],[89.5738634059179,26.7026691849336],[89.5729830080904,26.702669167765002],[89.5721977897411,26.702681042473902],[89.5701276542781,26.7027048021474],[89.56898551508681,26.702788060023103],[89.568057523354,26.702954602222302],[89.5669272806839,26.703180630583002],[89.5660706687762,26.703347174174002],[89.56508319661741,26.703537515255302],[89.5641195138256,26.703751646842402],[89.5634175612492,26.703930093470102],[89.5626918247053,26.7042750999286],[89.5621088478083,26.7046201091707],[89.5615258729248,26.7048818382653],[89.5607406496932,26.705095983331702],[89.56011008838,26.7052149412457],[89.559408148107,26.7052982077047],[89.55890846848341,26.705333888023702],[89.5583849797818,26.7053338778156],[89.5579804784843,26.705429050095802],[89.5578614938898,26.7056312981327],[89.557861487274,26.705904938615802],[89.55789716941891,26.706226169879002],[89.5580637306639,26.7065711937364],[89.5581945934353,26.7068567367927],[89.5583968351669,26.7071779613041],[89.5585039079972,26.7074635038966],[89.55852768930811,26.707820424990903],[89.5584919927801,26.708094064778102],[89.5584087066578,26.7083558036162],[89.55826593355991,26.7084985710839],[89.558099368795,26.7087127182137],[89.557944696302,26.7088316854073],[89.5577900332336,26.7089744526431],[89.5575163910359,26.709093417516403],[89.5572427502766,26.709152902284803],[89.5569068510389,26.709155855739002]]]},"properties":{"compartment":"N RVBK BL4","Division":"BTR_E","Range":"Buxaduar","Beat":"Buxaroad","DIVISION":"BTR_E","BEAT_NAME":"Buxaroad"},"id":"comptt.161"},
{"type":"Feature","geometry":{"type":"Polygon","coordinates":[[[89.5681735112233,26.691842895239102],[89.56800980990751,26.691930461747702],[89.566981877618,26.692130312064503],[89.5660681671165,26.692244514456],[89.5630319700265,26.692434805609302],[89.5609666000795,26.6926441657206],[89.5591867701189,26.692824971347303],[89.5574164517471,26.692939147041702],[89.55497036551441,26.693034279530803],[89.55465347576511,26.6930564433932],[89.5546657986111,26.692937383423303],[89.5544802056253,26.692666119327303],[89.55398053514351,26.6923234689838],[89.5530097323869,26.6912955182495],[89.55221026575501,26.6904103411075],[89.5505970249379,26.6889540771011],[89.5494263657785,26.687797632250803],[89.5481985946903,26.6863128257115],[89.54709932017771,26.6849565019048],[89.5466710353779,26.684371152529902],[89.5466282103111,26.684171271343903],[89.54659077985791,26.683796852459302],[89.547152140283,26.6837043807311],[89.54974314205461,26.6833644306172],[89.55259114599521,26.6829084853061],[89.5555701481934,26.6825115426513],[89.5589371480138,26.682173607660502],[89.5621651542487,26.681584669517502],[89.5626931552853,26.681487679634103],[89.5664481569451,26.6810347519997],[89.56948615608721,26.680759810709603],[89.5684431027071,26.6830767944938],[89.5675930515751,26.6852807818359],[89.567264022944,26.686499777584302],[89.56719497963411,26.6882997794292],[89.567122937729,26.6900417811125],[89.56757090574601,26.691319792109702],[89.5681618918914,26.691832804539],[89.5681735112233,26.691842895239102]]]},"properties":{"compartment":"N RVBK BL8","Division":"BTR_E","Range":"Buxaduar","Beat":"Buxaroad","DIVISION":"BTR_E","BEAT_NAME":"Buxaroad"},"id":"comptt.144"},
{"type":"Feature","geometry":{"type":"Polygon","coordinates":[[[89.55465347576511,26.6930564433932],[89.5526575273463,26.6931960347352],[89.5506587895518,26.6933102159782],[89.5496023078084,26.6934910357044],[89.5461092524699,26.694071548642203],[89.5440629083664,26.694452229425902],[89.5429493135519,26.694766298272402],[89.5421593332212,26.694861453042],[89.5405413049552,26.694956601672],[89.5388185778726,26.6950136781949],[89.5374099388585,26.695118350923103],[89.53622020998951,26.695194467868102],[89.5347449395355,26.695365759414603],[89.5332316077988,26.6955941603192],[89.5316326044387,26.695898699687],[89.5297099912012,26.6962317827973],[89.5283394177337,26.6965172965835],[89.5270782034834,26.6968239425378],[89.5269678765848,26.6967070101833],[89.5269028784147,26.696638008796],[89.5261678990522,26.6958599931135],[89.5246869405948,26.694293961519],[89.52333497574911,26.6929789328792],[89.521683060658,26.6896348948618],[89.5215811414478,26.6862998870651],[89.5239741410267,26.6860689332841],[89.52792514202291,26.6856180094735],[89.5309661398016,26.6853950683317],[89.5325211357945,26.6854000986369],[89.5347861369711,26.6851171422717],[89.537440138558,26.684777193385703],[89.540160141387,26.6843792456838],[89.5429451412354,26.6840982994533],[89.54501514014031,26.683930339490402],[89.5461081387256,26.6838763606919],[89.54659077985791,26.683796852459302],[89.5466282103111,26.684171271343903],[89.5466710353779,26.684371152529902],[89.54709932017771,26.6849565019048],[89.5481985946903,26.6863128257115],[89.5494263657785,26.687797632250803],[89.5505970249379,26.6889540771011],[89.55221026575501,26.6904103411075],[89.5530097323869,26.6912955182495],[89.55398053514351,26.6923234689838],[89.5544802056253,26.692666119327303],[89.5546657986111,26.692937383423303],[89.55465347576511,26.6930564433932]]]},"properties":{"compartment":"N RVBK BL9","Division":"BTR_E","Range":"Buxaduar","Beat":"Buxaroad","DIVISION":"BTR_E","BEAT_NAME":"Buxaroad"},"id":"comptt.150"}
]}
