{"type":"FeatureCollection", "features": [
{"type":"Feature","geometry":{"type":"Polygon","coordinates":[[[89.7555719037839,26.5469634253032],[89.7555679319814,26.5471221855775],[89.75555492019541,26.5476141862589],[89.7550428974225,26.5486111782055],[89.7546908886932,26.549008172121003],[89.75463384155461,26.5509761747483],[89.75447382368941,26.5517351730801],[89.7540638088943,26.5523901663574],[89.7537947992531,26.552817161941302],[89.75328375823901,26.554573155344002],[89.7527137028445,26.556933148744502],[89.7524666831795,26.557775145541502],[89.7512085978736,26.5614451280524],[89.75157456817,26.5626461374415],[89.751779562292,26.562871141852],[89.750488572897,26.562553116159602],[89.7500995780198,26.5623771082662],[89.7466126224368,26.560862037634003],[89.74473863352111,26.560580000684503],[89.7427066454283,26.56027896063],[89.7405656514141,26.5602349189442],[89.7381466592938,26.560138871759403],[89.73479167224531,26.5599218061609],[89.7347310026755,26.5590773333904],[89.734540724286,26.556114894110102],[89.73436230470911,26.5544492575047],[89.7343028314213,26.553759215049002],[89.73396973562251,26.552783626739803],[89.7335295586407,26.5518675264632],[89.7332202510704,26.550963318751602],[89.7328514559218,26.549963939705602],[89.7325064552887,26.549190611548003],[89.732368374383,26.5489191972062],[89.7332107853488,26.548704024311302],[89.73529519842741,26.548375694177402],[89.7380220596872,26.5480616565482],[89.7404062759133,26.5479903227221],[89.7422908015789,26.5479903593258],[89.746659487028,26.5477620137498],[89.7490437056715,26.547590739736602],[89.7509282361509,26.5473908959634],[89.7526557269928,26.547191059139802],[89.7541119574298,26.5470340371284],[89.7555719037839,26.5469634253032]]]},"properties":{"compartment":"SRD BL5","Division":"BTR_E","Range":"SouthRydak","Beat":"Chipra","DIVISION":"BTR_E","BEAT_NAME":"Chipra"},"id":"comptt.18"},
{"type":"Feature","geometry":{"type":"Polygon","coordinates":[[[89.732368374383,26.5489191972062],[89.7325064552887,26.549190611548003],[89.7328514559218,26.549963939705602],[89.7332202510704,26.550963318751602],[89.7335295586407,26.5518675264632],[89.73396973562251,26.552783626739803],[89.7343028314213,26.553759215049002],[89.73436230470911,26.5544492575047],[89.734540724286,26.556114894110102],[89.7347310026755,26.5590773333904],[89.73479167224531,26.5599218061609],[89.7330516926001,26.559241771072003],[89.73118471858331,26.5583397330998],[89.72836875091801,26.557264676368202],[89.7250457836857,26.5562206098509],[89.7244370917919,26.555988014684402],[89.7246089911869,26.5551177992943],[89.724894557959,26.553975662696303],[89.7251230055479,26.5528049649346],[89.72516586945001,26.551805593889902],[89.7250516829714,26.5504207390704],[89.7249089390143,26.549349974286603],[89.7247804650812,26.5486932405578],[89.7243093701084,26.5472798287541],[89.7240524119553,26.5463946621016],[89.7237240763052,26.544995533098202],[89.7235670558619,26.5441960285479],[89.7234100466656,26.542511362336],[89.7232815967141,26.540855256732602],[89.72325307830451,26.5395417937129],[89.72329592739321,26.5387422930437],[89.7234958229704,26.5376572548873],[89.7237242685444,26.5369862580622],[89.7240954944083,26.5358726731776],[89.7245095340058,26.5350160696062],[89.7251234569086,26.534002429619402],[89.7254803887582,26.533474195555502],[89.7259229776695,26.5330601733687],[89.726522616903,26.5326176041765],[89.7272221845358,26.532232147031102],[89.7280216960484,26.531675371503102],[89.7284214536888,26.5313184585913],[89.7290924823484,26.5304761400314],[89.72940657292621,26.5300050152414],[89.7295779131482,26.529562437734302],[89.7296778538772,26.529105578814303],[89.72972069953201,26.52844884841],[89.7296921759671,26.5273495357875],[89.7296065233559,26.527049723561003],[89.7294240590779,26.5263979996163],[89.7315094645096,26.5272356808432],[89.73185531624961,26.5275468181416],[89.7315551686156,26.5283107837548],[89.7313410048395,26.5289056407183],[89.7311149356678,26.529726547876102],[89.7309959445358,26.5306188472465],[89.730865054572,26.531463556296202],[89.7308293466715,26.5322130870141],[89.7308055273156,26.5330221080748],[89.7307222249561,26.5339619882271],[89.7305913372726,26.5347115270972],[89.7303533684085,26.5355205340003],[89.7301867990858,26.535925041528],[89.7298774549533,26.536543696686703],[89.729639506937,26.5369006127388],[89.729342050778,26.5376025482846],[89.72905650601871,26.5382449939495],[89.7286757611991,26.5393157485715],[89.7284497043023,26.5400414855476],[89.7284377797712,26.5410646572406],[89.7284496640371,26.541719008702103],[89.7285091273358,26.5424090511546],[89.7287232617045,26.5430396164987],[89.7290325749961,26.5437058737585],[89.7294370694955,26.5443126427549],[89.7299010532858,26.5449432129516],[89.7304007147083,26.5456689540208],[89.73101935842641,26.5462876271997],[89.7315071298752,26.547013378039],[89.7318640321969,26.5477153262924],[89.7321614523696,26.54851245357],[89.732368374383,26.5489191972062]]]},"properties":{"compartment":"SRD BL6","Division":"BTR_E","Range":"SouthRydak","Beat":"Chipra","DIVISION":"BTR_E","BEAT_NAME":"Chipra"},"id":"comptt.14"},
{"type":"Feature","geometry":{"type":"Polygon","coordinates":[[[89.7555719037839,26.5469634253032],[89.7541119574298,26.5470340371284],[89.7526557269928,26.547191059139802],[89.7509282361509,26.5473908959634],[89.7490437056715,26.547590739736602],[89.746659487028,26.5477620137498],[89.7422908015789,26.5479903593258],[89.7404062759133,26.5479903227221],[89.7380220596872,26.5480616565482],[89.73529519842741,26.548375694177402],[89.7332107853488,26.548704024311302],[89.732368374383,26.5489191972062],[89.7321614523696,26.54851245357],[89.7318640321969,26.5477153262924],[89.7315071298752,26.547013378039],[89.73101935842641,26.5462876271997],[89.7304007147083,26.5456689540208],[89.7299010532858,26.5449432129516],[89.7294370694955,26.5443126427549],[89.7290325749961,26.5437058737585],[89.7287232617045,26.5430396164987],[89.7285091273358,26.5424090511546],[89.7284496640371,26.541719008702103],[89.7284377797712,26.5410646572406],[89.7284497043023,26.5400414855476],[89.7286757611991,26.5393157485715],[89.72905650601871,26.5382449939495],[89.729342050778,26.5376025482846],[89.729639506937,26.5369006127388],[89.7298774549533,26.536543696686703],[89.7301867990858,26.535925041528],[89.7303533684085,26.5355205340003],[89.7305913372726,26.5347115270972],[89.7307222249561,26.5339619882271],[89.7308055273156,26.5330221080748],[89.7308293466715,26.5322130870141],[89.730865054572,26.531463556296202],[89.7309959445358,26.5306188472465],[89.7311149356678,26.529726547876102],[89.7313410048395,26.5289056407183],[89.7315551686156,26.5283107837548],[89.73185531624961,26.5275468181416],[89.7319674535717,26.5276476905079],[89.7336724126544,26.5291897265049],[89.7363193804596,26.5302777799347],[89.73675237677631,26.530389788550902],[89.7380033661255,26.5307138134455],[89.7391593244308,26.5323408389564],[89.7404943029583,26.5331078663208],[89.7430672757394,26.5339959179503],[89.74485225678781,26.5346149537758],[89.746450231043,26.5355349865421],[89.74815420131151,26.536611021664303],[89.7498411824925,26.5372340556009],[89.7520601574643,26.538065100264202],[89.75575811400451,26.539523174842],[89.756569089344,26.540473192395602],[89.75650406764541,26.5413831928613],[89.756445022258,26.5432791953158],[89.7560339775751,26.5451791909405],[89.7556009636292,26.5458011837109],[89.7555719037839,26.5469634253032]]]},"properties":{"compartment":"SRD BL7","Division":"BTR_E","Range":"SouthRydak","Beat":"Chipra","DIVISION":"BTR_E","BEAT_NAME":"Chipra"},"id":"comptt.8"},
{"type":"Feature","geometry":{"type":"Polygon","coordinates":[[[89.7294240590779,26.5263979996163],[89.7296065233559,26.527049723561003],[89.7296921759671,26.5273495357875],[89.72972069953201,26.52844884841],[89.7296778538772,26.529105578814303],[89.7295779131482,26.529562437734302],[89.72940657292621,26.5300050152414],[89.7290924823484,26.5304761400314],[89.7284214536888,26.5313184585913],[89.7280216960484,26.531675371503102],[89.7272221845358,26.532232147031102],[89.726522616903,26.5326176041765],[89.7259229776695,26.5330601733687],[89.7254803887582,26.533474195555502],[89.7251234569086,26.534002429619402],[89.7245095340058,26.5350160696062],[89.7240954944083,26.5358726731776],[89.7237242685444,26.5369862580622],[89.7234958229704,26.5376572548873],[89.72329592739321,26.5387422930437],[89.72325307830451,26.5395417937129],[89.7232815967141,26.540855256732602],[89.7234100466656,26.542511362336],[89.7235670558619,26.5441960285479],[89.7237240763052,26.544995533098202],[89.7240524119553,26.5463946621016],[89.7243093701084,26.5472798287541],[89.7247804650812,26.5486932405578],[89.7249089390143,26.549349974286603],[89.7250516829714,26.5504207390704],[89.72516586945001,26.551805593889902],[89.7251230055479,26.5528049649346],[89.724894557959,26.553975662696303],[89.7246089911869,26.5551177992943],[89.7244370917919,26.555988014684402],[89.7243417917774,26.5559515956697],[89.722771802668,26.555649564604302],[89.7197988208726,26.5551785059696],[89.71682683627141,26.554824447576703],[89.7144988557286,26.5542394012629],[89.7132728670075,26.553888376793402],[89.7127568766125,26.5535383661167],[89.7119168813995,26.5534203495809],[89.71072488549291,26.553365326326603],[89.7108489011261,26.5527023274961],[89.71225290881141,26.5522463539121],[89.7130239565336,26.5501843650302],[89.7153199813582,26.5489284072695],[89.71455902444521,26.5472073892705],[89.7129050421395,26.5466303560729],[89.7107390720443,26.545594312077302],[89.71049011391081,26.543874304028602],[89.7117681439199,26.5425003262738],[89.7144441238074,26.5430793793133],[89.7159741394347,26.542280407524203],[89.7162351883675,26.5402164087271],[89.7149652298796,26.5386093810632],[89.7130542481613,26.5380323428857],[89.711653267996,26.537341314397],[89.7116532691958,26.537291314303502],[89.7116593175059,26.535277310655],[89.7128123752634,26.5327583283244],[89.7134524040287,26.5314973383873],[89.7142564093361,26.531198353432103],[89.7153354580464,26.529063370377003],[89.7163615024147,26.5271143866389],[89.7169215103269,26.526730396786903],[89.72108450776591,26.5264354770207],[89.7240194953446,26.5266705344195],[89.726060485042,26.5269035744666],[89.7268394951881,26.5264055886488],[89.7269554966952,26.5263315907609],[89.7270095126879,26.5256595905457],[89.7293434903705,26.5263656371689],[89.7294240590779,26.5263979996163]]]},"properties":{"compartment":"Chipra3","Division":"BTR_E","Range":"SouthRydak","Beat":"Chipra","DIVISION":"BTR_E","BEAT_NAME":"Chipra"},"id":"comptt.12"}
]}
