{"type":"FeatureCollection", "features": [
{"type":"Feature","geometry":{"type":"Polygon","coordinates":[[[89.6249173946035,26.665273863014],[89.625013828933,26.667156118301502],[89.625013810551,26.667917549679903],[89.6250137950408,26.668560000843],[89.6249186014836,26.6691310700221],[89.62465684373281,26.6698924963001],[89.6244426781645,26.6705587433329],[89.6241809261582,26.6710822191798],[89.6241333196115,26.6717722595012],[89.62413330409811,26.6724147206639],[89.6241332897335,26.673009581740402],[89.6242998257715,26.6739851667521],[89.62437120295681,26.6745086490909],[89.6245139373263,26.6755556237682],[89.6247280629011,26.6769595104834],[89.6247280335898,26.6781730326799],[89.6247280117487,26.6790772343166],[89.6245376171469,26.680528703233],[89.624371044329,26.6810759809766],[89.62408624309461,26.6820066162254],[89.623650350252,26.681730908112602],[89.62299363322481,26.681259754458],[89.6222369760945,26.680802888881402],[89.6216088055493,26.6804745060423],[89.6207664958694,26.679717818255],[89.6200955016355,26.679132454117703],[89.61951017443481,26.678661311857002],[89.618225291,26.677690465059],[89.61702606666731,26.6767481799839],[89.6165196486601,26.6762857697212],[89.61636935274281,26.6761485361022],[89.6151844056167,26.675320461514],[89.614085112077,26.674749369060102],[89.6122577134071,26.6736357414403],[89.611529605174,26.6732216965054],[89.6109014429059,26.6729647038015],[89.6094309547515,26.672208003784302],[89.6083887707299,26.6716511924742],[89.6068897319568,26.670923041955],[89.6055905609744,26.6702662854603],[89.6047054141589,26.669809417392802],[89.60407724189291,26.6695524146919],[89.6033205775275,26.6693953596674],[89.6021070722025,26.6689099251527],[89.6002368367507,26.6680818372297],[89.59970860527581,26.6677820164008],[89.5992089344207,26.6674536360774],[89.5986807053581,26.6670538750699],[89.5984196324792,26.6667879908166],[89.600665419701,26.6666733930515],[89.6040324140539,26.6665674584545],[89.608174406507,26.666462538959003],[89.6099864047805,26.666351574060702],[89.6125733983504,26.6663576244725],[89.61399739619651,26.6663036521185],[89.6160043926059,26.6662506911249],[89.6210523926586,26.6657417885568],[89.6249173946035,26.665273863014]]]},"properties":{"compartment":"Jainti BL1","Division":"BTR_E","Range":"Jainti","Beat":"Jainti-North","DIVISION":"BTR_E","BEAT_NAME":"Jainti-North"},"id":"comptt.130"},
{"type":"Feature","geometry":{"type":"Polygon","coordinates":[[[89.6249173946035,26.665273863014],[89.6266843955219,26.6650588970524],[89.62953440526981,26.6643699513323],[89.6356194210589,26.6631080675999],[89.6383554172718,26.6629921206971],[89.63839438888711,26.664164123589202],[89.6380663574732,26.6654981196247],[89.6376093207184,26.6670661135715],[89.6368942944576,26.6682251017459],[89.6353992504928,26.6701950761923],[89.6339682063478,26.6721660518844],[89.63292816963741,26.6737900345638],[89.6307191106047,26.6764549963442],[89.62851305434,26.6790049579675],[89.62682199400061,26.6816719298357],[89.6263609544784,26.683353923894803],[89.6263354813447,26.6835659440137],[89.625320700683,26.6827874225884],[89.62408624309461,26.6820066162254],[89.624371044329,26.6810759809766],[89.6245376171469,26.680528703233],[89.6247280117487,26.6790772343166],[89.6247280335898,26.6781730326799],[89.6247280629011,26.6769595104834],[89.6245139373263,26.6755556237682],[89.62437120295681,26.6745086490909],[89.6242998257715,26.6739851667521],[89.6241332897335,26.673009581740402],[89.62413330409811,26.6724147206639],[89.6241333196115,26.6717722595012],[89.6241809261582,26.6710822191798],[89.6244426781645,26.6705587433329],[89.62465684373281,26.6698924963001],[89.6249186014836,26.6691310700221],[89.6250137950408,26.668560000843],[89.625013810551,26.667917549679903],[89.625013828933,26.667156118301502],[89.6249173946035,26.665273863014]]]},"properties":{"compartment":"Jainti BL2A","Division":"BTR_E","Range":"Jainti","Beat":"Jainti-North","DIVISION":"BTR_E","BEAT_NAME":"Jainti-North"},"id":"comptt.131"},
{"type":"Feature","geometry":{"type":"Polygon","coordinates":[[[89.5775337011945,26.668542635235703],[89.5754381450888,26.6685953150619],[89.5720402872416,26.6684382085982],[89.57047335989681,26.668438178641303],[89.5699884773058,26.667401796794202],[89.56909052160171,26.6656577762108],[89.567479567724,26.663910741739002],[89.5661926144197,26.662106713479602],[89.5652946699454,26.659896692078803],[89.5651097264317,26.6575736843625],[89.5651147588331,26.6562296820796],[89.56591275134251,26.656458698021503],[89.5665497453829,26.6566407107459],[89.5715037395003,26.6563788067341],[89.5730837403885,26.6561808371451],[89.5741107366089,26.6562328572334],[89.57489473516401,26.6562128724626],[89.5776677314624,26.656083926224902],[89.5814537275739,26.655859999542802],[89.5844787235598,26.655719058192002],[89.5879287255563,26.655286124596],[89.5906467200421,26.655239177436503],[89.5917337176746,26.655227198581102],[89.5928267187185,26.6550732195888],[89.5943786392805,26.6582092554243],[89.59598653327241,26.662440294318802],[89.59759644526561,26.6659243319224],[89.5980404228706,26.666807342154502],[89.5958824721824,26.6666397898162],[89.59271303751561,26.6667396682539],[89.5905144073805,26.6669680558336],[89.58631704938931,26.6673106146829],[89.5834188596038,26.6675960987378],[89.5813201764844,26.667938698468202],[89.5789216730717,26.6683241224342],[89.5777081508855,26.668538249177303],[89.5775337011945,26.668542635235703]]]},"properties":{"compartment":"N RVBK BL14","Division":"BTR_E","Range":"Jainti","Beat":"Jainti-North","DIVISION":"BTR_E","BEAT_NAME":"Jainti-North"},"id":"comptt.122"},
{"type":"Feature","geometry":{"type":"Polygon","coordinates":[[[89.6165196486601,26.6762857697212],[89.6122148183513,26.676334055467603],[89.61028746062391,26.6764339580854],[89.6076177012593,26.6766766064918],[89.6050764440008,26.6768193272231],[89.6034346145547,26.676962065483202],[89.60150724339421,26.677204728358003],[89.5988660401872,26.677604427603303],[89.5973955382626,26.6778328293558],[89.5953682321847,26.6782896506663],[89.5935265191042,26.6786036953374],[89.5908424825723,26.679146164001903],[89.587130513395,26.6799027630158],[89.5862168032224,26.680002685388],[89.5851746206029,26.678974733244],[89.5846749594113,26.678246612208103],[89.5832187760767,26.676461980650302],[89.5825763373021,26.675648186681602],[89.5812629274034,26.6737065176311],[89.5801922048424,26.672264544202],[89.57954977778721,26.67137937011],[89.5789929939734,26.6707654581703],[89.5783791147791,26.6699659447884],[89.5777652373071,26.669095051280202],[89.5775337011945,26.668542635235703],[89.5777081508855,26.668538249177303],[89.5789216730717,26.6683241224342],[89.5813201764844,26.667938698468202],[89.5834188596038,26.6675960987378],[89.58631704938931,26.6673106146829],[89.5905144073805,26.6669680558336],[89.59271303751561,26.6667396682539],[89.5958824721824,26.6666397898162],[89.5980404228706,26.666807342154502],[89.5984196324792,26.6667879908166],[89.5986807053581,26.6670538750699],[89.5992089344207,26.6674536360774],[89.59970860527581,26.6677820164008],[89.6002368367507,26.6680818372297],[89.6021070722025,26.6689099251527],[89.6033205775275,26.6693953596674],[89.60407724189291,26.6695524146919],[89.6047054141589,26.669809417392802],[89.6055905609744,26.6702662854603],[89.6068897319568,26.670923041955],[89.6083887707299,26.6716511924742],[89.6094309547515,26.672208003784302],[89.6109014429059,26.6729647038015],[89.611529605174,26.6732216965054],[89.6122577134071,26.6736357414403],[89.614085112077,26.674749369060102],[89.6151844056167,26.675320461514],[89.61636935274281,26.6761485361022],[89.6165196486601,26.6762857697212]]]},"properties":{"compartment":"N RVBK BL13","Division":"BTR_E","Range":"Jainti","Beat":"Jainti-North","DIVISION":"BTR_E","BEAT_NAME":"Jainti-North"},"id":"comptt.128"},
{"type":"Feature","geometry":{"type":"Polygon","coordinates":[[[89.56948615608721,26.680759810709603],[89.5664481569451,26.6810347519997],[89.5626931552853,26.681487679634103],[89.5621651542487,26.681584669517502],[89.5616601998787,26.679746656427103],[89.5610882756544,26.6766666398366],[89.5605823456307,26.673819624945903],[89.5605243962431,26.6717286201196],[89.56066544720261,26.6696026191075],[89.5622204410667,26.6696976495626],[89.5651974334969,26.6697067075634],[89.56759143162,26.669539753897702],[89.5702454360818,26.669083804784],[89.5707534359644,26.6690368145956],[89.57047335989681,26.668438178641303],[89.5720402872416,26.6684382085982],[89.5754381450888,26.6685953150619],[89.5775337011945,26.668542635235703],[89.5777652373071,26.669095051280202],[89.5783791147791,26.6699659447884],[89.5789929939734,26.6707654581703],[89.57954977778721,26.67137937011],[89.5801922048424,26.672264544202],[89.5812629274034,26.6737065176311],[89.5825763373021,26.675648186681602],[89.5832187760767,26.676461980650302],[89.5846749594113,26.678246612208103],[89.5851746206029,26.678974733244],[89.5862168032224,26.680002685388],[89.58520315053751,26.6802168160164],[89.5836469819435,26.6803167258686],[89.5815340247196,26.6804166148706],[89.5787357771157,26.6806021606711],[89.5766085364878,26.6808448296495],[89.57466689506201,26.68110177227],[89.5721113620477,26.6810731724207],[89.5708407389728,26.6809160973822],[89.56948615608721,26.680759810709603]]]},"properties":{"compartment":"N RVBK BL12","Division":"BTR_E","Range":"Jainti","Beat":"Jainti-North","DIVISION":"BTR_E","BEAT_NAME":"Jainti-North"},"id":"comptt.129"},
{"type":"Feature","geometry":{"type":"Polygon","coordinates":[[[89.5862168032224,26.680002685388],[89.5875730692088,26.680859313348602],[89.58818695770421,26.681273356052],[89.5889578965045,26.6816588417655],[89.58942901741891,26.6819872215342],[89.589843037094,26.6823727002923],[89.5902570460791,26.682786739101502],[89.59074244799311,26.6830722790726],[89.5913991639696,26.6835862627915],[89.5926983214741,26.6847998102848],[89.5937976080892,26.6856564432453],[89.5948683437395,26.6865558957275],[89.5954393992349,26.687098427831],[89.5968670453874,26.688354817912803],[89.59760941597881,26.689082943690302],[89.598294684299,26.6894969877923],[89.5989942329294,26.6898967521475],[89.59967949986451,26.6907819270955],[89.6018209542587,26.6928663725893],[89.6023317617158,26.693747474131403],[89.6022767620676,26.6937384730427],[89.5999937762009,26.6933844278917],[89.59604680156241,26.692734349768102],[89.5940843843569,26.692383543598602],[89.5937138173512,26.6923173035345],[89.5927468239005,26.6921442843716],[89.5890608472173,26.691553211452202],[89.5865368619886,26.691198161611702],[89.58504986573631,26.6911941326155],[89.582524870732,26.691244083480502],[89.57993687586371,26.6912950331198],[89.5770248818232,26.691344976442203],[89.57449888541281,26.6914539273948],[89.5724908849031,26.6916798886533],[89.5710038886682,26.691675859659803],[89.5681618918914,26.691832804539],[89.56757090574601,26.691319792109702],[89.567122937729,26.6900417811125],[89.56719497963411,26.6882997794292],[89.567264022944,26.686499777584302],[89.5675930515751,26.6852807818359],[89.5684431027071,26.6830767944938],[89.56948615608721,26.680759810709603],[89.5708407389728,26.6809160973822],[89.5721113620477,26.6810731724207],[89.57466689506201,26.68110177227],[89.5766085364878,26.6808448296495],[89.5787357771157,26.6806021606711],[89.5815340247196,26.6804166148706],[89.5836469819435,26.6803167258686],[89.58520315053751,26.6802168160164],[89.5862168032224,26.680002685388]]]},"properties":{"compartment":"N RVBK BL7","Division":"BTR_E","Range":"Jainti","Beat":"Jainti-North","DIVISION":"BTR_E","BEAT_NAME":"Jainti-North"},"id":"comptt.146"},
{"type":"Feature","geometry":{"type":"Polygon","coordinates":[[[89.6165196486601,26.6762857697212],[89.61596958026671,26.677119350062902],[89.6143848192881,26.6789753025234],[89.6126572938284,26.6806171018115],[89.6112724061559,26.6823160078782],[89.6093164491796,26.6844574936065],[89.60756034964581,26.6866846333801],[89.6063039495814,26.688883242840003],[89.6053330908929,26.6905821569656],[89.6032472559358,26.693889372976003],[89.60282575867251,26.693823483900402],[89.6025347604466,26.693779478147203],[89.6023317617158,26.693747474131403],[89.6018209542587,26.6928663725893],[89.59967949986451,26.6907819270955],[89.5989942329294,26.6898967521475],[89.598294684299,26.6894969877923],[89.59760941597881,26.689082943690302],[89.5968670453874,26.688354817912803],[89.5954393992349,26.687098427831],[89.5948683437395,26.6865558957275],[89.5937976080892,26.6856564432453],[89.5926983214741,26.6847998102848],[89.5913991639696,26.6835862627915],[89.59074244799311,26.6830722790726],[89.5902570460791,26.682786739101502],[89.589843037094,26.6823727002923],[89.58942901741891,26.6819872215342],[89.5889578965045,26.6816588417655],[89.58818695770421,26.681273356052],[89.5875730692088,26.680859313348602],[89.5862168032224,26.680002685388],[89.587130513395,26.6799027630158],[89.5908424825723,26.679146164001903],[89.5935265191042,26.6786036953374],[89.5953682321847,26.6782896506663],[89.5973955382626,26.6778328293558],[89.5988660401872,26.677604427603303],[89.60150724339421,26.677204728358003],[89.6034346145547,26.676962065483202],[89.6050764440008,26.6768193272231],[89.6076177012593,26.6766766064918],[89.61028746062391,26.6764339580854],[89.6122148183513,26.676334055467603],[89.6165196486601,26.6762857697212]]]},"properties":{"compartment":"N RVBK BL6B","Division":"BTR_E","Range":"Jainti","Beat":"Jainti-North","DIVISION":"BTR_E","BEAT_NAME":"Jainti-North"},"id":"comptt.147"},
{"type":"Feature","geometry":{"type":"Polygon","coordinates":[[[89.6263354813447,26.6835659440137],[89.6262319288405,26.6844279233248],[89.6273209098225,26.6851059457849],[89.6284028852636,26.6860139685264],[89.6274818748049,26.686538951520102],[89.6261418521664,26.687609927332403],[89.6251548417721,26.688138909044902],[89.6242738296475,26.6887288929343],[89.6235678148756,26.6894108804018],[89.6222287961762,26.690318855934102],[89.6213661801937,26.6910681005083],[89.6210947751194,26.6913038356019],[89.6202157587373,26.6920698198452],[89.6186797374,26.6931067917651],[89.6180777307884,26.6934407806285],[89.6172827220595,26.693881765921102],[89.6157327111775,26.694487736787202],[89.6139677037696,26.694971703239602],[89.6111636947116,26.6956286497408],[89.61052870031921,26.6954606370548],[89.6096957097936,26.6951526202558],[89.6086587178075,26.694925599624803],[89.6084427194701,26.694878595328003],[89.6078207242977,26.6947415829522],[89.60626573521981,26.6944465520986],[89.6034207549721,26.6939164956695],[89.6032472559358,26.693889372976003],[89.6053330908929,26.6905821569656],[89.6063039495814,26.688883242840003],[89.60756034964581,26.6866846333801],[89.6093164491796,26.6844574936065],[89.6112724061559,26.6823160078782],[89.6126572938284,26.6806171018115],[89.6143848192881,26.6789753025234],[89.61596958026671,26.677119350062902],[89.6165196486601,26.6762857697212],[89.61702606666731,26.6767481799839],[89.618225291,26.677690465059],[89.61951017443481,26.678661311857002],[89.6200955016355,26.679132454117703],[89.6207664958694,26.679717818255],[89.6216088055493,26.6804745060423],[89.6222369760945,26.680802888881402],[89.62299363322481,26.681259754458],[89.623650350252,26.681730908112602],[89.62408624309461,26.6820066162254],[89.625320700683,26.6827874225884],[89.6263354813447,26.6835659440137]]]},"properties":{"compartment":"N RVBK BL6A","Division":"BTR_E","Range":"Jainti","Beat":"Jainti-North","DIVISION":"BTR_E","BEAT_NAME":"Jainti-North"},"id":"comptt.149"}
]}
