{"type":"FeatureCollection", "features": [
{"type":"Feature","geometry":{"type":"Polygon","coordinates":[[[89.7184273638394,26.657337670709],[89.7185194117923,26.6553426687673],[89.71871744916021,26.6537756696924],[89.71871846665991,26.6530506683544],[89.7189644389262,26.654175675255402],[89.7243434140745,26.6546847810496],[89.72823640480381,26.654692856944802],[89.7328723938171,26.6547009473252],[89.7344243901353,26.654703977583402],[89.73686638433941,26.6547090251944],[89.73933437421421,26.6548910736468],[89.7388302969746,26.6581380699447],[89.7387092998879,26.658029067380202],[89.73638830100501,26.658206022465002],[89.73341031944871,26.657728963511],[89.73323732052731,26.657700960085702],[89.7316873216231,26.6578049300651],[89.7317443134487,26.658137931802703],[89.7184273638394,26.657337670709]]]},"properties":{"compartment":"Rahima RF","Division":"BTR_E","Range":"NorthRydak","Beat":"Kartik","DIVISION":"BTR_E","BEAT_NAME":"Kartik"},"id":"comptt.111"},
{"type":"Feature","geometry":{"type":"Polygon","coordinates":[[[89.7317443134487,26.658137931802703],[89.73197028075501,26.6594699387139],[89.733585228233,26.6614889739992],[89.7339572030201,26.662496983149502],[89.7335811849572,26.663280977294],[89.7322091774016,26.6637259513796],[89.7304621734268,26.664058917942402],[89.7289651769882,26.664055888748003],[89.7283321784881,26.664054876403902],[89.7282111433324,26.6655218768003],[89.72823113903401,26.665697877521],[89.7273591411162,26.665695860514102],[89.72580414201511,26.665808830405602],[89.7234421447768,26.6659227845638],[89.7234731520723,26.6656177845963],[89.72337120830281,26.6632997782605],[89.7233722249422,26.6626107769879],[89.7217362212286,26.662922745677],[89.7211091767528,26.6648247370168],[89.7202351571769,26.6657197216527],[89.7177191483286,26.6663296737381],[89.7177497915859,26.662879847877402],[89.7178354958649,26.661038146100303],[89.71812110345961,26.6582113463752],[89.7184273638394,26.657337670709],[89.7317443134487,26.658137931802703]]]},"properties":{"compartment":"Rahima RF","Division":"BTR_E","Range":"NorthRydak","Beat":"Kartik","DIVISION":"BTR_E","BEAT_NAME":"Kartik"},"id":"comptt.119"},
{"type":"Feature","geometry":{"type":"Polygon","coordinates":[[[89.7177191483286,26.6663296737381],[89.7174911474854,26.6663866693993],[89.7164911498753,26.6663846498977],[89.71537317150491,26.6655976266276],[89.7142542174594,26.663803601457],[89.7141312366831,26.6630195975936],[89.7147572487172,26.6624606087524],[89.7147592649419,26.661788607535],[89.71516129162771,26.660644613232602],[89.7141423529588,26.658203588805602],[89.7135193544424,26.6582025766602],[89.7123973625528,26.657975554366402],[89.708783368494,26.6580804841205],[89.7051993787216,26.658005414125302],[89.7029233852551,26.6579563696739],[89.69830939092441,26.6581712801472],[89.6954423924185,26.6583892246757],[89.6926984044449,26.658159170770602],[89.688039422862,26.6578520794049],[89.68788142173891,26.6579140764407],[89.6877584208709,26.657962074132502],[89.6877484276057,26.6576840734229],[89.6885915016981,26.6545320840121],[89.6894485300606,26.653273098378502],[89.69071959422351,26.650490117984802],[89.69124065264481,26.6480181235518],[89.691207698421,26.646124119396802],[89.6911647598969,26.6435801138417],[89.6919047951317,26.642047125412702],[89.69215379879,26.641871129936202],[89.692123846378,26.639901125697502],[89.69636889291161,26.6375572040228],[89.7075868740868,26.637245421929702],[89.7074598338634,26.6389254225896],[89.7075828335751,26.638925424985402],[89.7086977552637,26.642063452559302],[89.7088217387608,26.642735456228802],[89.7093987361779,26.6427864675646],[89.7098027299476,26.6430054758439],[89.7105667101588,26.6437514921205],[89.71171470602211,26.643811514598003],[89.7127986978863,26.644043536150303],[89.713626691774,26.6442165526052],[89.7149656622916,26.645308580734802],[89.7160476348095,26.6463426037505],[89.7159796017623,26.6477186049996],[89.7163625953158,26.6479486128928],[89.7175105898078,26.6480656354814],[89.7179365849987,26.6482236440781],[89.7190505646078,26.648960667165802],[89.71901755968891,26.6491676669104],[89.71869851356081,26.651109664330402],[89.7187214724707,26.6528096679617],[89.7186984689035,26.6529596677942],[89.71871846665991,26.6530506683544],[89.71871744916021,26.6537756696924],[89.7185194117923,26.6553426687673],[89.7184273638394,26.657337670709],[89.71812110345961,26.6582113463752],[89.7178354958649,26.661038146100303],[89.7177497915859,26.662879847877402],[89.7177191483286,26.6663296737381]]]},"properties":{"compartment":"Karthik BL.","Division":"BTR_E","Range":"NorthRydak","Beat":"Kartik","DIVISION":"BTR_E","BEAT_NAME":"Kartik"},"id":"comptt.120"}
]}
