{"type":"FeatureCollection", "features": [
{"type":"Feature","geometry":{"type":"Polygon","coordinates":[[[89.789455010208,26.6622895650579],[89.7875768649036,26.6622725283909],[89.7851855095007,26.662308181815302],[89.7828298528712,26.662391416027802],[89.780890595869,26.6624508583171],[89.7782375022287,26.6624389165474],[89.7758580476799,26.6624388701385],[89.77441847155511,26.6624150420158],[89.7734904851208,26.6623555338033],[89.7723245626826,26.662153260678],[89.77138467570211,26.6621175522793],[89.769504911456,26.6620580255051],[89.7691530325052,26.6620503161332],[89.769254280727,26.6616981299311],[89.7694684412727,26.6612412732369],[89.7697968241427,26.660677348566],[89.7702465510452,26.6599349659209],[89.7705535243087,26.6593567608048],[89.7708390674487,26.658785695284003],[89.7710603686667,26.6583002886737],[89.77133164666711,26.657529342493202],[89.7715029805854,26.656936864704],[89.7716600352259,26.6563158265817],[89.7717599841349,26.655937487808902],[89.7718171122796,26.6551808274792],[89.7718314231075,26.6539030453204],[89.77181002418881,26.6530321632416],[89.771717245088,26.6521755597985],[89.7715673628423,26.6514545755009],[89.7713461024806,26.650248178885903],[89.771317562023,26.6494415467908],[89.7713104613357,26.6478139835476],[89.7710963283713,26.6471286980662],[89.7709464376767,26.6467574944363],[89.770796535086,26.6464648209562],[89.7706038041446,26.6461078965186],[89.7705181519235,26.64579380425],[89.7705038902277,26.6454511633186],[89.770489630594,26.6446088314342],[89.7705538873394,26.6443232921421],[89.77068951598841,26.6439521040777],[89.77082515360371,26.6436237360951],[89.7711178448217,26.643131190860302],[89.771424806179,26.6426315158898],[89.77164610480371,26.642253179481102],[89.7718745413443,26.6419605133749],[89.77206727710501,26.6417035366409],[89.772309993613,26.6414108608128],[89.7724384881426,26.6412109929356],[89.7727903818602,26.6406083079776],[89.7732286412313,26.640593707156903],[89.7739327402506,26.6405706230932],[89.7754846378528,26.640519750983],[89.7787186275365,26.6406408142435],[89.7805296289257,26.640411849101802],[89.7829886316387,26.6400668963674],[89.785965641551,26.639374953063403],[89.7889426514951,26.638682009756202],[89.7914036682436,26.6377560559432],[89.79269767927481,26.637177080050602],[89.7938756881575,26.6366981020886],[89.7934406349149,26.6389450979293],[89.7923486093506,26.6401070788778],[89.79139458706881,26.641120062228403],[89.78947753890391,26.6432960290387],[89.7874294633913,26.6466169954862],[89.7870074339783,26.6478749896715],[89.7862774106753,26.6489089774217],[89.7869113566091,26.651087993960502],[89.7879262988903,26.653382018151],[89.78817823461921,26.6560190281231],[89.787279172989,26.6586550156461],[89.787661141651,26.6599160255145],[89.7895721012176,26.6614090656517],[89.7894910866864,26.6620180652404],[89.789455010208,26.6622895650579]]]},"properties":{"compartment":"C Rydak BL2","Division":"BTR_E","Range":"NorthRydak","Beat":"Mainabari","DIVISION":"BTR_E","BEAT_NAME":"Mainabari"},"id":"comptt.115"},
{"type":"Feature","geometry":{"type":"Polygon","coordinates":[[[89.7651386126437,26.6620103502614],[89.762451407372,26.662070617970702],[89.75828735869351,26.661999156630703],[89.75712142850911,26.662118104119703],[89.7565146661727,26.662272762580802],[89.7559911722074,26.6624869027785],[89.7556937388702,26.6626534572943],[89.7549323008557,26.6630579532127],[89.7529930260779,26.663855036905602],[89.7513987834399,26.6641167463115],[89.749364348661,26.664509317380602],[89.74799615694191,26.6647115410818],[89.7471038572835,26.664782913816],[89.74641380658251,26.6648780805392],[89.7457342446363,26.6650237975625],[89.7463561575413,26.663188226219603],[89.7467741923014,26.6617092315742],[89.7473862343635,26.659909240103502],[89.7474492937054,26.6574462366737],[89.7467343602737,26.654758217651302],[89.7469974344924,26.651659216918002],[89.7491744875681,26.649252254798203],[89.7516765104903,26.648063301313602],[89.75221151712441,26.6477373111235],[89.7532665420146,26.6466053295408],[89.7532675527539,26.646160328716903],[89.7546786020927,26.643981352085202],[89.7563536595804,26.6414393799057],[89.75904764818681,26.6416544328128],[89.7638376425993,26.641429525732303],[89.7677186447401,26.640971600494602],[89.7721186428809,26.6406306855947],[89.7727903818602,26.6406083079776],[89.7724384881426,26.6412109929356],[89.772309993613,26.6414108608128],[89.77206727710501,26.6417035366409],[89.7718745413443,26.6419605133749],[89.77164610480371,26.642253179481102],[89.771424806179,26.6426315158898],[89.7711178448217,26.643131190860302],[89.77082515360371,26.6436237360951],[89.77068951598841,26.6439521040777],[89.7705538873394,26.6443232921421],[89.770489630594,26.6446088314342],[89.7705038902277,26.6454511633186],[89.7705181519235,26.64579380425],[89.7706038041446,26.6461078965186],[89.770796535086,26.6464648209562],[89.7709464376767,26.6467574944363],[89.7710963283713,26.6471286980662],[89.7713104613357,26.6478139835476],[89.771317562023,26.6494415467908],[89.7713461024806,26.650248178885903],[89.7715673628423,26.6514545755009],[89.771717245088,26.6521755597985],[89.77181002418881,26.6530321632416],[89.7718314231075,26.6539030453204],[89.7718171122796,26.6551808274792],[89.7717599841349,26.655937487808902],[89.7716600352259,26.6563158265817],[89.7715029805854,26.656936864704],[89.77133164666711,26.657529342493202],[89.7710603686667,26.6583002886737],[89.7708390674487,26.658785695284003],[89.7705535243087,26.6593567608048],[89.7702465510452,26.6599349659209],[89.7697968241427,26.660677348566],[89.7694684412727,26.6612412732369],[89.769254280727,26.6616981299311],[89.7691530325052,26.6620503161332],[89.7678749860636,26.6620223036494],[89.7651386126437,26.6620103502614]]]},"properties":{"compartment":"C Rydak BL1","Division":"BTR_E","Range":"NorthRydak","Beat":"Mainabari","DIVISION":"BTR_E","BEAT_NAME":"Mainabari"},"id":"comptt.117"},
{"type":"Feature","geometry":{"type":"Polygon","coordinates":[[[89.7651386126437,26.6620103502614],[89.7648887554577,26.662331576000103],[89.76454372734071,26.6627003899731],[89.7641986977868,26.663128684059203],[89.76387269755631,26.663583158566002],[89.7634729365184,26.6640780717109],[89.763044624166,26.6646301044074],[89.7624449848487,26.6654867043413],[89.7620642491666,26.6661719782183],[89.7617501479305,26.6666669030329],[89.7611505099921,26.667466392856902],[89.7607316995663,26.6683515463701],[89.76039855848241,26.669255731590003],[89.760074930596,26.6700266767421],[89.75954189961931,26.6713591688755],[89.75928490387851,26.6720349251458],[89.7589803147958,26.6728534607584],[89.7586852459207,26.673662466538403],[89.7582378850954,26.674566659527702],[89.7579332957808,26.675394705157302],[89.75760966328791,26.6763560006681],[89.7574002562831,26.6770793579554],[89.7572193936888,26.678031136233002],[89.7571908189004,26.6790590676264],[89.7572193506531,26.6798109796101],[89.757352578941,26.6806961438897],[89.7574953269757,26.681590828373302],[89.7578664813613,26.6830280283441],[89.758075855326,26.6840845144356],[89.7583708740265,26.685350402596303],[89.758417161922,26.6858464144414],[89.7574534907676,26.6855727651144],[89.7567991491869,26.6852872118023],[89.7559544474708,26.6850254548205],[89.7547290280746,26.6847042002964],[89.7540865835896,26.684537627443],[89.7532775692024,26.6843829513619],[89.7524447617061,26.6843591350646],[89.75160005538841,26.6842877384451],[89.7508862222212,26.6840735741094],[89.7498392721279,26.683764223093302],[89.7491611391664,26.683538159432302],[89.7485067890272,26.6831931260106],[89.7477096806577,26.6827885996911],[89.7473408778425,26.6825268519995],[89.7464485911327,26.6820628337112],[89.7456395816406,26.6817058972508],[89.7449277193777,26.6814542328853],[89.7449197687218,26.679414228875203],[89.7449628069667,26.6778282267176],[89.7447608514819,26.6760062193345],[89.7442129259453,26.6729782029245],[89.7443999997552,26.669906200769002],[89.7456111056823,26.665406215884],[89.7456311075204,26.6653282161266],[89.7457342446363,26.6650237975625],[89.74641380658251,26.6648780805392],[89.7471038572835,26.664782913816],[89.74799615694191,26.6647115410818],[89.749364348661,26.664509317380602],[89.7513987834399,26.6641167463115],[89.7529930260779,26.663855036905602],[89.7549323008557,26.6630579532127],[89.7556937388702,26.6626534572943],[89.7559911722074,26.6624869027785],[89.7565146661727,26.662272762580802],[89.75712142850911,26.662118104119703],[89.75828735869351,26.661999156630703],[89.762451407372,26.662070617970702],[89.7651386126437,26.6620103502614]]]},"properties":{"compartment":"N Rydak BL2","Division":"BTR_E","Range":"NorthRydak","Beat":"Mainabari","DIVISION":"BTR_E","BEAT_NAME":"Mainabari"},"id":"comptt.136"},
{"type":"Feature","geometry":{"type":"Polygon","coordinates":[[[89.789455010208,26.6622895650579],[89.7893130547111,26.6633580643397],[89.7898210036713,26.6654220782099],[89.7909769666901,26.6668431034892],[89.7892929289321,26.668564073938402],[89.7878449113277,26.6694290473473],[89.7866368827088,26.6707270262673],[89.78180984155141,26.672885936221903],[89.77939581049941,26.674398892014402],[89.7784277708641,26.6761298764354],[89.7793877110153,26.6785138997265],[89.7796246580645,26.680680908495102],[89.779380621981,26.6821959066298],[89.7781725985795,26.683277885120802],[89.7774465583726,26.6850088742582],[89.7747915435912,26.6858718240833],[89.774546491777,26.6880368234335],[89.7745444816565,26.6888686249823],[89.77378837857461,26.6886544898138],[89.7729079831892,26.688547392423402],[89.7715041001594,26.688392704723903],[89.7702310979818,26.6881904194891],[89.7692674245172,26.6880119403382],[89.7666857339907,26.68745271888],[89.7651747843804,26.687167158844602],[89.7640921317695,26.6869648773281],[89.762402733725,26.6866317237208],[89.760856091324,26.6864651232173],[89.7596306701973,26.6862152588258],[89.758417161922,26.6858464144414],[89.7583708740265,26.685350402596303],[89.758075855326,26.6840845144356],[89.7578664813613,26.6830280283441],[89.7574953269757,26.681590828373302],[89.757352578941,26.6806961438897],[89.7572193506531,26.6798109796101],[89.7571908189004,26.6790590676264],[89.7572193936888,26.678031136233002],[89.7574002562831,26.6770793579554],[89.75760966328791,26.6763560006681],[89.7579332957808,26.675394705157302],[89.7582378850954,26.674566659527702],[89.7586852459207,26.673662466538403],[89.7589803147958,26.6728534607584],[89.75928490387851,26.6720349251458],[89.75954189961931,26.6713591688755],[89.760074930596,26.6700266767421],[89.76039855848241,26.669255731590003],[89.7607316995663,26.6683515463701],[89.7611505099921,26.667466392856902],[89.7617501479305,26.6666669030329],[89.7620642491666,26.6661719782183],[89.7624449848487,26.6654867043413],[89.763044624166,26.6646301044074],[89.7634729365184,26.6640780717109],[89.76387269755631,26.663583158566002],[89.7641986977868,26.663128684059203],[89.76454372734071,26.6627003899731],[89.7648887554577,26.662331576000103],[89.7651386126437,26.6620103502614],[89.7678749860636,26.6620223036494],[89.7691530325052,26.6620503161332],[89.769504911456,26.6620580255051],[89.77138467570211,26.6621175522793],[89.7723245626826,26.662153260678],[89.7734904851208,26.6623555338033],[89.77441847155511,26.6624150420158],[89.7758580476799,26.6624388701385],[89.7782375022287,26.6624389165474],[89.780890595869,26.6624508583171],[89.7828298528712,26.662391416027802],[89.7851855095007,26.662308181815302],[89.7875768649036,26.6622725283909],[89.789455010208,26.6622895650579]]]},"properties":{"compartment":"N Rydak BL3","Division":"BTR_E","Range":"NorthRydak","Beat":"Mainabari","DIVISION":"BTR_E","BEAT_NAME":"Mainabari"},"id":"comptt.140"},
{"type":"Feature","geometry":{"type":"Polygon","coordinates":[[[89.7745444816565,26.6888686249823],[89.7745444716032,26.688870824986303],[89.7745414288798,26.6906368282985],[89.77308936937371,26.6932338049066],[89.77187830930771,26.695830786215602],[89.77267526063811,26.697765805467903],[89.77214626766471,26.6975257946806],[89.7699332831676,26.6970957506497],[89.7681922872269,26.6970937166517],[89.76700827797501,26.6975886944758],[89.7658202584219,26.6985096730319],[89.7649482295467,26.6997856584324],[89.7636781844012,26.7017716374094],[89.7624091306556,26.7041126170776],[89.7614550864927,26.706027602084802],[89.7605040371616,26.708155587552803],[89.75915700421831,26.709644564070203],[89.7574139687767,26.7112745331175],[89.7554319201555,26.713471498567703],[89.7549548989279,26.7143934909972],[89.7549538782916,26.7152454925926],[89.7552678534838,26.7162395006109],[89.7558968038378,26.7182285166704],[89.7566037488448,26.7204305346593],[89.75652271290261,26.7219215359041],[89.7562816842355,26.7231275334817],[89.7549336409759,26.725041510768],[89.7534285963335,26.7270274851193],[89.75128855665571,26.7288694467838],[89.7503405519994,26.7291524287916],[89.74923255806691,26.7290084068645],[89.74757257232831,26.7285793736111],[89.7455186012765,26.727582331586202],[89.7448276109571,26.7272493174536],[89.7451469423644,26.7267479827469],[89.7455181453408,26.7261769189218],[89.7457751367376,26.7256819930086],[89.7461558715366,26.7250347892254],[89.7466983996493,26.7242352983156],[89.7470600965681,26.7235024239978],[89.7473456527407,26.7228076282639],[89.7475074648186,26.7222936704538],[89.7475931377655,26.721751151101902],[89.7476502663131,26.720980210760402],[89.74767883238971,26.7203139600587],[89.747593183197,26.719876137557403],[89.7473647638749,26.7194573423027],[89.7471458631469,26.7190956573422],[89.7469745529997,26.7187054232576],[89.7468889010391,26.718381810972502],[89.7468793905152,26.717991580049002],[89.7469841031841,26.717458581087],[89.74719350353391,26.717011254332],[89.74737435302801,26.716601987091302],[89.7475361632577,26.716164169424403],[89.74771701367361,26.7157168321114],[89.7479359381506,26.715098175218],[89.7480120988094,26.7146508358597],[89.7480311398313,26.714193975367703],[89.748002599119,26.713813264090103],[89.7478598402859,26.7133659204555],[89.7477170846799,26.712785326569],[89.7474410893832,26.712204730080202],[89.7471270118693,26.7117193130277],[89.74698425073001,26.7113671495734],[89.7468890813238,26.710938846904902],[89.7468890919266,26.710501026077402],[89.7469652474228,26.709853816341102],[89.74698430673901,26.7090543152018],[89.7470890465972,26.7073982041161],[89.7472318348412,26.706217994673],[89.74738414845291,26.7052281357757],[89.747698274591,26.7037052890299],[89.7479362352359,26.7028296520204],[89.7482503680513,26.7010307747515],[89.7485740093222,26.6997077985678],[89.7487929478395,26.6985085605735],[89.74893573823981,26.6976519517405],[89.7491166231958,26.6957769417238],[89.7491071322377,26.694577689269302],[89.74926740869141,26.6938823410822],[89.7489694522089,26.6921123319166],[89.7490474798024,26.690964331267402],[89.7485964985816,26.690231321077903],[89.7470925355999,26.6888452891024],[89.7458735925872,26.68660626108],[89.7455036151656,26.685708252162502],[89.74500864865,26.6843712399768],[89.7449876908498,26.682628236274102],[89.7449537075897,26.681939234308903],[89.7449277193777,26.6814542328853],[89.7456395816406,26.6817058972508],[89.7464485911327,26.6820628337112],[89.7473408778425,26.6825268519995],[89.7477096806577,26.6827885996911],[89.7485067890272,26.6831931260106],[89.7491611391664,26.683538159432302],[89.7498392721279,26.683764223093302],[89.7508862222212,26.6840735741094],[89.75160005538841,26.6842877384451],[89.7524447617061,26.6843591350646],[89.7532775692024,26.6843829513619],[89.7540865835896,26.684537627443],[89.7547290280746,26.6847042002964],[89.7559544474708,26.6850254548205],[89.7567991491869,26.6852872118023],[89.7574534907676,26.6855727651144],[89.758417161922,26.6858464144414],[89.7596306701973,26.6862152588258],[89.760856091324,26.6864651232173],[89.762402733725,26.6866317237208],[89.7640921317695,26.6869648773281],[89.7651747843804,26.687167158844602],[89.7666857339907,26.68745271888],[89.7692674245172,26.6880119403382],[89.7702310979818,26.6881904194891],[89.7715041001594,26.688392704723903],[89.7729079831892,26.688547392423402],[89.77378837857461,26.6886544898138],[89.7745444816565,26.6888686249823]]]},"properties":{"compartment":"N Rydak BL1","Division":"BTR_E","Range":"NorthRydak","Beat":"Mainabari","DIVISION":"BTR_E","BEAT_NAME":"Mainabari"},"id":"comptt.175"},
{"type":"Feature","geometry":{"type":"Polygon","coordinates":[[[89.74926740869141,26.6938823410822],[89.7491071322377,26.694577689269302],[89.7491166231958,26.6957769417238],[89.74893573823981,26.6976519517405],[89.7487929478395,26.6985085605735],[89.7485740093222,26.6997077985678],[89.7482503680513,26.7010307747515],[89.7479362352359,26.7028296520204],[89.747698274591,26.7037052890299],[89.74738414845291,26.7052281357757],[89.7472318348412,26.706217994673],[89.7470890465972,26.7073982041161],[89.74698430673901,26.7090543152018],[89.7469652474228,26.709853816341102],[89.7468890919266,26.710501026077402],[89.7468890813238,26.710938846904902],[89.74698425073001,26.7113671495734],[89.7471270118693,26.7117193130277],[89.7474410893832,26.712204730080202],[89.7477170846799,26.712785326569],[89.7478598402859,26.7133659204555],[89.748002599119,26.713813264090103],[89.7480311398313,26.714193975367703],[89.7480120988094,26.7146508358597],[89.7479359381506,26.715098175218],[89.74771701367361,26.7157168321114],[89.7475361632577,26.716164169424403],[89.74737435302801,26.716601987091302],[89.74719350353391,26.717011254332],[89.7469841031841,26.717458581087],[89.7468793905152,26.717991580049002],[89.7468889010391,26.718381810972502],[89.7469745529997,26.7187054232576],[89.7471458631469,26.7190956573422],[89.7473647638749,26.7194573423027],[89.747593183197,26.719876137557403],[89.74767883238971,26.7203139600587],[89.7476502663131,26.720980210760402],[89.7475931377655,26.721751151101902],[89.7475074648186,26.7222936704538],[89.7473456527407,26.7228076282639],[89.7470600965681,26.7235024239978],[89.7466983996493,26.7242352983156],[89.7461558715366,26.7250347892254],[89.7457751367376,26.7256819930086],[89.7455181453408,26.7261769189218],[89.7451469423644,26.7267479827469],[89.7448276109571,26.7272493174536],[89.7432186334655,26.7264752845498],[89.74314863445261,26.7264412831177],[89.7413336576605,26.7256582461738],[89.7393576830146,26.7248022059485],[89.7372246966693,26.7244441635967],[89.7348527040525,26.7243681171074],[89.73208572096641,26.7239370622341],[89.7304267386844,26.7233660287479],[89.7288477682338,26.7222989958947],[89.7268717936018,26.721442955684502],[89.7248178139942,26.720799914352902],[89.7234748309526,26.7202298870493],[89.722528845236,26.7197318676367],[89.7214218599461,26.7192318450762],[89.72015786296241,26.719229820382502],[89.7195118619605,26.7193338079588],[89.7192878616146,26.7193698036508],[89.7189588361623,26.719626797705],[89.7189826261036,26.719214087397102],[89.7188969755269,26.718833365011402],[89.7187922933807,26.7185192723786],[89.7187161516284,26.7181861502678],[89.7185258165994,26.7175865154278],[89.71844967622981,26.7171962832102],[89.7182974177953,26.7163206385975],[89.7182879118789,26.715740047325202],[89.7183735829722,26.715273678125403],[89.7186591448901,26.7143409319565],[89.7190017997584,26.7136937274368],[89.7196775886844,26.712846649048302],[89.7200963766898,26.7124754565316],[89.7205532446057,26.7121042747583],[89.7212099809005,26.711780676977103],[89.72228550266631,26.711190586874302],[89.7233324835778,26.710638576285],[89.72421765556071,26.710058002481702],[89.7248839134479,26.7096677847601],[89.7256643838333,26.7091633490541],[89.7264924415727,26.7087636144736],[89.7274347144364,26.7085542424804],[89.728462648944,26.7082687320168],[89.7291003427525,26.708049824057802],[89.7296904589764,26.7077357549909],[89.7302329750816,26.707431195012102],[89.7308230917672,26.707098075909002],[89.7314512783638,26.706764967549002],[89.7321080125899,26.7065270299253],[89.7329360689507,26.7061844054498],[89.73351666612031,26.7058322561241],[89.73394497456731,26.705442033752902],[89.73422100221791,26.7050993884977],[89.73434474137571,26.704709160179203],[89.734487523484,26.7041952019996],[89.7346969263584,26.703643165048902],[89.7349253668838,26.703186318649102],[89.7354298364414,26.7023297168856],[89.7359247853293,26.7015016749896],[89.7362769647801,26.7006641102876],[89.7365053992206,26.700045453582],[89.7368195050736,26.6993601684231],[89.7370955357169,26.698893802933203],[89.73758096393381,26.698094310903002],[89.7379045817019,26.697742156556902],[89.7383519330972,26.697228204321],[89.7387421718618,26.696828461185202],[89.739227596623,26.6961717394229],[89.7395131390858,26.6956292239738],[89.7398367639928,26.694982019070302],[89.7399853267749,26.6944394609468],[89.7405654164483,26.6943971721902],[89.7418774157188,26.6943011976191],[89.743834413322,26.6942122356517],[89.74926740869141,26.6938823410822]]]},"properties":{"compartment":"Bhutanghat BL2","Division":"BTR_E","Range":"NorthRydak","Beat":"Mainabari","DIVISION":"BTR_E","BEAT_NAME":"Mainabari"},"id":"comptt.173"},
{"type":"Feature","geometry":{"type":"Polygon","coordinates":[[[89.7189588361623,26.719626797705],[89.7186528510918,26.7198657921755],[89.7186498201401,26.7211437945085],[89.7180937870945,26.722561786300503],[89.71714075839671,26.723838770072202],[89.7159547337354,26.7249717490211],[89.7146087197487,26.7256797240483],[89.7131037079066,26.726314695831903],[89.7117587042428,26.726596670081403],[89.7093077015412,26.7269466228501],[89.70764569693381,26.7272985910365],[89.70614169195541,26.7276505623094],[89.7046366783792,26.728357534223402],[89.70313466310141,26.729134506325103],[89.7029436600636,26.7292785028615],[89.7027818452315,26.7216514855039],[89.7026538706283,26.720615481076003],[89.7026109186621,26.718636476553602],[89.7025899575335,26.7170334731606],[89.7025509994226,26.715307469187202],[89.70254900148561,26.71522246899],[89.70315500002991,26.715223480825802],[89.7043290067498,26.7148315030219],[89.70571900978901,26.7145705296796],[89.70812003453901,26.7133145742248],[89.7104850333486,26.7131336200699],[89.7127590743379,26.7112196609018],[89.7151021271501,26.7088107021506],[89.7180971485587,26.7076357584315],[89.7211971644507,26.7066788171676],[89.7230112012282,26.704983849409],[89.7249042360299,26.7033628833279],[89.7262682585168,26.702301907966802],[89.7279692799257,26.701252939205602],[89.7289383235934,26.699354954557702],[89.730367363062,26.6975859791291],[89.7306623735037,26.697125984023],[89.7319083975978,26.6960100062465],[89.7320693971978,26.6960110093911],[89.7320934349348,26.694449006922103],[89.7365234284015,26.6942920930949],[89.7366634279059,26.6942990958407],[89.7396604169578,26.6944631546494],[89.7399853267749,26.6944394609468],[89.7398367639928,26.694982019070302],[89.7395131390858,26.6956292239738],[89.739227596623,26.6961717394229],[89.7387421718618,26.696828461185202],[89.7383519330972,26.697228204321],[89.7379045817019,26.697742156556902],[89.73758096393381,26.698094310903002],[89.7370955357169,26.698893802933203],[89.7368195050736,26.6993601684231],[89.7365053992206,26.700045453582],[89.7362769647801,26.7006641102876],[89.7359247853293,26.7015016749896],[89.7354298364414,26.7023297168856],[89.7349253668838,26.703186318649102],[89.7346969263584,26.703643165048902],[89.734487523484,26.7041952019996],[89.73434474137571,26.704709160179203],[89.73422100221791,26.7050993884977],[89.73394497456731,26.705442033752902],[89.73351666612031,26.7058322561241],[89.7329360689507,26.7061844054498],[89.7321080125899,26.7065270299253],[89.7314512783638,26.706764967549002],[89.7308230917672,26.707098075909002],[89.7302329750816,26.707431195012102],[89.7296904589764,26.7077357549909],[89.7291003427525,26.708049824057802],[89.728462648944,26.7082687320168],[89.7274347144364,26.7085542424804],[89.7264924415727,26.7087636144736],[89.7256643838333,26.7091633490541],[89.7248839134479,26.7096677847601],[89.72421765556071,26.710058002481702],[89.7233324835778,26.710638576285],[89.72228550266631,26.711190586874302],[89.7212099809005,26.711780676977103],[89.7205532446057,26.7121042747583],[89.7200963766898,26.7124754565316],[89.7196775886844,26.712846649048302],[89.7190017997584,26.7136937274368],[89.7186591448901,26.7143409319565],[89.7183735829722,26.715273678125403],[89.7182879118789,26.715740047325202],[89.7182974177953,26.7163206385975],[89.71844967622981,26.7171962832102],[89.7185258165994,26.7175865154278],[89.7187161516284,26.7181861502678],[89.7187922933807,26.7185192723786],[89.7188969755269,26.718833365011402],[89.7189826261036,26.719214087397102],[89.7189588361623,26.719626797705]]]},"properties":{"compartment":"Bhutanghat BL1","Division":"BTR_E","Range":"NorthRydak","Beat":"Mainabari","DIVISION":"BTR_E","BEAT_NAME":"Mainabari"},"id":"comptt.176"}
]}
