{"type":"FeatureCollection", "features": [
{"type":"Feature","geometry":{"type":"Polygon","coordinates":[[[89.8072552148558,26.6873025005839],[89.8066524859203,26.687315048840002],[89.8030928070992,26.687600519889703],[89.7992285699037,26.6878479049204],[89.7969823604142,26.688038221432002],[89.7949455395304,26.688266602105003],[89.7938224316317,26.6882856202145],[89.79271836599361,26.6882094585132],[89.79115745370291,26.688038107710202],[89.7898249572075,26.6880190416596],[89.7886257034998,26.6882855187582],[89.7875216304969,26.6885139276418],[89.78615105580191,26.688837501504903],[89.7841523048497,26.6890658929216],[89.7823819852197,26.689218148652103],[89.7812779245257,26.6893513773533],[89.77939338792581,26.689389410635602],[89.7780228224523,26.6893322737703],[89.7755291637048,26.6891037946536],[89.7745444816565,26.6888686249823],[89.774546491777,26.6880368234335],[89.7747915435912,26.6858718240833],[89.7774465583726,26.6850088742582],[89.7781725985795,26.683277885120802],[89.779380621981,26.6821959066298],[89.7796246580645,26.680680908495102],[89.7793877110153,26.6785138997265],[89.7784277708641,26.6761298764354],[89.77939581049941,26.674398892014402],[89.78180984155141,26.672885936221903],[89.7866368827088,26.6707270262673],[89.7878449113277,26.6694290473473],[89.7892929289321,26.668564073938402],[89.7909769666901,26.6668431034892],[89.7912219588561,26.667144108846703],[89.7937709030821,26.669211162548102],[89.7960648700567,26.670361209518003],[89.794784825899,26.672308188285403],[89.7963137641437,26.674718222756102],[89.7997597506672,26.6749512904539],[89.80754473825931,26.674733441965802],[89.8082357378049,26.6746874553629],[89.80862766121581,26.6778174690585],[89.8086526249975,26.6793124724337],[89.8084745628195,26.681899473955102],[89.8083095373314,26.6829684727984],[89.8083885056508,26.684270476854902],[89.8082444573422,26.6862804779247],[89.8072552148558,26.6873025005839]]]},"properties":{"compartment":"Newlands BL2","Division":"BTR_E","Range":"Kumargram","Beat":"Newlands","DIVISION":"BTR_E","BEAT_NAME":"Newlands"},"id":"comptt.141"},
{"type":"Feature","geometry":{"type":"Polygon","coordinates":[[[89.8072552148558,26.6873025005839],[89.8071294319964,26.6874324583789],[89.8061024086769,26.6884924403722],[89.8048033677031,26.690307418509402],[89.8036013259744,26.6921443985801],[89.804769230703,26.6959704287667],[89.8044921855024,26.6978634270071],[89.8046861289836,26.700179435262303],[89.8027360800497,26.7023834014208],[89.8019819807959,26.7065523947239],[89.7968320391866,26.704626290408],[89.7908291198093,26.701863167841303],[89.7854611600609,26.7007080607832],[89.7802221972766,26.6996669564747],[89.7758782129671,26.699430871191602],[89.77281426181901,26.6977038080638],[89.77267526063811,26.697765805467903],[89.77187830930771,26.695830786215602],[89.77308936937371,26.6932338049066],[89.7745414288798,26.6906368282985],[89.7745444716032,26.688870824986303],[89.7745444816565,26.6888686249823],[89.7755291637048,26.6891037946536],[89.7780228224523,26.6893322737703],[89.77939338792581,26.689389410635602],[89.7812779245257,26.6893513773533],[89.7823819852197,26.689218148652103],[89.7841523048497,26.6890658929216],[89.78615105580191,26.688837501504903],[89.7875216304969,26.6885139276418],[89.7886257034998,26.6882855187582],[89.7898249572075,26.6880190416596],[89.79115745370291,26.688038107710202],[89.79271836599361,26.6882094585132],[89.7938224316317,26.6882856202145],[89.7949455395304,26.688266602105003],[89.7969823604142,26.688038221432002],[89.7992285699037,26.6878479049204],[89.8030928070992,26.687600519889703],[89.8066524859203,26.687315048840002],[89.8072552148558,26.6873025005839]]]},"properties":{"compartment":"Newlands BL1","Division":"BTR_E","Range":"Kumargram","Beat":"Newlands","DIVISION":"BTR_E","BEAT_NAME":"Newlands"},"id":"comptt.156"}
]}
