{"type":"FeatureCollection", "features": [
{"type":"Feature","geometry":{"type":"Polygon","coordinates":[[[89.86546638006071,26.6675753885706],[89.865462595883,26.6673936481093],[89.86542453678611,26.6669463064854],[89.8653769613929,26.666346674375802],[89.865348418131,26.6660706632751],[89.8652627656864,26.665766091003402],[89.8651390444769,26.665413927895003],[89.8650438720533,26.6651093454376],[89.8648630402797,26.6647857412708],[89.864472815288,26.664614413317],[89.8640349971802,26.6645763246967],[89.8636352464561,26.664642947025502],[89.8632164530127,26.664823779207403],[89.8627120081487,26.6650712298485],[89.8623693549966,26.665233033478803],[89.8618173181671,26.665566143359403],[89.8614651522747,26.6658421570285],[89.8613414174861,26.6660515450253],[89.86117009303311,26.6662514220743],[89.860998770882,26.666356108936203],[89.8606275714766,26.666365621709502],[89.86021830146541,26.666403683796002],[89.85987565831421,26.6665654774261],[89.8594854211257,26.666898600464002],[89.8590856614266,26.6673364135215],[89.8588001117036,26.667764708789402],[89.8585336035494,26.668126384298002],[89.8582766162946,26.6684499899175],[89.8579530078071,26.6688306943486],[89.8576103507429,26.669154298295602],[89.8571630032212,26.669506450255],[89.8566395117254,26.670029921064103],[89.8559637405687,26.670553388900302],[89.8550214540202,26.671324322019203],[89.8546502458688,26.671695505501102],[89.8541077274084,26.672095245694702],[89.853688931435,26.6723807780792],[89.8530797803607,26.6728947271955],[89.8525277275474,26.673475307556902],[89.8519661686695,26.673894077415],[89.851528340897,26.6742557495764],[89.8510429246123,26.6745603106967],[89.8506051002938,26.6747792125782],[89.8500816170875,26.6749600427127],[89.8496723477709,26.6749695547412],[89.8491869404663,26.6749029251342],[89.8488157449795,26.6747506275892],[89.8485397395099,26.6745888218841],[89.8482066187729,26.674236654691303],[89.8479306172175,26.6739130386696],[89.8476165387401,26.6734656916625],[89.8472834226072,26.6729231640977],[89.8471121149611,26.672428239785003],[89.8468741747014,26.6720475143951],[89.84636431605931,26.6716250236157],[89.8468457424175,26.6709042016025],[89.8476277689428,26.669735214579102],[89.8494218702256,26.665381241069703],[89.85172295928831,26.6614852783415],[89.85325903619301,26.658162301799003],[89.855177112238,26.654839332702903],[89.8560721323842,26.6539233483666],[89.8588781260754,26.6539264031177],[89.8615581366796,26.653241454058502],[89.8647511295263,26.653244516361102],[89.8668801167137,26.653579558559603],[89.86755811586491,26.653552571735002],[89.8677423961609,26.653523445273102],[89.8677315001309,26.653773945554303],[89.8676958030216,26.6540713754441],[89.86761251141671,26.654559164780302],[89.8675292229746,26.6549160838587],[89.8673626529915,26.6553443814526],[89.86718418504731,26.6556894086503],[89.8668629445439,26.6561533932963],[89.866398932631,26.656688765297],[89.86614908426951,26.6570575811482],[89.8659706166128,26.6573906983219],[89.8658635419612,26.6575929466308],[89.86583973338621,26.657949866869302],[89.86592300773741,26.6581759189396],[89.86603008174801,26.658413871497903],[89.8661847373789,26.658580434844],[89.8663631912312,26.6588183887952],[89.8666249223106,26.6591634145826],[89.86686286229211,26.6595560299996],[89.8670413124052,26.659948644255703],[89.8672911325804,26.660745770702],[89.8675171622322,26.661566686731],[89.8676123233236,26.662340020112502],[89.8676123083649,26.662958681331503],[89.8675647040868,26.6635535415747],[89.8674576116658,26.6640770305161],[89.8672553503189,26.6645648075297],[89.8670173916399,26.6649455236353],[89.8668151348957,26.665242950273402],[89.8666247689882,26.6655046870735],[89.8664344125051,26.6657902239204],[89.8663273264128,26.6660519623458],[89.8661845486735,26.6663850802151],[89.8660417715094,26.6666944080375],[89.8658276145034,26.6670037344665],[89.86546638006071,26.6675753885706]]]},"properties":{"compartment":"Sankosh BL3A","Division":"BTR_E","Range":"Kumargram","Beat":"Sankosh","DIVISION":"BTR_E","BEAT_NAME":"Sankosh"},"id":"comptt.125"},
{"type":"Feature","geometry":{"type":"Polygon","coordinates":[[[89.8677423961609,26.653523445273102],[89.8678301163019,26.6535095769573],[89.8697261193323,26.653210613361303],[89.8711280774164,26.6548166438847],[89.8713310637946,26.6553616489211],[89.8707850307269,26.6567796410642],[89.8708349711968,26.659237646888602],[89.8723139077727,26.6617256806624],[89.8729138544826,26.6638746966148],[89.8731857900615,26.6665137071334],[89.8726777382415,26.668702701537402],[89.8712656784752,26.6713026791016],[89.8712636302411,26.673296682996103],[89.8708925938283,26.6748356787879],[89.8708775922162,26.6749036786291],[89.87073103365431,26.675270966492],[89.8700404864796,26.6752174129028],[89.8687270210026,26.6751507671249],[89.8681464462045,26.6749889554699],[89.8678133192461,26.674893768777903],[89.867375505053,26.6746938798355],[89.8669757635387,26.6743797814117],[89.8667187905564,26.6741132758692],[89.8664237529543,26.6736278591524],[89.8662809986982,26.672990165109102],[89.86616679092471,26.672495231904502],[89.8660811426269,26.672019339295],[89.8659479166368,26.671038994763002],[89.8658527659566,26.6702490113494],[89.8657766262552,26.6698302190382],[89.8656624294002,26.669297225759202],[89.8655482197827,26.6688784327048],[89.86547209284291,26.6683454301691],[89.86547210481301,26.6678504991946],[89.86546638006071,26.6675753885706],[89.8658276145034,26.6670037344665],[89.8660417715094,26.6666944080375],[89.8661845486735,26.6663850802151],[89.8663273264128,26.6660519623458],[89.8664344125051,26.6657902239204],[89.8666247689882,26.6655046870735],[89.8668151348957,26.665242950273402],[89.8670173916399,26.6649455236353],[89.8672553503189,26.6645648075297],[89.8674576116658,26.6640770305161],[89.8675647040868,26.6635535415747],[89.8676123083649,26.662958681331503],[89.8676123233236,26.662340020112502],[89.8675171622322,26.661566686731],[89.8672911325804,26.660745770702],[89.8670413124052,26.659948644255703],[89.86686286229211,26.6595560299996],[89.8666249223106,26.6591634145826],[89.8663631912312,26.6588183887952],[89.8661847373789,26.658580434844],[89.86603008174801,26.658413871497903],[89.86592300773741,26.6581759189396],[89.86583973338621,26.657949866869302],[89.8658635419612,26.6575929466308],[89.8659706166128,26.6573906983219],[89.86614908426951,26.6570575811482],[89.866398932631,26.656688765297],[89.8668629445439,26.6561533932963],[89.86718418504731,26.6556894086503],[89.8673626529915,26.6553443814526],[89.8675292229746,26.6549160838587],[89.86761251141671,26.654559164780302],[89.8676958030216,26.6540713754441],[89.8677315001309,26.653773945554303],[89.8677423961609,26.653523445273102]]]},"properties":{"compartment":"Sankosh BL3B","Division":"BTR_E","Range":"Kumargram","Beat":"Sankosh","DIVISION":"BTR_E","BEAT_NAME":"Sankosh"},"id":"comptt.126"},
{"type":"Feature","geometry":{"type":"Polygon","coordinates":[[[89.8651296077596,26.68387905407],[89.8640683601177,26.6838790333429],[89.8630975388199,26.684021784663003],[89.8616127434825,26.684378676366002],[89.86014223088,26.684621348122903],[89.85842901951091,26.6848354650836],[89.8570584477261,26.685035318708202],[89.8558877530785,26.6853351064325],[89.8543886908923,26.6855635076033],[89.8515618961647,26.6856062824791],[89.8491919618049,26.6855919561665],[89.8462509487274,26.685577618701902],[89.8436954154847,26.685534738710903],[89.8405117022736,26.685548956565],[89.8388345463759,26.685534853785402],[89.83883440702441,26.6855080737305],[89.8388194906941,26.682052066694503],[89.8386225647166,26.679011056914803],[89.838614645464,26.675674050247903],[89.8383247068031,26.6731650396916],[89.8417526990504,26.6731681066127],[89.8445617037698,26.6727131605567],[89.8460957169324,26.6720271891595],[89.84636431605931,26.6716250236157],[89.8468741747014,26.6720475143951],[89.8471121149611,26.672428239785003],[89.8472834226072,26.6729231640977],[89.8476165387401,26.6734656916625],[89.8479306172175,26.6739130386696],[89.8482066187729,26.674236654691303],[89.8485397395099,26.6745888218841],[89.8488157449795,26.6747506275892],[89.8491869404663,26.6749029251342],[89.8496723477709,26.6749695547412],[89.8500816170875,26.6749600427127],[89.8506051002938,26.6747792125782],[89.8510429246123,26.6745603106967],[89.851528340897,26.6742557495764],[89.8519661686695,26.673894077415],[89.8525277275474,26.673475307556902],[89.8530797803607,26.6728947271955],[89.853688931435,26.6723807780792],[89.8541077274084,26.672095245694702],[89.8546502458688,26.671695505501102],[89.8550214540202,26.671324322019203],[89.8559637405687,26.670553388900302],[89.8566395117254,26.670029921064103],[89.8571630032212,26.669506450255],[89.8576103507429,26.669154298295602],[89.8579530078071,26.6688306943486],[89.8582766162946,26.6684499899175],[89.8585336035494,26.668126384298002],[89.8588001117036,26.667764708789402],[89.8590856614266,26.6673364135215],[89.8594854211257,26.666898600464002],[89.85987565831421,26.6665654774261],[89.86021830146541,26.666403683796002],[89.8606275714766,26.666365621709502],[89.860998770882,26.666356108936203],[89.86117009303311,26.6662514220743],[89.8613414174861,26.6660515450253],[89.8614651522747,26.6658421570285],[89.8618173181671,26.665566143359403],[89.8623693549966,26.665233033478803],[89.8627120081487,26.6650712298485],[89.8632164530127,26.664823779207403],[89.8636352464561,26.664642947025502],[89.8640349971802,26.6645763246967],[89.864472815288,26.664614413317],[89.8648630402797,26.6647857412708],[89.8650438720533,26.6651093454376],[89.8651390444769,26.665413927895003],[89.8652627656864,26.665766091003402],[89.865348418131,26.6660706632751],[89.8653769613929,26.666346674375802],[89.86542453678611,26.6669463064854],[89.865462595883,26.6673936481093],[89.86546638006071,26.6675753885706],[89.86547210481301,26.6678504991946],[89.86547209284291,26.6683454301691],[89.8655482197827,26.6688784327048],[89.8656624294002,26.669297225759202],[89.8657766262552,26.6698302190382],[89.8658527659566,26.6702490113494],[89.8659479166368,26.671038994763002],[89.8660811426269,26.672019339295],[89.86616679092471,26.672495231904502],[89.8662809986982,26.672990165109102],[89.8664237529543,26.6736278591524],[89.8667187905564,26.6741132758692],[89.8669757635387,26.6743797814117],[89.867375505053,26.6746938798355],[89.8678133192461,26.674893768777903],[89.8681464462045,26.6749889554699],[89.8687270210026,26.6751507671249],[89.8700404864796,26.6752174129028],[89.87073103365431,26.675270966492],[89.8695955173126,26.6781166599316],[89.8685724918241,26.6792636422154],[89.8669094455627,26.6813276138054],[89.8654193971966,26.683462588909702],[89.8651296077596,26.68387905407]]]},"properties":{"compartment":"Sankosh BL2","Division":"BTR_E","Range":"Kumargram","Beat":"Sankosh","DIVISION":"BTR_E","BEAT_NAME":"Sankosh"},"id":"comptt.135"},
{"type":"Feature","geometry":{"type":"Polygon","coordinates":[[[89.856753477936,26.6937286498198],[89.8568195888335,26.6932725402159],[89.8568576672762,26.6929203802683],[89.8567815368953,26.6925301480149],[89.8565055260381,26.6921779819316],[89.8560296433219,26.6919209921308],[89.8551825577467,26.6918162753777],[89.8544116178538,26.6918828904484],[89.8535169373158,26.6919875731765],[89.85230817540601,26.692177899937],[89.8512992735118,26.6923492005644],[89.8502808574912,26.692691831341502],[89.8490340231349,26.692986857563],[89.84807271136751,26.6931486391009],[89.8460454069168,26.693519800224802],[89.8443417147409,26.693767227428],[89.8429996915261,26.6940241817146],[89.8419907987177,26.6942335624157],[89.8410104544637,26.6945000437858],[89.84008721708621,26.6948902565127],[89.83921254161021,26.695241439916202],[89.8391911734105,26.6951250994674],[89.8391911761709,26.6950110992449],[89.83920326093501,26.6915090926461],[89.838708306687,26.6896650793802],[89.8388383889116,26.686256075268002],[89.8388345463759,26.685534853785402],[89.8405117022736,26.685548956565],[89.8436954154847,26.685534738710903],[89.8462509487274,26.685577618701902],[89.8491919618049,26.6855919561665],[89.8515618961647,26.6856062824791],[89.8543886908923,26.6855635076033],[89.8558877530785,26.6853351064325],[89.8570584477261,26.685035318708202],[89.85842901951091,26.6848354650836],[89.86014223088,26.684621348122903],[89.8616127434825,26.684378676366002],[89.8630975388199,26.684021784663003],[89.8640683601177,26.6838790333429],[89.8651296077596,26.68387905407],[89.8649893831931,26.6840805817281],[89.8635813613417,26.6851125562589],[89.86268431053921,26.6872935430289],[89.8622962363973,26.6903915415424],[89.8617841930801,26.6922275351505],[89.8579491738958,26.6933724624797],[89.8572201702663,26.6935894486639],[89.856753477936,26.6937286498198]]]},"properties":{"compartment":"Sankosh BL1A","Division":"BTR_E","Range":"Kumargram","Beat":"Sankosh","DIVISION":"BTR_E","BEAT_NAME":"Sankosh"},"id":"comptt.148"},
{"type":"Feature","geometry":{"type":"Polygon","coordinates":[[[89.856753477936,26.6937286498198],[89.8548801585836,26.6942874043188],[89.8502751217204,26.6962343181691],[89.8478450799544,26.6981832745088],[89.8428590634424,26.6993261793279],[89.8414440620392,26.699515152051102],[89.8400320606551,26.6997031248308],[89.83921254161021,26.695241439916202],[89.84008721708621,26.6948902565127],[89.8410104544637,26.6945000437858],[89.8419907987177,26.6942335624157],[89.8429996915261,26.6940241817146],[89.8443417147409,26.693767227428],[89.8460454069168,26.693519800224802],[89.84807271136751,26.6931486391009],[89.8490340231349,26.692986857563],[89.8502808574912,26.692691831341502],[89.8512992735118,26.6923492005644],[89.85230817540601,26.692177899937],[89.8535169373158,26.6919875731765],[89.8544116178538,26.6918828904484],[89.8551825577467,26.6918162753777],[89.8560296433219,26.6919209921308],[89.8565055260381,26.6921779819316],[89.8567815368953,26.6925301480149],[89.8568576672762,26.6929203802683],[89.8568195888335,26.6932725402159],[89.856753477936,26.6937286498198]]]},"properties":{"compartment":"Sankosh BL1B","Division":"BTR_E","Range":"Kumargram","Beat":"Sankosh","DIVISION":"BTR_E","BEAT_NAME":"Sankosh"},"id":"comptt.152"}
]}
