{"type":"FeatureCollection", "features": [
{"type":"Feature","geometry":{"type":"Polygon","coordinates":[[[89.5970267187185,26.6601732195888],[89.5959337176746,26.6603271985811],[89.5948467200421,26.6603391774365],[89.5921287255563,26.660386124596],[89.5886787235598,26.660819058192],[89.5856537275739,26.6609599995428],[89.5818677314624,26.6611839262249],[89.579094735164,26.6613128724626],[89.5783107366089,26.6613328572334],[89.5772837403885,26.6612808371451],[89.5757037395003,26.6614788067341],[89.5707497453829,26.6617407107459],[89.5701127513425,26.6615586980215],[89.5701664814488,26.6598901461108],[89.5702807245779,26.6589193266144],[89.5703759305066,26.6578342965449],[89.5703949723935,26.6573393660385],[89.5702427019483,26.6569586523996],[89.5697668242335,26.6560830015846],[89.5694432355871,26.65564516451],[89.5691196461187,26.6548266267613],[89.5688531692622,26.6538938699222],[89.5686247760767,26.6523900428133],[89.5686819180551,26.6510575415652],[89.5687390421376,26.6504674416317],[89.5690436301983,26.649686976177],[89.5691959263394,26.6490016979268],[89.5693101680789,26.6480879885312],[89.5695957253592,26.6469268120308],[89.5698589302981,26.6462799960064],[89.5705094605406,26.6462034685295],[89.5744879053378,26.6460131956101],[89.5796085019319,26.6456325745798],[89.5824448204778,26.6454041993688],[89.5879080617726,26.6447951646013],[89.5913860347066,26.6443056214842],[89.5914001133558,26.6443750818097],[89.5934089422484,26.6512701332294],[89.5944608694199,26.654184158917],[89.5953918084036,26.6566201813981],[89.5961477555011,26.6587371999041],[89.5970267187185,26.6601732195888]]]},"properties":{"compartment":"S RVBK BL4"},"id":"comptt.107"}
]}