{"type":"FeatureCollection", "features": [
{"type":"Feature","geometry":{"type":"Polygon","coordinates":[[[89.5913860347066,26.6443056214842],[89.5879080617726,26.6447951646013],[89.5824448204778,26.6454041993688],[89.5796085019319,26.6456325745798],[89.5744879053378,26.6460131956101],[89.5705094605406,26.6462034685295],[89.5698589302981,26.6462799960064],[89.5698622669044,26.6451755341141],[89.5697480801199,26.6442237402057],[89.5695767839335,26.6432529151523],[89.5695006671424,26.6418823412429],[89.5695768316302,26.6412732016453],[89.5696149162115,26.6406640613069],[89.56969106703,26.6402072019789],[89.5698623939454,26.6399026347723],[89.570128904295,26.6394457791476],[89.5704525208353,26.6391412149036],[89.571042627637,26.6387985857764],[89.5716137067785,26.6383607761099],[89.5722418934869,26.638018147723],[89.5728700824882,26.6375803391672],[89.573631527123,26.636895062764],[89.5741835855685,26.6356577513072],[89.5745072277831,26.6342871851698],[89.5746785794529,26.6329546861371],[89.5747726698925,26.6320963264433],[89.5751174492766,26.6320867431324],[89.5786914493903,26.6317178119934],[89.5828654447458,26.6314858927692],[89.5852024462965,26.631183937689],[89.5888254521009,26.6305750070756],[89.5895393747806,26.6337130265648],[89.5900933168453,26.6360620415353],[89.5903852661204,26.6381380509225],[89.5907422007503,26.6408150626483],[89.5910271586084,26.6425350712653],[89.5911825998625,26.6433019556368],[89.5913860347066,26.6443056214842]]]},"properties":{"compartment":"S RVBK BL5"},"id":"comptt.96"}
]}