{"type":"FeatureCollection", "features": [
{"type":"Feature","geometry":{"type":"Polygon","coordinates":[[[89.5698589302981,26.6462799960064],[89.5695957253592,26.6469268120308],[89.5693101680789,26.6480879885312],[89.5691959263394,26.6490016979268],[89.5690436301983,26.649686976177],[89.5687390421376,26.6504674416317],[89.5686819180551,26.6510575415652],[89.5686247760767,26.6523900428133],[89.5688531692622,26.6538938699222],[89.5691196461187,26.6548266267613],[89.5694432355871,26.65564516451],[89.5697668242335,26.6560830015846],[89.5702427019483,26.6569586523996],[89.5703949723935,26.6573393660385],[89.5703759305066,26.6578342965449],[89.5702807245779,26.6589193266144],[89.5701664814488,26.6598901461108],[89.5701127513425,26.6615586980215],[89.5693147588331,26.6613296820796],[89.566604784233,26.6605536279464],[89.5629107979863,26.6603615556932],[89.5558118080278,26.660673418048],[89.5548398082659,26.6607633992852],[89.5552838503747,26.658971404771],[89.555416885029,26.6575204048034],[89.5552289191017,26.6561263986881],[89.5554329801871,26.6535713981568],[89.555701041082,26.651017398872],[89.5559690949806,26.6487534000972],[89.5561941377991,26.6469534013027],[89.5587073436061,26.6468694900559],[89.5619624406084,26.6466601630241],[89.566302575861,26.6464127870389],[89.5692150300589,26.6463557336109],[89.5698589302981,26.6462799960064]]]},"properties":{"compartment":"S RVBK BL3"},"id":"comptt.106"}
]}