{"type":"FeatureCollection", "features": [
{"type":"Feature","geometry":{"type":"Polygon","coordinates":[[[89.5698589302981,26.6462799960064],[89.5692150300589,26.6463557336109],[89.566302575861,26.6464127870389],[89.5619624406084,26.6466601630241],[89.5587073436061,26.6468694900559],[89.5561941377991,26.6469534013027],[89.5562361460805,26.6466054015065],[89.5564442211003,26.6434704000274],[89.5572312890398,26.6405694102233],[89.558467336255,26.638482430586],[89.5589303868211,26.636335435804],[89.5592614489057,26.6337234376327],[89.5593014795806,26.6324454361552],[89.559462479159,26.6324464392882],[89.5621144752144,26.6323384906752],[89.5637964709459,26.632343523397],[89.565866468493,26.6322335634622],[89.5686484628461,26.6321836174819],[89.5713004561288,26.632191669077],[89.5745424503037,26.6321027319767],[89.5747726698925,26.6320963264433],[89.5746785794529,26.6329546861371],[89.5745072277831,26.6342871851698],[89.5741835855685,26.6356577513072],[89.573631527123,26.636895062764],[89.5728700824882,26.6375803391672],[89.5722418934869,26.638018147723],[89.5716137067785,26.6383607761099],[89.571042627637,26.6387985857764],[89.5704525208353,26.6391412149036],[89.570128904295,26.6394457791476],[89.5698623939454,26.6399026347723],[89.56969106703,26.6402072019789],[89.5696149162115,26.6406640613069],[89.5695768316302,26.6412732016453],[89.5695006671424,26.6418823412429],[89.5695767839335,26.6432529151523],[89.5697480801199,26.6442237402057],[89.5698622669044,26.6451755341141],[89.5698589302981,26.6462799960064]]]},"properties":{"compartment":"S RVBK BL6"},"id":"comptt.98"}
]}