{"type":"FeatureCollection", "features": [
{"type":"Feature","geometry":{"type":"Polygon","coordinates":[[[89.8114552148558,26.6924025005839],[89.8113294319964,26.6925324583789],[89.8103024086769,26.6935924403722],[89.8090033677031,26.6954074185094],[89.8078013259744,26.6972443985801],[89.808969230703,26.7010704287667],[89.8086921855024,26.7029634270071],[89.8088861289836,26.7052794352623],[89.8069360800497,26.7074834014208],[89.8061819807959,26.7116523947239],[89.8010320391866,26.709726290408],[89.7950291198093,26.7069631678413],[89.7896611600609,26.7058080607832],[89.7844221972766,26.7047669564747],[89.7800782129671,26.7045308711916],[89.777014261819,26.7028038080638],[89.7768752606381,26.7028658054679],[89.7760783093077,26.7009307862156],[89.7772893693737,26.6983338049066],[89.7787414288798,26.6957368282985],[89.7787444716032,26.6939708249863],[89.7787444816565,26.6939686249823],[89.7797291637048,26.6942037946536],[89.7822228224523,26.6944322737703],[89.7835933879258,26.6944894106356],[89.7854779245257,26.6944513773533],[89.7865819852197,26.6943181486521],[89.7883523048497,26.6941658929216],[89.7903510558019,26.6939375015049],[89.7917216304969,26.6936139276418],[89.7928257034998,26.6933855187582],[89.7940249572075,26.6931190416596],[89.7953574537029,26.6931381077102],[89.7969183659936,26.6933094585132],[89.7980224316317,26.6933856202145],[89.7991455395304,26.693366602105],[89.8011823604142,26.693138221432],[89.8034285699037,26.6929479049204],[89.8072928070992,26.6927005198897],[89.8108524859203,26.69241504884],[89.8114552148558,26.6924025005839]]]},"properties":{"compartment":"Newlands BL1"},"id":"comptt.156"}
]}