{"type":"FeatureCollection", "features": [
{"type":"Feature","geometry":{"type":"Polygon","coordinates":[[[89.850559876577,26.5672591413813],[89.8511411652437,26.5678990160612],[89.8520458825586,26.5688287879739],[89.8528850154886,26.5700487232818],[89.8539184505892,26.5704565449871],[89.8554691071576,26.5707487686745],[89.8571502803718,26.5709823108383],[89.8582483547239,26.5717967225866],[89.8588922847999,26.5727264694149],[89.8592785883769,26.5747584691059],[89.8597275112723,26.5770236941149],[89.8597902127958,26.5791143434134],[89.8597881300336,26.5807400031464],[89.8597867535908,26.5818470865588],[89.8591389006852,26.5820749390049],[89.8555829644409,26.5835809209243],[89.853382985505,26.5846239013474],[89.8515699016616,26.585202461231],[89.8486601166208,26.585837838436],[89.8455591823406,26.5866473665568],[89.8375186982169,26.5768278631799],[89.8361222858181,26.5757250025279],[89.8375081439503,26.5754908249421],[89.8394314436716,26.5748642118601],[89.8415348830734,26.5729006064711],[89.8432874700695,26.5705442016449],[89.8459145910505,26.5672450381547],[89.8477347843665,26.5657614205064],[89.848354017095,26.5652566780784],[89.848803792389,26.5648893305298],[89.8498554733937,26.5629251748018],[89.8498567599701,26.5619813554258],[89.8470976922793,26.5609490355111],[89.8465659083646,26.5607509337155],[89.847013876667,26.5598811182288],[89.8479862047067,26.5589531723357],[89.849086494502,26.5581414275158],[89.8498633792587,26.5569808335965],[89.8507054897329,26.5559366934499],[89.8514164080657,26.5553569923703],[89.851934253235,26.554602713848],[89.8520005215396,26.5539061952434],[89.8516779793241,26.5530348288451],[89.8508384652054,26.552220659743],[89.8499987971627,26.5515229469671],[89.8494206470892,26.5504772454722],[89.8493564488675,26.5496642704215],[89.8494225677245,26.5490258429727],[89.8499402292342,26.5483877519697],[89.8507170304145,26.5474017047802],[89.8516209494058,26.5468795577904],[89.8525273711645,26.5464743965518],[89.8536265120191,26.5463013320707],[89.8545320857607,26.5464184053718],[89.8558244410327,26.5463618045435],[89.8561489829347,26.545723108114],[89.8561503106411,26.5447358625222],[89.856085909874,26.5439809831543],[89.8556348937173,26.5435162296769],[89.8549225680904,26.5433413758652],[89.8533072012119,26.5430491270443],[89.850788311777,26.5428720961484],[89.8487191256901,26.5423474155096],[89.847944626608,26.5417080572263],[89.8477549226799,26.5410670281201],[89.8476874001335,26.5408369581477],[89.8476888029335,26.539849708208],[89.8480139201045,26.5387468728588],[89.8484668191498,26.5378183372043],[89.8496966904446,26.5375291225977],[89.851181835434,26.5375306900431],[89.8526044012247,26.5375902992139],[89.8544123857267,26.5382889293137],[89.8557692263936,26.5386970498288],[89.8568679520568,26.5388725019606],[89.8573850263689,26.5386988231312],[89.8579681637528,26.5378864310507],[89.8580343959197,26.5371318216227],[89.8575807223657,26.5367246327305],[89.8566782388439,26.5362014771929],[89.8550634688289,26.5355023319562],[89.8537720877513,26.5349788648672],[89.8526088606691,26.5342227724458],[89.8518348942588,26.5333510703706],[89.8517712067423,26.5321895542134],[89.8520308520356,26.5312607014312],[89.852032064006,26.5303318252369],[89.8519053056761,26.5294607280682],[89.851259173663,26.528647139663],[89.8503551456602,26.5274266090969],[89.8499047465084,26.5265552013891],[89.8499057932217,26.5258003114691],[89.8503581047953,26.5252781202584],[89.8509405441731,26.5249304780675],[89.8519116866369,26.5247574055982],[89.8537862260817,26.524294534818],[89.8554929923471,26.5236578665146],[89.8563709583651,26.5236588350593],[89.8584383220905,26.5234285672209],[89.8600591902752,26.5232621894912],[89.8603147109542,26.5235879293081],[89.8622240478187,26.5253095955203],[89.8623494928948,26.5272587257676],[89.8637491630495,26.5294379236098],[89.8648942969792,26.5305858378092],[89.8643830283813,26.5321902546925],[89.8659093930706,26.5334524470004],[89.8675647969803,26.5358614497063],[89.8671813428561,26.5375809399972],[89.8638641104961,26.5398706837453],[89.8632182035088,26.540853110353],[89.8625847082711,26.541818170954],[89.8634765120344,26.5429654564075],[89.8648779660885,26.5437693719864],[89.8660219489499,26.5459484984405],[89.8674245496204,26.5459498464126],[89.8690818384897,26.5469835620197],[89.868568038655,26.5487025096778],[89.8678651036779,26.5511091570788],[89.8679905137485,26.5532302814526],[89.8688802685976,26.5562115706296],[89.8686213586623,26.5586763998272],[89.8695208982844,26.5597564240276],[89.867507879405,26.5602230290335],[89.8659267626228,26.5603571255256],[89.8632888899839,26.5607610854835],[89.8613286220766,26.5610974837135],[89.8596721964884,26.5611636925189],[89.8587688486309,26.5611628051278],[89.8577115879467,26.5617713146743],[89.8562049017673,26.5625827865808],[89.8540176974284,26.5636639467386],[89.8510795042063,26.5652189926162],[89.8506386906913,26.5655932014242],[89.8500907077964,26.5660583818432],[89.8495035595189,26.5665568034266],[89.8488719162984,26.567092988992],[89.8490091069248,26.5671414117421],[89.8494610731193,26.5669099500775],[89.8501735429914,26.5670851053628],[89.850559876577,26.5672591413813]]]},"properties":{"id":null,"description":null,"altitudeMode":null,"tessellate":null,"extrude":null,"visibility":null,"drawOrder":null,"icon":null,"AREA":null,"PERIMETER":null,"division":"BuxaTR_EAST","beat":"Balapara","range":"Bholka","layer":"master","path":"C:/Users/user/OneDrive/Desktop/Buxaroad/master.geojson","fill-opacity":0,"stroke-opacity":1,"stroke":"#ff0000","SID":"028","DID":"003","RID":"001","BID":"001","State":"West_Bengal","Beat_Ar":9.23929}},
{"type":"Feature","geometry":{"type":"Polygon","coordinates":[[[89.8227862687242,26.5231552279348],[89.8227387144617,26.5230633441816],[89.8226612028418,26.5229114981617],[89.8226620501261,26.5223407422798],[89.8228547154162,26.5210794795126],[89.8234321682131,26.5193034561882],[89.8239444724096,26.5173551238439],[89.8246521771187,26.5139743225792],[89.8251641244674,26.5123127734482],[89.8255484670536,26.5103068573201],[89.8260634376844,26.5082439964999],[89.8263192182626,26.5067540734258],[89.8267057834171,26.5049201390392],[89.8270890346482,26.50365924762],[89.8280804160767,26.5016274945056],[89.8287201299035,26.4983504728578],[89.8292455410772,26.4975645957137],[89.8351897108748,26.4975719406327],[89.8385106139119,26.4974186071513],[89.8419816403562,26.4975269154429],[89.8418701508445,26.4982319153826],[89.841992842191,26.5001811204041],[89.842253223494,26.5004154707317],[89.8437762731927,26.5017879488362],[89.8461946066769,26.5032810666275],[89.8481053082983,26.5036271160624],[89.8495046443845,26.5055777951137],[89.8501388688111,26.507641882447],[89.8514103078208,26.5097067116088],[89.8533207114362,26.5103969951183],[89.8542111137952,26.5123466246506],[89.8552305293999,26.5134940093774],[89.8553529418054,26.5156727297324],[89.8554779750805,26.5179650553053],[89.8566221092337,26.5196863348759],[89.8587868464836,26.5216373616543],[89.8600591902752,26.5232621894911],[89.8584383220904,26.5234285672209],[89.8563709583651,26.5236588350594],[89.855492992347,26.5236578665145],[89.85417345661,26.5236564372373],[89.8515243518255,26.523653672485],[89.8483585742348,26.5235921428957],[89.8444802656309,26.5235296194238],[89.8407324145274,26.5235253678423],[89.8389788363959,26.5235232024295],[89.8371775906207,26.5235210662849],[89.8331066426478,26.5232258220641],[89.8290349595773,26.5233370970598],[89.8250941543796,26.5231583871892],[89.8227862687242,26.5231552279348]]]},"properties":{"id":null,"description":null,"altitudeMode":null,"tessellate":null,"extrude":null,"visibility":null,"drawOrder":null,"icon":null,"AREA":null,"PERIMETER":null,"division":"BuxaTR_EAST","beat":"Barobisha","range":"Bholka","layer":"master","path":"C:/Users/user/OneDrive/Desktop/Buxaroad/master.geojson","fill-opacity":0,"stroke-opacity":1,"stroke":"#ff0000","SID":"028","DID":"003","RID":"001","BID":"002","State":"West_Bengal","Beat_Ar":7.14403}},
{"type":"Feature","geometry":{"type":"Polygon","coordinates":[[[89.8455591823406,26.5866473665568],[89.8486601166208,26.585837838436],[89.8515699016616,26.585202461231],[89.853382985505,26.5846239013474],[89.8555829644409,26.5835809209242],[89.8591389006852,26.5820749390049],[89.8597867535908,26.5818470865589],[89.8597881300336,26.5807400031464],[89.8597902127957,26.5791143434134],[89.8597275112723,26.5770236941149],[89.8592785883769,26.5747584691059],[89.8588922848,26.5727264694149],[89.8582483547239,26.5717967225866],[89.8571502803718,26.5709823108383],[89.8554691071576,26.5707487686744],[89.8539184505892,26.5704565449871],[89.8528850154886,26.5700487232818],[89.8520458825586,26.5688287879739],[89.8511411652437,26.5678990160612],[89.850559876577,26.5672591413813],[89.8501735429915,26.5670851053628],[89.8494610731193,26.5669099500775],[89.8490091069248,26.5671414117421],[89.8488719162984,26.5670929889921],[89.8495035595189,26.5665568034266],[89.8500907077964,26.5660583818432],[89.8504178509435,26.5657806720435],[89.8510795042063,26.5652189926162],[89.8540176974285,26.5636639467386],[89.8562049017673,26.5625827865808],[89.8577115879467,26.5617713146743],[89.8587688486309,26.5611628051278],[89.8596721964884,26.5611636925189],[89.8613286220766,26.5610974837135],[89.8632888899839,26.5607610854835],[89.8659267626228,26.5603571255256],[89.8675078794051,26.5602230290335],[89.8695208982844,26.5597564240276],[89.8703403239549,26.5607413385401],[89.8694444745959,26.5629190191321],[89.869251918137,26.5644090075525],[89.8693122919094,26.5664726096176],[89.8685981404462,26.5697761110568],[89.868542742081,26.5700255472549],[89.8687551079985,26.5707471712785],[89.869321085633,26.5717692541873],[89.8692576100503,26.572399754983],[89.869510754267,26.5727441130472],[89.8691285087702,26.5733742905466],[89.8689225975307,26.5734649742291],[89.8708320260081,26.5761037634412],[89.8719775409718,26.5773655086101],[89.8721680877986,26.5775062478074],[89.8733793131806,26.578399129224],[89.8750362708715,26.5801196623431],[89.8769481704427,26.5806945033196],[89.8789889540608,26.5804673527065],[89.8809002188807,26.5816151333656],[89.8825578336051,26.5829923927343],[89.884851530028,26.5834526616644],[89.8852347991425,26.5841406900882],[89.8853582530631,26.5860897942083],[89.8854843787606,26.5879240961759],[89.8863763357357,26.5895302702028],[89.8871401186269,26.5912500844195],[89.886755247991,26.5921668329253],[89.8853498714442,26.594228983087],[89.8845574854194,26.5959668976843],[89.8842002120022,26.5967507437515],[89.8850922137044,26.598356075512],[89.8862373479462,26.6004204890671],[89.8858541728696,26.6019104780321],[89.8840648583997,26.6038578698103],[89.8848290386082,26.6052342343305],[89.8857200375151,26.607986381842],[89.8863559106642,26.6098212445081],[89.8869913342107,26.6119995598945],[89.8877545400651,26.6145221620571],[89.8857106980631,26.6172720881351],[89.8834144317435,26.6162383497381],[89.8809928304277,26.6150903377991],[89.8783149831037,26.6142854555288],[89.8757642351038,26.6141685677846],[89.8735942729918,26.6149689728787],[89.8728280988716,26.6153123729915],[89.8707870520277,26.6151960102312],[89.8681085602512,26.6149639272524],[89.8677276174041,26.614390591123],[89.8631674946873,26.6088378866557],[89.8609214952467,26.6060999392973],[89.8574192911366,26.6021554127394],[89.8572736723898,26.6022230172432],[89.8562913064782,26.6028282939105],[89.8549804800094,26.6031598157307],[89.8535228636194,26.6025542368496],[89.8531584403963,26.6008682181572],[89.8527001125914,26.6000324725895],[89.8525736971214,26.5988105953267],[89.8535362483859,26.5979896038939],[89.8507915441122,26.5930382023883],[89.8455591823406,26.5866473665568]]]},"properties":{"id":null,"description":null,"altitudeMode":null,"tessellate":null,"extrude":null,"visibility":null,"drawOrder":null,"icon":null,"AREA":null,"PERIMETER":null,"division":"BuxaTR_EAST","beat":"Changmari","range":"Bholka","layer":"master","path":"C:/Users/user/OneDrive/Desktop/Buxaroad/master.geojson","fill-opacity":0,"stroke-opacity":1,"stroke":"#ff0000","SID":"028","DID":"003","RID":"001","BID":"003","State":"West_Bengal","Beat_Ar":13.8221}},
{"type":"Feature","geometry":{"type":"Polygon","coordinates":[[[89.8227862687242,26.5231552279348],[89.8250941543796,26.5231583871892],[89.8290349595773,26.5233370970598],[89.8331066426478,26.5232258220641],[89.8371775906207,26.5235210662849],[89.8389788363959,26.5235232024295],[89.8407324145274,26.5235253678423],[89.8444802656309,26.5235296194238],[89.8483585742348,26.5235921428957],[89.8515243518255,26.523653672485],[89.85417345661,26.5236564372373],[89.855492992347,26.5236578665145],[89.8537862260817,26.5242945348178],[89.8519116866368,26.5247574055981],[89.8509405441731,26.5249304780675],[89.8503581047952,26.5252781202584],[89.8499057932217,26.5258003114692],[89.8499047465083,26.5265552013889],[89.8503551456602,26.5274266090969],[89.851259173663,26.5286471396629],[89.851905305676,26.5294607280683],[89.852032064006,26.5303318252369],[89.8520308520356,26.5312607014312],[89.8517712067423,26.5321895542134],[89.8518348942588,26.5333510703706],[89.8526088606691,26.5342227724457],[89.8537720877512,26.5349788648672],[89.8550634688289,26.5355023319561],[89.8566782388439,26.5362014771929],[89.8575807223657,26.5367246327305],[89.8580343959197,26.5371318216227],[89.8579681637528,26.5378864310507],[89.8573850263688,26.5386988231312],[89.8568679520568,26.5388725019606],[89.8557692263936,26.5386970498288],[89.8544123857267,26.5382889293137],[89.8526044012247,26.5375902992139],[89.8511818354338,26.5375306900431],[89.8496966904447,26.5375291225977],[89.8484668191497,26.5378183372042],[89.8480139201045,26.5387468728587],[89.8476888029335,26.539849708208],[89.8476874001334,26.5408369581476],[89.8477549226799,26.5410670281201],[89.8479446266079,26.5417080572263],[89.8487191256901,26.5423474155096],[89.8507883117769,26.5428720961484],[89.8533072012118,26.5430491270443],[89.8549225680904,26.5433413758652],[89.8556348937173,26.5435162296769],[89.856085909874,26.5439809831543],[89.8561503106411,26.5447358625222],[89.8561489829346,26.545723108114],[89.8558244410326,26.5463618045437],[89.8545320857606,26.5464184053717],[89.853626512019,26.5463013320707],[89.8525273711645,26.5464743965518],[89.8516209494058,26.5468795577903],[89.8507170304145,26.5474017047802],[89.8499402292342,26.5483877519697],[89.8494225677245,26.5490258429727],[89.8493564488675,26.5496642704215],[89.8494206470892,26.5504772454722],[89.8499987971626,26.5515229469671],[89.8508384652054,26.552220659743],[89.8516779793241,26.553034828845],[89.8520005215396,26.5539061952433],[89.851934253235,26.554602713848],[89.8514164080657,26.5553569923702],[89.8507054897328,26.5559366934499],[89.8498633792586,26.5569808335965],[89.849086494502,26.5581414275158],[89.8479862047067,26.5589531723356],[89.8470138766669,26.5598811182287],[89.8465659083645,26.5607509337155],[89.8462725557457,26.5606413818879],[89.8391882318795,26.5572398755225],[89.8287093805682,26.5522080605658],[89.8217208330376,26.5492113202858],[89.8215456756841,26.5488963254815],[89.8218168223777,26.5441794278688],[89.8216859553658,26.5412126143544],[89.8216473136851,26.5403268201198],[89.8245382191641,26.5367920258216],[89.8248045569957,26.5334118064412],[89.8266419295527,26.532785360321],[89.8279561797448,26.5314499217465],[89.8275219258995,26.5299558832241],[89.8262998367955,26.528539060298],[89.8260388921881,26.5270450490227],[89.8261091770946,26.5269186631766],[89.825618436942,26.5263494161235],[89.8249803766127,26.525280115565],[89.8247322263052,26.5251462484373],[89.8241886901711,26.5246780600052],[89.8239659397237,26.524365649445],[89.8237429247118,26.5241651913005],[89.8236075400428,26.5240820460908],[89.8231063864614,26.523774607964],[89.8227862687242,26.5231552279348]]]},"properties":{"id":null,"description":null,"altitudeMode":null,"tessellate":null,"extrude":null,"visibility":null,"drawOrder":null,"icon":null,"AREA":null,"PERIMETER":null,"division":"BuxaTR_EAST","beat":"Ghoramara","range":"Bholka","layer":"master","path":"C:/Users/user/OneDrive/Desktop/Buxaroad/master.geojson","fill-opacity":0,"stroke-opacity":1,"stroke":"#ff0000","SID":"028","DID":"003","RID":"001","BID":"004","State":"West_Bengal","Beat_Ar":9.59457}}
]}