{"type":"FeatureCollection", "features": [
{"type":"Feature","geometry":{"type":"Polygon","coordinates":[[[89.5962045819907,26.784334623329002],[89.5938417982514,26.781167985144503],[89.59206099039591,26.779854520804403],[89.5905247139796,26.777684945181303],[89.58915429147001,26.7755825721445],[89.58811036838381,26.7742816183375],[89.5859787704829,26.7712757882935],[89.5854305108149,26.769869975147],[89.5842120003783,26.7674911706576],[89.5838949019891,26.7668720734652],[89.5836882806913,26.7648439889969],[89.5850652966818,26.7629078233224],[89.58592377781571,26.7611438535404],[89.5858901302375,26.7606919028482],[89.5842494341949,26.760426637292003],[89.58193280413191,26.7600848943874],[89.578915764367,26.7594988417985],[89.5764216071581,26.7588620462094],[89.5730262333081,26.757955789653],[89.5710618508678,26.7575259033105],[89.5689511932291,26.757254972527402],[89.5679639991561,26.757063747881503],[89.5661558518153,26.7565666320869],[89.5642426927941,26.7559161192472],[89.5619128926413,26.7544100830439],[89.5605059378132,26.7535345168557],[89.56040815322581,26.7534732753066],[89.55984382688901,26.753122215346302],[89.559500258166,26.752908587543402],[89.55795646815051,26.750323029501303],[89.55846950229841,26.7489394987981],[89.5613617524762,26.7478579227607],[89.5640066229875,26.7470139385936],[89.56697818068841,26.7448766826928],[89.57083468139881,26.7426192617506],[89.57276213352671,26.741351636362502],[89.573901890947,26.741042269774702],[89.5772480442555,26.740134673124],[89.5808715962553,26.739702450722],[89.583964402181,26.7393697156492],[89.586250764606,26.738911460463],[89.5892437386917,26.7390371385524],[89.5913871552026,26.7399520622324],[89.5915680268205,26.7399441017169],[89.5916335540091,26.739911497052102],[89.5943140084339,26.7381373672649],[89.59559440238661,26.737085989986202],[89.5965415489164,26.7364698303315],[89.5977130199627,26.7357081527819],[89.5998086164119,26.735132273046503],[89.6007644684847,26.7348696160206],[89.60231621362391,26.734609217408302],[89.6049664081021,26.7342627217553],[89.6064519800575,26.734201276289802],[89.6077830488104,26.7337563626576],[89.60882635793891,26.7336925944049],[89.609585347929,26.733674922875302],[89.6105202204901,26.7337082577567],[89.6116935986303,26.733832770850203],[89.6124662360488,26.7335143169158],[89.6129871340605,26.7332906657495],[89.6136668333823,26.732999210743202],[89.614771462211,26.732585583615002],[89.6189015375941,26.730802604224802],[89.61923380505421,26.7314222951291],[89.6209673398623,26.733982699584303],[89.62285810655621,26.7361171473081],[89.624538756503,26.7379553479353],[89.6265851687205,26.738593642960403],[89.62923111540691,26.7395944095096],[89.6317993347044,26.74059461315],[89.6338106934122,26.741225309846],[89.6357098103034,26.7415984040224],[89.6367765212299,26.7420978692486],[89.6373079739904,26.7425426216299],[89.63794028791341,26.742899629009003],[89.639284317064,26.743115553000703],[89.6399124092152,26.744039977449102],[89.6405417869197,26.745390480457402],[89.6406188942254,26.7464555313251],[89.6405338001079,26.748017370277502],[89.6406868288624,26.7497924513519],[89.640917410151,26.7516388214218],[89.64146651024781,26.753769687513103],[89.6425665318131,26.7557601931282],[89.6432722625112,26.7576788578763],[89.6445342607594,26.759314964576703],[89.6461884371194,26.761022624118702],[89.6473709690469,26.7623742496785],[89.64831696048701,26.7637963055458],[89.64870717875121,26.7653593588944],[89.64870339821,26.7666368407201],[89.6484640267861,26.7676302853727],[89.6481420032858,26.7694044110927],[89.6474273254599,26.7704676990877],[89.64592096610511,26.7714578771943],[89.6444155709837,26.7720929968639],[89.64291085191431,26.7725151867302],[89.6417260028189,26.7727255272571],[89.6402978243495,26.7735740226612],[89.6394255610254,26.774352597477],[89.6382352219599,26.775557008027],[89.6364916446022,26.776759367224102],[89.6357062737539,26.7770710556807],[89.6343544206989,26.777605875817603],[89.6333251735341,26.7778876647255],[89.6312680794491,26.7780245443141],[89.62928996929361,26.777806576783203],[89.6271571615687,26.7772330760491],[89.62533902848071,26.776518867410303],[89.6228908908068,26.775518605770202],[89.6206792478506,26.7744479046805],[89.6194134070948,26.7740188572685],[89.6183851297895,26.7740159915291],[89.6176726959489,26.774297980856602],[89.6175410817606,26.7745352395854],[89.6171946603242,26.7751491710105],[89.61671804455051,26.776354532159303],[89.6159185886498,26.7786952454727],[89.6140935203114,26.7801103337504],[89.6125087983937,26.781100220294903],[89.61076721962141,26.781592745201102],[89.6085506008438,26.782012835474102],[89.6058585936119,26.782502599862003],[89.6033244742599,26.783134338426702],[89.6003968133099,26.7834109501817],[89.59778556673591,26.783758647706403],[89.5962045819907,26.784334623329002]]]},"properties":{"id":null,"description":null,"altitudeMode":null,"tessellate":null,"extrude":null,"visibility":null,"drawOrder":null,"icon":null,"AREA":null,"PERIMETER":null,"division":"BuxaTR_EAST","beat":"Buxaduar","range":"Buxaduar","layer":"master","path":"C:/Users/user/OneDrive/Desktop/Buxaroad/master.geojson","fill-opacity":0,"stroke-opacity":1,"stroke":"#ff0000","SID":"028","DID":"003","RID":"002","BID":"001","State":"West_Bengal","Beat_Ar":29.801}},
{"type":"Feature","geometry":{"type":"Polygon","coordinates":[[[89.578899640244,26.7085477380072],[89.57665154550881,26.709720872385603],[89.5756738722534,26.7097574394631],[89.57462006352931,26.7100241168874],[89.57436035094071,26.7102562793111],[89.5732166303081,26.711052704562203],[89.5725233792033,26.711680264608802],[89.5719144035737,26.7119278713701],[89.5717452378047,26.7128378041712],[89.571581351438,26.713675203161703],[89.5708826239487,26.714385725722103],[89.5706340538092,26.714994232460903],[89.5697625480808,26.7155574906179],[89.56870753796541,26.7161179872033],[89.5666746426573,26.7161112158335],[89.5655248673587,26.7164637754145],[89.5634029140362,26.716754894346803],[89.5627852088853,26.7166215725382],[89.5600935114363,26.716715054467702],[89.5586356464849,26.716765832242302],[89.5544856088335,26.717060002681002],[89.5508536180119,26.7172651749532],[89.549005169615,26.717632320989402],[89.5460040545769,26.7178101467841],[89.5455838867029,26.7179142922622],[89.545475714161,26.7179411382046],[89.5427614994833,26.7179987245511],[89.54170087301421,26.7180280700296],[89.54112034763641,26.7173793051955],[89.54024328275351,26.7161037701884],[89.53965487795631,26.713023911345502],[89.5390086980087,26.7105707307417],[89.5371875906961,26.7072329880891],[89.5369149396606,26.7069071344369],[89.5316008198253,26.7005570730057],[89.5276559719002,26.697433108966802],[89.5269706238586,26.6967058854277],[89.5269054693786,26.6966369334564],[89.5261699828329,26.6958589219205],[89.5246890164633,26.694293123748],[89.5233375439288,26.6929780281618],[89.5216856088871,26.6896334380942],[89.5215836175589,26.6862983774292],[89.5239763210175,26.6860678666077],[89.5279275393391,26.685616306902702],[89.530968221346,26.6853939031344],[89.5325233297285,26.685398769241303],[89.5347880940419,26.685115600951],[89.5374422981191,26.684775991263002],[89.5401622750451,26.6843778045839],[89.5429469430876,26.684096739312302],[89.5450177241992,26.683928892957102],[89.54611067232861,26.683874644859202],[89.54715397749361,26.683703052905003],[89.54974544962751,26.683362491919702],[89.55259349197131,26.6829071107671],[89.5555720017165,26.6825094592314],[89.5589396300092,26.6821717537983],[89.5621674945536,26.6815822724881],[89.5626954937823,26.6814856328719],[89.5664504337935,26.6810326424389],[89.5694886435278,26.680758123010502],[89.5684450610749,26.6830745265983],[89.5675952440849,26.685279075324303],[89.5672666893454,26.6864975939174],[89.567197213962,26.6882975539791],[89.5671253693471,26.6900394469736],[89.5675729097041,26.691317888187303],[89.5681639830361,26.6918307853294],[89.5692509570261,26.6927750008169],[89.5713113030044,26.6954523048948],[89.573633520154,26.698014140378],[89.5761488629833,26.700054047723203],[89.5771789595516,26.701450882432702],[89.57791991868281,26.7029135415925],[89.5790236512904,26.7027300390635],[89.5804491865611,26.702501757613202],[89.5810172519252,26.7024232116493],[89.5814709535786,26.7034513947508],[89.581708445316,26.7044828418482],[89.58141018916321,26.706382930816602],[89.5799894151943,26.7073768081023],[89.578899640244,26.7085477380072]]]},"properties":{"id":null,"description":null,"altitudeMode":null,"tessellate":null,"extrude":null,"visibility":null,"drawOrder":null,"icon":null,"AREA":null,"PERIMETER":null,"division":"BuxaTR_EAST","beat":"Buxaroad","range":"Buxaduar","layer":"master","path":"C:/Users/user/OneDrive/Desktop/Buxaroad/master.geojson","fill-opacity":0,"stroke-opacity":1,"stroke":"#ff0000","SID":"028","DID":"003","RID":"002","BID":"002","State":"West_Bengal","Beat_Ar":14.9547}},
{"type":"Feature","geometry":{"type":"Polygon","coordinates":[[[89.5962045819907,26.784334623329002],[89.5960433638933,26.784392847445602],[89.59421864176811,26.7856658406542],[89.5923174305027,26.7864411007987],[89.5902587158731,26.787003510852703],[89.5879642216987,26.787351971057802],[89.58590690725211,26.787488484027],[89.5840849055708,26.7879091180891],[89.5821841342959,26.7885429587205],[89.5796474895471,26.7898136044186],[89.5769551358314,26.7910126276652],[89.5739441567943,26.7919980179745],[89.5713314244326,26.7927005739955],[89.5683207464613,26.7935437159006],[89.5665522890677,26.793710015118002],[89.5653927232741,26.793818773641803],[89.5652311088966,26.7946708006967],[89.5650641109567,26.797012980084702],[89.564187421422,26.798785214851],[89.56259701670041,26.8011234372679],[89.5607663609195,26.8038156767482],[89.5593362134619,26.8055861149622],[89.55775208569611,26.806220367161302],[89.5560879904354,26.8066414460828],[89.5543474894234,26.806707180693802],[89.5519741361863,26.8064868640675],[89.5497604004447,26.805983032657],[89.5477057251047,26.805338110538802],[89.5458099426849,26.804550978271102],[89.5445452587649,26.8044760114971],[89.5432768996003,26.8046853319811],[89.5411381805221,26.805601552560102],[89.5393154388062,26.806092979347103],[89.5369383042396,26.8068662284754],[89.5347193023247,26.807711037529],[89.5331354488665,26.8082031690463],[89.5311559615368,26.808267835351902],[89.5292583102011,26.807978235908802],[89.5273617091318,26.807404057808],[89.5252282495168,26.806971162998202],[89.5234884770304,26.806823316292903],[89.5214307355525,26.806958910973],[89.5200846390386,26.807096672057803],[89.5183434908056,26.8073035381428],[89.5165212382911,26.807652539972],[89.514385960502,26.8076456090651],[89.5129623075918,26.807073202687],[89.5116186888127,26.8066428994921],[89.5099653559883,26.8050751919798],[89.50916980323001,26.804058907011402],[89.50984995646121,26.803172612617],[89.511353209842,26.801525102238802],[89.5126616235423,26.8001334724255],[89.514587218797,26.798479422718],[89.5171895471601,26.7955183066675],[89.5177681809094,26.7930081579808],[89.51896738522821,26.790621326766],[89.52015974606161,26.787410260045302],[89.5211900851378,26.7857059916385],[89.521964383417,26.7851392671427],[89.522587228328,26.7846824638099],[89.52265517964041,26.7846749619817],[89.525422424788,26.7843520518795],[89.52824493195891,26.7840375134847],[89.53019611102741,26.7840375051432],[89.5322270786248,26.7854892053654],[89.5334723874849,26.785972841529702],[89.5354133866456,26.785380381295003],[89.5377980155472,26.785145714591902],[89.53942187963071,26.7839779874909],[89.5398934926152,26.783639510598903],[89.5408337122805,26.7817226164329],[89.5423604833892,26.777728270829503],[89.54257375088291,26.776514169963402],[89.54285409914131,26.7749169383466],[89.544577074408,26.7721417815696],[89.5447463671822,26.771902480999803],[89.5456082194338,26.7707520553149],[89.5475033267071,26.7682789794333],[89.5474888194593,26.767444690637102],[89.5474661523649,26.7661612598095],[89.5472504830433,26.7640556490918],[89.54714869445141,26.7624425769194],[89.5471248969605,26.7620911793717],[89.5468329578499,26.760210595556302],[89.5473153241694,26.757023459454903],[89.5478392996665,26.7567436059639],[89.548429140894,26.7556703155389],[89.549834499335,26.754981746991202],[89.5515182144448,26.754450847331302],[89.55338428169141,26.754215152873602],[89.55487152317811,26.753807355887602],[89.5562703329649,26.753494143771903],[89.5582746491766,26.7533048018564],[89.55984382688901,26.753122215346302],[89.56040815322581,26.7534732753066],[89.5605059378132,26.7535345168557],[89.5619128926413,26.7544100830439],[89.5642426927941,26.7559161192472],[89.5661558518153,26.7565666320869],[89.5679639991561,26.757063747881503],[89.5689511932291,26.757254972527402],[89.5710618508678,26.7575259033105],[89.5730262333081,26.757955789653],[89.5764216071581,26.7588620462094],[89.578915764367,26.7594988417985],[89.58193280413191,26.7600848943874],[89.5842494341949,26.760426637292003],[89.5858901302375,26.7606919028482],[89.58592377781571,26.7611438535404],[89.5850652966818,26.7629078233224],[89.5836882806913,26.7648439889969],[89.5838949019891,26.7668720734652],[89.5842120003783,26.7674911706576],[89.5854305108149,26.769869975147],[89.5859787704829,26.7712757882935],[89.58811036838381,26.7742816183375],[89.58915429147001,26.7755825721445],[89.5905247139796,26.777684945181303],[89.59206099039591,26.779854520804403],[89.5938417982514,26.781167985144503],[89.5962045819907,26.784334623329002]]]},"properties":{"id":null,"description":null,"altitudeMode":null,"tessellate":null,"extrude":null,"visibility":null,"drawOrder":null,"icon":null,"AREA":null,"PERIMETER":null,"division":"BuxaTR_EAST","beat":"Chunabhati","range":"Buxaduar","layer":"master","path":"C:/Users/user/OneDrive/Desktop/Buxaroad/master.geojson","fill-opacity":0,"stroke-opacity":1,"stroke":"#ff0000","SID":"028","DID":"003","RID":"002","BID":"003","State":"West_Bengal","Beat_Ar":25.6758}},
{"type":"Feature","geometry":{"type":"Polygon","coordinates":[[[89.5478392996665,26.7567436059639],[89.5459063580108,26.7566756794625],[89.543973887632,26.757798906371],[89.5418385690748,26.7574195502875],[89.5380884562812,26.7553547451155],[89.5371121659073,26.7549420929439],[89.5367654884399,26.754890877466202],[89.534627461497,26.754572634673803],[89.53117385179671,26.753856911253703],[89.5285642363018,26.7520586510409],[89.5249283439027,26.7510511777093],[89.5241219616459,26.7509298833671],[89.5212913945343,26.7509460397793],[89.5187817101845,26.748766652137903],[89.5180632466117,26.7480386267638],[89.5179733397508,26.747882798149103],[89.51784125987291,26.747616030446302],[89.5199786666556,26.74680848785],[89.5228091189478,26.7449378899223],[89.5230241221106,26.744591804832503],[89.5248492682135,26.7426479737252],[89.52504162382951,26.742335971165403],[89.52648616747891,26.7400152414441],[89.5278590786391,26.737394936969903],[89.5279855466177,26.7346817980215],[89.5278701012121,26.7321799605116],[89.5294975116835,26.728728071592503],[89.530526772977,26.7271066651931],[89.5323539174334,26.7252352000771],[89.5361084169505,26.722075148222],[89.5399537141356,26.719453207599102],[89.54170087301421,26.7180280700296],[89.5427614994833,26.7179987245511],[89.545475714161,26.7179411382046],[89.5455838867029,26.7179142922622],[89.5460040545769,26.7178101467841],[89.549005169615,26.717632320989402],[89.5508536180119,26.7172651749532],[89.5544856088335,26.717060002681002],[89.5586356464849,26.716765832242302],[89.5600935114363,26.716715054467702],[89.5627852088853,26.7166215725382],[89.5634029140362,26.716754894346803],[89.5655248673587,26.7164637754145],[89.5666746426573,26.7161112158335],[89.56870753796541,26.7161179872033],[89.5697625480808,26.7155574906179],[89.5706340538092,26.714994232460903],[89.5708826239487,26.714385725722103],[89.571581351438,26.713675203161703],[89.5717452378047,26.7128378041712],[89.5719144035737,26.7119278713701],[89.5725233792033,26.711680264608802],[89.5732166303081,26.711052704562203],[89.57436035094071,26.7102562793111],[89.57462006352931,26.7100241168874],[89.5756738722534,26.7097574394631],[89.57665154550881,26.709720872385603],[89.578899640244,26.7085477380072],[89.5794972648101,26.7107911606724],[89.5798432027858,26.711725798813703],[89.5797737389517,26.71428180227],[89.5803714769529,26.7171859487477],[89.5805272317158,26.7200104352775],[89.5823053298693,26.7203269603701],[89.5847174072386,26.7211631326192],[89.5866451853604,26.723933313112703],[89.5882457363541,26.726897776023403],[89.5891675010984,26.7292257646491],[89.5890846198666,26.7306477019937],[89.5886605133249,26.7318882028381],[89.589709719587,26.7351594550042],[89.5902905007362,26.736552769419202],[89.5907462468036,26.737766444667702],[89.5913310983495,26.7394487584979],[89.5915680268205,26.7399441017169],[89.5913871552026,26.7399520622324],[89.5892437386917,26.7390371385524],[89.586250764606,26.738911460463],[89.583964402181,26.7393697156492],[89.5808715962553,26.739702450722],[89.5772480442555,26.740134673124],[89.573901890947,26.741042269774702],[89.57276213352671,26.741351636362502],[89.57083468139881,26.7426192617506],[89.56697818068841,26.7448766826928],[89.5640066229875,26.7470139385936],[89.5613617524762,26.7478579227607],[89.55846950229841,26.7489394987981],[89.55795646815051,26.750323029501303],[89.559500258166,26.752908587543402],[89.55984382688901,26.753122215346302],[89.5582746491766,26.7533048018564],[89.5562703329649,26.753494143771903],[89.55487152317811,26.753807355887602],[89.55338428169141,26.754215152873602],[89.5515182144448,26.754450847331302],[89.549834499335,26.754981746991202],[89.548429140894,26.7556703155389],[89.5478392996665,26.7567436059639]]]},"properties":{"id":null,"description":null,"altitudeMode":null,"tessellate":null,"extrude":null,"visibility":null,"drawOrder":null,"icon":null,"AREA":null,"PERIMETER":null,"division":"BuxaTR_EAST","beat":"Santrabari","range":"Buxaduar","layer":"master","path":"C:/Users/user/OneDrive/Desktop/Buxaroad/master.geojson","fill-opacity":0,"stroke-opacity":1,"stroke":"#ff0000","SID":"028","DID":"003","RID":"002","BID":"004","State":"West_Bengal","Beat_Ar":20.5607}}
]}
