{"type":"FeatureCollection", "features": [
{"type":"Feature","geometry":{"type":"MultiPolygon","coordinates":[[[[89.68775815767701,26.653911006358502],[89.6879519299445,26.654753555151903],[89.6877867070302,26.6554497985354],[89.6874637246667,26.6560303302521],[89.6868475629802,26.6563188238134],[89.6862649547099,26.6563175874377],[89.6858763527572,26.6560269664982],[89.68552352201,26.655532599468902],[89.6853618376594,26.654980402622],[89.6853965780209,26.6541963223573],[89.6855286288237,26.6536448580753],[89.6859168036908,26.653152100824702],[89.6861758965485,26.6530077350912],[89.6866306263978,26.6529507129117],[89.68724266690751,26.6532132897293],[89.68775815767701,26.653911006358502]]],[[[89.6729958555167,26.6581179506558],[89.67315849668461,26.6583213218938],[89.67318782540491,26.6586407596142],[89.6731563262341,26.659105298750703],[89.67295885094211,26.6596854445029],[89.6724718127263,26.660497147426103],[89.6716603397157,26.661453961648903],[89.671043429272,26.6619747632472],[89.67043026718031,26.6621190521717],[89.670235442175,26.6617118919406],[89.6702041991976,26.6612182019199],[89.6703369694834,26.6604637030298],[89.6706300079944,26.6598257510995],[89.6713434738068,26.658898299699203],[89.6724786806038,26.658029311628702],[89.672802631498,26.658088086738502],[89.6729958555167,26.6581179506558]]],[[[89.6767202149047,26.682881078042602],[89.67702962286761,26.6827146986504],[89.6774810949556,26.6811679573565],[89.6778027020796,26.680251323373902],[89.6783788172502,26.6789918647022],[89.679404880443,26.677675176203],[89.6799171539045,26.6768166215363],[89.68074884356311,26.675844292711],[89.6819640955227,26.675158701477702],[89.6827955954693,26.6741860817691],[89.6835638892818,26.673442625936403],[89.6847777091868,26.6732158353408],[89.685613036966,26.672749336157302],[89.6857991219867,26.6726447549428],[89.686758023408,26.6729333699631],[89.68617989971071,26.6739639031126],[89.6850930615182,26.6745921647689],[89.68426371002501,26.6747624951454],[89.6836223025309,26.6759649432677],[89.6832357710219,26.6767661792369],[89.6821472947948,26.6779677357319],[89.6818259871075,26.678827411737],[89.6822092327868,26.679229210372],[89.6831015861675,26.6790589872794],[89.6840616176856,26.678889081033002],[89.68495327764491,26.678948680744],[89.6858474462624,26.679007962936602],[89.686358346478,26.6786648898759],[89.6870635794321,26.677978283950402],[89.687444527737,26.6782661694197],[89.6878243071595,26.6790692722968],[89.68718317222701,26.6802147691529],[89.6873741805571,26.6811323580608],[89.6877545036135,26.6817061923092],[89.6862848197283,26.6826774257779],[89.68513187838201,26.683534611821702],[89.6842433491197,26.6841892705111],[89.6832463153686,26.684068036891002],[89.6813050307053,26.6837733159333],[89.678912237871,26.683303450726],[89.6767202149047,26.682881078042602]]],[[[89.67665476854981,26.6829154112813],[89.6775048870966,26.6834904730416],[89.678167160694,26.6838167821131],[89.6784679363858,26.684088158973502],[89.67846735491611,26.6843047383844],[89.6782861617128,26.684412636653903],[89.67792349137271,26.6847372861573],[89.6778624622,26.685007879786102],[89.6779823407667,26.6852791473251],[89.6784034205472,26.685604931998],[89.67864405368461,26.6858225967854],[89.67858288052341,26.6861473354679],[89.678280499432,26.686471552461],[89.6778567887538,26.6870665138272],[89.67749279760281,26.6878784662123],[89.67743046689691,26.6886372091102],[89.6774748757219,26.688944621354903],[89.67643739283591,26.688872888190502],[89.6751431141094,26.6890438854271],[89.6717139264824,26.6889781480306],[89.66711844560291,26.6890839984633],[89.6612914769581,26.6893612442257],[89.6570202587213,26.6894674713125],[89.6540436069381,26.689290537357703],[89.6529432612302,26.6892252893722],[89.6511312453385,26.6894534432441],[89.650677432465,26.6891617974629],[89.65010046475601,26.687999086132702],[89.649782427839,26.68596620824],[89.6494670333244,26.6830619241322],[89.649136624887,26.679313228283903],[89.6481096902131,26.6799532070685],[89.6449922363311,26.6807737332763],[89.6419923966673,26.6816847588006],[89.6396063220747,26.6823226839529],[89.6370818116154,26.6830651019727],[89.63554537692231,26.6834965702723],[89.63202530370461,26.684472343159403],[89.6298800722621,26.6851702150723],[89.6284051730392,26.686010926286002],[89.6273228429712,26.6851029374127],[89.6262346931566,26.6844242724593],[89.6263636943821,26.6833509073064],[89.62682380477641,26.6816682799179],[89.6285153456637,26.679001398669502],[89.6307216141418,26.6764515181666],[89.63293053290201,26.6737862374631],[89.63397057837861,26.672162882497602],[89.6354009645581,26.670192097546202],[89.6368967760779,26.668221388506],[89.6376111619299,26.6670622817726],[89.6380681581871,26.6654949962731],[89.6383962939984,26.6641607231513],[89.6383571809695,26.6629889034701],[89.6383364247128,26.662417812423],[89.63866455064701,26.661083538683002],[89.6387338139188,26.659805841873503],[89.6392560936558,26.658239488701902],[89.6402939509371,26.657254846912],[89.64184850612891,26.6565039048422],[89.6442480931761,26.6553483330371],[89.6468378021311,26.654425415746502],[89.6497529604701,26.6530392834543],[89.6511796452255,26.6521710117435],[89.65241266342561,26.650548102111102],[89.65340030145771,26.648622361918],[89.6534534230742,26.648518247898803],[89.6548194347751,26.6460246453629],[89.655861099937,26.6445175905598],[89.6567699688345,26.6428933612146],[89.6577468888228,26.6412116481807],[89.65826822881951,26.6398195197015],[89.6583351222327,26.6384259441459],[89.65814549073521,26.6371481717976],[89.6580215123742,26.6357540106309],[89.6573780339037,26.6342429779253],[89.6566719336648,26.6327309819468],[89.6564105448255,26.6319689753342],[89.65835433997451,26.6318641672438],[89.6606202624279,26.6315795889203],[89.6626902775783,26.6312938908206],[89.6649556606411,26.631124587931403],[89.6661214720089,26.6308948682558],[89.6665432866756,26.630943203478502],[89.6664543600987,26.631270803924803],[89.6649602836759,26.6364957578724],[89.6642621802298,26.639119498280802],[89.66343059890231,26.640091729471802],[89.6626620629347,26.6410070982396],[89.6629159594746,26.641810632051],[89.6631046592153,26.6425562753418],[89.6641234735861,26.642787669686403],[89.66527342348131,26.6429047151431],[89.665720334666,26.642905662358903],[89.666291092253,26.6435951998736],[89.666736953407,26.643997439207002],[89.6669245801864,26.6450871262546],[89.66743229756361,26.6458335180989],[89.6680724097485,26.6459494931428],[89.6684534579422,26.6461799074273],[89.66852082219471,26.646364104060503],[89.6690242448565,26.647728678884402],[89.6701067532215,26.6476741778274],[89.6704272113912,26.648075909613603],[89.6706164393773,26.648649515605403],[89.67016711245961,26.6494511777823],[89.6693350428431,26.650595467304303],[89.6688186226751,26.6520278990814],[89.6687521667725,26.6533458924922],[89.6690683089359,26.6543215421607],[89.6697667202874,26.6551251756432],[89.6699429094844,26.6558799777453],[89.67001987006441,26.6562152104397],[89.669442195366,26.657131183882502],[89.66963441494511,26.6575327366019],[89.6695661347601,26.658564241669602],[89.6693104479539,26.659308909993502],[89.6689885597989,26.6602827762626],[89.6690055047129,26.660518326047],[89.6691096808501,26.661888167399603],[89.668534226357,26.662861638973503],[89.6673172318024,26.6641771168566],[89.6657827537341,26.6649763197166],[89.664950067076,26.6662928944096],[89.6639909290871,26.6670356771846],[89.66316075118151,26.6674924028185],[89.6627089170429,26.669153883400202],[89.6620659822722,26.6708147876217],[89.66091586039481,26.671557256579103],[89.6608483405252,26.672322826183002],[89.6607832599667,26.673105004923702],[89.66103688950591,26.6731626569151],[89.6612290052566,26.673621748944402],[89.6614161661134,26.674883463085003],[89.66109688304451,26.674997191150702],[89.6600087718626,26.675968753793402],[89.65930183480171,26.6772285515482],[89.6595560090994,26.6779167454999],[89.66108841376611,26.677920473973902],[89.6623644456412,26.6779807782377],[89.6623631234675,26.678439603002],[89.6627437876359,26.678841486944602],[89.6635081233521,26.679474043932203],[89.6635062239316,26.6801621387294],[89.6632499289213,26.681021295062802],[89.6636295531587,26.6818247518107],[89.6646482532369,26.6822284302984],[89.6647131040025,26.682400531080702],[89.6655401772058,26.6830901465656],[89.6665632371855,26.6829204603547],[89.6678383355548,26.6832672327256],[89.6680925681804,26.6830958829537],[89.66892478092281,26.6828686471497],[89.66930668093751,26.682869498649403],[89.67045474013,26.682872301124],[89.67166775590421,26.6829893810845],[89.6726896764672,26.6823036118599],[89.6737119065351,26.6824209564546],[89.6737721320541,26.6824267297464],[89.674924920832,26.682538008681302],[89.6763906982015,26.683057564953202],[89.67665476854981,26.6829154112813]]]]},"properties":{"id":null,"description":null,"altitudeMode":null,"tessellate":null,"extrude":null,"visibility":null,"drawOrder":null,"icon":null,"AREA":null,"PERIMETER":null,"division":"BuxaTR_EAST","beat":"Chuniajhora","range":"Hatipota","layer":"master","path":"C:/Users/user/OneDrive/Desktop/Buxaroad/master.geojson","fill-opacity":0,"stroke-opacity":1,"stroke":"#ff0000","SID":"028","DID":"003","RID":"003","BID":"002","State":"West_Bengal","Beat_Ar":14.3574}},
{"type":"Feature","geometry":{"type":"MultiPolygon","coordinates":[[[[89.728232844664,26.6656924546328],[89.7287588574549,26.6706823577959],[89.7294940272584,26.6731825346436],[89.7317109890136,26.672629226814003],[89.7319430038619,26.6722327277809],[89.7341884154269,26.6712286945503],[89.736685346341,26.6701129744355],[89.7362997792407,26.6717882189084],[89.7360558304175,26.671884268703803],[89.7363597844328,26.6718622102405],[89.738956574289,26.672200014635802],[89.7393225102178,26.6737002187178],[89.7393176740085,26.6758656824849],[89.7391302933765,26.6765315089234],[89.7339363773347,26.6771891228022],[89.732210426824,26.6772412815133],[89.7231990797963,26.6784885865614],[89.72270182618101,26.6773675206379],[89.72257926092101,26.6771431374017],[89.7228077935255,26.6771685541683],[89.7222544144866,26.6753347299772],[89.7202178522981,26.6739977634003],[89.71929255218251,26.673329971696802],[89.7209636956868,26.6729997481452],[89.72300351718171,26.673003689088702],[89.7235644180374,26.6726638260306],[89.7232488931766,26.6701520183761],[89.723254248133,26.6678339784854],[89.7234446516409,26.665917497517302],[89.7258061590598,26.6658041245656],[89.7273611384727,26.6656909702567],[89.728232844664,26.6656924546328]]],[[[89.7027850041988,26.7216471482654],[89.70294682896271,26.7292742054026],[89.7011565845891,26.7306169026807],[89.6990184841131,26.7323168161613],[89.6970371890643,26.733590417774],[89.6955329694383,26.7340844815539],[89.6936356927217,26.7340093881347],[89.691975395884,26.7335800685845],[89.69016068573261,26.7326534495073],[89.6879486568516,26.7317969759791],[89.6858943480202,26.731224525766102],[89.684233654346,26.7310077406826],[89.6832053551082,26.7311477384996],[89.681385816192,26.732066708119802],[89.67956399443071,26.732843557692],[89.6777414686435,26.733904642715903],[89.6757636936759,26.7347521038248],[89.6734672982145,26.7353861778646],[89.6708577906715,26.7355930323424],[89.6686438534857,26.7354466217451],[89.6669056387849,26.735087297415802],[89.665563016728,26.7343744600681],[89.6650122630442,26.7335924952303],[89.66462168172221,26.7321718960761],[89.6645468330195,26.7302549302446],[89.6639997277033,26.7281946333477],[89.6632933614864,26.7264892661109],[89.6621126415752,26.724569800670203],[89.659747421132,26.722079382774],[89.6584075844222,26.7204437464646],[89.65619974801831,26.7183084224506],[89.65601417760911,26.7181851088983],[89.6540704851174,26.7168836179364],[89.6524592621481,26.716138538686],[89.65319201996711,26.7147763854818],[89.6532614747724,26.7133825100246],[89.652810621494,26.712046325229903],[89.65197300642521,26.7106503640756],[89.6519786738289,26.7087341294222],[89.65205320706781,26.7055988626801],[89.65212727971401,26.7026375923569],[89.6524566572683,26.7008963587725],[89.6533657187333,26.6993302347763],[89.6538911713577,26.6975314337095],[89.65402496885011,26.6956153901134],[89.6540349399803,26.6921895712852],[89.65417089027561,26.690389684266002],[89.6540436069381,26.689290537357703],[89.6570202587213,26.6894674713125],[89.6612914769581,26.6893612442257],[89.66711844560291,26.6890839984633],[89.6717139264824,26.6889781480306],[89.6751431141094,26.6890438854271],[89.67643739283591,26.688872888190502],[89.6774748757219,26.688944621354903],[89.67743046689691,26.6886372091102],[89.67749279760281,26.6878784662123],[89.6778567887538,26.6870665138272],[89.678280499432,26.686471552461],[89.67858288052341,26.6861473354679],[89.67864405368461,26.6858225967854],[89.6784034205472,26.685604931998],[89.6779823407667,26.6852791473251],[89.6778624622,26.685007879786102],[89.67792349137271,26.6847372861573],[89.6782861617128,26.684412636653903],[89.67846735491611,26.6843047383844],[89.6784679363858,26.684088158973502],[89.678167160694,26.6838167821131],[89.6775048870966,26.6834904730416],[89.67665476854981,26.6829154112813],[89.6767202149047,26.682881078042602],[89.678912237871,26.683303450726],[89.6813050307053,26.6837733159333],[89.6832463153686,26.684068036891002],[89.6842433491197,26.6841892705111],[89.68448945791981,26.685138636747002],[89.6845527584073,26.685884041346903],[89.6851243923153,26.6863439337017],[89.6853176007337,26.6864011326393],[89.6855709621824,26.686554620678002],[89.6858895893067,26.6867465276034],[89.6864628001063,26.6874929019448],[89.6876086168692,26.6884126370768],[89.6883135608205,26.6878410811255],[89.6891428112198,26.687785215178202],[89.68926905795,26.688473747661202],[89.68958728344221,26.688817927568202],[89.6886915702069,26.689274739955103],[89.6874764574798,26.689902580855],[89.6875396910204,26.6907055105518],[89.68760040526391,26.6915079061801],[89.68823725295701,26.691967852029503],[89.689002162502,26.692485484236602],[89.6887437798439,26.693287741539102],[89.688550279877,26.694261522188],[89.6895082620297,26.693977110077302],[89.6904033280349,26.6937498425373],[89.6907225356607,26.693693011763802],[89.6915518270806,26.6936371298396],[89.6917430202511,26.6935468606973],[89.6917733117781,26.6935033532555],[89.6927320428933,26.692931841141903],[89.6937534629439,26.693335552670103],[89.6943273532668,26.6939104313347],[89.6954132795308,26.694659081668203],[89.69649996950021,26.6942021917476],[89.6972059711708,26.6932276110158],[89.6984804490674,26.6939189858716],[89.6991197901453,26.6944369414235],[89.7001411662643,26.694898414785502],[89.7016733788665,26.695073433458802],[89.7025037977572,26.6955343669527],[89.703267485129,26.6966263530996],[89.7040935207428,26.697832918164202],[89.7045363939623,26.6995553495045],[89.7064543667578,26.699214693042503],[89.70901214366201,26.6992196163233],[89.7113765901677,26.699224295502002],[89.71348488757471,26.6991138847861],[89.7159774055672,26.699061101166603],[89.7177664030936,26.6990644780862],[89.7189168313759,26.699181906744602],[89.7188557633042,26.697402437346902],[89.7188636927761,26.6940742774158],[89.7190651716625,26.6906884934865],[89.71900381079391,26.6890243603254],[89.71889918400841,26.6875838079802],[89.71883934866891,26.687395882565003],[89.72245069234451,26.6890940975061],[89.7261913463556,26.689212616481],[89.7306790513901,26.690005161701702],[89.7316744836919,26.690903244183403],[89.7325716085856,26.6919139094537],[89.7324680487731,26.693283959280702],[89.7320960526413,26.6944441119217],[89.7320723455384,26.6960055007058],[89.73191152691301,26.6960052142487],[89.7306653515393,26.697121077921203],[89.7303703307237,26.697580948410803],[89.7289416398888,26.6993495830569],[89.7279725190339,26.701247662855103],[89.7262715092691,26.7022965765704],[89.7249072234482,26.7033577190786],[89.7230139316584,26.7049788446275],[89.7212007068026,26.706673981413402],[89.71810032927931,26.707630982483803],[89.71510479426661,26.708805471035202],[89.71276198613741,26.7112147283154],[89.7104882971618,26.7131287820973],[89.70812320430561,26.713309656875],[89.70572269193231,26.7145661554194],[89.7043324286636,26.714826284699],[89.7031579133597,26.7152188753391],[89.7025523869266,26.7152177106169],[89.7025546018408,26.715302845592003],[89.7025929696005,26.7170290216591],[89.7026141074914,26.7186321743122],[89.70265688113861,26.7206106793526],[89.7027850041988,26.7216471482654]]]]},"properties":{"id":null,"description":null,"altitudeMode":null,"tessellate":null,"extrude":null,"visibility":null,"drawOrder":null,"icon":null,"AREA":null,"PERIMETER":null,"division":"BuxaTR_EAST","beat":"Hatipota","range":"Hatipota","layer":"master","path":"C:/Users/user/OneDrive/Desktop/Buxaroad/master.geojson","fill-opacity":0,"stroke-opacity":1,"stroke":"#ff0000","SID":"028","DID":"003","RID":"003","BID":"001","State":"West_Bengal","Beat_Ar":27.0031}}
]}
