{"type":"FeatureCollection", "features": [
{"type":"Feature","geometry":{"type":"Polygon","coordinates":[[[89.6186380313335,26.722148253564],[89.61684821943341,26.7199987620688],[89.615683902472,26.7186988090423],[89.6141710782877,26.717953572481303],[89.61328140324271,26.717209947709502],[89.6123196020167,26.7162192619617],[89.611566859688,26.7151052068923],[89.6114328311655,26.7138696010547],[89.6114373283296,26.7125111551918],[89.6116506997363,26.7110290671528],[89.6117230439105,26.7096704111573],[89.611590446278,26.7080024816882],[89.610977933179,26.7062712143606],[89.6101601067821,26.7036130905467],[89.6096848058939,26.7022527749899],[89.6090045904948,26.7005270607853],[89.60902691010081,26.699861002863702],[89.6095445265708,26.6975692117515],[89.609995420917,26.6964809123122],[89.6103366441864,26.6958783382542],[89.610531404665,26.695457912500903],[89.6111666549363,26.695625515059803],[89.6139701419746,26.6949683433496],[89.6157355020906,26.6944845709646],[89.61728522071961,26.6938783177867],[89.61808066247231,26.693438038366303],[89.6186820934715,26.6931040339744],[89.6202181145547,26.692066728446402],[89.6210974768497,26.691301171089503],[89.6222312313764,26.690315268305],[89.6235707053789,26.6894082111776],[89.624276425102,26.6887252808624],[89.6251576235328,26.6881362106799],[89.6261440826311,26.6876062728921],[89.6274839953408,26.686536179799702],[89.6284051730392,26.686010926286002],[89.6298800722621,26.6851702150723],[89.63202530370461,26.684472343159403],[89.63554537692231,26.6834965702723],[89.6370818116154,26.6830651019728],[89.6396063220747,26.6823226839529],[89.6419923966674,26.6816847588006],[89.6449922363311,26.6807737332763],[89.6481096902131,26.6799532070685],[89.649136624887,26.679313228283903],[89.6494670333244,26.6830619241322],[89.649782427839,26.68596620824],[89.65010046475601,26.687999086132702],[89.6506774324649,26.689161797463],[89.6511312453385,26.6894534432441],[89.6529432612302,26.689225289372303],[89.6540436069381,26.689290537357703],[89.65417089027561,26.690389684266002],[89.6540349399803,26.6921895712852],[89.65402496885011,26.6956153901134],[89.6538911713577,26.6975314337095],[89.6533657187333,26.6993302347763],[89.6524566572683,26.7008963587725],[89.65212727971401,26.7026375923569],[89.65205320706781,26.7055988626801],[89.6519786738289,26.7087341294222],[89.65197300642521,26.7106503640756],[89.652810621494,26.712046325229903],[89.6532614747724,26.7133825100246],[89.65319201996701,26.7147763854818],[89.6524592621481,26.716138538686],[89.6508331757155,26.7153851540712],[89.6488540395423,26.7150346131275],[89.6479874755684,26.714882008586002],[89.6464065176638,26.7150197201642],[89.6449016244,26.7157261633224],[89.6436345428627,26.7167171805869],[89.6421278261537,26.7180623408034],[89.6407021171195,26.7191234200233],[89.6390390307676,26.7197583210929],[89.6374587071619,26.719683302002903],[89.6361142447421,26.7196799818649],[89.6350850350848,26.720103330138702],[89.6337383512602,26.720810366292902],[89.6320766300459,26.7210187909069],[89.6307334359745,26.720589588361502],[89.6298662319632,26.7198776786285],[89.6293170793127,26.718669162890603],[89.62845119234301,26.717531410572],[89.62766226249,26.716677584443],[89.6261640409816,26.716034674613702],[89.6246617735422,26.715888676964102],[89.6231592662663,26.7158137297968],[89.6221294667875,26.716450182895002],[89.6209372049973,26.7183639748022],[89.6202989107791,26.7199242650176],[89.6195053562068,26.7212711670381],[89.6186380313335,26.722148253564]]]},"properties":{"id":null,"description":null,"altitudeMode":null,"tessellate":null,"extrude":null,"visibility":null,"drawOrder":null,"icon":null,"AREA":null,"PERIMETER":null,"division":"BuxaTR_EAST","beat":"Bhutiabasti","range":"Jainti","layer":"master","path":"C:/Users/user/OneDrive/Desktop/Buxaroad/master.geojson","fill-opacity":0,"stroke-opacity":1,"stroke":"#ff0000","SID":"028","DID":"003","RID":"004","BID":"001","State":"West_Bengal","Beat_Ar":13.9404}},
{"type":"Feature","geometry":{"type":"Polygon","coordinates":[[[89.610531404665,26.695457912500903],[89.6096983452644,26.6951501488988],[89.6086614862554,26.6949228135556],[89.6084455124109,26.6948753566168],[89.6078229511165,26.6947383354115],[89.6062686489934,26.694444109568302],[89.6034237688188,26.6939135276568],[89.6028286987765,26.693821010625502],[89.6025373899941,26.6937763725984],[89.6023340470107,26.6937445551202],[89.6022788079277,26.6937361571049],[89.5999961274135,26.6933818699958],[89.5960487961914,26.692732197246603],[89.59371612698091,26.6923152036186],[89.5927494935798,26.6921419489537],[89.5890632803212,26.6915511779472],[89.5865396166743,26.691195431870803],[89.5850522682683,26.6911912461421],[89.5825270468686,26.691242094320103],[89.5799391637325,26.691292751931503],[89.5770269859603,26.6913424681563],[89.574501617878,26.6914512683346],[89.5724934205125,26.6916777901476],[89.5710060663657,26.6916734575892],[89.5681639830361,26.6918307853294],[89.5675729097041,26.691317888187303],[89.5671253693471,26.6900394469736],[89.567197213962,26.6882975539791],[89.5672666893454,26.6864975939174],[89.5675952440849,26.685279075324303],[89.5684450610749,26.6830745265983],[89.5694886435278,26.680758123010502],[89.5664504337935,26.6810326424389],[89.5626954937823,26.6814856328719],[89.5621674945536,26.6815822724881],[89.56166199820571,26.6797446686868],[89.56109068714021,26.6766649901259],[89.5605839835916,26.6738178129219],[89.5605264938274,26.671727092443103],[89.560667767914,26.6696011837418],[89.56222217182601,26.669695981369202],[89.5651988246471,26.669705094200403],[89.56759338788311,26.669537857144203],[89.57024757854781,26.6690814630022],[89.5707551577027,26.669034372968],[89.56999003613551,26.6674001867542],[89.56909232257651,26.665655509933302],[89.5674812054736,26.6639085799345],[89.56619433642031,26.662104459515103],[89.5652958482014,26.6598950171865],[89.5651110775009,26.6575713584463],[89.5651160455639,26.656227545013202],[89.5659138624414,26.656456731349802],[89.5665512268728,26.6566391845388],[89.5715051612425,26.656376979598],[89.5730856595358,26.6561789348725],[89.5741127609611,26.6562306823218],[89.5748964799711,26.6562103998748],[89.57766977636841,26.656081369755203],[89.5814555851248,26.655857782609502],[89.5844801876742,26.6557162233306],[89.587930100089,26.655283875991202],[89.59064799217761,26.655236996745],[89.59173542794011,26.655224769871403],[89.5928285800346,26.6550709044568],[89.5943799085934,26.658206235555102],[89.5959877888049,26.662437900453],[89.597598353889,26.665921356666303],[89.59804248515161,26.666805214112202],[89.600667732845,26.6666709138846],[89.6040341064102,26.666564543196703],[89.6081765606649,26.666459707875102],[89.60998789911591,26.6663483031742],[89.6125750851614,26.666355217797],[89.6139995867672,26.666300904857803],[89.6160067448861,26.6662481021214],[89.6210546720884,26.665738310104203],[89.6249193680565,26.665270697368],[89.6266858715297,26.665056101706902],[89.6295364330873,26.664366805618602],[89.6356215719172,26.6631045851483],[89.6383571809695,26.6629889034701],[89.6383962939983,26.6641607231513],[89.638068158187,26.6654949962731],[89.6376111619299,26.6670622817726],[89.6368967760779,26.668221388506],[89.6354009645581,26.670192097546202],[89.63397057837861,26.672162882497602],[89.63293053290201,26.6737862374631],[89.6307216141418,26.676451518166502],[89.6285153456637,26.679001398669502],[89.62682380477641,26.681668279918],[89.6263636943821,26.6833509073064],[89.6262346931565,26.6844242724593],[89.6273228429712,26.6851029374127],[89.6284051730392,26.686010926286002],[89.6274839953408,26.686536179799702],[89.6261440826311,26.6876062728921],[89.6251576235328,26.6881362106799],[89.624276425102,26.6887252808624],[89.6235707053789,26.6894082111776],[89.6222312313764,26.690315268305],[89.6210974768497,26.691301171089503],[89.6202181145547,26.692066728446402],[89.6186820934715,26.6931040339744],[89.61808066247231,26.693438038366303],[89.61728522071961,26.6938783177867],[89.6157355020906,26.6944845709646],[89.6139701419746,26.6949683433496],[89.6111666549363,26.695625515059803],[89.610531404665,26.695457912500903]]]},"properties":{"id":null,"description":null,"altitudeMode":null,"tessellate":null,"extrude":null,"visibility":null,"drawOrder":null,"icon":null,"AREA":null,"PERIMETER":null,"division":"BuxaTR_EAST","beat":"Jainti-North","range":"Jainti","layer":"master","path":"C:/Users/user/OneDrive/Desktop/Buxaroad/master.geojson","fill-opacity":0,"stroke-opacity":1,"stroke":"#ff0000","SID":"028","DID":"003","RID":"004","BID":"002","State":"West_Bengal","Beat_Ar":21.6114}},
{"type":"Feature","geometry":{"type":"Polygon","coordinates":[[[89.6383571809695,26.6629889034701],[89.6356215719172,26.6631045851483],[89.6295364330873,26.664366805618602],[89.6266858715297,26.665056101706902],[89.6249193680565,26.665270697368],[89.6210546720884,26.665738310104203],[89.6160067448861,26.6662481021214],[89.6139995867672,26.666300904857803],[89.6125750851614,26.666355217797],[89.60998789911591,26.6663483031742],[89.6081765606649,26.666459707875102],[89.6040341064102,26.666564543196703],[89.600667732845,26.6666709138846],[89.59804248515161,26.666805214112202],[89.597598353889,26.665921356666303],[89.5959877888049,26.662437900453],[89.5943799085934,26.658206235555102],[89.5928285800346,26.6550709044568],[89.59194951981681,26.653634397910302],[89.5911934946589,26.651517436016],[89.5902627399315,26.6490817931053],[89.5892106234454,26.6461678151739],[89.5872008236598,26.6392722264884],[89.58682823362601,26.6374332192768],[89.5865430077788,26.6357130834552],[89.5861859616936,26.6330357796386],[89.5858945594204,26.6309592554516],[89.5853404242909,26.628610434073202],[89.5846259609778,26.625472377649302],[89.590147736883,26.6254226138678],[89.5937314448425,26.6252872962264],[89.59812870857,26.625115074555502],[89.5994423510203,26.625003236245],[89.60122574250491,26.6248138828949],[89.60294330952941,26.624788250694202],[89.6052360934758,26.6247075750437],[89.60837212729021,26.6247597013128],[89.6134544518536,26.6247230481747],[89.615132352047,26.6245448751898],[89.61654148026031,26.624394566554002],[89.6218382009227,26.624049758898902],[89.62377982156761,26.623832650597603],[89.6277513444902,26.6233172522399],[89.63127725321431,26.6231196164685],[89.6326405366047,26.623179486825602],[89.6341994863883,26.623247238944902],[89.6375529862932,26.622825272058503],[89.6405470641031,26.6224908621277],[89.6421319486555,26.622288352381602],[89.64363573649,26.622383994844903],[89.6477209196216,26.622381093699],[89.65023935965701,26.622379414810602],[89.6546375655809,26.6218394068512],[89.6592267348224,26.6212239901349],[89.6618661232747,26.6210689742534],[89.662496489825,26.6210319686147],[89.6647164183245,26.6217861922438],[89.6648850061958,26.6225537860618],[89.6653940323925,26.622784118136803],[89.6659008963317,26.623760078389],[89.6656458300634,26.6242751872801],[89.6658329808269,26.625594432517],[89.6663363681558,26.627773719037002],[89.6667767839072,26.6300676708856],[89.6665432866756,26.630943203478502],[89.6661214720089,26.6308948682558],[89.6649556606411,26.631124587931502],[89.6626902775783,26.6312938908205],[89.6606202624279,26.6315795889203],[89.65835433997451,26.6318641672438],[89.6564105448255,26.6319689753342],[89.6566719336648,26.632730981946903],[89.6573780339037,26.6342429779253],[89.6580215123743,26.6357540106309],[89.65814549073521,26.6371481717976],[89.6583351222327,26.638425944146],[89.65826822881951,26.6398195197014],[89.6577468888228,26.6412116481807],[89.6567699688345,26.6428933612146],[89.655861099937,26.6445175905598],[89.6548194347752,26.6460246453629],[89.6534534230741,26.648518247898803],[89.65340030145771,26.648622361918],[89.65241266342561,26.650548102111102],[89.6511796452255,26.6521710117435],[89.64975296047021,26.6530392834543],[89.6468378021311,26.654425415746502],[89.6442480931761,26.6553483330371],[89.64184850612891,26.6565039048422],[89.6402939509371,26.657254846912],[89.6392560936558,26.658239488701902],[89.6387338139188,26.659805841873503],[89.63866455064701,26.661083538683002],[89.6383364247128,26.662417812423],[89.6383571809695,26.6629889034701]]]},"properties":{"id":null,"description":null,"altitudeMode":null,"tessellate":null,"extrude":null,"visibility":null,"drawOrder":null,"icon":null,"AREA":null,"PERIMETER":null,"division":"BuxaTR_EAST","beat":"Jainti-South","range":"Jainti","layer":"master","path":"C:/Users/user/OneDrive/Desktop/Buxaroad/master.geojson","fill-opacity":0,"stroke-opacity":1,"stroke":"#ff0000","SID":"028","DID":"003","RID":"004","BID":"004","State":"West_Bengal","Beat_Ar":28.3742}},
{"type":"Feature","geometry":{"type":"Polygon","coordinates":[[[89.6189015375941,26.730802604224802],[89.614771462211,26.732585583615002],[89.6136668333823,26.732999210743202],[89.6129871340605,26.7332906657495],[89.6124662360488,26.7335143169158],[89.6116935986303,26.733832770850203],[89.6105202204901,26.7337082577567],[89.609585347929,26.733674922875302],[89.60882635793891,26.7336925944049],[89.6077830488104,26.7337563626576],[89.6064519800575,26.734201276289802],[89.6049664081021,26.7342627217553],[89.60231621362391,26.734609217408302],[89.6007644684847,26.7348696160206],[89.5998086164119,26.735132273046503],[89.5977130199627,26.7357081527819],[89.5965415489164,26.7364698303315],[89.59559440238661,26.737085989986202],[89.5943140084339,26.7381373672649],[89.5916335540091,26.739911497052102],[89.5915680268205,26.7399441017169],[89.5913310983495,26.7394487584979],[89.5907462468036,26.737766444667702],[89.5902905007362,26.736552769419202],[89.589709719587,26.7351594550042],[89.5886605133249,26.7318882028381],[89.5890846198666,26.7306477019937],[89.5891675010984,26.7292257646491],[89.5882457363541,26.726897776023403],[89.5866451853604,26.723933313112703],[89.5847174072386,26.7211631326192],[89.5823053298693,26.7203269603701],[89.5805272317158,26.7200104352775],[89.5803714769529,26.7171859487477],[89.5797737389517,26.71428180227],[89.5798432027858,26.711725798813703],[89.5794972648101,26.7107911606724],[89.578899640244,26.7085477380072],[89.5799894151943,26.7073768081023],[89.58141018916321,26.706382930816602],[89.581708445316,26.7044828418482],[89.5814709535786,26.7034513947508],[89.5810172519252,26.7024232116493],[89.5804491865611,26.702501757613202],[89.5790236512904,26.7027300390635],[89.57791991868281,26.7029135415925],[89.5771789595516,26.701450882432702],[89.5761488629833,26.700054047723203],[89.573633520154,26.698014140378],[89.5713113030044,26.6954523048948],[89.5692509570261,26.6927750008169],[89.5681639830361,26.6918307853294],[89.5710060663657,26.6916734575892],[89.5724934205125,26.6916777901476],[89.574501617878,26.6914512683346],[89.5770269859603,26.6913424681563],[89.5799391637325,26.691292751931503],[89.5825270468686,26.691242094320103],[89.5850522682683,26.6911912461421],[89.5865396166743,26.691195431870803],[89.5890632803212,26.6915511779472],[89.5927494935798,26.6921419489537],[89.59371612698091,26.6923152036186],[89.5960487961914,26.692732197246603],[89.5999961274135,26.6933818699958],[89.6022788079277,26.6937361571049],[89.6023340470107,26.6937445551202],[89.6025373899941,26.6937763725984],[89.6028286987765,26.693821010625502],[89.6034237688188,26.6939135276568],[89.6062686489934,26.694444109568302],[89.6078229511165,26.6947383354115],[89.6084455124109,26.6948753566168],[89.6086614862554,26.6949228135556],[89.6096983452644,26.6951501488988],[89.610531404665,26.695457912500903],[89.6103366441864,26.6958783382542],[89.609995420917,26.6964809123122],[89.6095445265708,26.6975692117515],[89.60902691010081,26.699861002863702],[89.6090045904948,26.7005270607853],[89.6096848058939,26.7022527749899],[89.6101601067821,26.7036130905467],[89.610977933179,26.7062712143606],[89.611590446278,26.7080024816882],[89.6117230439105,26.7096704111573],[89.6116506997363,26.7110290671528],[89.6114373283296,26.7125111551918],[89.6114328311655,26.7138696010547],[89.611566859688,26.7151052068923],[89.6123196020167,26.7162192619617],[89.61328140324271,26.717209947709502],[89.6141710782877,26.717953572481303],[89.615683902472,26.7186988090423],[89.61684821943341,26.7199987620688],[89.6186380313335,26.722148253564],[89.6184336339127,26.7224218783379],[89.6182517609534,26.7227220347728],[89.6176745694151,26.723224963408903],[89.6170440859737,26.7238912133913],[89.6166458240655,26.725026306367102],[89.6169570266909,26.726730813979803],[89.61781981759721,26.728791936912202],[89.6189015375941,26.730802604224802]]]},"properties":{"id":null,"description":null,"altitudeMode":null,"tessellate":null,"extrude":null,"visibility":null,"drawOrder":null,"icon":null,"AREA":null,"PERIMETER":null,"division":"BuxaTR_EAST","beat":"Phaskhawa","range":"Jainti","layer":"master","path":"C:/Users/user/OneDrive/Desktop/Buxaroad/master.geojson","fill-opacity":0,"stroke-opacity":1,"stroke":"#ff0000","SID":"028","DID":"003","RID":"004","BID":"003","State":"West_Bengal","Beat_Ar":14.5855}}
]}
