{"type":"FeatureCollection", "features": [
{"type":"Feature","geometry":{"type":"Polygon","coordinates":[[[89.8019856514954,26.7065459360061],[89.8027387852134,26.7023767981055],[89.8046896992336,26.7001727493431],[89.8044948917712,26.6978567659863],[89.80477180080311,26.6959636609283],[89.8036047387344,26.6921376445941],[89.80480624843061,26.6903009878786],[89.80610558722191,26.6884861959048],[89.8071322973517,26.6874260801962],[89.8082470364846,26.6862737519526],[89.80839104922231,26.684263623610903],[89.808312633517,26.682962142811903],[89.80847767424041,26.6818924430411],[89.8086552459758,26.679305227826703],[89.8086299937954,26.6778110358864],[89.8082380923442,26.6746809454308],[89.8144409110556,26.6742764362603],[89.8215881470241,26.6739409999419],[89.8278432257104,26.6738338557631],[89.8337145074277,26.673382033919502],[89.83818113056181,26.673157167186602],[89.838326842436,26.6731572487636],[89.8386173919916,26.6756667736439],[89.838625456621,26.679003633337203],[89.8388223782536,26.682044777653303],[89.83883771221251,26.685500253881003],[89.8388417606354,26.6862482963032],[89.83871157677551,26.689658007059503],[89.83920660477871,26.691501365816602],[89.8391944623576,26.6950040033798],[89.8391942489897,26.6951173622868],[89.8400349812394,26.699695658701103],[89.837748057802,26.7000020113374],[89.8330160964344,26.700570411738102],[89.8295267001593,26.7018825288192],[89.8294362941207,26.701905692698602],[89.82125292741,26.7033887833949],[89.8143480238474,26.7051020313875],[89.806803046777,26.7062402714355],[89.8020734991134,26.7065789365878],[89.8019856514954,26.7065459360061]]]},"properties":{"id":null,"description":null,"altitudeMode":null,"tessellate":null,"extrude":null,"visibility":null,"drawOrder":null,"icon":null,"AREA":null,"PERIMETER":null,"division":"BuxaTR_EAST","beat":"Kumargram","range":"Kumargram","layer":"master","path":"C:/Users/user/OneDrive/Desktop/Buxaroad/master.geojson","fill-opacity":0,"stroke-opacity":1,"stroke":"#ff0000","SID":"028","DID":"003","RID":"005","BID":"001","State":"West_Bengal","Beat_Ar":10.2916}},
{"type":"Feature","geometry":{"type":"Polygon","coordinates":[[[89.7726787672092,26.697759413740602],[89.7718808976862,26.695825113473003],[89.7730918448659,26.6932275050655],[89.7745439619115,26.6906305282837],[89.77454727064631,26.688864968261402],[89.77454890160641,26.6880311130952],[89.77479409945491,26.6858654809428],[89.7774487935698,26.685003114163802],[89.7781755481251,26.683271326517],[89.7793833476379,26.682189951714],[89.7796274377381,26.6806743063986],[89.7793903025621,26.678507683825103],[89.77843001664121,26.676123714124802],[89.7793978909837,26.6743922746201],[89.7818122670543,26.6728794946628],[89.7866391647763,26.670720385144],[89.7878472973712,26.669422657073202],[89.7892956639568,26.6685581154934],[89.79097911037161,26.6668367323313],[89.7912246783722,26.6671376060243],[89.79377318861461,26.6692047179515],[89.7960671331967,26.6703546104724],[89.79478764995041,26.6723018763713],[89.796315947538,26.6747115092104],[89.79976207586691,26.6749452018638],[89.80754715171881,26.6747264291239],[89.8082380923442,26.6746809454308],[89.8086299937954,26.6778110358864],[89.8086552459758,26.679305227826703],[89.80847767424041,26.6818924430411],[89.808312633517,26.682962142811903],[89.80839104922231,26.684263623610903],[89.8082470364846,26.6862737519526],[89.8071322973517,26.6874260801962],[89.80610558722191,26.6884861959048],[89.80480624843061,26.6903009878786],[89.8036047387344,26.6921376445941],[89.80477180080311,26.6959636609283],[89.8044948917712,26.6978567659863],[89.8046896992336,26.7001727493431],[89.8027387852134,26.7023767981055],[89.8019856514954,26.7065459360061],[89.7968352654137,26.7046201001302],[89.7908322852423,26.7018569411218],[89.785464766584,26.700701553746402],[89.7802254236924,26.6996610880926],[89.7758816414343,26.6994249695651],[89.77281695988201,26.6976981824934],[89.7726787672092,26.697759413740602]]]},"properties":{"id":null,"description":null,"altitudeMode":null,"tessellate":null,"extrude":null,"visibility":null,"drawOrder":null,"icon":null,"AREA":null,"PERIMETER":null,"division":"BuxaTR_EAST","beat":"Newlands","range":"Kumargram","layer":"master","path":"C:/Users/user/OneDrive/Desktop/Buxaroad/master.geojson","fill-opacity":0,"stroke-opacity":1,"stroke":"#ff0000","SID":"028","DID":"003","RID":"005","BID":"002","State":"West_Bengal","Beat_Ar":9.58849}},
{"type":"Feature","geometry":{"type":"Polygon","coordinates":[[[89.8400349812394,26.699695658701103],[89.8391942489897,26.6951173622868],[89.8391944623576,26.6950040033798],[89.83920660477871,26.691501365816602],[89.83871157677551,26.689658007059503],[89.8388417606354,26.6862482963032],[89.83883771221251,26.685500253881003],[89.8388223782536,26.682044777653303],[89.838625456621,26.679003633337203],[89.8386173919916,26.6756667736439],[89.838326842436,26.6731572487636],[89.8417556536054,26.6731608960737],[89.8445646835922,26.672705296300002],[89.8460978335597,26.6720192718269],[89.84684794939331,26.670897074162102],[89.847630577786,26.669727921839],[89.84942455323011,26.665373559488803],[89.85172525853321,26.6614781014438],[89.8532614313924,26.6581548866065],[89.8551793290911,26.6548320150725],[89.85607452281751,26.6539159751673],[89.8588799673093,26.6539183765279],[89.86156071060171,26.6532334851233],[89.86475281105851,26.6532363282693],[89.8668823560938,26.6535720278219],[89.86756042305821,26.6535450418372],[89.8678317817064,26.6535019863886],[89.86972834133451,26.6532028787541],[89.87113049389511,26.6548088418949],[89.8713334654133,26.6553540449131],[89.8707868053359,26.6567720066751],[89.87083695545721,26.659230198406302],[89.87231629254501,26.661717435913403],[89.8729167446882,26.6638669115441],[89.8731878425271,26.6665057432875],[89.87268065468061,26.6686946815451],[89.8712687201394,26.671294297060502],[89.8712665556567,26.6732887571278],[89.8708956200897,26.674827338952703],[89.8708805642693,26.6748954946606],[89.8695983758688,26.6781083754989],[89.8685748377095,26.6792554436649],[89.86691196256051,26.6813200376722],[89.8654224302256,26.6834542337789],[89.8649920775026,26.684073208565202],[89.8635841852262,26.685104903794702],[89.862687326463,26.687285408025403],[89.862299465103,26.6903838164184],[89.8617873354405,26.6922200317305],[89.857952001516,26.693364242699502],[89.85722324188241,26.693581347204603],[89.8548831809703,26.694279771791603],[89.8502780241878,26.696227079633],[89.84784850989091,26.6981757310552],[89.84286210612541,26.699318505643703],[89.8414472921259,26.6995072464018],[89.8400349812394,26.699695658701103]]]},"properties":{"id":null,"description":null,"altitudeMode":null,"tessellate":null,"extrude":null,"visibility":null,"drawOrder":null,"icon":null,"AREA":null,"PERIMETER":null,"division":"BuxaTR_EAST","beat":"Sankosh","range":"Kumargram","layer":"master","path":"C:/Users/user/OneDrive/Desktop/Buxaroad/master.geojson","fill-opacity":0,"stroke-opacity":1,"stroke":"#ff0000","SID":"028","DID":"003","RID":"005","BID":"003","State":"West_Bengal","Beat_Ar":10.9525}}
]}
