{"type":"FeatureCollection", "features": [
{"type":"Feature","geometry":{"type":"Polygon","coordinates":[[[89.8061856514954,26.7116459360061],[89.8069387852134,26.7074767981055],[89.8088896992336,26.7052727493431],[89.8086948917712,26.7029567659863],[89.8089718008031,26.7010636609283],[89.8078047387344,26.6972376445941],[89.8090062484306,26.6954009878786],[89.8103055872219,26.6935861959048],[89.8113322973517,26.6925260801962],[89.8124470364846,26.6913737519526],[89.8125910492223,26.6893636236109],[89.812512633517,26.6880621428119],[89.8126776742404,26.6869924430411],[89.8128552459758,26.6844052278267],[89.8128299937954,26.6829110358864],[89.8124380923442,26.6797809454308],[89.8186409110556,26.6793764362603],[89.8257881470241,26.6790409999419],[89.8320432257104,26.6789338557631],[89.8379145074277,26.6784820339195],[89.8423811305618,26.6782571671866],[89.842526842436,26.6782572487636],[89.8428173919916,26.6807667736439],[89.842825456621,26.6841036333372],[89.8430223782536,26.6871447776533],[89.8430377122125,26.690600253881],[89.8430417606354,26.6913482963032],[89.8429115767755,26.6947580070595],[89.8434066047787,26.6966013658166],[89.8433944623576,26.7001040033798],[89.8433942489897,26.7002173622868],[89.8442349812394,26.7047956587011],[89.841948057802,26.7051020113374],[89.8372160964344,26.7056704117381],[89.8337267001593,26.7069825288192],[89.8336362941207,26.7070056926986],[89.82545292741,26.7084887833949],[89.8185480238474,26.7102020313875],[89.811003046777,26.7113402714355],[89.8062734991134,26.7116789365878],[89.8061856514954,26.7116459360061]]]},"properties":{"fill-opacity":0,"stroke-opacity":1,"stroke":"#ff0000","SID":"028","DID":"003","RID":"005","BID":"001","State":"West_Bengal","Division":"BuxaTR_EAST","Range":"Kumargram","Beat":"Kumargram","Beat_Ar":10.2916}},
{"type":"Feature","geometry":{"type":"Polygon","coordinates":[[[89.8061856514954,26.7116459360061],[89.8010352654137,26.7097201001302],[89.7950322852423,26.7069569411218],[89.789664766584,26.7058015537464],[89.7844254236924,26.7047610880926],[89.7800816414343,26.7045249695651],[89.777016959882,26.7027981824934],[89.7768787672092,26.7028594137406],[89.7760808976862,26.700925113473],[89.7772918448659,26.6983275050655],[89.7787439619115,26.6957305282837],[89.7787472706463,26.6939649682614],[89.7787489016064,26.6931311130952],[89.7789940994549,26.6909654809428],[89.7816487935698,26.6901031141638],[89.7823755481251,26.688371326517],[89.7835833476379,26.687289951714],[89.7838274377381,26.6857743063986],[89.7835903025621,26.6836076838251],[89.7826300166412,26.6812237141248],[89.7835978909837,26.6794922746201],[89.7860122670543,26.6779794946628],[89.7908391647763,26.675820385144],[89.7920472973712,26.6745226570732],[89.7934956639568,26.6736581154934],[89.7951791103716,26.6719367323313],[89.7954246783722,26.6722376060243],[89.7979731886146,26.6743047179515],[89.8002671331967,26.6754546104724],[89.7989876499504,26.6774018763713],[89.800515947538,26.6798115092104],[89.8039620758669,26.6800452018638],[89.8117471517188,26.6798264291239],[89.8124380923442,26.6797809454308],[89.8128299937954,26.6829110358864],[89.8128552459758,26.6844052278267],[89.8126776742404,26.6869924430411],[89.812512633517,26.6880621428119],[89.8125910492223,26.6893636236109],[89.8124470364846,26.6913737519526],[89.8113322973517,26.6925260801962],[89.8103055872219,26.6935861959048],[89.8090062484306,26.6954009878786],[89.8078047387344,26.6972376445941],[89.8089718008031,26.7010636609283],[89.8086948917712,26.7029567659863],[89.8088896992336,26.7052727493431],[89.8069387852134,26.7074767981055],[89.8061856514954,26.7116459360061]]]},"properties":{"fill-opacity":0,"stroke-opacity":1,"stroke":"#ff0000","SID":"028","DID":"003","RID":"005","BID":"002","State":"West_Bengal","Division":"BuxaTR_EAST","Range":"Kumargram","Beat":"Newlands","Beat_Ar":9.58849}},
{"type":"Feature","geometry":{"type":"Polygon","coordinates":[[[89.8442349812394,26.7047956587011],[89.8433942489897,26.7002173622868],[89.8433944623576,26.7001040033798],[89.8434066047787,26.6966013658166],[89.8429115767755,26.6947580070595],[89.8430417606354,26.6913482963032],[89.8430377122125,26.690600253881],[89.8430223782536,26.6871447776533],[89.842825456621,26.6841036333372],[89.8428173919916,26.6807667736439],[89.842526842436,26.6782572487636],[89.8459556536054,26.6782608960737],[89.8487646835922,26.6778052963],[89.8502978335597,26.6771192718269],[89.8510479493933,26.6759970741621],[89.851830577786,26.674827921839],[89.8536245532301,26.6704735594888],[89.8559252585332,26.6665781014438],[89.8574614313924,26.6632548866065],[89.8593793290911,26.6599320150725],[89.8602745228175,26.6590159751673],[89.8630799673093,26.6590183765279],[89.8657607106017,26.6583334851233],[89.8689528110585,26.6583363282693],[89.8710823560938,26.6586720278219],[89.8717604230582,26.6586450418372],[89.8720317817064,26.6586019863886],[89.8739283413345,26.6583028787541],[89.8753304938951,26.6599088418949],[89.8755334654133,26.6604540449131],[89.8749868053359,26.6618720066751],[89.8750369554572,26.6643301984063],[89.876516292545,26.6668174359134],[89.8771167446882,26.6689669115441],[89.8773878425271,26.6716057432875],[89.8768806546806,26.6737946815451],[89.8754687201394,26.6763942970605],[89.8754665556567,26.6783887571278],[89.8750956200897,26.6799273389527],[89.8750805642693,26.6799954946606],[89.8737983758688,26.6832083754989],[89.8727748377095,26.6843554436649],[89.8711119625605,26.6864200376722],[89.8696224302256,26.6885542337789],[89.8691920775026,26.6891732085652],[89.8677841852262,26.6902049037947],[89.866887326463,26.6923854080254],[89.866499465103,26.6954838164184],[89.8659873354405,26.6973200317305],[89.862152001516,26.6984642426995],[89.8614232418824,26.6986813472046],[89.8590831809703,26.6993797717916],[89.8544780241878,26.701327079633],[89.8520485098909,26.7032757310552],[89.8470621061254,26.7044185056437],[89.8456472921259,26.7046072464018],[89.8442349812394,26.7047956587011]]]},"properties":{"fill-opacity":0,"stroke-opacity":1,"stroke":"#ff0000","SID":"028","DID":"003","RID":"005","BID":"003","State":"West_Bengal","Division":"BuxaTR_EAST","Range":"Kumargram","Beat":"Sankosh","Beat_Ar":10.9525}},
{"type":"Feature","geometry":{"type":"Polygon","coordinates":[[[89.7276446516409,26.6710174975173],[89.7276755309663,26.6707125699788],[89.7275730260554,26.6683944322519],[89.7275745591342,26.6677055064964],[89.725938775566,26.6680172754543],[89.7253111992634,26.6699198969855],[89.7244374608858,26.6708145654165],[89.7219217195246,26.6714251790337],[89.7216930229295,26.6714812510989],[89.7206933467887,26.6714792791891],[89.7195749670009,26.6706931068989],[89.7184565373263,26.6688988007207],[89.7183328185198,26.6681143844231],[89.7189596536211,26.6675560593673],[89.7189611703808,26.6668834875516],[89.7193633338302,26.6657399270164],[89.7183445165442,26.663298645461],[89.7177217070611,26.6632974439414],[89.7165994185326,26.6630707660722],[89.7129849793644,26.6631759176595],[89.7094009628329,26.6631004169213],[89.7071254128021,26.6630516718318],[89.7025109906725,26.6632667179994],[89.6996445564014,26.663484658533],[89.6968998970458,26.6632549691597],[89.6922416265049,26.6629479515535],[89.6920831910747,26.6630096239406],[89.6919600377939,26.6630579036774],[89.691950587954,26.6627796867005],[89.6927928765286,26.6596282105255],[89.6936502366746,26.6583687406557],[89.6949209734181,26.6555857838053],[89.6954422809581,26.653113223916],[89.6954096939963,26.6512194481985],[89.6953660784693,26.64867580339],[89.6961059566238,26.64714305998],[89.6963551209962,26.6469663734194],[89.6963251660999,26.6449964265774],[89.7005702632479,26.6426530167873],[89.7117887208809,26.6423405471114],[89.7116614016835,26.6440202317245],[89.7117844665797,26.6440204399625],[89.7128992380879,26.6471591279594],[89.7130230896365,26.6478310359111],[89.7136005645589,26.647881875278],[89.7140044256374,26.6481003391409],[89.7147684436809,26.6488471386824],[89.7159160279207,26.6489068723692],[89.717000422962,26.6491388133266],[89.7178286987973,26.6493118067597],[89.719167123444,26.6504038392186],[89.720249452984,26.6514374872038],[89.7201809541755,26.6528133175536],[89.7205646157971,26.6530435680901],[89.721712006914,26.6531605003304],[89.722138542199,26.653318600119],[89.7232519440985,26.6540557531045],[89.7232188021808,26.6542631384332],[89.7229001376523,26.6562042996519],[89.7229236863248,26.6579049959794],[89.7229006689305,26.6580550137008],[89.7229205517126,26.6581452920963],[89.723166525104,26.659270277811],[89.7285452416462,26.6597801341387],[89.7324381936451,26.6597873725481],[89.7370745115688,26.6597961234632],[89.7386266988607,26.6597988301696],[89.7410679400714,26.659803305679],[89.7435365332413,26.6599853396433],[89.7430319559952,26.6632324612599],[89.7429116171091,26.6631239627703],[89.7405904920145,26.6633007786309],[89.7376127749451,26.6628234819343],[89.7374395002104,26.6627954303704],[89.7358895248236,26.6628998419753],[89.7359465375604,26.6632327407345],[89.7361720809455,26.6645643659609],[89.7377875988097,26.6665833893325],[89.7381594582739,26.6675920296657],[89.7377834087394,26.6683754957693],[89.7364110758124,26.668820923559],[89.7346646117582,26.6691533224732],[89.7331675607447,26.6691504676303],[89.7325345161318,26.6691494571904],[89.7324130668727,26.6706164512954],[89.732432844664,26.6707924546328],[89.7315611384727,26.6707909702567],[89.7300061590598,26.6709041245656],[89.7276446516409,26.6710174975173]]]},"properties":{"fill-opacity":0,"stroke-opacity":1,"stroke":"#ff0000","SID":"028","DID":"003","RID":"006","BID":"001","State":"West_Bengal","Division":"BuxaTR_EAST","Range":"NorthRydak","Beat":"Kartik","Beat_Ar":7.34194}},
{"type":"Feature","geometry":{"type":"Polygon","coordinates":[[[89.7980777386296,26.6417920778429],[89.7976419349184,26.644038826319],[89.7965499260161,26.6452011794056],[89.7955963555643,26.6462140129723],[89.7936788019753,26.6483898110527],[89.7916310649154,26.6517109678061],[89.7912094708662,26.652968874256],[89.7904791856428,26.654002264026],[89.7911132543767,26.6561816376993],[89.792128737184,26.6584754721509],[89.7923802335602,26.6611131014895],[89.7914812490252,26.6637483374481],[89.7918633450113,26.6650101971325],[89.7937746250071,26.6665031379904],[89.7936931089859,26.6671121307825],[89.7935148648938,26.6684515625366],[89.794023720647,26.6705157544523],[89.7951791103716,26.6719367323313],[89.7934956639568,26.6736581154934],[89.7920472973712,26.6745226570732],[89.7908391647763,26.675820385144],[89.7860122670543,26.6779794946628],[89.7835978909837,26.6794922746201],[89.7826300166412,26.6812237141248],[89.7835903025621,26.6836076838251],[89.7838274377381,26.6857743063986],[89.7835833476379,26.687289951714],[89.7823755481251,26.688371326517],[89.7816487935698,26.6901031141638],[89.7789940994549,26.6909654809428],[89.7787489016064,26.6931311130952],[89.7787472706463,26.6939649682614],[89.7787439619115,26.6957305282837],[89.7772918448659,26.6983275050655],[89.7760808976862,26.700925113473],[89.7768787672092,26.7028594137406],[89.7763490804932,26.7026193132336],[89.7741363666883,26.7021902017094],[89.7723951404783,26.7021874476334],[89.7712108237206,26.7026824725671],[89.7700230458573,26.703603613789],[89.7691510775325,26.7048797745757],[89.7678807911826,26.7068655846811],[89.7666123398055,26.7092063836657],[89.7656587649632,26.7111216794344],[89.7647071879834,26.7132495630654],[89.7633598015787,26.7147383072538],[89.7616176553258,26.7163684291252],[89.7596355608691,26.7185657678693],[89.7591586041791,26.7194875851782],[89.7591569628834,26.7203394899814],[89.7594715057554,26.7213338205709],[89.7601007708768,26.723322758439],[89.760807482955,26.7255244760725],[89.7607264878497,26.7270152209653],[89.7604852775467,26.7282214576352],[89.7591368511284,26.7301359810622],[89.7576323828485,26.7321212339093],[89.7554924317809,26.7339634858501],[89.7545443380101,26.7342462222046],[89.753436206236,26.7341023124076],[89.7517759316908,26.7336736477612],[89.7497222385574,26.7326762597515],[89.7490317577425,26.732343299231],[89.7474224863647,26.7315699266827],[89.747352221913,26.7315361088425],[89.7455368741991,26.7307522842312],[89.7435608593632,26.7298968138895],[89.7414279916214,26.7295384154043],[89.739055815487,26.7294632193127],[89.7362897610513,26.729032147124],[89.734629979105,26.7284611478587],[89.7330515810727,26.7273933952207],[89.7310757234354,26.7265380252498],[89.7290215893626,26.7258950744494],[89.7276784085365,26.7253243565024],[89.7267321762786,26.7248263354482],[89.7256250883728,26.7243271650856],[89.7243610547748,26.7243247892845],[89.7237150015684,26.7244290914144],[89.7234912347534,26.7244648064917],[89.7228567433223,26.7249606491407],[89.7228537204652,26.7262383854032],[89.7222975428698,26.727657074773],[89.7213444550284,26.7289333864224],[89.7201581204766,26.7300667354975],[89.7188118770407,26.730774235679],[89.7173074520696,26.7314100417404],[89.7159623137443,26.731691696155],[89.7135110446692,26.7320417109899],[89.7118489956423,26.7323934281667],[89.7103451336949,26.732745754214],[89.7088405965818,26.7334522542181],[89.7073382077423,26.7342300568736],[89.7071468289627,26.7343742054025],[89.7069850041988,26.7267471482654],[89.7068568811386,26.7257106793526],[89.7068141074914,26.7237321743122],[89.7067929696005,26.7221290216591],[89.7067546018408,26.720402845592],[89.7067523869266,26.7203177106169],[89.7073579133597,26.7203188753391],[89.7085324286636,26.719926284699],[89.7099226919323,26.7196661554194],[89.7123232043056,26.718409656875],[89.7146882971618,26.7182287820973],[89.7169619861374,26.7163147283154],[89.7193047942667,26.7139054710352],[89.7223003292793,26.7127309824838],[89.7254007068025,26.7117739814134],[89.7272139316584,26.7100788446275],[89.7291072234482,26.7084577190786],[89.7304715092691,26.7073965765704],[89.7321725190339,26.7063476628551],[89.7331416398888,26.704449583057],[89.7345703307237,26.7026809484108],[89.7348653515393,26.7022210779212],[89.736111526913,26.7011052142487],[89.7362723455384,26.7011055007057],[89.7362960526414,26.6995441119217],[89.7407258762026,26.6993863017121],[89.7408665450343,26.6993938801987],[89.7438635412828,26.699557825592],[89.7447682001137,26.6994917074472],[89.7460799289384,26.6993957557982],[89.7480373657943,26.6993067779009],[89.7534699175169,26.6989768810877],[89.7531721759095,26.6972062890093],[89.7532500515932,26.6960584771017],[89.7527994192657,26.6953255192222],[89.7512949717198,26.6939398024181],[89.7500761761622,26.6917006270398],[89.749706282986,26.6908025432829],[89.7492117475562,26.6894652460542],[89.7491904328518,26.6877228133349],[89.7491566577173,26.6870340472494],[89.7491300698708,26.6865482250002],[89.7491219552706,26.6845084115985],[89.7491655312563,26.682922245789],[89.7489635408884,26.6811005443269],[89.7484149684564,26.6780730950418],[89.7486024332448,26.6750007585343],[89.7498129386936,26.6705010628741],[89.7498330887115,26.6704224211034],[89.7505586822839,26.6682824711995],[89.7509762963795,26.6668042017756],[89.751588046705,26.6650040401773],[89.7516509866752,26.662540642466],[89.7509360582761,26.6598522268122],[89.7511988767447,26.6567535746491],[89.7533764454887,26.6543464104896],[89.7558779366091,26.6531582010746],[89.7564135693484,26.6528317975869],[89.7574682027284,26.6516992435566],[89.757469223553,26.6512542504544],[89.7588801163802,26.6490756043559],[89.7605555257236,26.6465338464546],[89.7632496290155,26.646748846005],[89.7680391181111,26.646524037075],[89.7719200508148,26.6460662069202],[89.7763205971908,26.6457244371831],[89.7774305899833,26.6456877047543],[89.7796858804086,26.6456134894758],[89.7829202448732,26.6457344906459],[89.7847312495124,26.6455053226934],[89.787190454664,26.6451605371332],[89.7901675508223,26.6444682582526],[89.7931446025122,26.6437753549441],[89.7956048494869,26.6428498019141],[89.7968990669733,26.6422711482719],[89.7980777386296,26.6417920778429]]]},"properties":{"fill-opacity":0,"stroke-opacity":1,"stroke":"#ff0000","SID":"028","DID":"003","RID":"006","BID":"002","State":"West_Bengal","Division":"BuxaTR_EAST","Range":"NorthRydak","Beat":"Mainabari","Beat_Ar":35.512}},
{"type":"Feature","geometry":{"type":"Polygon","coordinates":[[[89.7980777386296,26.6417920778429],[89.7968990669733,26.6422711482719],[89.7956048494869,26.6428498019141],[89.7931446025122,26.6437753549441],[89.7901675508223,26.6444682582526],[89.787190454664,26.6451605371332],[89.7847312495124,26.6455053226934],[89.7829202448732,26.6457344906459],[89.7796858804086,26.6456134894758],[89.7774305899833,26.6456877047543],[89.7763205971908,26.6457244371831],[89.7719200508148,26.6460662069202],[89.7680391181111,26.646524037075],[89.7632496290155,26.646748846005],[89.7605555257236,26.6465338464546],[89.7618275970284,26.6446033546872],[89.7647784919048,26.6384100230198],[89.7673439307482,26.633937060692],[89.7689065817529,26.6310599219459],[89.7691401009185,26.6298075165187],[89.7702376167,26.6284033507575],[89.7709324969207,26.6275143170343],[89.771449070542,26.6253345807484],[89.7714554469975,26.6221203807758],[89.7714600023038,26.6198243617182],[89.7701853405742,26.6182151397676],[89.769806297723,26.615689281176],[89.7699377652027,26.6139677846805],[89.7709620203308,26.612706934123],[89.7731343918022,26.6123657072468],[89.7736487901399,26.6112186379081],[89.7742029943147,26.6077751062943],[89.7767418271883,26.6086502691983],[89.7793916618839,26.609304043582],[89.7818021074404,26.609091395706],[89.7841071401842,26.6089220470946],[89.7846946083061,26.6088791403954],[89.7873452790655,26.6090996193625],[89.789754929179,26.6093199821871],[89.7919938508125,26.6096101339545],[89.7920839654453,26.6096831606158],[89.7932074210421,26.6090040610025],[89.7944085915012,26.6083885471007],[89.7952924280625,26.6082724856399],[89.7960909050055,26.6096506245573],[89.7969142715365,26.6124564302149],[89.7971789871453,26.6147194190153],[89.7960115609477,26.6174934302413],[89.7960597444396,26.6200394526873],[89.7971941422063,26.6216964484548],[89.7991383910095,26.6255046125098],[89.799500059312,26.6268092981517],[89.7998377570638,26.6289859080849],[89.8000468426387,26.6300875198151],[89.800342915927,26.631660920456],[89.8003383380971,26.6342975556378],[89.799440620091,26.6378506868655],[89.798285610844,26.6407150759524],[89.7980777386296,26.6417920778429]]]},"properties":{"fill-opacity":0,"stroke-opacity":1,"stroke":"#ff0000","SID":"028","DID":"003","RID":"006","BID":"003","State":"West_Bengal","Division":"BuxaTR_EAST","Range":"NorthRydak","Beat":"Teamari","Beat_Ar":11.4148}},
{"type":"Feature","geometry":{"type":"MultiPolygon","coordinates":[[[[89.691958157677,26.6590110063585],[89.6921519299445,26.6598535551519],[89.6919867070302,26.6605497985354],[89.6916637246667,26.6611303302521],[89.6910475629802,26.6614188238134],[89.6904649547099,26.6614175874377],[89.6900763527572,26.6611269664982],[89.68972352201,26.6606325994689],[89.6895618376594,26.660080402622],[89.6895965780209,26.6592963223573],[89.6897286288237,26.6587448580753],[89.6901168036908,26.6582521008247],[89.6903758965485,26.6581077350912],[89.6908306263978,26.6580507129117],[89.6914426669075,26.6583132897293],[89.691958157677,26.6590110063585]]],[[[89.6771958555167,26.6632179506558],[89.6773584966846,26.6634213218938],[89.6773878254049,26.6637407596142],[89.6773563262341,26.6642052987507],[89.6771588509421,26.6647854445029],[89.6766718127263,26.6655971474261],[89.6758603397157,26.6665539616489],[89.675243429272,26.6670747632472],[89.6746302671803,26.6672190521717],[89.674435442175,26.6668118919406],[89.6744041991976,26.6663182019199],[89.6745369694834,26.6655637030298],[89.6748300079944,26.6649257510995],[89.6755434738068,26.6639982996992],[89.6766786806038,26.6631293116287],[89.677002631498,26.6631880867385],[89.6771958555167,26.6632179506558]]],[[[89.6809202149047,26.6879810780426],[89.6812296228676,26.6878146986504],[89.6816810949556,26.6862679573565],[89.6820027020796,26.6853513233739],[89.6825788172502,26.6840918647022],[89.683604880443,26.682775176203],[89.6841171539045,26.6819166215363],[89.6849488435631,26.680944292711],[89.6861640955227,26.6802587014777],[89.6869955954693,26.6792860817691],[89.6877638892818,26.6785426259364],[89.6889777091868,26.6783158353408],[89.689813036966,26.6778493361573],[89.6899991219867,26.6777447549428],[89.690958023408,26.6780333699631],[89.6903798997107,26.6790639031126],[89.6892930615182,26.6796921647689],[89.688463710025,26.6798624951454],[89.6878223025309,26.6810649432677],[89.6874357710219,26.6818661792369],[89.6863472947948,26.6830677357319],[89.6860259871075,26.683927411737],[89.6864092327868,26.684329210372],[89.6873015861675,26.6841589872794],[89.6882616176856,26.683989081033],[89.6891532776449,26.684048680744],[89.6900474462624,26.6841079629366],[89.690558346478,26.6837648898759],[89.6912635794321,26.6830782839504],[89.691644527737,26.6833661694197],[89.6920243071595,26.6841692722968],[89.691383172227,26.6853147691529],[89.6915741805571,26.6862323580608],[89.6919545036135,26.6868061923092],[89.6904848197283,26.6877774257779],[89.689331878382,26.6886346118217],[89.6884433491197,26.6892892705111],[89.6874463153686,26.689168036891],[89.6855050307053,26.6888733159333],[89.683112237871,26.688403450726],[89.6809202149047,26.6879810780426]]],[[[89.6808547685498,26.6880154112813],[89.6817048870966,26.6885904730416],[89.682367160694,26.6889167821131],[89.6826679363858,26.6891881589735],[89.6826673549161,26.6894047383844],[89.6824861617128,26.6895126366539],[89.6821234913727,26.6898372861573],[89.6820624622,26.6901078797861],[89.6821823407667,26.6903791473251],[89.6826034205472,26.690704931998],[89.6828440536846,26.6909225967854],[89.6827828805234,26.6912473354679],[89.682480499432,26.691571552461],[89.6820567887538,26.6921665138272],[89.6816927976028,26.6929784662123],[89.6816304668969,26.6937372091102],[89.6816748757219,26.6940446213549],[89.6806373928359,26.6939728881905],[89.6793431141094,26.6941438854271],[89.6759139264824,26.6940781480306],[89.6713184456029,26.6941839984633],[89.6654914769581,26.6944612442257],[89.6612202587213,26.6945674713125],[89.6582436069381,26.6943905373577],[89.6571432612302,26.6943252893722],[89.6553312453385,26.6945534432441],[89.654877432465,26.6942617974629],[89.654300464756,26.6930990861327],[89.653982427839,26.69106620824],[89.6536670333244,26.6881619241322],[89.653336624887,26.6844132282839],[89.6523096902131,26.6850532070685],[89.6491922363311,26.6858737332763],[89.6461923966673,26.6867847588006],[89.6438063220747,26.6874226839529],[89.6412818116154,26.6881651019727],[89.6397453769223,26.6885965702723],[89.6362253037046,26.6895723431594],[89.6340800722621,26.6902702150723],[89.6326051730392,26.691110926286],[89.6315228429712,26.6902029374127],[89.6304346931566,26.6895242724593],[89.6305636943821,26.6884509073064],[89.6310238047764,26.6867682799179],[89.6327153456637,26.6841013986695],[89.6349216141418,26.6815515181666],[89.637130532902,26.6788862374631],[89.6381705783786,26.6772628824976],[89.6396009645581,26.6752920975462],[89.6410967760779,26.673321388506],[89.6418111619299,26.6721622817726],[89.6422681581871,26.6705949962731],[89.6425962939984,26.6692607231513],[89.6425571809695,26.6680889034701],[89.6425364247128,26.667517812423],[89.642864550647,26.666183538683],[89.6429338139188,26.6649058418735],[89.6434560936558,26.6633394887019],[89.6444939509371,26.662354846912],[89.6460485061289,26.6616039048422],[89.6484480931761,26.6604483330371],[89.6510378021311,26.6595254157465],[89.6539529604701,26.6581392834543],[89.6553796452255,26.6572710117435],[89.6566126634256,26.6556481021111],[89.6576003014577,26.653722361918],[89.6576534230742,26.6536182478988],[89.6590194347751,26.6511246453629],[89.660061099937,26.6496175905598],[89.6609699688345,26.6479933612146],[89.6619468888228,26.6463116481807],[89.6624682288195,26.6449195197015],[89.6625351222327,26.6435259441459],[89.6623454907352,26.6422481717976],[89.6622215123742,26.6408540106309],[89.6615780339037,26.6393429779253],[89.6608719336648,26.6378309819468],[89.6606105448255,26.6370689753342],[89.6625543399745,26.6369641672438],[89.6648202624279,26.6366795889203],[89.6668902775783,26.6363938908206],[89.6691556606411,26.6362245879314],[89.6703214720089,26.6359948682558],[89.6707432866756,26.6360432034785],[89.6706543600987,26.6363708039248],[89.6691602836759,26.6415957578724],[89.6684621802298,26.6442194982808],[89.6676305989023,26.6451917294718],[89.6668620629347,26.6461070982396],[89.6671159594746,26.646910632051],[89.6673046592153,26.6476562753418],[89.6683234735861,26.6478876696864],[89.6694734234813,26.6480047151431],[89.669920334666,26.6480056623589],[89.670491092253,26.6486951998736],[89.670936953407,26.649097439207],[89.6711245801864,26.6501871262546],[89.6716322975636,26.6509335180989],[89.6722724097485,26.6510494931428],[89.6726534579422,26.6512799074273],[89.6727208221947,26.6514641040605],[89.6732242448565,26.6528286788844],[89.6743067532215,26.6527741778274],[89.6746272113912,26.6531759096136],[89.6748164393773,26.6537495156054],[89.6743671124596,26.6545511777823],[89.6735350428431,26.6556954673043],[89.6730186226751,26.6571278990814],[89.6729521667725,26.6584458924922],[89.6732683089359,26.6594215421607],[89.6739667202874,26.6602251756432],[89.6741429094844,26.6609799777453],[89.6742198700644,26.6613152104397],[89.673642195366,26.6622311838825],[89.6738344149451,26.6626327366019],[89.6737661347601,26.6636642416696],[89.6735104479539,26.6644089099935],[89.6731885597989,26.6653827762626],[89.6732055047129,26.665618326047],[89.6733096808501,26.6669881673996],[89.672734226357,26.6679616389735],[89.6715172318024,26.6692771168566],[89.6699827537341,26.6700763197166],[89.669150067076,26.6713928944096],[89.6681909290871,26.6721356771846],[89.6673607511815,26.6725924028185],[89.6669089170429,26.6742538834002],[89.6662659822722,26.6759147876217],[89.6651158603948,26.6766572565791],[89.6650483405252,26.677422826183],[89.6649832599667,26.6782050049237],[89.6652368895059,26.6782626569151],[89.6654290052566,26.6787217489444],[89.6656161661134,26.679983463085],[89.6652968830445,26.6800971911507],[89.6642087718626,26.6810687537934],[89.6635018348017,26.6823285515482],[89.6637560090994,26.6830167454999],[89.6652884137661,26.6830204739739],[89.6665644456412,26.6830807782377],[89.6665631234675,26.683539603002],[89.6669437876359,26.6839414869446],[89.6677081233521,26.6845740439322],[89.6677062239316,26.6852621387294],[89.6674499289213,26.6861212950628],[89.6678295531587,26.6869247518107],[89.6688482532369,26.6873284302984],[89.6689131040025,26.6875005310807],[89.6697401772058,26.6881901465656],[89.6707632371855,26.6880204603547],[89.6720383355548,26.6883672327256],[89.6722925681804,26.6881958829537],[89.6731247809228,26.6879686471497],[89.6735066809375,26.6879694986494],[89.67465474013,26.687972301124],[89.6758677559042,26.6880893810845],[89.6768896764672,26.6874036118599],[89.6779119065351,26.6875209564546],[89.6779721320541,26.6875267297464],[89.679124920832,26.6876380086813],[89.6805906982015,26.6881575649532],[89.6808547685498,26.6880154112813]]]]},"properties":{"fill-opacity":0,"stroke-opacity":1,"stroke":"#ff0000","SID":"028","DID":"003","RID":"003","BID":"002","State":"West_Bengal","Division":"BuxaTR_EAST","Range":"Hatipota","Beat":"Chuniajhora","Beat_Ar":14.3574}},
{"type":"Feature","geometry":{"type":"MultiPolygon","coordinates":[[[[89.732432844664,26.6707924546328],[89.7329588574549,26.6757823577959],[89.7336940272584,26.6782825346436],[89.7359109890136,26.677729226814],[89.7361430038619,26.6773327277809],[89.7383884154269,26.6763286945503],[89.740885346341,26.6752129744355],[89.7404997792407,26.6768882189084],[89.7402558304175,26.6769842687038],[89.7405597844328,26.6769622102405],[89.743156574289,26.6773000146358],[89.7435225102178,26.6788002187178],[89.7435176740085,26.6809656824849],[89.7433302933765,26.6816315089234],[89.7381363773347,26.6822891228022],[89.736410426824,26.6823412815133],[89.7273990797963,26.6835885865614],[89.726901826181,26.6824675206379],[89.726779260921,26.6822431374017],[89.7270077935255,26.6822685541683],[89.7264544144866,26.6804347299772],[89.7244178522981,26.6790977634003],[89.7234925521825,26.6784299716968],[89.7251636956868,26.6780997481452],[89.7272035171817,26.6781036890887],[89.7277644180374,26.6777638260306],[89.7274488931766,26.6752520183761],[89.727454248133,26.6729339784854],[89.7276446516409,26.6710174975173],[89.7300061590598,26.6709041245656],[89.7315611384727,26.6707909702567],[89.732432844664,26.6707924546328]]],[[[89.6884433491197,26.6892892705111],[89.6886894579198,26.690238636747],[89.6887527584073,26.6909840413469],[89.6893243923153,26.6914439337017],[89.6895176007337,26.6915011326393],[89.6897709621824,26.691654620678],[89.6900895893067,26.6918465276034],[89.6906628001063,26.6925929019448],[89.6918086168692,26.6935126370768],[89.6925135608205,26.6929410811255],[89.6933428112198,26.6928852151782],[89.69346905795,26.6935737476612],[89.6937872834422,26.6939179275682],[89.6928915702069,26.6943747399551],[89.6916764574798,26.695002580855],[89.6917396910204,26.6958055105518],[89.6918004052639,26.6966079061801],[89.692437252957,26.6970678520295],[89.693202162502,26.6975854842366],[89.6929437798439,26.6983877415391],[89.692750279877,26.699361522188],[89.6937082620297,26.6990771100773],[89.6946033280349,26.6988498425373],[89.6949225356607,26.6987930117638],[89.6957518270806,26.6987371298396],[89.6959430202511,26.6986468606973],[89.6959733117781,26.6986033532555],[89.6969320428933,26.6980318411419],[89.6979534629439,26.6984355526701],[89.6985273532668,26.6990104313347],[89.6996132795308,26.6997590816682],[89.7006999695002,26.6993021917476],[89.7014059711708,26.6983276110158],[89.7026804490674,26.6990189858716],[89.7033197901453,26.6995369414235],[89.7043411662643,26.6999984147855],[89.7058733788665,26.7001734334588],[89.7067037977572,26.7006343669527],[89.707467485129,26.7017263530996],[89.7082935207428,26.7029329181642],[89.7087363939623,26.7046553495045],[89.7106543667578,26.7043146930425],[89.713212143662,26.7043196163233],[89.7155765901677,26.704324295502],[89.7176848875747,26.7042138847861],[89.7201774055672,26.7041611011666],[89.7219664030936,26.7041644780862],[89.7231168313759,26.7042819067446],[89.7230557633042,26.7025024373469],[89.7230636927761,26.6991742774158],[89.7232651716625,26.6957884934865],[89.7232038107939,26.6941243603254],[89.7230991840084,26.6926838079802],[89.7230393486689,26.692495882565],[89.7266506923445,26.6941940975061],[89.7303913463556,26.694312616481],[89.7348790513901,26.6951051617017],[89.7358744836919,26.6960032441834],[89.7367716085856,26.6970139094537],[89.7366680487731,26.6983839592807],[89.7362960526413,26.6995441119217],[89.7362723455384,26.7011055007058],[89.736111526913,26.7011052142487],[89.7348653515393,26.7022210779212],[89.7345703307237,26.7026809484108],[89.7331416398888,26.7044495830569],[89.7321725190339,26.7063476628551],[89.7304715092691,26.7073965765704],[89.7291072234482,26.7084577190786],[89.7272139316584,26.7100788446275],[89.7254007068026,26.7117739814134],[89.7223003292793,26.7127309824838],[89.7193047942666,26.7139054710352],[89.7169619861374,26.7163147283154],[89.7146882971618,26.7182287820973],[89.7123232043056,26.718409656875],[89.7099226919323,26.7196661554194],[89.7085324286636,26.719926284699],[89.7073579133597,26.7203188753391],[89.7067523869266,26.7203177106169],[89.7067546018408,26.720402845592],[89.7067929696005,26.7221290216591],[89.7068141074914,26.7237321743122],[89.7068568811386,26.7257106793526],[89.7069850041988,26.7267471482654],[89.7071468289627,26.7343742054026],[89.7053565845891,26.7357169026807],[89.7032184841131,26.7374168161613],[89.7012371890643,26.738690417774],[89.6997329694383,26.7391844815539],[89.6978356927217,26.7391093881347],[89.696175395884,26.7386800685845],[89.6943606857326,26.7377534495073],[89.6921486568516,26.7368969759791],[89.6900943480202,26.7363245257661],[89.688433654346,26.7361077406826],[89.6874053551082,26.7362477384996],[89.685585816192,26.7371667081198],[89.6837639944307,26.737943557692],[89.6819414686435,26.7390046427159],[89.6799636936759,26.7398521038248],[89.6776672982145,26.7404861778646],[89.6750577906715,26.7406930323424],[89.6728438534857,26.7405466217451],[89.6711056387849,26.7401872974158],[89.669763016728,26.7394744600681],[89.6692122630442,26.7386924952303],[89.6688216817222,26.7372718960761],[89.6687468330195,26.7353549302446],[89.6681997277033,26.7332946333477],[89.6674933614864,26.7315892661109],[89.6663126415752,26.7296698006702],[89.663947421132,26.727179382774],[89.6626075844222,26.7255437464646],[89.6603997480183,26.7234084224506],[89.6602141776091,26.7232851088983],[89.6582704851174,26.7219836179364],[89.6566592621481,26.721238538686],[89.6573920199671,26.7198763854818],[89.6574614747724,26.7184825100246],[89.657010621494,26.7171463252299],[89.6561730064252,26.7157503640756],[89.6561786738289,26.7138341294222],[89.6562532070678,26.7106988626801],[89.656327279714,26.7077375923569],[89.6566566572683,26.7059963587725],[89.6575657187333,26.7044302347763],[89.6580911713577,26.7026314337095],[89.6582249688501,26.7007153901134],[89.6582349399803,26.6972895712852],[89.6583708902756,26.695489684266],[89.6582436069381,26.6943905373577],[89.6612202587213,26.6945674713125],[89.6654914769581,26.6944612442257],[89.6713184456029,26.6941839984633],[89.6759139264824,26.6940781480306],[89.6793431141094,26.6941438854271],[89.6806373928359,26.6939728881905],[89.6816748757219,26.6940446213549],[89.6816304668969,26.6937372091102],[89.6816927976028,26.6929784662123],[89.6820567887538,26.6921665138272],[89.682480499432,26.691571552461],[89.6827828805234,26.6912473354679],[89.6828440536846,26.6909225967854],[89.6826034205472,26.690704931998],[89.6821823407667,26.6903791473251],[89.6820624622,26.6901078797861],[89.6821234913727,26.6898372861573],[89.6824861617128,26.6895126366539],[89.6826673549161,26.6894047383844],[89.6826679363858,26.6891881589735],[89.682367160694,26.6889167821131],[89.6817048870966,26.6885904730416],[89.6808547685498,26.6880154112813],[89.6809202149047,26.6879810780426],[89.683112237871,26.688403450726],[89.6855050307053,26.6888733159333],[89.6874463153686,26.689168036891],[89.6884433491197,26.6892892705111]]]]},"properties":{"fill-opacity":0,"stroke-opacity":1,"stroke":"#ff0000","SID":"028","DID":"003","RID":"003","BID":"001","State":"West_Bengal","Division":"BuxaTR_EAST","Range":"Hatipota","Beat":"Hatipota","Beat_Ar":27.0031}},
{"type":"Feature","geometry":{"type":"Polygon","coordinates":[[[89.7559797554276,26.5679661071898],[89.7546879817814,26.5676473195536],[89.7542994264053,26.5674721995955],[89.7508118739454,26.5659565825785],[89.7489378087529,26.5656747972373],[89.7469058167832,26.5653737765391],[89.7447652691225,26.5653298266748],[89.7423462871517,26.5652334198006],[89.7389915456955,26.5650164389326],[89.737251431355,26.5643366578496],[89.7353840730198,26.5634350665171],[89.7325684438646,26.5623597287865],[89.7292457630161,26.5613158762973],[89.7285413633326,26.5610466693734],[89.7269711094116,26.5607442611947],[89.7239985960948,26.5602741249069],[89.7210257985216,26.5599195478069],[89.7186984715686,26.5593346173276],[89.7174722973348,26.5589833906486],[89.7169562146163,26.5586337385498],[89.7161159348341,26.5585158485044],[89.7149239880686,26.5584602836385],[89.7150486850545,26.5577977790443],[89.7164525826889,26.5573420636498],[89.7172231334734,26.5552801093958],[89.7195197001585,26.5540234347002],[89.718758698258,26.5523022932888],[89.7171040421348,26.5517258426798],[89.7149386231274,26.5506896677929],[89.7146894865693,26.5489693820834],[89.7159676145649,26.5475961598405],[89.7186435502831,26.5481746799505],[89.7201736097891,26.5473753460961],[89.7204346259846,26.545311919516],[89.7191639513854,26.5437043768129],[89.7172534698935,26.5431276282763],[89.7158527181765,26.5424364230871],[89.7158527622998,26.5423867909438],[89.7158578668298,26.5403729829201],[89.7170108942556,26.5378532483707],[89.7176512130232,26.5365931722352],[89.7184548302788,26.5362932991665],[89.7195340140143,26.534158800645],[89.7205599475405,26.5322096468103],[89.721120309283,26.5318258437666],[89.7252832105641,26.5315306919045],[89.7282178909686,26.5317655397775],[89.7302595081648,26.5319990555603],[89.7310384365583,26.5315006060453],[89.7311539991557,26.5314270099777],[89.7312083481033,26.5307551968035],[89.7335422962739,26.5314602760266],[89.735707999047,26.5323309247597],[89.7361661523629,26.5327429759203],[89.7378709501003,26.5342844380047],[89.7405178537184,26.5353724768083],[89.7409515834715,26.5354844844149],[89.7422027349901,26.5358089855878],[89.7433581974074,26.5374357745059],[89.744693707704,26.5382025164255],[89.747265916879,26.5390911225779],[89.7490508811681,26.5397098976423],[89.7506495894576,26.540629854476],[89.7523534218636,26.541705851337],[89.7540404940436,26.5423283041273],[89.7562592960878,26.5431601848244],[89.7599570540643,26.5446181085318],[89.7607679759039,26.545567704861],[89.7607033305777,26.5464779338503],[89.7606440370803,26.5483733820008],[89.7602335026715,26.5502740199952],[89.759800574465,26.5508960932561],[89.7597676000419,26.5522162305223],[89.7597541134576,26.5527084758742],[89.7592425261554,26.5537054436145],[89.7588903675016,26.5541026132461],[89.7588334062727,26.5560702215771],[89.7586737497775,26.5568301930308],[89.7582632497531,26.557484978396],[89.7579938816216,26.5579121424961],[89.7574831811969,26.5596673740824],[89.7569134883204,26.5620282082857],[89.7566658021781,26.5628693507734],[89.7554081734452,26.5665400709374],[89.7557744351001,26.5677410727308],[89.7559797554276,26.5679661071898]]]},"properties":{"fill-opacity":0,"stroke-opacity":1,"stroke":"#ff0000","SID":"028","DID":"003","RID":"007","BID":"001","State":"West_Bengal","Division":"BuxaTR_EAST","Range":"SouthRydak","Beat":"Chipra","Beat_Ar":12.165}},
{"type":"Feature","geometry":{"type":"Polygon","coordinates":[[[89.76004127759,26.5345371953775],[89.7602414446271,26.5348082552682],[89.7604931893582,26.5367599252753],[89.7612550144281,26.5383683023689],[89.7624005459473,26.5400336815106],[89.7644417665281,26.5405540560405],[89.7654217193055,26.5410514696757],[89.7662438194969,26.541471312601],[89.7668852933962,26.5430884794459],[89.7671426949024,26.5460019388134],[89.7681498909359,26.5478804761072],[89.7688206226829,26.5499986502178],[89.7679404196207,26.5521710605049],[89.7696807453665,26.5563409684087],[89.7709035466123,26.5572078291546],[89.7715146704506,26.5590534755691],[89.772467457909,26.5619277993644],[89.7748909869283,26.5710386287324],[89.7753317905535,26.5727044910258],[89.7831159851305,26.5731883126481],[89.7912223988024,26.5731242551633],[89.7908340119124,26.5742232657353],[89.7906428457808,26.5757374196972],[89.7902277133525,26.5776378984523],[89.7897166620237,26.5798370822526],[89.7894008558556,26.5809749365872],[89.7894334898681,26.5823046713829],[89.7889170484929,26.5846835476107],[89.7887282427534,26.5862910074948],[89.789115178148,26.5888322231711],[89.7890816424499,26.5892779064844],[89.7888682578836,26.5919766920789],[89.7894278821584,26.594804206304],[89.7908815721506,26.597329443473],[89.7904726219064,26.5986235663936],[89.7909624874199,26.6011282249559],[89.7895675058653,26.6034191886913],[89.7901519879843,26.6050479279542],[89.7902989001348,26.6070321243179],[89.7906577316493,26.6085280654907],[89.7919938508125,26.6096101339545],[89.789754929179,26.6093199821871],[89.7873452790655,26.6090996193625],[89.7846946083061,26.6088791403954],[89.7841071401842,26.6089220470946],[89.7818021074404,26.609091395706],[89.7793916618839,26.609304043582],[89.7767418271883,26.6086502691983],[89.7742029943147,26.6077751062943],[89.7742207701788,26.6076561665197],[89.7742944097637,26.607202370968],[89.7745549046023,26.6050213083247],[89.7718732551107,26.6052662571671],[89.7710001431052,26.6050298334703],[89.7678736983194,26.6054928700257],[89.7648332873774,26.6056440163584],[89.764368807945,26.6056432973698],[89.764602431248,26.6055907665377],[89.7646858571534,26.6052913841094],[89.7647725142005,26.6046919229375],[89.7648562911065,26.60424195278],[89.7649400718009,26.6037922645164],[89.7650239580837,26.6032678472291],[89.765110612494,26.602668385854],[89.7649437933922,26.6019933964388],[89.7647832138758,26.60193842801],[89.7648494976007,26.6002078705641],[89.764486503592,26.5997645746428],[89.7651543912833,26.5972499436335],[89.7658054315521,26.5956105383419],[89.7662519729901,26.5944885874311],[89.7667083675316,26.5910705387282],[89.7661253279384,26.5877638172856],[89.765383382712,26.5860585210231],[89.7639363811327,26.5842181511394],[89.76354457216,26.581894038421],[89.7628055147007,26.5801057831112],[89.7616827618178,26.5768953942759],[89.7611222343456,26.5749498196737],[89.7601038900183,26.5722710863144],[89.760056919819,26.5695930180431],[89.7598084973301,26.5695554843669],[89.7580979550497,26.569088786212],[89.7570388018058,26.5691297888403],[89.7559797554276,26.5679661071898],[89.7557744351001,26.5677410727308],[89.7554081734452,26.5665400709374],[89.7566658021781,26.5628693507734],[89.7569134883204,26.5620282082857],[89.7574831811969,26.5596673740824],[89.7579938816216,26.5579121424961],[89.7582632497531,26.557484978396],[89.7586737497775,26.5568301930308],[89.7588334062727,26.5560702215771],[89.7588903675016,26.5541026132461],[89.7592425261554,26.5537054436145],[89.7597541134576,26.5527084758742],[89.7597676000419,26.5522162305223],[89.759800574465,26.5508960932561],[89.7602335026715,26.5502740199952],[89.7606440370803,26.5483733820008],[89.7607033305777,26.5464779338503],[89.7607679759039,26.545567704861],[89.7599570540643,26.5446181085318],[89.758477405922,26.540742340092],[89.7587349936326,26.5399777744374],[89.7588646830362,26.5380070080092],[89.7592817549257,26.5365552256132],[89.7596037587449,26.5350298885534],[89.76004127759,26.5345371953775]]]},"properties":{"fill-opacity":0,"stroke-opacity":1,"stroke":"#ff0000","SID":"028","DID":"003","RID":"007","BID":"003","State":"West_Bengal","Division":"BuxaTR_EAST","Range":"SouthRydak","Beat":"Marakata","Beat_Ar":13.5805}},
{"type":"Feature","geometry":{"type":"Polygon","coordinates":[[[89.7312083481033,26.5307551968035],[89.7312858733185,26.5298205627356],[89.7314164899309,26.528672939417],[89.7307807583037,26.5270645427467],[89.7293788626266,26.5268322880502],[89.7286092231102,26.527634608112],[89.7277169617374,26.5272881452953],[89.7260612262859,26.5262521425207],[89.7246599893082,26.5257902866973],[89.7233867851149,26.5242956016577],[89.7230069530643,26.5226882977791],[89.7225024920051,26.5207359239209],[89.7232726958178,26.518671688568],[89.7242960303594,26.5177555012964],[89.7244259057314,26.5169522090267],[89.7238974600169,26.5166134396514],[89.7235952407922,26.5160841204434],[89.7215985594709,26.5160572236133],[89.7200483086189,26.5150773944945],[89.7185079037276,26.51513433733],[89.7144033680614,26.5144556724645],[89.7131878596085,26.5140289669519],[89.7076513407403,26.5132266009388],[89.7064349663192,26.5121458895419],[89.7074559712909,26.5101889866044],[89.706837352852,26.5060425418199],[89.70811022962,26.5036404418995],[89.7159293012879,26.5032340447424],[89.7219848561846,26.5029173502322],[89.725129814937,26.5030578168235],[89.7278042632598,26.5027355206101],[89.729673213137,26.5025817188574],[89.7329796302534,26.5023557116911],[89.7368367496454,26.5025126379768],[89.7404858264748,26.5026581828833],[89.7444566513282,26.5025160073113],[89.746997537552,26.5024259439369],[89.7484339795806,26.503888525729],[89.7472920741911,26.5052882616108],[89.7466493527029,26.5077551488644],[89.7468997264745,26.5101648388496],[89.7491316674311,26.5103994303098],[89.7497642310268,26.5124087794708],[89.7481640844882,26.5145292923178],[89.7477663628988,26.5162901605375],[89.7471354040644,26.5190594856468],[89.7496832774858,26.5194675616227],[89.7498117679585,26.5203291716006],[89.7533806523696,26.5206789505608],[89.753888568471,26.5224016093988],[89.7547798671675,26.5232070069193],[89.7552855898145,26.5248143501692],[89.7557951270711,26.5258480664],[89.7571942180533,26.5273425845301],[89.7591032227731,26.5297562950745],[89.7597392343746,26.5314790359538],[89.759478398656,26.5337740258349],[89.76004127759,26.5345371953775],[89.7596037587449,26.5350298885534],[89.7592817549257,26.5365552256132],[89.7588646830362,26.5380070080092],[89.7587349936326,26.5399777744374],[89.758477405922,26.540742340092],[89.7599570540643,26.5446181085318],[89.7562592960878,26.5431601848244],[89.7540404940436,26.5423283041273],[89.7523534218636,26.541705851337],[89.7506495894576,26.540629854476],[89.7490508811681,26.5397098976423],[89.747265916879,26.5390911225779],[89.744693707704,26.5382025164255],[89.7433581974074,26.5374357745059],[89.7422027349901,26.5358089855878],[89.7409515834715,26.5354844844149],[89.7405178537184,26.5353724768083],[89.7378709501003,26.5342844380047],[89.7361661523629,26.5327429759203],[89.735707999047,26.5323309247597],[89.7335422962739,26.5314602760266],[89.7312083481033,26.5307551968035]]]},"properties":{"fill-opacity":0,"stroke-opacity":1,"stroke":"#ff0000","SID":"028","DID":"003","RID":"007","BID":"004","State":"West_Bengal","Division":"BuxaTR_EAST","Range":"SouthRydak","Beat":"Narathali","Beat_Ar":11.9522}},
{"type":"Feature","geometry":{"type":"Polygon","coordinates":[[[89.7559797554276,26.5679661071898],[89.7570388018058,26.5691297888403],[89.7580979550497,26.569088786212],[89.7598084973301,26.5695554843669],[89.760056919819,26.5695930180431],[89.7601038900183,26.5722710863144],[89.7611222343456,26.5749498196737],[89.7616827618178,26.5768953942759],[89.7628055147007,26.5801057831112],[89.76354457216,26.581894038421],[89.7639363811327,26.5842181511394],[89.765383382712,26.5860585210231],[89.7661253279384,26.5877638172856],[89.7667083675316,26.5910705387282],[89.7662519729901,26.5944885874311],[89.7658054315521,26.5956105383419],[89.7651543912833,26.5972499436335],[89.764486503592,26.5997645746428],[89.7648494976007,26.6002078705641],[89.7647832138758,26.60193842801],[89.7649437933922,26.6019933964388],[89.765110612494,26.602668385854],[89.7650239580837,26.6032678472291],[89.7649400718009,26.6037922645164],[89.7648562911065,26.60424195278],[89.7647725142005,26.6046919229375],[89.7646858571534,26.6052913841094],[89.764602431248,26.6055907665377],[89.764368807945,26.6056432973698],[89.7636337086432,26.6054727925909],[89.7620197634156,26.6053348953909],[89.758557991665,26.6052579239144],[89.756812828532,26.6054551872244],[89.7548950906828,26.6053880778718],[89.7528065105278,26.6053540688069],[89.749507882983,26.6053557968336],[89.7479469465827,26.6050910361756],[89.7472127708817,26.6044433024762],[89.7454791075423,26.6028795218569],[89.7444399555842,26.6017070624571],[89.7444227615996,26.6015152361647],[89.74385099492,26.6012783280324],[89.7411691720212,26.5993995713766],[89.7393605446784,26.5966260285501],[89.7378978027662,26.5952615844364],[89.7369761731308,26.5943594696215],[89.7351954390623,26.5926198797566],[89.7338412407278,26.5909661484948],[89.7316987257667,26.5883984733726],[89.7310064522695,26.5871029590003],[89.7290893202975,26.5848136437356],[89.7285990393191,26.5840934670801],[89.7285214662984,26.5839844319267],[89.726004439605,26.5858868907328],[89.7257185682509,26.5868147412185],[89.7260993157611,26.5881913324916],[89.7262225930315,26.5901406786424],[89.7248138886499,26.5924309389324],[89.7258272533835,26.5948404146958],[89.7257979180279,26.5955505522908],[89.7250260925483,26.5971044070988],[89.7243974997435,26.5974986490197],[89.7241816754566,26.5985378808451],[89.7238229469723,26.5994962209418],[89.7236775947644,26.6003910619129],[89.7234625185937,26.601094145576],[89.7234602826579,26.602052955693],[89.7235295754789,26.6034595522619],[89.7237407501408,26.6044188758411],[89.7239513573055,26.6055699622223],[89.7240894343737,26.6065930562888],[89.7244435801856,26.6075528994433],[89.7238719692405,26.6082552334541],[89.7230169203408,26.6088924775377],[89.722022239308,26.6090824731007],[89.720953483138,26.6098475006267],[89.7193164661365,26.6099084877323],[89.7185329545521,26.609970698461],[89.7176089944056,26.6100326286348],[89.7174676004701,26.6093296314938],[89.7174694535093,26.60856229996],[89.7173315723344,26.6074751823619],[89.7173338647603,26.6065798194114],[89.7172636393203,26.6055570247276],[89.7170522347059,26.604725718508],[89.7168399718578,26.604277372036],[89.7164160325454,26.6031257468087],[89.7160643468215,26.6022304275131],[89.7156394094083,26.6014623253354],[89.7149292993224,26.6003739314426],[89.7149311727328,26.5996065982158],[89.7150078885897,26.5980724611571],[89.7148673781257,26.596985088152],[89.7155919201822,26.595365867004],[89.7155968468347,26.593416933469],[89.7161138490942,26.5904370456054],[89.7147309881619,26.589302058255],[89.714924618711,26.588190067722],[89.7149926385222,26.5861154467024],[89.7156976915305,26.5861890020263],[89.7167132189643,26.5855797589244],[89.7163443648542,26.5845394156712],[89.7141733172528,26.5845348666571],[89.7129152494822,26.5837770745757],[89.7126445370136,26.5836133933229],[89.7125203167273,26.5821211531503],[89.7130363620128,26.5805154526229],[89.712144562768,26.5798248662864],[89.7112542715394,26.5785606740758],[89.7122775467252,26.5778741032341],[89.7136831681006,26.5768439588466],[89.7149632634397,26.57581362302],[89.7159874769839,26.5746676431777],[89.7162442550817,26.5734057120549],[89.7167688122053,26.5723334345135],[89.7162926127937,26.5700679795315],[89.7161660834103,26.5694942326495],[89.7156606934129,26.5678881528058],[89.7143884852248,26.5668538973062],[89.7140139593428,26.5641013242485],[89.7149097466751,26.5621540551009],[89.7145322539061,26.5605484003747],[89.7149239880686,26.5584602836385],[89.7161159348341,26.5585158485044],[89.7169562146163,26.5586337385498],[89.7174722973348,26.5589833906486],[89.7186984715686,26.5593346173276],[89.7210257985216,26.5599195478069],[89.7239985960948,26.5602741249069],[89.7269711094116,26.5607442611947],[89.7285413633326,26.5610466693734],[89.7292457630161,26.5613158762973],[89.7325684438646,26.5623597287865],[89.7353840730198,26.5634350665171],[89.737251431355,26.5643366578496],[89.7389915456955,26.5650164389326],[89.7423462871517,26.5652334198006],[89.7447652691225,26.5653298266748],[89.7469058167832,26.5653737765391],[89.7489378087529,26.5656747972373],[89.7508118739454,26.5659565825785],[89.7542994264053,26.5674721995955],[89.7546879817814,26.5676473195536],[89.7559797554276,26.5679661071898]]]},"properties":{"fill-opacity":0,"stroke-opacity":1,"stroke":"#ff0000","SID":"028","DID":"003","RID":"007","BID":"005","State":"West_Bengal","Division":"BuxaTR_EAST","Range":"SouthRydak","Beat":"SouthRydak","Beat_Ar":18.951}},
{"type":"Feature","geometry":{"type":"Polygon","coordinates":[[[89.850559876577,26.5672591413813],[89.8511411652437,26.5678990160612],[89.8520458825586,26.5688287879739],[89.8528850154886,26.5700487232818],[89.8539184505892,26.5704565449871],[89.8554691071576,26.5707487686745],[89.8571502803718,26.5709823108383],[89.8582483547239,26.5717967225866],[89.8588922847999,26.5727264694149],[89.8592785883769,26.5747584691059],[89.8597275112723,26.5770236941149],[89.8597902127958,26.5791143434134],[89.8597881300336,26.5807400031464],[89.8597867535908,26.5818470865588],[89.8591389006852,26.5820749390049],[89.8555829644409,26.5835809209243],[89.853382985505,26.5846239013474],[89.8515699016616,26.585202461231],[89.8486601166208,26.585837838436],[89.8455591823406,26.5866473665568],[89.8375186982169,26.5768278631799],[89.8361222858181,26.5757250025279],[89.8375081439503,26.5754908249421],[89.8394314436716,26.5748642118601],[89.8415348830734,26.5729006064711],[89.8432874700695,26.5705442016449],[89.8459145910505,26.5672450381547],[89.8477347843665,26.5657614205064],[89.848354017095,26.5652566780784],[89.848803792389,26.5648893305298],[89.8498554733937,26.5629251748018],[89.8498567599701,26.5619813554258],[89.8470976922793,26.5609490355111],[89.8465659083646,26.5607509337155],[89.847013876667,26.5598811182288],[89.8479862047067,26.5589531723357],[89.849086494502,26.5581414275158],[89.8498633792587,26.5569808335965],[89.8507054897329,26.5559366934499],[89.8514164080657,26.5553569923703],[89.851934253235,26.554602713848],[89.8520005215396,26.5539061952434],[89.8516779793241,26.5530348288451],[89.8508384652054,26.552220659743],[89.8499987971627,26.5515229469671],[89.8494206470892,26.5504772454722],[89.8493564488675,26.5496642704215],[89.8494225677245,26.5490258429727],[89.8499402292342,26.5483877519697],[89.8507170304145,26.5474017047802],[89.8516209494058,26.5468795577904],[89.8525273711645,26.5464743965518],[89.8536265120191,26.5463013320707],[89.8545320857607,26.5464184053718],[89.8558244410327,26.5463618045435],[89.8561489829347,26.545723108114],[89.8561503106411,26.5447358625222],[89.856085909874,26.5439809831543],[89.8556348937173,26.5435162296769],[89.8549225680904,26.5433413758652],[89.8533072012119,26.5430491270443],[89.850788311777,26.5428720961484],[89.8487191256901,26.5423474155096],[89.847944626608,26.5417080572263],[89.8477549226799,26.5410670281201],[89.8476874001335,26.5408369581477],[89.8476888029335,26.539849708208],[89.8480139201045,26.5387468728588],[89.8484668191498,26.5378183372043],[89.8496966904446,26.5375291225977],[89.851181835434,26.5375306900431],[89.8526044012247,26.5375902992139],[89.8544123857267,26.5382889293137],[89.8557692263936,26.5386970498288],[89.8568679520568,26.5388725019606],[89.8573850263689,26.5386988231312],[89.8579681637528,26.5378864310507],[89.8580343959197,26.5371318216227],[89.8575807223657,26.5367246327305],[89.8566782388439,26.5362014771929],[89.8550634688289,26.5355023319562],[89.8537720877513,26.5349788648672],[89.8526088606691,26.5342227724458],[89.8518348942588,26.5333510703706],[89.8517712067423,26.5321895542134],[89.8520308520356,26.5312607014312],[89.852032064006,26.5303318252369],[89.8519053056761,26.5294607280682],[89.851259173663,26.528647139663],[89.8503551456602,26.5274266090969],[89.8499047465084,26.5265552013891],[89.8499057932217,26.5258003114691],[89.8503581047953,26.5252781202584],[89.8509405441731,26.5249304780675],[89.8519116866369,26.5247574055982],[89.8537862260817,26.524294534818],[89.8554929923471,26.5236578665146],[89.8563709583651,26.5236588350593],[89.8584383220905,26.5234285672209],[89.8600591902752,26.5232621894912],[89.8603147109542,26.5235879293081],[89.8622240478187,26.5253095955203],[89.8623494928948,26.5272587257676],[89.8637491630495,26.5294379236098],[89.8648942969792,26.5305858378092],[89.8643830283813,26.5321902546925],[89.8659093930706,26.5334524470004],[89.8675647969803,26.5358614497063],[89.8671813428561,26.5375809399972],[89.8638641104961,26.5398706837453],[89.8632182035088,26.540853110353],[89.8625847082711,26.541818170954],[89.8634765120344,26.5429654564075],[89.8648779660885,26.5437693719864],[89.8660219489499,26.5459484984405],[89.8674245496204,26.5459498464126],[89.8690818384897,26.5469835620197],[89.868568038655,26.5487025096778],[89.8678651036779,26.5511091570788],[89.8679905137485,26.5532302814526],[89.8688802685976,26.5562115706296],[89.8686213586623,26.5586763998272],[89.8695208982844,26.5597564240276],[89.867507879405,26.5602230290335],[89.8659267626228,26.5603571255256],[89.8632888899839,26.5607610854835],[89.8613286220766,26.5610974837135],[89.8596721964884,26.5611636925189],[89.8587688486309,26.5611628051278],[89.8577115879467,26.5617713146743],[89.8562049017673,26.5625827865808],[89.8540176974284,26.5636639467386],[89.8510795042063,26.5652189926162],[89.8506386906913,26.5655932014242],[89.8500907077964,26.5660583818432],[89.8495035595189,26.5665568034266],[89.8488719162984,26.567092988992],[89.8490091069248,26.5671414117421],[89.8494610731193,26.5669099500775],[89.8501735429914,26.5670851053628],[89.850559876577,26.5672591413813]]]},"properties":{"fill-opacity":0,"stroke-opacity":1,"stroke":"#ff0000","SID":"028","DID":"003","RID":"001","BID":"001","State":"West_Bengal","Division":"BuxaTR_EAST","Range":"Bholka","Beat":"Balapara","Beat_Ar":9.23929}},
{"type":"Feature","geometry":{"type":"Polygon","coordinates":[[[89.8227862687242,26.5231552279348],[89.8227387144617,26.5230633441816],[89.8226612028418,26.5229114981617],[89.8226620501261,26.5223407422798],[89.8228547154162,26.5210794795126],[89.8234321682131,26.5193034561882],[89.8239444724096,26.5173551238439],[89.8246521771187,26.5139743225792],[89.8251641244674,26.5123127734482],[89.8255484670536,26.5103068573201],[89.8260634376844,26.5082439964999],[89.8263192182626,26.5067540734258],[89.8267057834171,26.5049201390392],[89.8270890346482,26.50365924762],[89.8280804160767,26.5016274945056],[89.8287201299035,26.4983504728578],[89.8292455410772,26.4975645957137],[89.8351897108748,26.4975719406327],[89.8385106139119,26.4974186071513],[89.8419816403562,26.4975269154429],[89.8418701508445,26.4982319153826],[89.841992842191,26.5001811204041],[89.842253223494,26.5004154707317],[89.8437762731927,26.5017879488362],[89.8461946066769,26.5032810666275],[89.8481053082983,26.5036271160624],[89.8495046443845,26.5055777951137],[89.8501388688111,26.507641882447],[89.8514103078208,26.5097067116088],[89.8533207114362,26.5103969951183],[89.8542111137952,26.5123466246506],[89.8552305293999,26.5134940093774],[89.8553529418054,26.5156727297324],[89.8554779750805,26.5179650553053],[89.8566221092337,26.5196863348759],[89.8587868464836,26.5216373616543],[89.8600591902752,26.5232621894911],[89.8584383220904,26.5234285672209],[89.8563709583651,26.5236588350594],[89.855492992347,26.5236578665145],[89.85417345661,26.5236564372373],[89.8515243518255,26.523653672485],[89.8483585742348,26.5235921428957],[89.8444802656309,26.5235296194238],[89.8407324145274,26.5235253678423],[89.8389788363959,26.5235232024295],[89.8371775906207,26.5235210662849],[89.8331066426478,26.5232258220641],[89.8290349595773,26.5233370970598],[89.8250941543796,26.5231583871892],[89.8227862687242,26.5231552279348]]]},"properties":{"fill-opacity":0,"stroke-opacity":1,"stroke":"#ff0000","SID":"028","DID":"003","RID":"001","BID":"002","State":"West_Bengal","Division":"BuxaTR_EAST","Range":"Bholka","Beat":"Barobisha","Beat_Ar":7.14403}},
{"type":"Feature","geometry":{"type":"Polygon","coordinates":[[[89.8455591823406,26.5866473665568],[89.8486601166208,26.585837838436],[89.8515699016616,26.585202461231],[89.853382985505,26.5846239013474],[89.8555829644409,26.5835809209242],[89.8591389006852,26.5820749390049],[89.8597867535908,26.5818470865589],[89.8597881300336,26.5807400031464],[89.8597902127957,26.5791143434134],[89.8597275112723,26.5770236941149],[89.8592785883769,26.5747584691059],[89.8588922848,26.5727264694149],[89.8582483547239,26.5717967225866],[89.8571502803718,26.5709823108383],[89.8554691071576,26.5707487686744],[89.8539184505892,26.5704565449871],[89.8528850154886,26.5700487232818],[89.8520458825586,26.5688287879739],[89.8511411652437,26.5678990160612],[89.850559876577,26.5672591413813],[89.8501735429915,26.5670851053628],[89.8494610731193,26.5669099500775],[89.8490091069248,26.5671414117421],[89.8488719162984,26.5670929889921],[89.8495035595189,26.5665568034266],[89.8500907077964,26.5660583818432],[89.8504178509435,26.5657806720435],[89.8510795042063,26.5652189926162],[89.8540176974285,26.5636639467386],[89.8562049017673,26.5625827865808],[89.8577115879467,26.5617713146743],[89.8587688486309,26.5611628051278],[89.8596721964884,26.5611636925189],[89.8613286220766,26.5610974837135],[89.8632888899839,26.5607610854835],[89.8659267626228,26.5603571255256],[89.8675078794051,26.5602230290335],[89.8695208982844,26.5597564240276],[89.8703403239549,26.5607413385401],[89.8694444745959,26.5629190191321],[89.869251918137,26.5644090075525],[89.8693122919094,26.5664726096176],[89.8685981404462,26.5697761110568],[89.868542742081,26.5700255472549],[89.8687551079985,26.5707471712785],[89.869321085633,26.5717692541873],[89.8692576100503,26.572399754983],[89.869510754267,26.5727441130472],[89.8691285087702,26.5733742905466],[89.8689225975307,26.5734649742291],[89.8708320260081,26.5761037634412],[89.8719775409718,26.5773655086101],[89.8721680877986,26.5775062478074],[89.8733793131806,26.578399129224],[89.8750362708715,26.5801196623431],[89.8769481704427,26.5806945033196],[89.8789889540608,26.5804673527065],[89.8809002188807,26.5816151333656],[89.8825578336051,26.5829923927343],[89.884851530028,26.5834526616644],[89.8852347991425,26.5841406900882],[89.8853582530631,26.5860897942083],[89.8854843787606,26.5879240961759],[89.8863763357357,26.5895302702028],[89.8871401186269,26.5912500844195],[89.886755247991,26.5921668329253],[89.8853498714442,26.594228983087],[89.8845574854194,26.5959668976843],[89.8842002120022,26.5967507437515],[89.8850922137044,26.598356075512],[89.8862373479462,26.6004204890671],[89.8858541728696,26.6019104780321],[89.8840648583997,26.6038578698103],[89.8848290386082,26.6052342343305],[89.8857200375151,26.607986381842],[89.8863559106642,26.6098212445081],[89.8869913342107,26.6119995598945],[89.8877545400651,26.6145221620571],[89.8857106980631,26.6172720881351],[89.8834144317435,26.6162383497381],[89.8809928304277,26.6150903377991],[89.8783149831037,26.6142854555288],[89.8757642351038,26.6141685677846],[89.8735942729918,26.6149689728787],[89.8728280988716,26.6153123729915],[89.8707870520277,26.6151960102312],[89.8681085602512,26.6149639272524],[89.8677276174041,26.614390591123],[89.8631674946873,26.6088378866557],[89.8609214952467,26.6060999392973],[89.8574192911366,26.6021554127394],[89.8572736723898,26.6022230172432],[89.8562913064782,26.6028282939105],[89.8549804800094,26.6031598157307],[89.8535228636194,26.6025542368496],[89.8531584403963,26.6008682181572],[89.8527001125914,26.6000324725895],[89.8525736971214,26.5988105953267],[89.8535362483859,26.5979896038939],[89.8507915441122,26.5930382023883],[89.8455591823406,26.5866473665568]]]},"properties":{"fill-opacity":0,"stroke-opacity":1,"stroke":"#ff0000","SID":"028","DID":"003","RID":"001","BID":"003","State":"West_Bengal","Division":"BuxaTR_EAST","Range":"Bholka","Beat":"Changmari","Beat_Ar":13.8221}},
{"type":"Feature","geometry":{"type":"Polygon","coordinates":[[[89.8227862687242,26.5231552279348],[89.8250941543796,26.5231583871892],[89.8290349595773,26.5233370970598],[89.8331066426478,26.5232258220641],[89.8371775906207,26.5235210662849],[89.8389788363959,26.5235232024295],[89.8407324145274,26.5235253678423],[89.8444802656309,26.5235296194238],[89.8483585742348,26.5235921428957],[89.8515243518255,26.523653672485],[89.85417345661,26.5236564372373],[89.855492992347,26.5236578665145],[89.8537862260817,26.5242945348178],[89.8519116866368,26.5247574055981],[89.8509405441731,26.5249304780675],[89.8503581047952,26.5252781202584],[89.8499057932217,26.5258003114692],[89.8499047465083,26.5265552013889],[89.8503551456602,26.5274266090969],[89.851259173663,26.5286471396629],[89.851905305676,26.5294607280683],[89.852032064006,26.5303318252369],[89.8520308520356,26.5312607014312],[89.8517712067423,26.5321895542134],[89.8518348942588,26.5333510703706],[89.8526088606691,26.5342227724457],[89.8537720877512,26.5349788648672],[89.8550634688289,26.5355023319561],[89.8566782388439,26.5362014771929],[89.8575807223657,26.5367246327305],[89.8580343959197,26.5371318216227],[89.8579681637528,26.5378864310507],[89.8573850263688,26.5386988231312],[89.8568679520568,26.5388725019606],[89.8557692263936,26.5386970498288],[89.8544123857267,26.5382889293137],[89.8526044012247,26.5375902992139],[89.8511818354338,26.5375306900431],[89.8496966904447,26.5375291225977],[89.8484668191497,26.5378183372042],[89.8480139201045,26.5387468728587],[89.8476888029335,26.539849708208],[89.8476874001334,26.5408369581476],[89.8477549226799,26.5410670281201],[89.8479446266079,26.5417080572263],[89.8487191256901,26.5423474155096],[89.8507883117769,26.5428720961484],[89.8533072012118,26.5430491270443],[89.8549225680904,26.5433413758652],[89.8556348937173,26.5435162296769],[89.856085909874,26.5439809831543],[89.8561503106411,26.5447358625222],[89.8561489829346,26.545723108114],[89.8558244410326,26.5463618045437],[89.8545320857606,26.5464184053717],[89.853626512019,26.5463013320707],[89.8525273711645,26.5464743965518],[89.8516209494058,26.5468795577903],[89.8507170304145,26.5474017047802],[89.8499402292342,26.5483877519697],[89.8494225677245,26.5490258429727],[89.8493564488675,26.5496642704215],[89.8494206470892,26.5504772454722],[89.8499987971626,26.5515229469671],[89.8508384652054,26.552220659743],[89.8516779793241,26.553034828845],[89.8520005215396,26.5539061952433],[89.851934253235,26.554602713848],[89.8514164080657,26.5553569923702],[89.8507054897328,26.5559366934499],[89.8498633792586,26.5569808335965],[89.849086494502,26.5581414275158],[89.8479862047067,26.5589531723356],[89.8470138766669,26.5598811182287],[89.8465659083645,26.5607509337155],[89.8462725557457,26.5606413818879],[89.8391882318795,26.5572398755225],[89.8287093805682,26.5522080605658],[89.8217208330376,26.5492113202858],[89.8215456756841,26.5488963254815],[89.8218168223777,26.5441794278688],[89.8216859553658,26.5412126143544],[89.8216473136851,26.5403268201198],[89.8245382191641,26.5367920258216],[89.8248045569957,26.5334118064412],[89.8266419295527,26.532785360321],[89.8279561797448,26.5314499217465],[89.8275219258995,26.5299558832241],[89.8262998367955,26.528539060298],[89.8260388921881,26.5270450490227],[89.8261091770946,26.5269186631766],[89.825618436942,26.5263494161235],[89.8249803766127,26.525280115565],[89.8247322263052,26.5251462484373],[89.8241886901711,26.5246780600052],[89.8239659397237,26.524365649445],[89.8237429247118,26.5241651913005],[89.8236075400428,26.5240820460908],[89.8231063864614,26.523774607964],[89.8227862687242,26.5231552279348]]]},"properties":{"fill-opacity":0,"stroke-opacity":1,"stroke":"#ff0000","SID":"028","DID":"003","RID":"001","BID":"004","State":"West_Bengal","Division":"BuxaTR_EAST","Range":"Bholka","Beat":"Ghoramara","Beat_Ar":9.59457}},
{"type":"Feature","geometry":{"type":"Polygon","coordinates":[[[89.6004045819907,26.789434623329],[89.5980417982514,26.7862679851445],[89.5962609903959,26.7849545208044],[89.5947247139796,26.7827849451813],[89.59335429147,26.7806825721445],[89.5923103683838,26.7793816183375],[89.5901787704829,26.7763757882935],[89.5896305108149,26.774969975147],[89.5884120003783,26.7725911706576],[89.5880949019891,26.7719720734652],[89.5878882806913,26.7699439889969],[89.5892652966818,26.7680078233224],[89.5901237778157,26.7662438535404],[89.5900901302375,26.7657919028482],[89.5884494341949,26.765526637292],[89.5861328041319,26.7651848943874],[89.583115764367,26.7645988417985],[89.5806216071581,26.7639620462094],[89.5772262333081,26.763055789653],[89.5752618508678,26.7626259033105],[89.5731511932291,26.7623549725274],[89.5721639991561,26.7621637478815],[89.5703558518153,26.7616666320869],[89.5684426927941,26.7610161192472],[89.5661128926413,26.7595100830439],[89.5647059378132,26.7586345168557],[89.5646081532258,26.7585732753066],[89.564043826889,26.7582222153463],[89.563700258166,26.7580085875434],[89.5621564681505,26.7554230295013],[89.5626695022984,26.7540394987981],[89.5655617524762,26.7529579227607],[89.5682066229875,26.7521139385936],[89.5711781806884,26.7499766826928],[89.5750346813988,26.7477192617506],[89.5769621335267,26.7464516363625],[89.578101890947,26.7461422697747],[89.5814480442555,26.745234673124],[89.5850715962553,26.744802450722],[89.588164402181,26.7444697156492],[89.590450764606,26.744011460463],[89.5934437386917,26.7441371385524],[89.5955871552026,26.7450520622324],[89.5957680268205,26.7450441017169],[89.5958335540091,26.7450114970521],[89.5985140084339,26.7432373672649],[89.5997944023866,26.7421859899862],[89.6007415489164,26.7415698303315],[89.6019130199627,26.7408081527819],[89.6040086164119,26.7402322730465],[89.6049644684847,26.7399696160206],[89.6065162136239,26.7397092174083],[89.6091664081021,26.7393627217553],[89.6106519800575,26.7393012762898],[89.6119830488104,26.7388563626576],[89.6130263579389,26.7387925944049],[89.613785347929,26.7387749228753],[89.6147202204901,26.7388082577567],[89.6158935986303,26.7389327708502],[89.6166662360488,26.7386143169158],[89.6171871340605,26.7383906657495],[89.6178668333823,26.7380992107432],[89.618971462211,26.737685583615],[89.6231015375941,26.7359026042248],[89.6234338050542,26.7365222951291],[89.6251673398623,26.7390826995843],[89.6270581065562,26.7412171473081],[89.628738756503,26.7430553479353],[89.6307851687205,26.7436936429604],[89.6334311154069,26.7446944095096],[89.6359993347044,26.74569461315],[89.6380106934122,26.746325309846],[89.6399098103034,26.7466984040224],[89.6409765212299,26.7471978692486],[89.6415079739904,26.7476426216299],[89.6421402879134,26.747999629009],[89.643484317064,26.7482155530007],[89.6441124092152,26.7491399774491],[89.6447417869197,26.7504904804574],[89.6448188942254,26.7515555313251],[89.6447338001079,26.7531173702775],[89.6448868288624,26.7548924513519],[89.645117410151,26.7567388214218],[89.6456665102478,26.7588696875131],[89.6467665318131,26.7608601931282],[89.6474722625112,26.7627788578763],[89.6487342607594,26.7644149645767],[89.6503884371194,26.7661226241187],[89.6515709690469,26.7674742496785],[89.652516960487,26.7688963055458],[89.6529071787512,26.7704593588944],[89.65290339821,26.7717368407201],[89.6526640267861,26.7727302853727],[89.6523420032858,26.7745044110927],[89.6516273254599,26.7755676990877],[89.6501209661051,26.7765578771943],[89.6486155709837,26.7771929968639],[89.6471108519143,26.7776151867302],[89.6459260028189,26.7778255272571],[89.6444978243495,26.7786740226612],[89.6436255610254,26.779452597477],[89.6424352219599,26.780657008027],[89.6406916446022,26.7818593672241],[89.6399062737539,26.7821710556807],[89.6385544206989,26.7827058758176],[89.6375251735341,26.7829876647255],[89.6354680794491,26.7831245443141],[89.6334899692936,26.7829065767832],[89.6313571615687,26.7823330760491],[89.6295390284807,26.7816188674103],[89.6270908908068,26.7806186057702],[89.6248792478506,26.7795479046805],[89.6236134070948,26.7791188572685],[89.6225851297895,26.7791159915291],[89.6218726959489,26.7793979808566],[89.6217410817606,26.7796352395854],[89.6213946603242,26.7802491710105],[89.6209180445505,26.7814545321593],[89.6201185886498,26.7837952454727],[89.6182935203114,26.7852103337504],[89.6167087983937,26.7862002202949],[89.6149672196214,26.7866927452011],[89.6127506008438,26.7871128354741],[89.6100585936119,26.787602599862],[89.6075244742599,26.7882343384267],[89.6045968133099,26.7885109501817],[89.6019855667359,26.7888586477064],[89.6004045819907,26.789434623329]]]},"properties":{"fill-opacity":0,"stroke-opacity":1,"stroke":"#ff0000","SID":"028","DID":"003","RID":"002","BID":"001","State":"West_Bengal","Division":"BuxaTR_EAST","Range":"Buxaduar","Beat":"Buxaduar","Beat_Ar":29.801}},
{"type":"Feature","geometry":{"type":"Polygon","coordinates":[[[89.583099640244,26.7136477380072],[89.5808515455088,26.7148208723856],[89.5798738722534,26.7148574394631],[89.5788200635293,26.7151241168874],[89.5785603509407,26.7153562793111],[89.5774166303081,26.7161527045622],[89.5767233792033,26.7167802646088],[89.5761144035737,26.7170278713701],[89.5759452378047,26.7179378041712],[89.575781351438,26.7187752031617],[89.5750826239487,26.7194857257221],[89.5748340538092,26.7200942324609],[89.5739625480808,26.7206574906179],[89.5729075379654,26.7212179872033],[89.5708746426573,26.7212112158335],[89.5697248673587,26.7215637754145],[89.5676029140362,26.7218548943468],[89.5669852088853,26.7217215725382],[89.5642935114363,26.7218150544677],[89.5628356464849,26.7218658322423],[89.5586856088335,26.722160002681],[89.5550536180119,26.7223651749532],[89.553205169615,26.7227323209894],[89.5502040545769,26.7229101467841],[89.5497838867029,26.7230142922622],[89.549675714161,26.7230411382046],[89.5469614994833,26.7230987245511],[89.5459008730142,26.7231280700296],[89.5453203476364,26.7224793051955],[89.5444432827535,26.7212037701884],[89.5438548779563,26.7181239113455],[89.5432086980087,26.7156707307417],[89.5413875906961,26.7123329880891],[89.5411149396606,26.7120071344369],[89.5358008198253,26.7056570730057],[89.5318559719002,26.7025331089668],[89.5311706238586,26.7018058854277],[89.5311054693786,26.7017369334564],[89.5303699828329,26.7009589219205],[89.5288890164633,26.699393123748],[89.5275375439288,26.6980780281618],[89.5258856088871,26.6947334380942],[89.5257836175589,26.6913983774292],[89.5281763210175,26.6911678666077],[89.5321275393391,26.6907163069027],[89.535168221346,26.6904939031344],[89.5367233297285,26.6904987692413],[89.5389880940419,26.690215600951],[89.5416422981191,26.689875991263],[89.5443622750451,26.6894778045839],[89.5471469430876,26.6891967393123],[89.5492177241992,26.6890288929571],[89.5503106723286,26.6889746448592],[89.5513539774936,26.688803052905],[89.5539454496275,26.6884624919197],[89.5567934919713,26.6880071107671],[89.5597720017165,26.6876094592314],[89.5631396300092,26.6872717537983],[89.5663674945536,26.6866822724881],[89.5668954937823,26.6865856328719],[89.5706504337935,26.6861326424389],[89.5736886435278,26.6858581230105],[89.5726450610749,26.6881745265983],[89.5717952440849,26.6903790753243],[89.5714666893454,26.6915975939174],[89.571397213962,26.6933975539791],[89.5713253693471,26.6951394469736],[89.5717729097041,26.6964178881873],[89.5723639830361,26.6969307853294],[89.5734509570261,26.6978750008169],[89.5755113030044,26.7005523048948],[89.577833520154,26.703114140378],[89.5803488629833,26.7051540477232],[89.5813789595516,26.7065508824327],[89.5821199186828,26.7080135415925],[89.5832236512904,26.7078300390635],[89.5846491865611,26.7076017576132],[89.5852172519252,26.7075232116493],[89.5856709535786,26.7085513947508],[89.585908445316,26.7095828418482],[89.5856101891632,26.7114829308166],[89.5841894151943,26.7124768081023],[89.583099640244,26.7136477380072]]]},"properties":{"fill-opacity":0,"stroke-opacity":1,"stroke":"#ff0000","SID":"028","DID":"003","RID":"002","BID":"002","State":"West_Bengal","Division":"BuxaTR_EAST","Range":"Buxaduar","Beat":"Buxaroad","Beat_Ar":14.9547}},
{"type":"Feature","geometry":{"type":"Polygon","coordinates":[[[89.6004045819907,26.789434623329],[89.6002433638933,26.7894928474456],[89.5984186417681,26.7907658406542],[89.5965174305027,26.7915411007987],[89.5944587158731,26.7921035108527],[89.5921642216987,26.7924519710578],[89.5901069072521,26.792588484027],[89.5882849055708,26.7930091180891],[89.5863841342959,26.7936429587205],[89.5838474895471,26.7949136044186],[89.5811551358314,26.7961126276652],[89.5781441567943,26.7970980179745],[89.5755314244326,26.7978005739955],[89.5725207464613,26.7986437159006],[89.5707522890677,26.798810015118],[89.5695927232741,26.7989187736418],[89.5694311088966,26.7997708006967],[89.5692641109567,26.8021129800847],[89.568387421422,26.803885214851],[89.5667970167004,26.8062234372679],[89.5649663609195,26.8089156767482],[89.5635362134619,26.8106861149622],[89.5619520856961,26.8113203671613],[89.5602879904354,26.8117414460828],[89.5585474894234,26.8118071806938],[89.5561741361863,26.8115868640675],[89.5539604004447,26.811083032657],[89.5519057251047,26.8104381105388],[89.5500099426849,26.8096509782711],[89.5487452587649,26.8095760114971],[89.5474768996003,26.8097853319811],[89.5453381805221,26.8107015525601],[89.5435154388062,26.8111929793471],[89.5411383042396,26.8119662284754],[89.5389193023247,26.812811037529],[89.5373354488665,26.8133031690463],[89.5353559615368,26.8133678353519],[89.5334583102011,26.8130782359088],[89.5315617091318,26.812504057808],[89.5294282495168,26.8120711629982],[89.5276884770304,26.8119233162929],[89.5256307355525,26.812058910973],[89.5242846390386,26.8121966720578],[89.5225434908056,26.8124035381428],[89.5207212382911,26.812752539972],[89.518585960502,26.8127456090651],[89.5171623075918,26.812173202687],[89.5158186888127,26.8117428994921],[89.5141653559883,26.8101751919798],[89.51336980323,26.8091589070114],[89.5140499564612,26.808272612617],[89.515553209842,26.8066251022388],[89.5168616235423,26.8052334724255],[89.518787218797,26.803579422718],[89.5213895471601,26.8006183066675],[89.5219681809094,26.7981081579808],[89.5231673852282,26.795721326766],[89.5243597460616,26.7925102600453],[89.5253900851378,26.7908059916385],[89.526164383417,26.7902392671427],[89.526787228328,26.7897824638099],[89.5268551796404,26.7897749619817],[89.529622424788,26.7894520518795],[89.5324449319589,26.7891375134847],[89.5343961110274,26.7891375051432],[89.5364270786248,26.7905892053654],[89.5376723874849,26.7910728415297],[89.5396133866456,26.790480381295],[89.5419980155472,26.7902457145919],[89.5436218796307,26.7890779874909],[89.5440934926152,26.7887395105989],[89.5450337122805,26.7868226164329],[89.5465604833892,26.7828282708295],[89.5467737508829,26.7816141699634],[89.5470540991413,26.7800169383466],[89.548777074408,26.7772417815696],[89.5489463671822,26.7770024809998],[89.5498082194338,26.7758520553149],[89.5517033267071,26.7733789794333],[89.5516888194593,26.7725446906371],[89.5516661523649,26.7712612598095],[89.5514504830433,26.7691556490918],[89.5513486944514,26.7675425769194],[89.5513248969605,26.7671911793717],[89.5510329578499,26.7653105955563],[89.5515153241694,26.7621234594549],[89.5520392996665,26.7618436059639],[89.552629140894,26.7607703155389],[89.554034499335,26.7600817469912],[89.5557182144448,26.7595508473313],[89.5575842816914,26.7593151528736],[89.5590715231781,26.7589073558876],[89.5604703329649,26.7585941437719],[89.5624746491766,26.7584048018564],[89.564043826889,26.7582222153463],[89.5646081532258,26.7585732753066],[89.5647059378132,26.7586345168557],[89.5661128926413,26.7595100830439],[89.5684426927941,26.7610161192472],[89.5703558518153,26.7616666320869],[89.5721639991561,26.7621637478815],[89.5731511932291,26.7623549725274],[89.5752618508678,26.7626259033105],[89.5772262333081,26.763055789653],[89.5806216071581,26.7639620462094],[89.583115764367,26.7645988417985],[89.5861328041319,26.7651848943874],[89.5884494341949,26.765526637292],[89.5900901302375,26.7657919028482],[89.5901237778157,26.7662438535404],[89.5892652966818,26.7680078233224],[89.5878882806913,26.7699439889969],[89.5880949019891,26.7719720734652],[89.5884120003783,26.7725911706576],[89.5896305108149,26.774969975147],[89.5901787704829,26.7763757882935],[89.5923103683838,26.7793816183375],[89.59335429147,26.7806825721445],[89.5947247139796,26.7827849451813],[89.5962609903959,26.7849545208044],[89.5980417982514,26.7862679851445],[89.6004045819907,26.789434623329]]]},"properties":{"fill-opacity":0,"stroke-opacity":1,"stroke":"#ff0000","SID":"028","DID":"003","RID":"002","BID":"003","State":"West_Bengal","Division":"BuxaTR_EAST","Range":"Buxaduar","Beat":"Chunabhati","Beat_Ar":25.6758}},
{"type":"Feature","geometry":{"type":"Polygon","coordinates":[[[89.5520392996665,26.7618436059639],[89.5501063580108,26.7617756794625],[89.548173887632,26.762898906371],[89.5460385690748,26.7625195502875],[89.5422884562812,26.7604547451155],[89.5413121659073,26.7600420929439],[89.5409654884399,26.7599908774662],[89.538827461497,26.7596726346738],[89.5353738517967,26.7589569112537],[89.5327642363018,26.7571586510409],[89.5291283439027,26.7561511777093],[89.5283219616459,26.7560298833671],[89.5254913945343,26.7560460397793],[89.5229817101845,26.7538666521379],[89.5222632466117,26.7531386267638],[89.5221733397508,26.7529827981491],[89.5220412598729,26.7527160304463],[89.5241786666556,26.75190848785],[89.5270091189478,26.7500378899223],[89.5272241221106,26.7496918048325],[89.5290492682135,26.7477479737252],[89.5292416238295,26.7474359711654],[89.5306861674789,26.7451152414441],[89.5320590786391,26.7424949369699],[89.5321855466177,26.7397817980215],[89.5320701012121,26.7372799605116],[89.5336975116835,26.7338280715925],[89.534726772977,26.7322066651931],[89.5365539174334,26.7303352000771],[89.5403084169505,26.727175148222],[89.5441537141356,26.7245532075991],[89.5459008730142,26.7231280700296],[89.5469614994833,26.7230987245511],[89.549675714161,26.7230411382046],[89.5497838867029,26.7230142922622],[89.5502040545769,26.7229101467841],[89.553205169615,26.7227323209894],[89.5550536180119,26.7223651749532],[89.5586856088335,26.722160002681],[89.5628356464849,26.7218658322423],[89.5642935114363,26.7218150544677],[89.5669852088853,26.7217215725382],[89.5676029140362,26.7218548943468],[89.5697248673587,26.7215637754145],[89.5708746426573,26.7212112158335],[89.5729075379654,26.7212179872033],[89.5739625480808,26.7206574906179],[89.5748340538092,26.7200942324609],[89.5750826239487,26.7194857257221],[89.575781351438,26.7187752031617],[89.5759452378047,26.7179378041712],[89.5761144035737,26.7170278713701],[89.5767233792033,26.7167802646088],[89.5774166303081,26.7161527045622],[89.5785603509407,26.7153562793111],[89.5788200635293,26.7151241168874],[89.5798738722534,26.7148574394631],[89.5808515455088,26.7148208723856],[89.583099640244,26.7136477380072],[89.5836972648101,26.7158911606724],[89.5840432027858,26.7168257988137],[89.5839737389517,26.71938180227],[89.5845714769529,26.7222859487477],[89.5847272317158,26.7251104352775],[89.5865053298693,26.7254269603701],[89.5889174072386,26.7262631326192],[89.5908451853604,26.7290333131127],[89.5924457363541,26.7319977760234],[89.5933675010984,26.7343257646491],[89.5932846198666,26.7357477019937],[89.5928605133249,26.7369882028381],[89.593909719587,26.7402594550042],[89.5944905007362,26.7416527694192],[89.5949462468036,26.7428664446677],[89.5955310983495,26.7445487584979],[89.5957680268205,26.7450441017169],[89.5955871552026,26.7450520622324],[89.5934437386917,26.7441371385524],[89.590450764606,26.744011460463],[89.588164402181,26.7444697156492],[89.5850715962553,26.744802450722],[89.5814480442555,26.745234673124],[89.578101890947,26.7461422697747],[89.5769621335267,26.7464516363625],[89.5750346813988,26.7477192617506],[89.5711781806884,26.7499766826928],[89.5682066229875,26.7521139385936],[89.5655617524762,26.7529579227607],[89.5626695022984,26.7540394987981],[89.5621564681505,26.7554230295013],[89.563700258166,26.7580085875434],[89.564043826889,26.7582222153463],[89.5624746491766,26.7584048018564],[89.5604703329649,26.7585941437719],[89.5590715231781,26.7589073558876],[89.5575842816914,26.7593151528736],[89.5557182144448,26.7595508473313],[89.554034499335,26.7600817469912],[89.552629140894,26.7607703155389],[89.5520392996665,26.7618436059639]]]},"properties":{"fill-opacity":0,"stroke-opacity":1,"stroke":"#ff0000","SID":"028","DID":"003","RID":"002","BID":"004","State":"West_Bengal","Division":"BuxaTR_EAST","Range":"Buxaduar","Beat":"Santrabari","Beat_Ar":20.5607}},
{"type":"Feature","geometry":{"type":"Polygon","coordinates":[[[89.6228380313335,26.727248253564],[89.6210482194334,26.7250987620688],[89.619883902472,26.7237988090423],[89.6183710782877,26.7230535724813],[89.6174814032427,26.7223099477095],[89.6165196020167,26.7213192619617],[89.615766859688,26.7202052068923],[89.6156328311655,26.7189696010547],[89.6156373283296,26.7176111551918],[89.6158506997363,26.7161290671528],[89.6159230439105,26.7147704111573],[89.615790446278,26.7131024816882],[89.615177933179,26.7113712143606],[89.6143601067821,26.7087130905467],[89.6138848058939,26.7073527749899],[89.6132045904948,26.7056270607853],[89.6132269101008,26.7049610028637],[89.6137445265708,26.7026692117515],[89.614195420917,26.7015809123122],[89.6145366441864,26.7009783382542],[89.614731404665,26.7005579125009],[89.6153666549363,26.7007255150598],[89.6181701419746,26.7000683433496],[89.6199355020906,26.6995845709646],[89.6214852207196,26.6989783177867],[89.6222806624723,26.6985380383663],[89.6228820934715,26.6982040339744],[89.6244181145547,26.6971667284464],[89.6252974768497,26.6964011710895],[89.6264312313764,26.695415268305],[89.6277707053789,26.6945082111776],[89.628476425102,26.6938252808624],[89.6293576235328,26.6932362106799],[89.6303440826311,26.6927062728921],[89.6316839953408,26.6916361797997],[89.6326051730392,26.691110926286],[89.6340800722621,26.6902702150723],[89.6362253037046,26.6895723431594],[89.6397453769223,26.6885965702723],[89.6412818116154,26.6881651019728],[89.6438063220747,26.6874226839529],[89.6461923966674,26.6867847588006],[89.6491922363311,26.6858737332763],[89.6523096902131,26.6850532070685],[89.653336624887,26.6844132282839],[89.6536670333244,26.6881619241322],[89.653982427839,26.69106620824],[89.654300464756,26.6930990861327],[89.6548774324649,26.694261797463],[89.6553312453385,26.6945534432441],[89.6571432612302,26.6943252893723],[89.6582436069381,26.6943905373577],[89.6583708902756,26.695489684266],[89.6582349399803,26.6972895712852],[89.6582249688501,26.7007153901134],[89.6580911713577,26.7026314337095],[89.6575657187333,26.7044302347763],[89.6566566572683,26.7059963587725],[89.656327279714,26.7077375923569],[89.6562532070678,26.7106988626801],[89.6561786738289,26.7138341294222],[89.6561730064252,26.7157503640756],[89.657010621494,26.7171463252299],[89.6574614747724,26.7184825100246],[89.657392019967,26.7198763854818],[89.6566592621481,26.721238538686],[89.6550331757155,26.7204851540712],[89.6530540395423,26.7201346131275],[89.6521874755684,26.719982008586],[89.6506065176638,26.7201197201642],[89.6491016244,26.7208261633224],[89.6478345428627,26.7218171805869],[89.6463278261537,26.7231623408034],[89.6449021171195,26.7242234200233],[89.6432390307676,26.7248583210929],[89.6416587071619,26.7247833020029],[89.6403142447421,26.7247799818649],[89.6392850350848,26.7252033301387],[89.6379383512602,26.7259103662929],[89.6362766300459,26.7261187909069],[89.6349334359745,26.7256895883615],[89.6340662319632,26.7249776786285],[89.6335170793127,26.7237691628906],[89.632651192343,26.722631410572],[89.63186226249,26.721777584443],[89.6303640409816,26.7211346746137],[89.6288617735422,26.7209886769641],[89.6273592662663,26.7209137297968],[89.6263294667875,26.721550182895],[89.6251372049973,26.7234639748022],[89.6244989107791,26.7250242650176],[89.6237053562068,26.7263711670381],[89.6228380313335,26.727248253564]]]},"properties":{"fill-opacity":0,"stroke-opacity":1,"stroke":"#ff0000","SID":"028","DID":"003","RID":"004","BID":"001","State":"West_Bengal","Division":"BuxaTR_EAST","Range":"Jainti","Beat":"Bhutiabasti","Beat_Ar":13.9404}},
{"type":"Feature","geometry":{"type":"Polygon","coordinates":[[[89.614731404665,26.7005579125009],[89.6138983452644,26.7002501488988],[89.6128614862554,26.7000228135556],[89.6126455124109,26.6999753566168],[89.6120229511165,26.6998383354115],[89.6104686489934,26.6995441095683],[89.6076237688188,26.6990135276568],[89.6070286987765,26.6989210106255],[89.6067373899941,26.6988763725984],[89.6065340470107,26.6988445551202],[89.6064788079277,26.6988361571049],[89.6041961274135,26.6984818699958],[89.6002487961914,26.6978321972466],[89.5979161269809,26.6974152036186],[89.5969494935798,26.6972419489537],[89.5932632803212,26.6966511779472],[89.5907396166743,26.6962954318708],[89.5892522682683,26.6962912461421],[89.5867270468686,26.6963420943201],[89.5841391637325,26.6963927519315],[89.5812269859603,26.6964424681563],[89.578701617878,26.6965512683346],[89.5766934205125,26.6967777901476],[89.5752060663657,26.6967734575892],[89.5723639830361,26.6969307853294],[89.5717729097041,26.6964178881873],[89.5713253693471,26.6951394469736],[89.571397213962,26.6933975539791],[89.5714666893454,26.6915975939174],[89.5717952440849,26.6903790753243],[89.5726450610749,26.6881745265983],[89.5736886435278,26.6858581230105],[89.5706504337935,26.6861326424389],[89.5668954937823,26.6865856328719],[89.5663674945536,26.6866822724881],[89.5658619982057,26.6848446686868],[89.5652906871402,26.6817649901259],[89.5647839835916,26.6789178129219],[89.5647264938274,26.6768270924431],[89.564867767914,26.6747011837418],[89.566422171826,26.6747959813692],[89.5693988246471,26.6748050942004],[89.5717933878831,26.6746378571442],[89.5744475785478,26.6741814630022],[89.5749551577027,26.674134372968],[89.5741900361355,26.6725001867542],[89.5732923225765,26.6707555099333],[89.5716812054736,26.6690085799345],[89.5703943364203,26.6672044595151],[89.5694958482014,26.6649950171865],[89.5693110775009,26.6626713584463],[89.5693160455639,26.6613275450132],[89.5701138624414,26.6615567313498],[89.5707512268728,26.6617391845388],[89.5757051612425,26.661476979598],[89.5772856595358,26.6612789348725],[89.5783127609611,26.6613306823218],[89.5790964799711,26.6613103998748],[89.5818697763684,26.6611813697552],[89.5856555851248,26.6609577826095],[89.5886801876742,26.6608162233306],[89.592130100089,26.6603838759912],[89.5948479921776,26.660336996745],[89.5959354279401,26.6603247698714],[89.5970285800346,26.6601709044568],[89.5985799085934,26.6633062355551],[89.6001877888049,26.667537900453],[89.601798353889,26.6710213566663],[89.6022424851516,26.6719052141122],[89.604867732845,26.6717709138846],[89.6082341064102,26.6716645431967],[89.6123765606649,26.6715597078751],[89.6141878991159,26.6714483031742],[89.6167750851614,26.671455217797],[89.6181995867672,26.6714009048578],[89.6202067448861,26.6713481021214],[89.6252546720884,26.6708383101042],[89.6291193680565,26.670370697368],[89.6308858715297,26.6701561017069],[89.6337364330873,26.6694668056186],[89.6398215719172,26.6682045851483],[89.6425571809695,26.6680889034701],[89.6425962939983,26.6692607231513],[89.642268158187,26.6705949962731],[89.6418111619299,26.6721622817726],[89.6410967760779,26.673321388506],[89.6396009645581,26.6752920975462],[89.6381705783786,26.6772628824976],[89.637130532902,26.6788862374631],[89.6349216141418,26.6815515181665],[89.6327153456637,26.6841013986695],[89.6310238047764,26.686768279918],[89.6305636943821,26.6884509073064],[89.6304346931565,26.6895242724593],[89.6315228429712,26.6902029374127],[89.6326051730392,26.691110926286],[89.6316839953408,26.6916361797997],[89.6303440826311,26.6927062728921],[89.6293576235328,26.6932362106799],[89.628476425102,26.6938252808624],[89.6277707053789,26.6945082111776],[89.6264312313764,26.695415268305],[89.6252974768497,26.6964011710895],[89.6244181145547,26.6971667284464],[89.6228820934715,26.6982040339744],[89.6222806624723,26.6985380383663],[89.6214852207196,26.6989783177867],[89.6199355020906,26.6995845709646],[89.6181701419746,26.7000683433496],[89.6153666549363,26.7007255150598],[89.614731404665,26.7005579125009]]]},"properties":{"fill-opacity":0,"stroke-opacity":1,"stroke":"#ff0000","SID":"028","DID":"003","RID":"004","BID":"002","State":"West_Bengal","Division":"BuxaTR_EAST","Range":"Jainti","Beat":"Jainti-North","Beat_Ar":21.6114}},
{"type":"Feature","geometry":{"type":"Polygon","coordinates":[[[89.6425571809695,26.6680889034701],[89.6398215719172,26.6682045851483],[89.6337364330873,26.6694668056186],[89.6308858715297,26.6701561017069],[89.6291193680565,26.670370697368],[89.6252546720884,26.6708383101042],[89.6202067448861,26.6713481021214],[89.6181995867672,26.6714009048578],[89.6167750851614,26.671455217797],[89.6141878991159,26.6714483031742],[89.6123765606649,26.6715597078751],[89.6082341064102,26.6716645431967],[89.604867732845,26.6717709138846],[89.6022424851516,26.6719052141122],[89.601798353889,26.6710213566663],[89.6001877888049,26.667537900453],[89.5985799085934,26.6633062355551],[89.5970285800346,26.6601709044568],[89.5961495198168,26.6587343979103],[89.5953934946589,26.656617436016],[89.5944627399315,26.6541817931053],[89.5934106234454,26.6512678151739],[89.5914008236598,26.6443722264884],[89.591028233626,26.6425332192768],[89.5907430077788,26.6408130834552],[89.5903859616936,26.6381357796386],[89.5900945594204,26.6360592554516],[89.5895404242909,26.6337104340732],[89.5888259609778,26.6305723776493],[89.594347736883,26.6305226138678],[89.5979314448425,26.6303872962264],[89.60232870857,26.6302150745555],[89.6036423510203,26.630103236245],[89.6054257425049,26.6299138828949],[89.6071433095294,26.6298882506942],[89.6094360934758,26.6298075750437],[89.6125721272902,26.6298597013128],[89.6176544518536,26.6298230481747],[89.619332352047,26.6296448751898],[89.6207414802603,26.629494566554],[89.6260382009227,26.6291497588989],[89.6279798215676,26.6289326505976],[89.6319513444902,26.6284172522399],[89.6354772532143,26.6282196164685],[89.6368405366047,26.6282794868256],[89.6383994863883,26.6283472389449],[89.6417529862932,26.6279252720585],[89.6447470641031,26.6275908621277],[89.6463319486555,26.6273883523816],[89.64783573649,26.6274839948449],[89.6519209196216,26.627481093699],[89.654439359657,26.6274794148106],[89.6588375655809,26.6269394068512],[89.6634267348224,26.6263239901349],[89.6660661232747,26.6261689742534],[89.666696489825,26.6261319686147],[89.6689164183245,26.6268861922438],[89.6690850061958,26.6276537860618],[89.6695940323925,26.6278841181368],[89.6701008963317,26.628860078389],[89.6698458300634,26.6293751872801],[89.6700329808269,26.630694432517],[89.6705363681558,26.632873719037],[89.6709767839072,26.6351676708856],[89.6707432866756,26.6360432034785],[89.6703214720089,26.6359948682558],[89.6691556606411,26.6362245879315],[89.6668902775783,26.6363938908205],[89.6648202624279,26.6366795889203],[89.6625543399745,26.6369641672438],[89.6606105448255,26.6370689753342],[89.6608719336648,26.6378309819469],[89.6615780339037,26.6393429779253],[89.6622215123743,26.6408540106309],[89.6623454907352,26.6422481717976],[89.6625351222327,26.643525944146],[89.6624682288195,26.6449195197014],[89.6619468888228,26.6463116481807],[89.6609699688345,26.6479933612146],[89.660061099937,26.6496175905598],[89.6590194347752,26.6511246453629],[89.6576534230741,26.6536182478988],[89.6576003014577,26.653722361918],[89.6566126634256,26.6556481021111],[89.6553796452255,26.6572710117435],[89.6539529604702,26.6581392834543],[89.6510378021311,26.6595254157465],[89.6484480931761,26.6604483330371],[89.6460485061289,26.6616039048422],[89.6444939509371,26.662354846912],[89.6434560936558,26.6633394887019],[89.6429338139188,26.6649058418735],[89.642864550647,26.666183538683],[89.6425364247128,26.667517812423],[89.6425571809695,26.6680889034701]]]},"properties":{"fill-opacity":0,"stroke-opacity":1,"stroke":"#ff0000","SID":"028","DID":"003","RID":"004","BID":"004","State":"West_Bengal","Division":"BuxaTR_EAST","Range":"Jainti","Beat":"Jainti-South","Beat_Ar":28.3742}},
{"type":"Feature","geometry":{"type":"Polygon","coordinates":[[[89.6228380313335,26.727248253564],[89.6226336339127,26.7275218783379],[89.6224517609534,26.7278220347728],[89.6218745694151,26.7283249634089],[89.6212440859737,26.7289912133913],[89.6208458240655,26.7301263063671],[89.6211570266909,26.7318308139798],[89.6220198175972,26.7338919369122],[89.6231015375941,26.7359026042248],[89.618971462211,26.737685583615],[89.6178668333823,26.7380992107432],[89.6171871340605,26.7383906657495],[89.6166662360488,26.7386143169158],[89.6158935986303,26.7389327708502],[89.6147202204901,26.7388082577567],[89.613785347929,26.7387749228753],[89.6130263579389,26.7387925944049],[89.6119830488104,26.7388563626576],[89.6106519800575,26.7393012762898],[89.6091664081021,26.7393627217553],[89.6065162136239,26.7397092174083],[89.6049644684847,26.7399696160206],[89.6040086164119,26.7402322730465],[89.6019130199627,26.7408081527819],[89.6007415489164,26.7415698303315],[89.5997944023866,26.7421859899862],[89.5985140084339,26.7432373672649],[89.5958335540091,26.7450114970521],[89.5957680268205,26.7450441017169],[89.5955310983495,26.7445487584979],[89.5949462468036,26.7428664446677],[89.5944905007362,26.7416527694192],[89.593909719587,26.7402594550042],[89.5928605133249,26.7369882028381],[89.5932846198666,26.7357477019937],[89.5933675010984,26.7343257646491],[89.5924457363541,26.7319977760234],[89.5908451853604,26.7290333131127],[89.5889174072386,26.7262631326192],[89.5865053298693,26.7254269603701],[89.5847272317158,26.7251104352775],[89.5845714769529,26.7222859487477],[89.5839737389517,26.71938180227],[89.5840432027858,26.7168257988137],[89.5836972648101,26.7158911606724],[89.583099640244,26.7136477380072],[89.5841894151943,26.7124768081023],[89.5856101891632,26.7114829308166],[89.585908445316,26.7095828418482],[89.5856709535786,26.7085513947508],[89.5852172519252,26.7075232116493],[89.5846491865611,26.7076017576132],[89.5832236512904,26.7078300390635],[89.5821199186828,26.7080135415925],[89.5813789595516,26.7065508824327],[89.5803488629833,26.7051540477232],[89.577833520154,26.703114140378],[89.5755113030044,26.7005523048948],[89.5734509570261,26.6978750008169],[89.5723639830361,26.6969307853294],[89.5752060663657,26.6967734575892],[89.5766934205125,26.6967777901476],[89.578701617878,26.6965512683346],[89.5812269859603,26.6964424681563],[89.5841391637325,26.6963927519315],[89.5867270468686,26.6963420943201],[89.5892522682683,26.6962912461421],[89.5907396166743,26.6962954318708],[89.5932632803212,26.6966511779472],[89.5969494935798,26.6972419489537],[89.5979161269809,26.6974152036186],[89.6002487961914,26.6978321972466],[89.6041961274135,26.6984818699958],[89.6064788079277,26.6988361571049],[89.6065340470107,26.6988445551202],[89.6067373899941,26.6988763725984],[89.6070286987765,26.6989210106255],[89.6076237688188,26.6990135276568],[89.6104686489934,26.6995441095683],[89.6120229511165,26.6998383354115],[89.6126455124109,26.6999753566168],[89.6128614862554,26.7000228135556],[89.6138983452644,26.7002501488988],[89.614731404665,26.7005579125009],[89.6145366441864,26.7009783382542],[89.614195420917,26.7015809123122],[89.6137445265708,26.7026692117515],[89.6132269101008,26.7049610028637],[89.6132045904948,26.7056270607853],[89.6138848058939,26.7073527749899],[89.6143601067821,26.7087130905467],[89.615177933179,26.7113712143606],[89.615790446278,26.7131024816882],[89.6159230439105,26.7147704111573],[89.6158506997363,26.7161290671528],[89.6156373283296,26.7176111551918],[89.6156328311655,26.7189696010547],[89.615766859688,26.7202052068923],[89.6165196020167,26.7213192619617],[89.6174814032427,26.7223099477095],[89.6183710782877,26.7230535724813],[89.619883902472,26.7237988090423],[89.6210482194334,26.7250987620688],[89.6228380313335,26.727248253564]]]},"properties":{"fill-opacity":0,"stroke-opacity":1,"stroke":"#ff0000","SID":"028","DID":"003","RID":"004","BID":"003","State":"West_Bengal","Division":"BuxaTR_EAST","Range":"Jainti","Beat":"Phaskhawa","Beat_Ar":14.5855}}
]}