{"type":"FeatureCollection", "features": [
{"type":"Feature","geometry":{"type":"Polygon","coordinates":[[[89.7234446516409,26.665917497517302],[89.7234755309663,26.6656125699788],[89.7233730260554,26.663294432251902],[89.7233745591342,26.6626055064964],[89.721738775566,26.6629172754543],[89.7211111992634,26.664819896985502],[89.7202374608858,26.6657145654165],[89.7177217195246,26.666325179033702],[89.7174930229295,26.6663812510989],[89.71649334678871,26.6663792791891],[89.7153749670009,26.6655931068989],[89.7142565373263,26.663798800720702],[89.7141328185198,26.6630143844231],[89.7147596536211,26.6624560593673],[89.7147611703808,26.661783487551602],[89.7151633338302,26.6606399270164],[89.71414451654421,26.658198645461002],[89.7135217070611,26.6581974439414],[89.7123994185326,26.6579707660722],[89.70878497936441,26.658075917659502],[89.7052009628329,26.6580004169213],[89.7029254128021,26.6579516718318],[89.6983109906725,26.6581667179994],[89.6954445564014,26.658384658533002],[89.6926998970458,26.6581549691597],[89.6880416265049,26.657847951553503],[89.6878831910747,26.6579096239406],[89.68776003779391,26.657957903677403],[89.687750587954,26.6576796867005],[89.6885928765286,26.654528210525502],[89.6894502366746,26.6532687406557],[89.69072097341811,26.6504857838053],[89.69124228095811,26.648013223916003],[89.6912096939963,26.6461194481985],[89.69116607846931,26.64357580339],[89.6919059566238,26.64204305998],[89.6921551209962,26.6418663734194],[89.6921251660999,26.6398964265774],[89.6963702632479,26.6375530167873],[89.7075887208809,26.6372405471114],[89.7074614016835,26.6389202317245],[89.7075844665797,26.6389204399625],[89.7086992380879,26.642059127959403],[89.7088230896365,26.6427310359111],[89.7094005645589,26.642781875278],[89.7098044256374,26.6430003391409],[89.7105684436809,26.6437471386824],[89.7117160279207,26.6438068723692],[89.712800422962,26.644038813326603],[89.71362869879731,26.644211806759703],[89.714967123444,26.645303839218602],[89.71604945298401,26.6463374872038],[89.7159809541755,26.647713317553603],[89.7163646157971,26.647943568090103],[89.717512006914,26.648060500330402],[89.71793854219901,26.648218600119],[89.7190519440985,26.648955753104502],[89.7190188021808,26.649163138433202],[89.7187001376523,26.6511042996519],[89.71872368632481,26.652804995979402],[89.71870066893051,26.6529550137008],[89.71872055171261,26.6530452920963],[89.71896652510401,26.654170277811],[89.7243452416462,26.6546801341387],[89.7282381936451,26.6546873725481],[89.73287451156881,26.6546961234632],[89.7344266988607,26.6546988301696],[89.7368679400714,26.654703305679],[89.7393365332413,26.6548853396433],[89.73883195599521,26.6581324612599],[89.7387116171091,26.6580239627703],[89.73639049201451,26.658200778630903],[89.73341277494511,26.6577234819343],[89.7332395002104,26.657695430370403],[89.73168952482361,26.6577998419753],[89.7317465375604,26.6581327407345],[89.7319720809455,26.6594643659609],[89.7335875988097,26.661483389332503],[89.7339594582739,26.6624920296657],[89.7335834087394,26.6632754957693],[89.7322110758124,26.663720923559],[89.73046461175821,26.6640533224732],[89.7289675607447,26.6640504676303],[89.72833451613181,26.6640494571904],[89.7282130668727,26.6655164512954],[89.728232844664,26.6656924546328],[89.7273611384727,26.6656909702567],[89.7258061590598,26.6658041245656],[89.7234446516409,26.665917497517302]]]},"properties":{"id":null,"description":null,"altitudeMode":null,"tessellate":null,"extrude":null,"visibility":null,"drawOrder":null,"icon":null,"AREA":null,"PERIMETER":null,"division":"BuxaTR_EAST","beat":"Kartik","range":"NorthRydak","layer":"master","path":"C:/Users/user/OneDrive/Desktop/Buxaroad/master.geojson","fill-opacity":0,"stroke-opacity":1,"stroke":"#ff0000","SID":"028","DID":"003","RID":"006","BID":"001","State":"West_Bengal","Beat_Ar":7.34194}},
{"type":"Feature","geometry":{"type":"Polygon","coordinates":[[[89.7027850041988,26.7216471482654],[89.70265688113861,26.7206106793526],[89.7026141074914,26.7186321743122],[89.7025929696005,26.7170290216591],[89.7025546018408,26.715302845592003],[89.7025523869266,26.7152177106169],[89.7031579133597,26.7152188753391],[89.7043324286636,26.714826284699],[89.70572269193231,26.7145661554194],[89.70812320430561,26.713309656875],[89.7104882971618,26.7131287820973],[89.71276198613741,26.7112147283154],[89.71510479426671,26.708805471035202],[89.71810032927931,26.707630982483803],[89.7212007068025,26.706673981413402],[89.7230139316584,26.7049788446275],[89.7249072234482,26.7033577190786],[89.7262715092691,26.7022965765704],[89.7279725190339,26.701247662855103],[89.7289416398888,26.699349583057],[89.7303703307237,26.697580948410803],[89.7306653515393,26.697121077921203],[89.73191152691301,26.6960052142487],[89.7320723455384,26.696005500705702],[89.73209605264141,26.6944441119217],[89.7365258762026,26.6942863017121],[89.7366665450343,26.6942938801987],[89.73966354128281,26.694457825592],[89.7405682001137,26.694391707447203],[89.7418799289384,26.6942957557982],[89.7438373657943,26.694206777900902],[89.7492699175169,26.6938768810877],[89.7489721759095,26.692106289009303],[89.7490500515932,26.690958477101702],[89.7485994192657,26.690225519222203],[89.7470949717198,26.6888398024181],[89.7458761761622,26.6866006270398],[89.745506282986,26.6857025432829],[89.7450117475562,26.684365246054202],[89.74499043285181,26.682622813334902],[89.7449566577173,26.681934047249403],[89.7449300698708,26.681448225000203],[89.7449219552706,26.6794084115985],[89.7449655312563,26.677822245789002],[89.7447635408884,26.6760005443269],[89.7442149684564,26.6729730950418],[89.7444024332448,26.6699007585343],[89.7456129386936,26.6654010628741],[89.7456330887115,26.6653224211034],[89.7463586822839,26.6631824711995],[89.74677629637951,26.661704201775603],[89.747388046705,26.659904040177302],[89.7474509866752,26.657440642466],[89.7467360582761,26.6547522268122],[89.7469988767447,26.6516535746491],[89.7491764454887,26.649246410489603],[89.7516779366091,26.6480582010746],[89.7522135693484,26.6477317975869],[89.7532682027284,26.6465992435566],[89.753269223553,26.6461542504544],[89.7546801163802,26.6439756043559],[89.7563555257236,26.6414338464546],[89.75904962901551,26.641648846005],[89.76383911811111,26.641424037075],[89.7677200508148,26.6409662069202],[89.7721205971908,26.640624437183103],[89.7732305899833,26.640587704754303],[89.77548588040861,26.6405134894758],[89.7787202448732,26.6406344906459],[89.7805312495124,26.6404053226934],[89.782990454664,26.640060537133202],[89.7859675508223,26.639368258252603],[89.7889446025122,26.6386753549441],[89.79140484948691,26.6377498019141],[89.7926990669733,26.6371711482719],[89.7938777386296,26.636692077842902],[89.7934419349184,26.638938826319002],[89.7923499260161,26.6401011794056],[89.7913963555643,26.641114012972302],[89.7894788019753,26.6432898110527],[89.78743106491541,26.6466109678061],[89.78700947086621,26.647868874256],[89.7862791856428,26.648902264026002],[89.7869132543767,26.651081637699303],[89.787928737184,26.653375472150902],[89.7881802335602,26.656013101489503],[89.7872812490252,26.658648337448103],[89.7876633450113,26.6599101971325],[89.7895746250071,26.6614031379904],[89.78949310898591,26.6620121307825],[89.7893148648938,26.6633515625366],[89.78982372064701,26.6654157544523],[89.79097911037161,26.6668367323313],[89.7892956639568,26.6685581154934],[89.7878472973712,26.669422657073202],[89.7866391647763,26.670720385144],[89.7818122670543,26.6728794946628],[89.7793978909837,26.6743922746201],[89.77843001664121,26.676123714124802],[89.7793903025621,26.678507683825103],[89.7796274377381,26.6806743063986],[89.7793833476379,26.682189951714],[89.7781755481251,26.683271326517],[89.7774487935698,26.685003114163802],[89.77479409945491,26.6858654809428],[89.77454890160641,26.6880311130952],[89.77454727064631,26.688864968261402],[89.7745439619115,26.6906305282837],[89.7730918448659,26.6932275050655],[89.7718808976862,26.695825113473003],[89.7726787672092,26.697759413740602],[89.77214908049321,26.697519313233602],[89.7699363666883,26.6970902017094],[89.7681951404783,26.6970874476334],[89.7670108237206,26.697582472567102],[89.7658230458573,26.698503613789],[89.7649510775325,26.699779774575703],[89.76368079118261,26.7017655846811],[89.76241233980551,26.7041063836657],[89.76145876496321,26.7060216794344],[89.76050718798341,26.7081495630654],[89.7591598015787,26.7096383072538],[89.7574176553258,26.7112684291252],[89.7554355608691,26.7134657678693],[89.75495860417911,26.7143875851782],[89.7549569628834,26.7152394899814],[89.7552715057554,26.716233820570903],[89.7559007708768,26.718222758439],[89.756607482955,26.720424476072502],[89.7565264878497,26.7219152209653],[89.75628527754671,26.7231214576352],[89.7549368511284,26.725035981062202],[89.7534323828485,26.7270212339093],[89.7512924317809,26.728863485850102],[89.75034433801011,26.7291462222046],[89.749236206236,26.7290023124076],[89.7475759316908,26.728573647761202],[89.7455222385574,26.7275762597515],[89.7448317577425,26.727243299231002],[89.7432224863647,26.7264699266827],[89.74315222191301,26.726436108842503],[89.7413368741991,26.725652284231202],[89.7393608593632,26.7247968138895],[89.73722799162141,26.7244384154043],[89.73485581548701,26.7243632193127],[89.7320897610513,26.723932147124],[89.730429979105,26.7233611478587],[89.7288515810727,26.722293395220703],[89.7268757234354,26.7214380252498],[89.7248215893626,26.720795074449402],[89.72347840853651,26.720224356502403],[89.7225321762786,26.7197263354482],[89.7214250883728,26.719227165085602],[89.7201610547748,26.7192247892845],[89.7195150015684,26.7193290914144],[89.7192912347534,26.7193648064917],[89.7186567433223,26.719860649140703],[89.7186537204652,26.7211383854032],[89.7180975428698,26.722557074773],[89.7171444550284,26.723833386422402],[89.7159581204766,26.7249667354975],[89.7146118770407,26.725674235679],[89.71310745206961,26.7263100417404],[89.7117623137443,26.726591696155],[89.7093110446692,26.7269417109899],[89.7076489956423,26.7272934281667],[89.7061451336949,26.727645754214002],[89.7046405965818,26.728352254218102],[89.7031382077423,26.7291300568736],[89.70294682896271,26.7292742054025],[89.7027850041988,26.7216471482654]]]},"properties":{"id":null,"description":null,"altitudeMode":null,"tessellate":null,"extrude":null,"visibility":null,"drawOrder":null,"icon":null,"AREA":null,"PERIMETER":null,"division":"BuxaTR_EAST","beat":"Mainabari","range":"NorthRydak","layer":"master","path":"C:/Users/user/OneDrive/Desktop/Buxaroad/master.geojson","fill-opacity":0,"stroke-opacity":1,"stroke":"#ff0000","SID":"028","DID":"003","RID":"006","BID":"002","State":"West_Bengal","Beat_Ar":35.512}},
{"type":"Feature","geometry":{"type":"Polygon","coordinates":[[[89.7938777386296,26.636692077842902],[89.7926990669733,26.6371711482719],[89.79140484948691,26.6377498019141],[89.7889446025122,26.6386753549441],[89.7859675508223,26.639368258252603],[89.782990454664,26.640060537133202],[89.7805312495124,26.6404053226934],[89.7787202448732,26.6406344906459],[89.77548588040861,26.6405134894758],[89.7732305899833,26.640587704754303],[89.7721205971908,26.640624437183103],[89.7677200508148,26.6409662069202],[89.76383911811111,26.641424037075],[89.75904962901551,26.641648846005],[89.7563555257236,26.6414338464546],[89.7576275970284,26.6395033546872],[89.76057849190481,26.633310023019803],[89.7631439307482,26.628837060692],[89.7647065817529,26.625959921945903],[89.76494010091851,26.6247075165187],[89.7660376167,26.623303350757503],[89.7667324969207,26.622414317034302],[89.76724907054201,26.620234580748402],[89.76725544699751,26.617020380775802],[89.7672600023038,26.614724361718203],[89.7659853405742,26.6131151397676],[89.765606297723,26.610589281176],[89.7657377652027,26.608867784680502],[89.7667620203308,26.607606934123],[89.7689343918022,26.6072657072468],[89.7694487901399,26.6061186379081],[89.77000299431471,26.602675106294303],[89.7725418271883,26.6035502691983],[89.77519166188391,26.604204043582],[89.7776021074404,26.603991395706],[89.7799071401842,26.603822047094603],[89.7804946083061,26.6037791403954],[89.78314527906551,26.6039996193625],[89.785554929179,26.6042199821871],[89.7877938508125,26.604510133954502],[89.7878839654453,26.6045831606158],[89.7890074210421,26.603904061002503],[89.7902085915012,26.6032885471007],[89.7910924280625,26.603172485639902],[89.7918909050055,26.6045506245573],[89.7927142715365,26.6073564302149],[89.7929789871453,26.609619419015303],[89.7918115609477,26.6123934302413],[89.7918597444396,26.614939452687302],[89.7929941422063,26.6165964484548],[89.79493839100951,26.6204046125098],[89.795300059312,26.6217092981517],[89.7956377570638,26.6238859080849],[89.7958468426387,26.6249875198151],[89.796142915927,26.626560920456],[89.79613833809711,26.629197555637802],[89.79524062009101,26.632750686865503],[89.79408561084401,26.6356150759524],[89.7938777386296,26.636692077842902]]]},"properties":{"id":null,"description":null,"altitudeMode":null,"tessellate":null,"extrude":null,"visibility":null,"drawOrder":null,"icon":null,"AREA":null,"PERIMETER":null,"division":"BuxaTR_EAST","beat":"Teamari","range":"NorthRydak","layer":"master","path":"C:/Users/user/OneDrive/Desktop/Buxaroad/master.geojson","fill-opacity":0,"stroke-opacity":1,"stroke":"#ff0000","SID":"028","DID":"003","RID":"006","BID":"003","State":"West_Bengal","Beat_Ar":11.4148}}
]}
