{"type":"FeatureCollection", "features": [
{"type":"Feature","geometry":{"type":"Polygon","coordinates":[[[89.8696663800607,26.6726753885706],[89.869662595883,26.6724936481093],[89.8696245367861,26.6720463064854],[89.8695769613929,26.6714466743758],[89.869548418131,26.6711706632751],[89.8694627656864,26.6708660910034],[89.8693390444769,26.670513927895],[89.8692438720533,26.6702093454376],[89.8690630402797,26.6698857412708],[89.868672815288,26.669714413317],[89.8682349971802,26.6696763246967],[89.8678352464561,26.6697429470255],[89.8674164530127,26.6699237792074],[89.8669120081487,26.6701712298485],[89.8665693549966,26.6703330334788],[89.8660173181671,26.6706661433594],[89.8656651522747,26.6709421570285],[89.8655414174861,26.6711515450253],[89.8653700930331,26.6713514220743],[89.865198770882,26.6714561089362],[89.8648275714766,26.6714656217095],[89.8644183014654,26.671503683796],[89.8640756583142,26.6716654774261],[89.8636854211257,26.671998600464],[89.8632856614266,26.6724364135215],[89.8630001117036,26.6728647087894],[89.8627336035494,26.673226384298],[89.8624766162946,26.6735499899175],[89.8621530078071,26.6739306943486],[89.8618103507429,26.6742542982956],[89.8613630032212,26.674606450255],[89.8608395117254,26.6751299210641],[89.8601637405687,26.6756533889003],[89.8592214540202,26.6764243220192],[89.8588502458688,26.6767955055011],[89.8583077274084,26.6771952456947],[89.857888931435,26.6774807780792],[89.8572797803607,26.6779947271955],[89.8567277275474,26.6785753075569],[89.8561661686695,26.678994077415],[89.855728340897,26.6793557495764],[89.8552429246123,26.6796603106967],[89.8548051002938,26.6798792125782],[89.8542816170875,26.6800600427127],[89.8538723477709,26.6800695547412],[89.8533869404663,26.6800029251342],[89.8530157449795,26.6798506275892],[89.8527397395099,26.6796888218841],[89.8524066187729,26.6793366546913],[89.8521306172175,26.6790130386696],[89.8518165387401,26.6785656916625],[89.8514834226072,26.6780231640977],[89.8513121149611,26.677528239785],[89.8510741747014,26.6771475143951],[89.8505643160593,26.6767250236157],[89.8510457424175,26.6760042016025],[89.8518277689428,26.6748352145791],[89.8536218702256,26.6704812410697],[89.8559229592883,26.6665852783415],[89.857459036193,26.663262301799],[89.859377112238,26.6599393327029],[89.8602721323842,26.6590233483666],[89.8630781260754,26.6590264031177],[89.8657581366796,26.6583414540585],[89.8689511295263,26.6583445163611],[89.8710801167137,26.6586795585596],[89.8717581158649,26.658652571735],[89.8719423961609,26.6586234452731],[89.8719315001309,26.6588739455543],[89.8718958030216,26.6591713754441],[89.8718125114167,26.6596591647803],[89.8717292229746,26.6600160838587],[89.8715626529915,26.6604443814526],[89.8713841850473,26.6607894086503],[89.8710629445439,26.6612533932963],[89.870598932631,26.661788765297],[89.8703490842695,26.6621575811482],[89.8701706166128,26.6624906983219],[89.8700635419612,26.6626929466308],[89.8700397333862,26.6630498668693],[89.8701230077374,26.6632759189396],[89.870230081748,26.6635138714979],[89.8703847373789,26.663680434844],[89.8705631912312,26.6639183887952],[89.8708249223106,26.6642634145826],[89.8710628622921,26.6646560299996],[89.8712413124052,26.6650486442557],[89.8714911325804,26.665845770702],[89.8717171622322,26.666666686731],[89.8718123233236,26.6674400201125],[89.8718123083649,26.6680586813315],[89.8717647040868,26.6686535415747],[89.8716576116658,26.6691770305161],[89.8714553503189,26.6696648075297],[89.8712173916399,26.6700455236353],[89.8710151348957,26.6703429502734],[89.8708247689882,26.6706046870735],[89.8706344125051,26.6708902239204],[89.8705273264128,26.6711519623458],[89.8703845486735,26.6714850802151],[89.8702417715094,26.6717944080375],[89.8700276145034,26.6721037344665],[89.8696663800607,26.6726753885706]]]},"properties":{"compartment":"Sankosh BL3A","Division":"BTR_E","Range":"Kumargram","Beat":"Sankosh"},"id":"comptt.125"},
{"type":"Feature","geometry":{"type":"Polygon","coordinates":[[[89.8719423961609,26.6586234452731],[89.8720301163019,26.6586095769573],[89.8739261193323,26.6583106133613],[89.8753280774164,26.6599166438847],[89.8755310637946,26.6604616489211],[89.8749850307269,26.6618796410642],[89.8750349711968,26.6643376468886],[89.8765139077727,26.6668256806624],[89.8771138544826,26.6689746966148],[89.8773857900615,26.6716137071334],[89.8768777382415,26.6738027015374],[89.8754656784752,26.6764026791016],[89.8754636302411,26.6783966829961],[89.8750925938283,26.6799356787879],[89.8750775922162,26.6800036786291],[89.8749310336543,26.680370966492],[89.8742404864796,26.6803174129028],[89.8729270210026,26.6802507671249],[89.8723464462045,26.6800889554699],[89.8720133192461,26.6799937687779],[89.871575505053,26.6797938798355],[89.8711757635387,26.6794797814117],[89.8709187905564,26.6792132758692],[89.8706237529543,26.6787278591524],[89.8704809986982,26.6780901651091],[89.8703667909247,26.6775952319045],[89.8702811426269,26.677119339295],[89.8701479166368,26.676138994763],[89.8700527659566,26.6753490113494],[89.8699766262552,26.6749302190382],[89.8698624294002,26.6743972257592],[89.8697482197827,26.6739784327048],[89.8696720928429,26.6734454301691],[89.869672104813,26.6729504991946],[89.8696663800607,26.6726753885706],[89.8700276145034,26.6721037344665],[89.8702417715094,26.6717944080375],[89.8703845486735,26.6714850802151],[89.8705273264128,26.6711519623458],[89.8706344125051,26.6708902239204],[89.8708247689882,26.6706046870735],[89.8710151348957,26.6703429502734],[89.8712173916399,26.6700455236353],[89.8714553503189,26.6696648075297],[89.8716576116658,26.6691770305161],[89.8717647040868,26.6686535415747],[89.8718123083649,26.6680586813315],[89.8718123233236,26.6674400201125],[89.8717171622322,26.666666686731],[89.8714911325804,26.665845770702],[89.8712413124052,26.6650486442557],[89.8710628622921,26.6646560299996],[89.8708249223106,26.6642634145826],[89.8705631912312,26.6639183887952],[89.8703847373789,26.663680434844],[89.870230081748,26.6635138714979],[89.8701230077374,26.6632759189396],[89.8700397333862,26.6630498668693],[89.8700635419612,26.6626929466308],[89.8701706166128,26.6624906983219],[89.8703490842695,26.6621575811482],[89.870598932631,26.661788765297],[89.8710629445439,26.6612533932963],[89.8713841850473,26.6607894086503],[89.8715626529915,26.6604443814526],[89.8717292229746,26.6600160838587],[89.8718125114167,26.6596591647803],[89.8718958030216,26.6591713754441],[89.8719315001309,26.6588739455543],[89.8719423961609,26.6586234452731]]]},"properties":{"compartment":"Sankosh BL3B","Division":"BTR_E","Range":"Kumargram","Beat":"Sankosh"},"id":"comptt.126"},
{"type":"Feature","geometry":{"type":"Polygon","coordinates":[[[89.8693296077596,26.68897905407],[89.8682683601177,26.6889790333429],[89.8672975388199,26.689121784663],[89.8658127434825,26.689478676366],[89.86434223088,26.6897213481229],[89.8626290195109,26.6899354650836],[89.8612584477261,26.6901353187082],[89.8600877530785,26.6904351064325],[89.8585886908923,26.6906635076033],[89.8557618961647,26.6907062824791],[89.8533919618049,26.6906919561665],[89.8504509487274,26.6906776187019],[89.8478954154847,26.6906347387109],[89.8447117022736,26.690648956565],[89.8430345463759,26.6906348537854],[89.8430344070244,26.6906080737305],[89.8430194906941,26.6871520666945],[89.8428225647166,26.6841110569148],[89.842814645464,26.6807740502479],[89.8425247068031,26.6782650396916],[89.8459526990504,26.6782681066127],[89.8487617037698,26.6778131605567],[89.8502957169324,26.6771271891595],[89.8505643160593,26.6767250236157],[89.8510741747014,26.6771475143951],[89.8513121149611,26.677528239785],[89.8514834226072,26.6780231640977],[89.8518165387401,26.6785656916625],[89.8521306172175,26.6790130386696],[89.8524066187729,26.6793366546913],[89.8527397395099,26.6796888218841],[89.8530157449795,26.6798506275892],[89.8533869404663,26.6800029251342],[89.8538723477709,26.6800695547412],[89.8542816170875,26.6800600427127],[89.8548051002938,26.6798792125782],[89.8552429246123,26.6796603106967],[89.855728340897,26.6793557495764],[89.8561661686695,26.678994077415],[89.8567277275474,26.6785753075569],[89.8572797803607,26.6779947271955],[89.857888931435,26.6774807780792],[89.8583077274084,26.6771952456947],[89.8588502458688,26.6767955055011],[89.8592214540202,26.6764243220192],[89.8601637405687,26.6756533889003],[89.8608395117254,26.6751299210641],[89.8613630032212,26.674606450255],[89.8618103507429,26.6742542982956],[89.8621530078071,26.6739306943486],[89.8624766162946,26.6735499899175],[89.8627336035494,26.673226384298],[89.8630001117036,26.6728647087894],[89.8632856614266,26.6724364135215],[89.8636854211257,26.671998600464],[89.8640756583142,26.6716654774261],[89.8644183014654,26.671503683796],[89.8648275714766,26.6714656217095],[89.865198770882,26.6714561089362],[89.8653700930331,26.6713514220743],[89.8655414174861,26.6711515450253],[89.8656651522747,26.6709421570285],[89.8660173181671,26.6706661433594],[89.8665693549966,26.6703330334788],[89.8669120081487,26.6701712298485],[89.8674164530127,26.6699237792074],[89.8678352464561,26.6697429470255],[89.8682349971802,26.6696763246967],[89.868672815288,26.669714413317],[89.8690630402797,26.6698857412708],[89.8692438720533,26.6702093454376],[89.8693390444769,26.670513927895],[89.8694627656864,26.6708660910034],[89.869548418131,26.6711706632751],[89.8695769613929,26.6714466743758],[89.8696245367861,26.6720463064854],[89.869662595883,26.6724936481093],[89.8696663800607,26.6726753885706],[89.869672104813,26.6729504991946],[89.8696720928429,26.6734454301691],[89.8697482197827,26.6739784327048],[89.8698624294002,26.6743972257592],[89.8699766262552,26.6749302190382],[89.8700527659566,26.6753490113494],[89.8701479166368,26.676138994763],[89.8702811426269,26.677119339295],[89.8703667909247,26.6775952319045],[89.8704809986982,26.6780901651091],[89.8706237529543,26.6787278591524],[89.8709187905564,26.6792132758692],[89.8711757635387,26.6794797814117],[89.871575505053,26.6797938798355],[89.8720133192461,26.6799937687779],[89.8723464462045,26.6800889554699],[89.8729270210026,26.6802507671249],[89.8742404864796,26.6803174129028],[89.8749310336543,26.680370966492],[89.8737955173126,26.6832166599316],[89.8727724918241,26.6843636422154],[89.8711094455627,26.6864276138054],[89.8696193971966,26.6885625889097],[89.8693296077596,26.68897905407]]]},"properties":{"compartment":"Sankosh BL2","Division":"BTR_E","Range":"Kumargram","Beat":"Sankosh"},"id":"comptt.135"},
{"type":"Feature","geometry":{"type":"Polygon","coordinates":[[[89.860953477936,26.6988286498198],[89.8610195888335,26.6983725402159],[89.8610576672762,26.6980203802683],[89.8609815368953,26.6976301480149],[89.8607055260381,26.6972779819316],[89.8602296433219,26.6970209921308],[89.8593825577467,26.6969162753777],[89.8586116178538,26.6969828904484],[89.8577169373158,26.6970875731765],[89.856508175406,26.697277899937],[89.8554992735118,26.6974492005644],[89.8544808574912,26.6977918313415],[89.8532340231349,26.698086857563],[89.8522727113675,26.6982486391009],[89.8502454069168,26.6986198002248],[89.8485417147409,26.698867227428],[89.8471996915261,26.6991241817146],[89.8461907987177,26.6993335624157],[89.8452104544637,26.6996000437858],[89.8442872170862,26.6999902565127],[89.8434125416102,26.7003414399162],[89.8433911734105,26.7002250994674],[89.8433911761709,26.7001110992449],[89.843403260935,26.6966090926461],[89.842908306687,26.6947650793802],[89.8430383889116,26.691356075268],[89.8430345463759,26.6906348537854],[89.8447117022736,26.690648956565],[89.8478954154847,26.6906347387109],[89.8504509487274,26.6906776187019],[89.8533919618049,26.6906919561665],[89.8557618961647,26.6907062824791],[89.8585886908923,26.6906635076033],[89.8600877530785,26.6904351064325],[89.8612584477261,26.6901353187082],[89.8626290195109,26.6899354650836],[89.86434223088,26.6897213481229],[89.8658127434825,26.689478676366],[89.8672975388199,26.689121784663],[89.8682683601177,26.6889790333429],[89.8693296077596,26.68897905407],[89.8691893831931,26.6891805817281],[89.8677813613417,26.6902125562589],[89.8668843105392,26.6923935430289],[89.8664962363973,26.6954915415424],[89.8659841930801,26.6973275351505],[89.8621491738958,26.6984724624797],[89.8614201702663,26.6986894486639],[89.860953477936,26.6988286498198]]]},"properties":{"compartment":"Sankosh BL1A","Division":"BTR_E","Range":"Kumargram","Beat":"Sankosh"},"id":"comptt.148"},
{"type":"Feature","geometry":{"type":"Polygon","coordinates":[[[89.860953477936,26.6988286498198],[89.8590801585836,26.6993874043188],[89.8544751217204,26.7013343181691],[89.8520450799544,26.7032832745088],[89.8470590634424,26.7044261793279],[89.8456440620392,26.7046151520511],[89.8442320606551,26.7048031248308],[89.8434125416102,26.7003414399162],[89.8442872170862,26.6999902565127],[89.8452104544637,26.6996000437858],[89.8461907987177,26.6993335624157],[89.8471996915261,26.6991241817146],[89.8485417147409,26.698867227428],[89.8502454069168,26.6986198002248],[89.8522727113675,26.6982486391009],[89.8532340231349,26.698086857563],[89.8544808574912,26.6977918313415],[89.8554992735118,26.6974492005644],[89.856508175406,26.697277899937],[89.8577169373158,26.6970875731765],[89.8586116178538,26.6969828904484],[89.8593825577467,26.6969162753777],[89.8602296433219,26.6970209921308],[89.8607055260381,26.6972779819316],[89.8609815368953,26.6976301480149],[89.8610576672762,26.6980203802683],[89.8610195888335,26.6983725402159],[89.860953477936,26.6988286498198]]]},"properties":{"compartment":"Sankosh BL1B","Division":"BTR_E","Range":"Kumargram","Beat":"Sankosh"},"id":"comptt.152"}
]}