{"type":"FeatureCollection", "features": [
{"type":"Feature","geometry":{"type":"Polygon","coordinates":[[[89.7559797554276,26.5679661071898],[89.7546879817814,26.5676473195536],[89.7542994264053,26.5674721995955],[89.7508118739454,26.5659565825785],[89.7489378087529,26.5656747972373],[89.7469058167832,26.5653737765391],[89.7447652691225,26.5653298266748],[89.7423462871517,26.5652334198006],[89.7389915456955,26.5650164389326],[89.737251431355,26.5643366578496],[89.7353840730198,26.5634350665171],[89.7325684438646,26.5623597287865],[89.7292457630161,26.5613158762973],[89.7285413633326,26.5610466693734],[89.7269711094116,26.5607442611947],[89.7239985960948,26.5602741249069],[89.7210257985216,26.5599195478069],[89.7186984715686,26.5593346173276],[89.7174722973348,26.5589833906486],[89.7169562146163,26.5586337385498],[89.7161159348341,26.5585158485044],[89.7149239880686,26.5584602836385],[89.7150486850545,26.5577977790443],[89.7164525826889,26.5573420636498],[89.7172231334734,26.5552801093958],[89.7195197001585,26.5540234347002],[89.718758698258,26.5523022932888],[89.7171040421348,26.5517258426798],[89.7149386231274,26.5506896677929],[89.7146894865693,26.5489693820834],[89.7159676145649,26.5475961598405],[89.7186435502831,26.5481746799505],[89.7201736097891,26.5473753460961],[89.7204346259846,26.545311919516],[89.7191639513854,26.5437043768129],[89.7172534698935,26.5431276282763],[89.7158527181765,26.5424364230871],[89.7158527622998,26.5423867909438],[89.7158578668298,26.5403729829201],[89.7170108942556,26.5378532483707],[89.7176512130232,26.5365931722352],[89.7184548302788,26.5362932991665],[89.7195340140143,26.534158800645],[89.7205599475405,26.5322096468103],[89.721120309283,26.5318258437666],[89.7252832105641,26.5315306919045],[89.7282178909686,26.5317655397775],[89.7302595081648,26.5319990555603],[89.7310384365583,26.5315006060453],[89.7311539991557,26.5314270099777],[89.7312083481033,26.5307551968035],[89.7335422962739,26.5314602760266],[89.735707999047,26.5323309247597],[89.7361661523629,26.5327429759203],[89.7378709501003,26.5342844380047],[89.7405178537184,26.5353724768083],[89.7409515834715,26.5354844844149],[89.7422027349901,26.5358089855878],[89.7433581974074,26.5374357745059],[89.744693707704,26.5382025164255],[89.747265916879,26.5390911225779],[89.7490508811681,26.5397098976423],[89.7506495894576,26.540629854476],[89.7523534218636,26.541705851337],[89.7540404940436,26.5423283041273],[89.7562592960878,26.5431601848244],[89.7599570540643,26.5446181085318],[89.7607679759039,26.545567704861],[89.7607033305777,26.5464779338503],[89.7606440370803,26.5483733820008],[89.7602335026715,26.5502740199952],[89.759800574465,26.5508960932561],[89.7597676000419,26.5522162305223],[89.7597541134576,26.5527084758742],[89.7592425261554,26.5537054436145],[89.7588903675016,26.5541026132461],[89.7588334062727,26.5560702215771],[89.7586737497775,26.5568301930308],[89.7582632497531,26.557484978396],[89.7579938816216,26.5579121424961],[89.7574831811969,26.5596673740824],[89.7569134883204,26.5620282082857],[89.7566658021781,26.5628693507734],[89.7554081734452,26.5665400709374],[89.7557744351001,26.5677410727308],[89.7559797554276,26.5679661071898]]]},"properties":{"id":null,"description":null,"altitudeMode":null,"tessellate":null,"extrude":null,"visibility":null,"drawOrder":null,"icon":null,"AREA":null,"PERIMETER":null,"division":"BuxaTR_EAST","beat":"Chipra","range":"SouthRydak","layer":"master","path":"C:/Users/user/OneDrive/Desktop/Buxaroad/master.geojson","fill-opacity":0,"stroke-opacity":1,"stroke":"#ff0000","SID":"028","DID":"003","RID":"007","BID":"001","State":"West_Bengal","Beat_Ar":12.165}},
{"type":"Feature","geometry":{"type":"Polygon","coordinates":[[[89.7919938508125,26.6096101339545],[89.789754929179,26.6093199821871],[89.7873452790655,26.6090996193625],[89.7846946083061,26.6088791403954],[89.7841071401842,26.6089220470946],[89.7818021074404,26.609091395706],[89.7793916618839,26.609304043582],[89.7767418271883,26.6086502691983],[89.7742029943147,26.6077751062943],[89.7742207701788,26.6076561665197],[89.7742944097637,26.607202370968],[89.7745549046023,26.6050213083247],[89.7718732551107,26.6052662571671],[89.7710001431052,26.6050298334703],[89.7678736983194,26.6054928700257],[89.7648332873774,26.6056440163584],[89.764368807945,26.6056432973698],[89.764602431248,26.6055907665377],[89.7646858571534,26.6052913841094],[89.7647725142005,26.6046919229375],[89.7648562911065,26.60424195278],[89.7649400718009,26.6037922645164],[89.7650239580837,26.6032678472291],[89.765110612494,26.602668385854],[89.7649437933922,26.6019933964388],[89.7647832138758,26.60193842801],[89.7648494976007,26.6002078705641],[89.764486503592,26.5997645746428],[89.7651543912833,26.5972499436335],[89.7658054315521,26.5956105383419],[89.7662519729901,26.5944885874311],[89.7667083675316,26.5910705387282],[89.7661253279384,26.5877638172856],[89.765383382712,26.5860585210231],[89.7639363811327,26.5842181511394],[89.76354457216,26.581894038421],[89.7628055147007,26.5801057831112],[89.7616827618178,26.5768953942759],[89.7611222343456,26.5749498196737],[89.7601038900183,26.5722710863144],[89.760056919819,26.5695930180431],[89.7598084973301,26.5695554843669],[89.7580979550497,26.569088786212],[89.7570388018058,26.5691297888403],[89.7559797554276,26.5679661071898],[89.7557744351001,26.5677410727308],[89.7554081734452,26.5665400709374],[89.7566658021781,26.5628693507734],[89.7569134883204,26.5620282082857],[89.7574831811969,26.5596673740824],[89.7579938816216,26.5579121424961],[89.7582632497531,26.557484978396],[89.7586737497775,26.5568301930308],[89.7588334062727,26.5560702215771],[89.7588903675016,26.5541026132461],[89.7592425261554,26.5537054436145],[89.7597541134576,26.5527084758742],[89.7597676000419,26.5522162305223],[89.759800574465,26.5508960932561],[89.7602335026715,26.5502740199952],[89.7606440370803,26.5483733820008],[89.7607033305777,26.5464779338503],[89.7607679759039,26.545567704861],[89.7599570540643,26.5446181085318],[89.758477405922,26.540742340092],[89.7587349936326,26.5399777744374],[89.7588646830362,26.5380070080092],[89.7592817549257,26.5365552256132],[89.7596037587449,26.5350298885534],[89.76004127759,26.5345371953775],[89.7602414446271,26.5348082552682],[89.7604931893582,26.5367599252753],[89.7612550144281,26.5383683023689],[89.7624005459473,26.5400336815106],[89.7644417665281,26.5405540560405],[89.7654217193055,26.5410514696757],[89.7662438194969,26.541471312601],[89.7668852933962,26.5430884794459],[89.7671426949024,26.5460019388134],[89.7681498909359,26.5478804761072],[89.7688206226829,26.5499986502178],[89.7679404196207,26.5521710605049],[89.7696807453665,26.5563409684087],[89.7709035466123,26.5572078291546],[89.7715146704506,26.5590534755691],[89.772467457909,26.5619277993644],[89.7748909869283,26.5710386287324],[89.7753317905535,26.5727044910258],[89.7831159851305,26.5731883126481],[89.7912223988024,26.5731242551633],[89.7908340119124,26.5742232657353],[89.7906428457808,26.5757374196972],[89.7902277133525,26.5776378984523],[89.7897166620237,26.5798370822526],[89.7894008558556,26.5809749365872],[89.7894334898681,26.5823046713829],[89.7889170484929,26.5846835476107],[89.7887282427534,26.5862910074948],[89.789115178148,26.5888322231711],[89.7890816424499,26.5892779064844],[89.7888682578836,26.5919766920789],[89.7894278821584,26.594804206304],[89.7908815721506,26.597329443473],[89.7904726219064,26.5986235663936],[89.7909624874199,26.6011282249559],[89.7895675058653,26.6034191886913],[89.7901519879843,26.6050479279542],[89.7902989001348,26.6070321243179],[89.7906577316493,26.6085280654907],[89.7919938508125,26.6096101339545]]]},"properties":{"id":null,"description":null,"altitudeMode":null,"tessellate":null,"extrude":null,"visibility":null,"drawOrder":null,"icon":null,"AREA":null,"PERIMETER":null,"division":"BuxaTR_EAST","beat":"Marakata","range":"SouthRydak","layer":"master","path":"C:/Users/user/OneDrive/Desktop/Buxaroad/master.geojson","fill-opacity":0,"stroke-opacity":1,"stroke":"#ff0000","SID":"028","DID":"003","RID":"007","BID":"003","State":"West_Bengal","Beat_Ar":13.5805}},
{"type":"Feature","geometry":{"type":"Polygon","coordinates":[[[89.7312083481033,26.5307551968035],[89.7312858733185,26.5298205627356],[89.7314164899309,26.528672939417],[89.7307807583037,26.5270645427467],[89.7293788626266,26.5268322880502],[89.7286092231102,26.527634608112],[89.7277169617374,26.5272881452953],[89.7260612262859,26.5262521425207],[89.7246599893082,26.5257902866973],[89.7233867851149,26.5242956016577],[89.7230069530643,26.5226882977791],[89.7225024920051,26.5207359239209],[89.7232726958178,26.518671688568],[89.7242960303594,26.5177555012964],[89.7244259057314,26.5169522090267],[89.7238974600169,26.5166134396514],[89.7235952407922,26.5160841204434],[89.7215985594709,26.5160572236133],[89.7200483086189,26.5150773944945],[89.7185079037276,26.51513433733],[89.7144033680614,26.5144556724645],[89.7131878596085,26.5140289669519],[89.7076513407403,26.5132266009388],[89.7064349663192,26.5121458895419],[89.7074559712909,26.5101889866044],[89.706837352852,26.5060425418199],[89.70811022962,26.5036404418995],[89.7159293012879,26.5032340447424],[89.7219848561846,26.5029173502322],[89.725129814937,26.5030578168235],[89.7278042632598,26.5027355206101],[89.729673213137,26.5025817188574],[89.7329796302534,26.5023557116911],[89.7368367496454,26.5025126379768],[89.7404858264748,26.5026581828833],[89.7444566513282,26.5025160073113],[89.746997537552,26.5024259439369],[89.7484339795806,26.503888525729],[89.7472920741911,26.5052882616108],[89.7466493527029,26.5077551488644],[89.7468997264745,26.5101648388496],[89.7491316674311,26.5103994303098],[89.7497642310268,26.5124087794708],[89.7481640844882,26.5145292923178],[89.7477663628988,26.5162901605375],[89.7471354040644,26.5190594856468],[89.7496832774858,26.5194675616227],[89.7498117679585,26.5203291716006],[89.7533806523696,26.5206789505608],[89.753888568471,26.5224016093988],[89.7547798671675,26.5232070069193],[89.7552855898145,26.5248143501692],[89.7557951270711,26.5258480664],[89.7571942180533,26.5273425845301],[89.7591032227731,26.5297562950745],[89.7597392343746,26.5314790359538],[89.759478398656,26.5337740258349],[89.76004127759,26.5345371953775],[89.7596037587449,26.5350298885534],[89.7592817549257,26.5365552256132],[89.7588646830362,26.5380070080092],[89.7587349936326,26.5399777744374],[89.758477405922,26.540742340092],[89.7599570540643,26.5446181085318],[89.7562592960878,26.5431601848244],[89.7540404940436,26.5423283041273],[89.7523534218636,26.541705851337],[89.7506495894576,26.540629854476],[89.7490508811681,26.5397098976423],[89.747265916879,26.5390911225779],[89.744693707704,26.5382025164255],[89.7433581974074,26.5374357745059],[89.7422027349901,26.5358089855878],[89.7409515834715,26.5354844844149],[89.7405178537184,26.5353724768083],[89.7378709501003,26.5342844380047],[89.7361661523629,26.5327429759203],[89.735707999047,26.5323309247597],[89.7335422962739,26.5314602760266],[89.7312083481033,26.5307551968035]]]},"properties":{"id":null,"description":null,"altitudeMode":null,"tessellate":null,"extrude":null,"visibility":null,"drawOrder":null,"icon":null,"AREA":null,"PERIMETER":null,"division":"BuxaTR_EAST","beat":"Narathali","range":"SouthRydak","layer":"master","path":"C:/Users/user/OneDrive/Desktop/Buxaroad/master.geojson","fill-opacity":0,"stroke-opacity":1,"stroke":"#ff0000","SID":"028","DID":"003","RID":"007","BID":"004","State":"West_Bengal","Beat_Ar":11.9522}},
{"type":"Feature","geometry":{"type":"Polygon","coordinates":[[[89.7559797554276,26.5679661071898],[89.7570388018058,26.5691297888403],[89.7580979550497,26.569088786212],[89.7598084973301,26.5695554843669],[89.760056919819,26.5695930180431],[89.7601038900183,26.5722710863144],[89.7611222343456,26.5749498196737],[89.7616827618178,26.5768953942759],[89.7628055147007,26.5801057831112],[89.76354457216,26.581894038421],[89.7639363811327,26.5842181511394],[89.765383382712,26.5860585210231],[89.7661253279384,26.5877638172856],[89.7667083675316,26.5910705387282],[89.7662519729901,26.5944885874311],[89.7658054315521,26.5956105383419],[89.7651543912833,26.5972499436335],[89.764486503592,26.5997645746428],[89.7648494976007,26.6002078705641],[89.7647832138758,26.60193842801],[89.7649437933922,26.6019933964388],[89.765110612494,26.602668385854],[89.7650239580837,26.6032678472291],[89.7649400718009,26.6037922645164],[89.7648562911065,26.60424195278],[89.7647725142005,26.6046919229375],[89.7646858571534,26.6052913841094],[89.764602431248,26.6055907665377],[89.764368807945,26.6056432973698],[89.7636337086432,26.6054727925909],[89.7620197634156,26.6053348953909],[89.758557991665,26.6052579239144],[89.756812828532,26.6054551872244],[89.7548950906828,26.6053880778718],[89.7528065105278,26.6053540688069],[89.749507882983,26.6053557968336],[89.7479469465827,26.6050910361756],[89.7472127708817,26.6044433024762],[89.7454791075423,26.6028795218569],[89.7444399555842,26.6017070624571],[89.7444227615996,26.6015152361647],[89.74385099492,26.6012783280324],[89.7411691720212,26.5993995713766],[89.7393605446784,26.5966260285501],[89.7378978027662,26.5952615844364],[89.7369761731308,26.5943594696215],[89.7351954390623,26.5926198797566],[89.7338412407278,26.5909661484948],[89.7316987257667,26.5883984733726],[89.7310064522695,26.5871029590003],[89.7290893202975,26.5848136437356],[89.7285990393191,26.5840934670801],[89.7285214662984,26.5839844319267],[89.726004439605,26.5858868907328],[89.7257185682509,26.5868147412185],[89.7260993157611,26.5881913324916],[89.7262225930315,26.5901406786424],[89.7248138886499,26.5924309389324],[89.7258272533835,26.5948404146958],[89.7257979180279,26.5955505522908],[89.7250260925483,26.5971044070988],[89.7243974997435,26.5974986490197],[89.7241816754566,26.5985378808451],[89.7238229469723,26.5994962209418],[89.7236775947644,26.6003910619129],[89.7234625185937,26.601094145576],[89.7234602826579,26.602052955693],[89.7235295754789,26.6034595522619],[89.7237407501408,26.6044188758411],[89.7239513573055,26.6055699622223],[89.7240894343737,26.6065930562888],[89.7244435801856,26.6075528994433],[89.7238719692405,26.6082552334541],[89.7230169203408,26.6088924775377],[89.722022239308,26.6090824731007],[89.720953483138,26.6098475006267],[89.7193164661365,26.6099084877323],[89.7185329545521,26.609970698461],[89.7176089944056,26.6100326286348],[89.7174676004701,26.6093296314938],[89.7174694535093,26.60856229996],[89.7173315723344,26.6074751823619],[89.7173338647603,26.6065798194114],[89.7172636393203,26.6055570247276],[89.7170522347059,26.604725718508],[89.7168399718578,26.604277372036],[89.7164160325454,26.6031257468087],[89.7160643468215,26.6022304275131],[89.7156394094083,26.6014623253354],[89.7149292993224,26.6003739314426],[89.7149311727328,26.5996065982158],[89.7150078885897,26.5980724611571],[89.7148673781257,26.596985088152],[89.7155919201822,26.595365867004],[89.7155968468347,26.593416933469],[89.7161138490942,26.5904370456054],[89.7147309881619,26.589302058255],[89.714924618711,26.588190067722],[89.7149926385222,26.5861154467024],[89.7156976915305,26.5861890020263],[89.7167132189643,26.5855797589244],[89.7163443648542,26.5845394156712],[89.7141733172528,26.5845348666571],[89.7129152494822,26.5837770745757],[89.7126445370136,26.5836133933229],[89.7125203167273,26.5821211531503],[89.7130363620128,26.5805154526229],[89.712144562768,26.5798248662864],[89.7112542715394,26.5785606740758],[89.7122775467252,26.5778741032341],[89.7136831681006,26.5768439588466],[89.7149632634397,26.57581362302],[89.7159874769839,26.5746676431777],[89.7162442550817,26.5734057120549],[89.7167688122053,26.5723334345135],[89.7162926127937,26.5700679795315],[89.7161660834103,26.5694942326495],[89.7156606934129,26.5678881528058],[89.7143884852248,26.5668538973062],[89.7140139593428,26.5641013242485],[89.7149097466751,26.5621540551009],[89.7145322539061,26.5605484003747],[89.7149239880686,26.5584602836385],[89.7161159348341,26.5585158485044],[89.7169562146163,26.5586337385498],[89.7174722973348,26.5589833906486],[89.7186984715686,26.5593346173276],[89.7210257985216,26.5599195478069],[89.7239985960948,26.5602741249069],[89.7269711094116,26.5607442611947],[89.7285413633326,26.5610466693734],[89.7292457630161,26.5613158762973],[89.7325684438646,26.5623597287865],[89.7353840730198,26.5634350665171],[89.737251431355,26.5643366578496],[89.7389915456955,26.5650164389326],[89.7423462871517,26.5652334198006],[89.7447652691225,26.5653298266748],[89.7469058167832,26.5653737765391],[89.7489378087529,26.5656747972373],[89.7508118739454,26.5659565825785],[89.7542994264053,26.5674721995955],[89.7546879817814,26.5676473195536],[89.7559797554276,26.5679661071898]]]},"properties":{"id":null,"description":null,"altitudeMode":null,"tessellate":null,"extrude":null,"visibility":null,"drawOrder":null,"icon":null,"AREA":null,"PERIMETER":null,"division":"BuxaTR_EAST","beat":"SouthRydak","range":"SouthRydak","layer":"master","path":"C:/Users/user/OneDrive/Desktop/Buxaroad/master.geojson","fill-opacity":0,"stroke-opacity":1,"stroke":"#ff0000","SID":"028","DID":"003","RID":"007","BID":"005","State":"West_Bengal","Beat_Ar":18.951}}
]}