{"type":"FeatureCollection", "features": [
{"type":"Feature","geometry":{"type":"Polygon","coordinates":[[[89.6291173946035,26.670373863014],[89.629213828933,26.6722561183015],[89.629213810551,26.6730175496799],[89.6292137950408,26.673660000843],[89.6291186014836,26.6742310700221],[89.6288568437328,26.6749924963001],[89.6286426781645,26.6756587433329],[89.6283809261582,26.6761822191798],[89.6283333196115,26.6768722595012],[89.6283333040981,26.6775147206639],[89.6283332897335,26.6781095817404],[89.6284998257715,26.6790851667521],[89.6285712029568,26.6796086490909],[89.6287139373263,26.6806556237682],[89.6289280629011,26.6820595104834],[89.6289280335898,26.6832730326799],[89.6289280117487,26.6841772343166],[89.6287376171469,26.685628703233],[89.628571044329,26.6861759809766],[89.6282862430946,26.6871066162254],[89.627850350252,26.6868309081126],[89.6271936332248,26.686359754458],[89.6264369760945,26.6859028888814],[89.6258088055493,26.6855745060423],[89.6249664958694,26.684817818255],[89.6242955016355,26.6842324541177],[89.6237101744348,26.683761311857],[89.622425291,26.682790465059],[89.6212260666673,26.6818481799839],[89.6207196486601,26.6813857697212],[89.6205693527428,26.6812485361022],[89.6193844056167,26.680420461514],[89.618285112077,26.6798493690601],[89.6164577134071,26.6787357414403],[89.615729605174,26.6783216965054],[89.6151014429059,26.6780647038015],[89.6136309547515,26.6773080037843],[89.6125887707299,26.6767511924742],[89.6110897319568,26.676023041955],[89.6097905609744,26.6753662854603],[89.6089054141589,26.6749094173928],[89.6082772418929,26.6746524146919],[89.6075205775275,26.6744953596674],[89.6063070722025,26.6740099251527],[89.6044368367507,26.6731818372297],[89.6039086052758,26.6728820164008],[89.6034089344207,26.6725536360774],[89.6028807053581,26.6721538750699],[89.6026196324792,26.6718879908166],[89.604865419701,26.6717733930515],[89.6082324140539,26.6716674584545],[89.612374406507,26.671562538959],[89.6141864047805,26.6714515740607],[89.6167733983504,26.6714576244725],[89.6181973961965,26.6714036521185],[89.6202043926059,26.6713506911249],[89.6252523926586,26.6708417885568],[89.6291173946035,26.670373863014]]]},"properties":{"compartment":"Jainti BL1"},"id":"comptt.130"}
]}