{"type":"FeatureCollection", "features": [
{"type":"Feature","geometry":{"type":"Polygon","coordinates":[[[89.5817337011945,26.6736426352357],[89.5796381450888,26.6736953150619],[89.5762402872416,26.6735382085982],[89.5746733598968,26.6735381786413],[89.5741884773058,26.6725017967942],[89.5732905216017,26.6707577762108],[89.571679567724,26.669010741739],[89.5703926144197,26.6672067134796],[89.5694946699454,26.6649966920788],[89.5693097264317,26.6626736843625],[89.5693147588331,26.6613296820796],[89.5701127513425,26.6615586980215],[89.5707497453829,26.6617407107459],[89.5757037395003,26.6614788067341],[89.5772837403885,26.6612808371451],[89.5783107366089,26.6613328572334],[89.579094735164,26.6613128724626],[89.5818677314624,26.6611839262249],[89.5856537275739,26.6609599995428],[89.5886787235598,26.660819058192],[89.5921287255563,26.660386124596],[89.5948467200421,26.6603391774365],[89.5959337176746,26.6603271985811],[89.5970267187185,26.6601732195888],[89.5985786392805,26.6633092554243],[89.6001865332724,26.6675402943188],[89.6017964452656,26.6710243319224],[89.6022404228706,26.6719073421545],[89.6000824721824,26.6717397898162],[89.5969130375156,26.6718396682539],[89.5947144073805,26.6720680558336],[89.5905170493893,26.6724106146829],[89.5876188596038,26.6726960987378],[89.5855201764844,26.6730386984682],[89.5831216730717,26.6734241224342],[89.5819081508855,26.6736382491773],[89.5817337011945,26.6736426352357]]]},"properties":{"compartment":"N RVBK BL14"},"id":"comptt.122"}
]}