{"type":"FeatureCollection", "features": [
{"type":"Feature","geometry":{"type":"Polygon","coordinates":[[[89.6207196486601,26.6813857697212],[89.6164148183513,26.6814340554676],[89.6144874606239,26.6815339580854],[89.6118177012593,26.6817766064918],[89.6092764440008,26.6819193272231],[89.6076346145547,26.6820620654832],[89.6057072433942,26.682304728358],[89.6030660401872,26.6827044276033],[89.6015955382626,26.6829328293558],[89.5995682321847,26.6833896506663],[89.5977265191042,26.6837036953374],[89.5950424825723,26.6842461640019],[89.591330513395,26.6850027630158],[89.5904168032224,26.685102685388],[89.5893746206029,26.684074733244],[89.5888749594113,26.6833466122081],[89.5874187760767,26.6815619806503],[89.5867763373021,26.6807481866816],[89.5854629274034,26.6788065176311],[89.5843922048424,26.677364544202],[89.5837497777872,26.67647937011],[89.5831929939734,26.6758654581703],[89.5825791147791,26.6750659447884],[89.5819652373071,26.6741950512802],[89.5817337011945,26.6736426352357],[89.5819081508855,26.6736382491773],[89.5831216730717,26.6734241224342],[89.5855201764844,26.6730386984682],[89.5876188596038,26.6726960987378],[89.5905170493893,26.6724106146829],[89.5947144073805,26.6720680558336],[89.5969130375156,26.6718396682539],[89.6000824721824,26.6717397898162],[89.6022404228706,26.6719073421545],[89.6026196324792,26.6718879908166],[89.6028807053581,26.6721538750699],[89.6034089344207,26.6725536360774],[89.6039086052758,26.6728820164008],[89.6044368367507,26.6731818372297],[89.6063070722025,26.6740099251527],[89.6075205775275,26.6744953596674],[89.6082772418929,26.6746524146919],[89.6089054141589,26.6749094173928],[89.6097905609744,26.6753662854603],[89.6110897319568,26.676023041955],[89.6125887707299,26.6767511924742],[89.6136309547515,26.6773080037843],[89.6151014429059,26.6780647038015],[89.615729605174,26.6783216965054],[89.6164577134071,26.6787357414403],[89.618285112077,26.6798493690601],[89.6193844056167,26.680420461514],[89.6205693527428,26.6812485361022],[89.6207196486601,26.6813857697212]]]},"properties":{"compartment":"N RVBK BL13"},"id":"comptt.128"}
]}