{"type":"FeatureCollection", "features": [
{"type":"Feature","geometry":{"type":"Polygon","coordinates":[[[89.7846234523121,26.6088899080136],[89.7841065124985,26.6089277669474],[89.7818015136561,26.6090977224043],[89.7793905140485,26.6093096758783],[89.7767415358264,26.608656623069],[89.774202562729,26.6077805719786],[89.7742195655565,26.6076615720826],[89.7742935762985,26.607208572659],[89.7745546282313,26.6050275735792],[89.7718726284629,26.6052725218501],[89.7709996361679,26.6050355044088],[89.7678726321769,26.6054984444352],[89.7648326355085,26.6056493855611],[89.7643686365728,26.6056493765313],[89.7646016373146,26.6055963809649],[89.7646856443226,26.6052973820314],[89.7647716585745,26.6046973825644],[89.7648556692184,26.6042473833437],[89.764939679838,26.6037983841249],[89.7650236922874,26.6032733847614],[89.7651097065138,26.6026743852963],[89.7649437231474,26.6019993807829],[89.7647827248408,26.6019443775456],[89.7648487663668,26.6002133755394],[89.7644857778644,26.5997703676345],[89.7651538368788,26.5972553758503],[89.7658048748402,26.595616385399],[89.766049238201,26.5950030586507],[89.7662519008225,26.5944943919612],[89.7667079820393,26.5910763943301],[89.7661250629495,26.5877693767004],[89.7653831056697,26.5860643590272],[89.7639361532725,26.5842233273874],[89.7635442100727,26.581899315348],[89.7628052547698,26.5801112975814],[89.7616823345379,26.57690126965],[89.7611223826127,26.5749552550679],[89.760104449354,26.5722762301928],[89.7600575138374,26.569598224196],[89.7606365643472,26.5695218453055],[89.7616073818951,26.5695313841928],[89.7625496467639,26.5696551327424],[89.763844059226,26.5698455182635],[89.7646054829083,26.5700358934254],[89.7659284548496,26.5702453095389],[89.7667184312136,26.570321465039],[89.7670420391011,26.570378581438],[89.7674227470871,26.5704261789287],[89.7675179131412,26.5709972518657],[89.7676416330196,26.5714065250497],[89.7677748724183,26.571834828455],[89.7684030269563,26.5728342125686],[89.7686124059515,26.5732720374726],[89.7688313083573,26.57356710229],[89.7691549107528,26.5738526391247],[89.7694594750226,26.5740620354444],[89.7701637860908,26.5743666297171],[89.7706111200346,26.5745760288126],[89.7710489317116,26.5748806079047],[89.7713439734856,26.5751947042393],[89.7719150398233,26.5757086763217],[89.772590787524,26.5761560303127],[89.7731808801558,26.5768222930563],[89.7737424146834,26.5774124150999],[89.7741706985993,26.5780405946256],[89.7745228458929,26.5785355324172],[89.7748464386729,26.579220830017],[89.7750843705031,26.5799537060421],[89.7751700211507,26.5803344184342],[89.7754079466429,26.580915014169],[89.7756268440097,26.5814194693886],[89.7757600847769,26.5817906626882],[89.7759218882261,26.5820476563253],[89.7763311401954,26.5823427148473],[89.7766928161656,26.5824759721352],[89.7770830434445,26.5825521198694],[89.7783679523484,26.5824760047122],[89.7795196104123,26.5824474770546],[89.7812743143431,26.5825337613446],[89.7813575761219,26.5832832943974],[89.7814408462006,26.5836878067906],[89.7814408358963,26.5841161076095],[89.7813813291434,26.5848180477946],[89.7812028555233,26.5854010154382],[89.7809292001157,26.5860672613897],[89.7805722806227,26.5864955552664],[89.7802034545919,26.5867810886385],[89.7797989415054,26.5869476410888],[89.7794182277921,26.5871379940476],[89.7790137141334,26.5873283365432],[89.7784307380184,26.5876376557948],[89.7780024335552,26.5878636978957],[89.7771458172055,26.5882087118927],[89.7764676744578,26.5883871490428],[89.7761345409232,26.5885656029036],[89.776027456014,26.5887797612295],[89.7760036563344,26.5891842615388],[89.7760155408467,26.5898267229963],[89.7761225968595,26.5903977961689],[89.7763962170515,26.5911949230133],[89.7768244908768,26.5922418933435],[89.7771813937406,26.5929200515816],[89.777681069142,26.5934792323705],[89.7781926325111,26.59412170355],[89.778787486263,26.5947403763051],[89.7793823314465,26.5952995589468],[89.7799652878027,26.5958111512667],[89.78045306638,26.596239471576],[89.7809884319851,26.596786753039],[89.7814881068118,26.5973697338762],[89.7820353486396,26.5984880966634],[89.7823922529309,26.5991067647918],[89.7827491529248,26.5999038932618],[89.7831655465068,26.6005463525939],[89.7835700421209,26.6011055315356],[89.7838555588647,26.6016290280938],[89.7841291885008,26.6020335341931],[89.7843552288176,26.6024142593209],[89.784664547799,26.6028425661607],[89.7848191997108,26.6031637997855],[89.7850214477892,26.6036396946328],[89.785240326975,26.6048984313029],[89.7852760050302,26.6053909829405],[89.7851831711972,26.6068043838398],[89.7850760785447,26.6073397627804],[89.7849261665051,26.6078537308463],[89.7847548324508,26.6084533486592],[89.7846234523121,26.6088899080136]]]},"properties":{"compartment":"MARA BL1"},"id":"comptt.58"}
]}