{"type":"FeatureCollection", "features": [
{"type":"Feature","geometry":{"type":"Polygon","coordinates":[[[89.7600423557549,26.5345421573331],[89.7602423487716,26.5348141617323],[89.7604943013813,26.5367651703293],[89.7612562610286,26.5383741881796],[89.762401218454,26.5400392135747],[89.764442201314,26.5405592541941],[89.7654221871249,26.5410572741708],[89.7662451751663,26.5414772909512],[89.7668861348894,26.5430943064759],[89.7671430643702,26.5460073170109],[89.768151016956,26.5478863401655],[89.7688209645688,26.5500043572123],[89.7679409144139,26.5521763442534],[89.7696808102834,26.5563463859977],[89.7709037866669,26.5572134114115],[89.7714473959663,26.5588559551049],[89.7705097786321,26.5588339568443],[89.7698244908809,26.5588053934743],[89.7685538651517,26.5587482586767],[89.7673117917598,26.5585911842438],[89.7666407856926,26.558491241016],[89.7660268891525,26.558405568925],[89.7652131227264,26.5583341629779],[89.7643136847816,26.5583341455022],[89.7636284084057,26.5582484720249],[89.7628289122915,26.5581627963284],[89.7624006173865,26.5579914676814],[89.7617296123509,26.5578486843732],[89.7608730077401,26.5577059074593],[89.7592740141437,26.5575916561765],[89.7582638088943,26.5574901663574],[89.7586738236894,26.5568351730801],[89.7588338415546,26.5560761747483],[89.7588908886932,26.554108172121],[89.7592428974225,26.5537111782055],[89.7597549201954,26.5527141862589],[89.7597679319814,26.5522221855775],[89.7597719037839,26.5520634253032],[89.7598009636292,26.5509011837109],[89.7602339775751,26.5502791909405],[89.760645022258,26.5483791953158],[89.7607040676454,26.5464831928613],[89.760769089344,26.5455731923956],[89.7599581140045,26.544623174842],[89.7584782104026,26.5407481387478],[89.7587362281731,26.5399831423056],[89.75886527518,26.5380121410697],[89.7592823090461,26.5365611464117],[89.7596043449266,26.5350351497661],[89.7600423557549,26.5345421573331]]]},"properties":{"compartment":"MARA BL4"},"id":"comptt.10"}
]}