{"type":"FeatureCollection", "features": [
{"type":"Feature","geometry":{"type":"Polygon","coordinates":[[[89.7890968091332,26.5890766760268],[89.7890809741837,26.589283826116],[89.7888679097069,26.5919828271461],[89.7894278403841,26.594809843461],[89.7908807762706,26.5973358765777],[89.7904717460426,26.5986298711006],[89.7909616846092,26.6011348854409],[89.789566632628,26.6034248626825],[89.7901515920635,26.605053877192],[89.7902985439395,26.6070378838577],[89.7906565070873,26.6085338936954],[89.7919934779825,26.6096159217982],[89.7897544900572,26.6093258776552],[89.7873445008385,26.6091058303192],[89.7846935121973,26.6088847782915],[89.7846234523121,26.6088899080136],[89.7847548324508,26.6084533486592],[89.7849261665051,26.6078537308463],[89.7850760785447,26.6073397627804],[89.7851831711972,26.6068043838398],[89.7852760050302,26.6053909829405],[89.785240326975,26.6048984313029],[89.7850214477892,26.6036396946328],[89.7848191997108,26.6031637997855],[89.784664547799,26.6028425661607],[89.7843552288176,26.6024142593209],[89.7841291885008,26.6020335341931],[89.7838555588647,26.6016290280938],[89.7835700421209,26.6011055315356],[89.7831655465068,26.6005463525939],[89.7827491529248,26.5999038932618],[89.7823922529309,26.5991067647918],[89.7820353486396,26.5984880966634],[89.7814881068118,26.5973697338762],[89.7809884319851,26.596786753039],[89.78045306638,26.596239471576],[89.7799652878027,26.5958111512667],[89.7793823314465,26.5952995589468],[89.778787486263,26.5947403763051],[89.7781926325111,26.59412170355],[89.777681069142,26.5934792323705],[89.7771813937406,26.5929200515816],[89.7768244908768,26.5922418933435],[89.7763962170515,26.5911949230133],[89.7761225968595,26.5903977961689],[89.7760155408467,26.5898267229963],[89.7760036563344,26.5891842615388],[89.776027456014,26.5887797612295],[89.7761345409232,26.5885656029036],[89.7764676744578,26.5883871490428],[89.7771458172055,26.5882087118927],[89.7780024335552,26.5878636978957],[89.7784307380184,26.5876376557948],[89.7790137141334,26.5873283365432],[89.7794182277921,26.5871379940476],[89.7797989415054,26.5869476410888],[89.7802034545919,26.5867810886385],[89.7805722806227,26.5864955552664],[89.7809292001157,26.5860672613897],[89.7812028555233,26.5854010154382],[89.7813813291434,26.5848180477946],[89.7814408358963,26.5841161076095],[89.7814408462006,26.5836878067906],[89.7813575761219,26.5832832943974],[89.7812743143431,26.5825337613446],[89.7814884647144,26.5824980754412],[89.7821190101314,26.5826289579544],[89.7828923317894,26.5829026135177],[89.7834633913316,26.5832833353526],[89.7841177261046,26.5838544191718],[89.7846887784905,26.5845325815768],[89.784962405846,26.5850322678556],[89.785271721116,26.5856152449882],[89.785783282777,26.5863290963057],[89.7861758855666,26.5870072552414],[89.786461399458,26.587649712026],[89.7869967636401,26.5882564836026],[89.7874607445692,26.5885896232667],[89.7880675051742,26.5889227557084],[89.7885671808899,26.5890536356796],[89.7890968091332,26.5890766760268]]]},"properties":{"compartment":"MARA BL2B"},"id":"comptt.59"}
]}