{"type":"FeatureCollection", "features": [
{"type":"Feature","geometry":{"type":"Polygon","coordinates":[[[89.7748696572012,26.5709626247089],[89.7738597571226,26.571061615266],[89.7727604482563,26.5711187040052],[89.7711114827044,26.5710901218965],[89.7701977780505,26.5709544738766],[89.7691484454229,26.5707474430848],[89.7682847013427,26.5705832359824],[89.7674227470871,26.5704261789287],[89.7670420391011,26.570378581438],[89.7667184312136,26.570321465039],[89.7659284548496,26.5702453095389],[89.7646054829083,26.5700358934254],[89.763844059226,26.5698455182635],[89.7625496467639,26.5696551327424],[89.7616073818951,26.5695313841928],[89.7606365643472,26.5695218453055],[89.7600575138374,26.569598224196],[89.7598085152972,26.5695612192861],[89.7580985304412,26.5690941851645],[89.7570395318838,26.56913516466],[89.755979562292,26.567971141852],[89.75577456817,26.5677461374415],[89.7554085978736,26.5665451280524],[89.7566666831795,26.5628751455415],[89.7569137028445,26.5620331487445],[89.757483758239,26.559673155344],[89.7579947992531,26.5579171619413],[89.7582638088943,26.5574901663574],[89.7592740141437,26.5575916561765],[89.7608730077401,26.5577059074593],[89.7617296123509,26.5578486843732],[89.7624006173865,26.5579914676814],[89.7628289122915,26.5581627963284],[89.7636284084057,26.5582484720249],[89.7643136847816,26.5583341455022],[89.7652131227264,26.5583341629779],[89.7660268891525,26.558405568925],[89.7666407856926,26.558491241016],[89.7673117917598,26.5585911842438],[89.7685538651517,26.5587482586767],[89.7698244908809,26.5588053934743],[89.7705097786321,26.5588339568443],[89.7714473959663,26.5588559551049],[89.7715147409243,26.5590594268014],[89.7724676696958,26.5619334507985],[89.7748696572012,26.5709626247089]]]},"properties":{"compartment":"MARA BL3"},"id":"comptt.23"}
]}