{"type":"FeatureCollection", "features": [
{"type":"Feature","geometry":{"type":"Polygon","coordinates":[[[89.7748696572012,26.5709626247089],[89.7748914451828,26.5710445152887],[89.7753324041229,26.5727105270406],[89.7831163747722,26.5731946792964],[89.7912223579185,26.5731308367753],[89.7908343323693,26.5742298313397],[89.7906432963916,26.5757438305303],[89.7902272516371,26.5776438260855],[89.7897161999017,26.5798428203655],[89.7894011732408,26.5809808164216],[89.789433141172,26.582310819594],[89.7889170851053,26.584689814119],[89.7887280468667,26.5862968135234],[89.7891149848162,26.5888388259243],[89.7890968091332,26.5890766760268],[89.7885671808899,26.5890536356796],[89.7880675051742,26.5889227557084],[89.7874607445692,26.5885896232667],[89.7869967636401,26.5882564836026],[89.786461399458,26.587649712026],[89.7861758855666,26.5870072552414],[89.785783282777,26.5863290963057],[89.785271721116,26.5856152449882],[89.784962405846,26.5850322678556],[89.7846887784905,26.5845325815768],[89.7841177261046,26.5838544191718],[89.7834633913316,26.5832833353526],[89.7828923317894,26.5829026135177],[89.7821190101314,26.5826289579544],[89.7814884647144,26.5824980754412],[89.7812743143431,26.5825337613446],[89.7795196104123,26.5824474770546],[89.7783679523484,26.5824760047122],[89.7770830434445,26.5825521198694],[89.7766928161656,26.5824759721352],[89.7763311401954,26.5823427148473],[89.7759218882261,26.5820476563253],[89.7757600847769,26.5817906626882],[89.7756268440097,26.5814194693886],[89.7754079466429,26.580915014169],[89.7751700211507,26.5803344184342],[89.7750843705031,26.5799537060421],[89.7748464386729,26.579220830017],[89.7745228458929,26.5785355324172],[89.7741706985993,26.5780405946256],[89.7737424146834,26.5774124150999],[89.7731808801558,26.5768222930563],[89.772590787524,26.5761560303127],[89.7719150398233,26.5757086763217],[89.7713439734856,26.5751947042393],[89.7710489317116,26.5748806079047],[89.7706111200346,26.5745760288126],[89.7701637860908,26.5743666297171],[89.7694594750226,26.5740620354444],[89.7691549107528,26.5738526391247],[89.7688313083573,26.57356710229],[89.7686124059515,26.5732720374726],[89.7684030269563,26.5728342125686],[89.7677748724183,26.571834828455],[89.7676416330196,26.5714065250497],[89.7675179131412,26.5709972518657],[89.7674227470871,26.5704261789287],[89.7682847013427,26.5705832359824],[89.7691484454229,26.5707474430848],[89.7701977780505,26.5709544738766],[89.7711114827044,26.5710901218965],[89.7727604482563,26.5711187040052],[89.7738597571226,26.571061615266],[89.7748696572012,26.5709626247089]]]},"properties":{"compartment":"MARA BL2A"},"id":"comptt.36"}
]}