{"type":"FeatureCollection", "features": [
{"type":"Feature","geometry":{"type":"Polygon","coordinates":[[[89.4414644375782,26.7991878766384],[89.441162747936,26.7992054207726],[89.4387077508467,26.7993483730406],[89.4362737462828,26.799797326234],[89.4347427671071,26.7991032951511],[89.432707831096,26.7966842513257],[89.4304148874073,26.7946092030439],[89.4274779204126,26.793564143915],[89.4241569600277,26.7922880769038],[89.4210919906127,26.7913570154767],[89.4190570518039,26.7890529718793],[89.4165060893429,26.787779919932],[89.4154891255112,26.7863978977651],[89.4147331915874,26.7837538785925],[89.4153872482449,26.7813458873467],[89.4145083285359,26.7781278648181],[89.4138753692069,26.776517849776],[89.412863430371,26.7741028259954],[89.4098075026447,26.7714497619265],[89.4077675248732,26.7707527209507],[89.4092260359507,26.7709633397677],[89.4098684919626,26.7710585224655],[89.4104276581926,26.7711537135377],[89.4108559613069,26.7713916722937],[89.4115935838999,26.7716177370675],[89.4121765471862,26.771831898803],[89.4127238097015,26.7720817499013],[89.4133067724115,26.7723197116769],[89.4140325056132,26.7725219761799],[89.4146987486825,26.7727361395419],[89.4151151452877,26.7728313278286],[89.4157813915281,26.7729146209726],[89.4166617863442,26.7730336183566],[89.4175183906468,26.7731763953162],[89.4187319040176,26.773319189243],[89.4196598887116,26.7734381775568],[89.4202666471274,26.7734381894013],[89.4210518756541,26.77341441469],[89.4220750350019,26.7733311545239],[89.4229316442086,26.7732716811465],[89.4241070908549,26.7732836041127],[89.4241451626842,26.7736167254137],[89.4242308127748,26.774016477755],[89.424478263135,26.7743876832073],[89.424601984971,26.7747112961645],[89.4246971580346,26.7749873084848],[89.4248303980004,26.7753870617555],[89.4249826769938,26.7758248854617],[89.4252586758949,26.7762532015676],[89.4254775774822,26.7765768063834],[89.4257059930472,26.7771478817997],[89.425915370276,26.7776523367328],[89.4261057166314,26.7781948613582],[89.426305582039,26.7787754562335],[89.4265720675031,26.7793465323937],[89.4270384136794,26.780279293063],[89.4272668333947,26.7806790381933],[89.4273715152776,26.7810026507799],[89.4275047540868,26.7814499941316],[89.4275428261431,26.7817736054176],[89.4275713638404,26.7822780468205],[89.427704605187,26.7826206899969],[89.4278188093517,26.78284912261],[89.4279520536975,26.7830680355792],[89.4281328883807,26.7832679194458],[89.428285169908,26.7836010429783],[89.4285802025252,26.7842863398892],[89.4287515128486,26.7846670538733],[89.4291893185545,26.7852095833336],[89.4294843704013,26.785514159607],[89.4297413418856,26.7858377751687],[89.4300268642187,26.7861233112242],[89.4304075758422,26.786427889171],[89.430664549634,26.7866563245733],[89.431616309154,26.787398734409],[89.4324633801001,26.7880935621209],[89.4330058841471,26.7886931937247],[89.4336054891993,26.7892452363643],[89.4342622015633,26.7899019902961],[89.4347856775055,26.7904254814016],[89.4352520363662,26.7908347511997],[89.4357564769744,26.7911678916141],[89.4361466974181,26.7915200598293],[89.4367272741347,26.7920054819877],[89.4375362617152,26.7928430692014],[89.4381453867411,26.7933951120307],[89.4388116156152,26.7941946263928],[89.43930652909,26.7948228171201],[89.4396681998379,26.7951654647635],[89.4398966181609,26.7956223299959],[89.4402202025419,26.7962314773444],[89.4406579996978,26.797126167406],[89.4408483439618,26.7977543521837],[89.4411338665925,26.7984396389177],[89.4414644375782,26.7991878766384]]]},"properties":{"compartment":"Bhutri BL1"},"id":"comptt.207"}
]}