{"type":"FeatureCollection", "features": [
{"type":"Feature","geometry":{"type":"Polygon","coordinates":[[[89.4590877298705,26.7980367690851],[89.457904743895,26.7975847451995],[89.4566297695868,26.7966617187186],[89.4552237705768,26.796770691428],[89.4526617690757,26.7971056419302],[89.4486917574459,26.7980085658782],[89.4457457458418,26.7988015096485],[89.4424177464477,26.7991324451736],[89.4414644375782,26.7991878766384],[89.4411338665925,26.7984396389177],[89.4408483439618,26.7977543521837],[89.4406579996978,26.797126167406],[89.4402202025419,26.7962314773444],[89.4398966181609,26.7956223299959],[89.4396681998379,26.7951654647635],[89.43930652909,26.7948228171201],[89.4388116156152,26.7941946263928],[89.4381453867411,26.7933951120307],[89.4375362617152,26.7928430692014],[89.4367272741347,26.7920054819877],[89.4361466974181,26.7915200598293],[89.4357564769744,26.7911678916141],[89.4352520363662,26.7908347511997],[89.4347856775055,26.7904254814016],[89.4342622015633,26.7899019902961],[89.4336054891993,26.7892452363643],[89.4330058841471,26.7886931937247],[89.4324633801001,26.7880935621209],[89.431616309154,26.787398734409],[89.430664549634,26.7866563245733],[89.4304075758422,26.786427889171],[89.4300268642187,26.7861233112242],[89.4297413418856,26.7858377751687],[89.4294843704013,26.785514159607],[89.4291893185545,26.7852095833336],[89.4287515128486,26.7846670538733],[89.4285802025252,26.7842863398892],[89.428285169908,26.7836010429783],[89.4281328883807,26.7832679194458],[89.4279520536975,26.7830680355792],[89.4278188093517,26.78284912261],[89.427704605187,26.7826206899969],[89.4275713638404,26.7822780468205],[89.4275428261431,26.7817736054176],[89.4275047540868,26.7814499941316],[89.4273715152776,26.7810026507799],[89.4272668333947,26.7806790381933],[89.4270384136794,26.780279293063],[89.4265720675031,26.7793465323937],[89.426305582039,26.7787754562335],[89.4261057166314,26.7781948613582],[89.425915370276,26.7776523367328],[89.4257059930472,26.7771478817997],[89.4254775774822,26.7765768063834],[89.4252586758949,26.7762532015676],[89.4249826769938,26.7758248854617],[89.4248303980004,26.7753870617555],[89.4246971580346,26.7749873084848],[89.424601984971,26.7747112961645],[89.424478263135,26.7743876832073],[89.4242308127748,26.774016477755],[89.4241451626842,26.7736167254137],[89.4241070908549,26.7732836041127],[89.4249089706668,26.773205099635],[89.4255514289923,26.7732051121769],[89.4262938167119,26.7732193966934],[89.4272360842572,26.7732194150881],[89.4280641338301,26.7731480511336],[89.4287351420828,26.773148064233],[89.429734511557,26.7730624235991],[89.4301913748652,26.7728768322065],[89.4307196179878,26.7726912422074],[89.4311193738662,26.772405719532],[89.4314049065827,26.7722629548665],[89.4318332068524,26.7722058531318],[89.4325042154532,26.7721915962072],[89.4333037144123,26.772148781743],[89.4337177499087,26.77187752937],[89.4342174358743,26.7715777286209],[89.4346885829522,26.7712350872424],[89.4355594772932,26.7705498230912],[89.4368982777805,26.7695607475621],[89.4368894726298,26.7697742877495],[89.4369494540607,26.7705342901994],[89.4371034351015,26.7713002944944],[89.4374184134701,26.7721593020892],[89.4376843930796,26.7729723086504],[89.4380823746234,26.7736913176307],[89.4388813671942,26.7739123336023],[89.4395753272971,26.7754843497992],[89.4409972704565,26.7776773812591],[89.4419222305349,26.7792254019306],[89.4424902009663,26.7803844149764],[89.4428411672557,26.7817374241123],[89.4431961429151,26.7827034326743],[89.4438361240171,26.7834144463731],[89.4445501111825,26.7838674610825],[89.445121094063,26.7845124733234],[89.4456210802553,26.7850284839603],[89.446642055155,26.7859545054664],[89.4468781803856,26.7861673793241],[89.4470480452277,26.786320514015],[89.448476013325,26.7874835438739],[89.4491189975452,26.7880655574182],[89.4499039829498,26.7885835736287],[89.449974973404,26.7889695756684],[89.4502589586014,26.7895495821971],[89.4511149360113,26.7903896003407],[89.4517579187019,26.7910346139941],[89.4530438965268,26.7918116404343],[89.4543318821339,26.7922676663714],[89.4551158644354,26.7929136827838],[89.4556868488641,26.793494694925],[89.4559708371884,26.7939457012384],[89.4569008175349,26.7946567206157],[89.457686799806,26.7953037370714],[89.4583977682701,26.7965277530411],[89.4586087536511,26.7971077581482],[89.4590877298705,26.7980367690851]]]},"properties":{"compartment":"Bhutri BL2"},"id":"comptt.206"}
]}