{"type":"FeatureCollection", "features": [
{"type":"Feature","geometry":{"type":"Polygon","coordinates":[[[89.4241070908549,26.7732836041127],[89.4229316442086,26.7732716811465],[89.4220750350019,26.7733311545239],[89.4210518756541,26.77341441469],[89.4202666471274,26.7734381894013],[89.4196598887116,26.7734381775568],[89.4187319040176,26.773319189243],[89.4175183906468,26.7731763953162],[89.4166617863442,26.7730336183566],[89.4157813915281,26.7729146209726],[89.4151151452877,26.7728313278286],[89.4146987486825,26.7727361395419],[89.4140325056132,26.7725219761799],[89.4133067724115,26.7723197116769],[89.4127238097015,26.7720817499013],[89.4121765471862,26.771831898803],[89.4115935838999,26.7716177370675],[89.4108559613069,26.7713916722937],[89.4104276581926,26.7711537135377],[89.4098684919626,26.7710585224655],[89.4092260359507,26.7709633397677],[89.4077675248732,26.7707527209507],[89.4062895437897,26.7701316910721],[89.4061095461025,26.7700556874328],[89.4055055920834,26.768222672599],[89.4047156299988,26.7667426547235],[89.4045686604135,26.7655026497952],[89.40558168023,26.7645746680203],[89.4066256937421,26.7639036872763],[89.4076197201224,26.7627067046813],[89.4082437426525,26.7617087151966],[89.409456767611,26.76054673693],[89.4102568048104,26.7589237498367],[89.4105818424028,26.7573357535332],[89.4117338824773,26.7555557730423],[89.411542932038,26.7535287659397],[89.4125350051696,26.7503997800757],[89.4146660350783,26.7489338191953],[89.4168330082732,26.7498078629197],[89.4187539930503,26.7502299010938],[89.4203969830558,26.7504659335358],[89.4228679665262,26.7508829824329],[89.4248099563151,26.7510960206714],[89.4252965689269,26.7509396401919],[89.4254091876367,26.7513901728534],[89.425466288504,26.7517613745892],[89.4257518063581,26.7522325109484],[89.4260658896666,26.7524752174822],[89.4266369543795,26.7526322788859],[89.4269653217976,26.7527036654114],[89.4271794653659,26.7529463799959],[89.4273507728254,26.7534460641757],[89.4276220203701,26.7539314802813],[89.4277362217788,26.754274133084],[89.4278218760267,26.7545025551381],[89.4279360884719,26.7548023778692],[89.4280502891893,26.7551735707198],[89.4282358804119,26.7555162149153],[89.4284785728683,26.7558017601293],[89.4286070552761,26.756101573139],[89.4290210600048,26.7571009628933],[89.4292351932025,26.7577719681972],[89.4294921535227,26.7585572045287],[89.4296777340277,26.7593424294676],[89.4299061426922,26.7601990353621],[89.4300346171469,26.7608272189235],[89.4303201373899,26.7616124458132],[89.4305770980518,26.7623834021219],[89.4307912326279,26.7629973073314],[89.4311909618801,26.7638110964989],[89.4313908189126,26.7643250612624],[89.4316763412268,26.7650246280096],[89.4320475205511,26.7658384166209],[89.4324329639586,26.7668949059187],[89.4328326928611,26.767722965112],[89.433161035407,26.7684082526724],[89.4334180015963,26.7689507786],[89.4338320166854,26.7695218576413],[89.4340889839117,26.7700215534975],[89.4344316167642,26.770692571314],[89.4346885829522,26.7712350872424],[89.4342174358743,26.7715777286209],[89.4337177499087,26.77187752937],[89.4333037144123,26.772148781743],[89.4325042154532,26.7721915962072],[89.4318332068524,26.7722058531318],[89.4314049065827,26.7722629548665],[89.4311193738662,26.772405719532],[89.4307196179878,26.7726912422074],[89.4301913748652,26.7728768322065],[89.429734511557,26.7730624235991],[89.4287351420828,26.773148064233],[89.4280641338301,26.7731480511336],[89.4272360842572,26.7732194150881],[89.4262938167119,26.7732193966934],[89.4255514289923,26.7732051121769],[89.4249089706668,26.773205099635],[89.4241070908549,26.7732836041127]]]},"properties":{"compartment":"Bhutri BL4"},"id":"comptt.195"}
]}