{"type":"FeatureCollection", "features": [
{"type":"Feature","geometry":{"type":"Polygon","coordinates":[[[89.4368982777805,26.7695607475621],[89.4355594772932,26.7705498230912],[89.4346885829522,26.7712350872424],[89.4344316167642,26.770692571314],[89.4340889839117,26.7700215534975],[89.4338320166854,26.7695218576413],[89.4334180015963,26.7689507786],[89.433161035407,26.7684082526724],[89.4328326928611,26.767722965112],[89.4324329639586,26.7668949059187],[89.4320475205511,26.7658384166209],[89.4316763412268,26.7650246280096],[89.4313908189126,26.7643250612624],[89.4311909618801,26.7638110964989],[89.4307912326279,26.7629973073314],[89.4305770980518,26.7623834021219],[89.4303201373899,26.7616124458132],[89.4300346171469,26.7608272189235],[89.4299061426922,26.7601990353621],[89.4296777340277,26.7593424294676],[89.4294921535227,26.7585572045287],[89.4292351932025,26.7577719681972],[89.4290210600048,26.7571009628933],[89.4286070552761,26.756101573139],[89.4284785728683,26.7558017601293],[89.4282358804119,26.7555162149153],[89.4280502891893,26.7551735707198],[89.4279360884719,26.7548023778692],[89.4278218760267,26.7545025551381],[89.4277362217788,26.754274133084],[89.4276220203701,26.7539314802813],[89.4273507728254,26.7534460641757],[89.4271794653659,26.7529463799959],[89.4269653217976,26.7527036654114],[89.4266369543795,26.7526322788859],[89.4260658896666,26.7524752174822],[89.4257518063581,26.7522325109484],[89.425466288504,26.7517613745892],[89.4254091876367,26.7513901728534],[89.4252965689269,26.7509396401919],[89.4272929691681,26.7502980677698],[89.4289599717074,26.7500140998114],[89.429146971778,26.7499911034205],[89.4293089645564,26.750272107052],[89.4290059601162,26.7504881015038],[89.4290959559374,26.7506511035328],[89.4292149516832,26.7508141061276],[89.4292149471088,26.7510031064446],[89.4292129392481,26.7513281069508],[89.4293619309705,26.7516541104043],[89.4292399227921,26.7520051086132],[89.4292389214877,26.7520591086842],[89.4292689201027,26.7521131093601],[89.4295089109105,26.7524671146359],[89.4298099061829,26.7526301207815],[89.4301409020066,26.7527671274688],[89.4302908976714,26.7529301306686],[89.4306518921101,26.7531211380319],[89.4308328903085,26.7531761416553],[89.4311938860544,26.7533131489281],[89.4314948813269,26.7534761550741],[89.4317948759243,26.7536671612476],[89.4319758734692,26.7537491649166],[89.4322768706782,26.7538321709284],[89.4323978684032,26.7539131734251],[89.4326678630785,26.7541041790136],[89.4329988556346,26.7543761859284],[89.4331478486874,26.7546471892907],[89.4332678431227,26.7548641919966],[89.4335688390247,26.7550011980994],[89.434047821997,26.7556532085409],[89.4341078198802,26.7557342098477],[89.4341068146293,26.7559512101929],[89.433984809063,26.7561942082209],[89.433983803812,26.756411208566],[89.4339828005461,26.7565462087734],[89.4339817959487,26.7567362090732],[89.4339517934119,26.7568442086693],[89.4339507914534,26.7569252087859],[89.434040787927,26.7570612107706],[89.4343407759624,26.7575232174008],[89.434551774761,26.7575502215633],[89.4346117739273,26.7575782227811],[89.4346717711567,26.7576862241334],[89.4347317696935,26.7577402253949],[89.4351247725474,26.7575802327945],[89.4351537692035,26.7577152335873],[89.4352427604255,26.7580682359174],[89.4352717544665,26.7583112368919],[89.4352717524811,26.7583932370298],[89.4352707505224,26.7584742371465],[89.4352397466803,26.7586362368139],[89.4351787428918,26.7587992358977],[89.4350797379913,26.759012234324],[89.4351777388266,26.7589672361606],[89.4352867408924,26.7588702381245],[89.4353807446921,26.758703239678],[89.4356117457391,26.7586352440712],[89.4356747439048,26.7587042454167],[89.4357667385812,26.758914247565],[89.435888733204,26.7591232502972],[89.4360107284803,26.759305252984],[89.4361647203321,26.7596252565274],[89.4362097154934,26.7598202577335],[89.4362417126983,26.7599322585463],[89.436393708599,26.7600852617699],[89.4365937026557,26.7603092660495],[89.4366706963777,26.7605602679744],[89.4367776890048,26.7608532705555],[89.4367606819777,26.7611452707149],[89.436838679741,26.7612292723784],[89.4370386748147,26.7614112765877],[89.4372386688711,26.7616352808678],[89.4373456625391,26.7618852833766],[89.4373746566758,26.7621242843447],[89.4373556501861,26.7623942844283],[89.4372016470013,26.7625422816718],[89.4373856377325,26.7629052858736],[89.4373676321845,26.7631362859111],[89.4374106223125,26.7635392874284],[89.4374296164504,26.7637792882031],[89.4374286100589,26.7640432886278],[89.4374196043419,26.7642802888509],[89.4374105957668,26.7646352892727],[89.4372365821213,26.7652172868558],[89.4372195746808,26.7655262870439],[89.4370815620799,26.7660612852506],[89.4370695520583,26.7664762857146],[89.4370575427149,26.7668632861315],[89.4370195275522,26.7674932864497],[89.4370225213671,26.7677482869372],[89.4370755054587,26.7683992890671],[89.4369184896104,26.7690702871312],[89.4369044814096,26.76941028743],[89.4368982777805,26.7695607475621]]]},"properties":{"compartment":"Bhutri BL5"},"id":"comptt.194"}
]}