{"type":"FeatureCollection", "features": [
{"type":"Feature","geometry":{"type":"Polygon","coordinates":[[[89.6425554172718,26.6680921206971],[89.6425943888871,26.6692641235892],[89.6422663574732,26.6705981196247],[89.6418093207184,26.6721661135715],[89.6410942944576,26.6733251017459],[89.6395992504928,26.6752950761923],[89.6381682063478,26.6772660518844],[89.6371281696374,26.6788900345638],[89.6349191106047,26.6815549963442],[89.63271305434,26.6841049579675],[89.6310219940006,26.6867719298357],[89.6305609544784,26.6884539238948],[89.6305354813447,26.6886659440137],[89.629520700683,26.6878874225884],[89.6282862430946,26.6871066162254],[89.628571044329,26.6861759809766],[89.6287376171469,26.685628703233],[89.6289280117487,26.6841772343166],[89.6289280335898,26.6832730326799],[89.6289280629011,26.6820595104834],[89.6287139373263,26.6806556237682],[89.6285712029568,26.6796086490909],[89.6284998257715,26.6790851667521],[89.6283332897335,26.6781095817404],[89.6283333040981,26.6775147206639],[89.6283333196115,26.6768722595012],[89.6283809261582,26.6761822191798],[89.6286426781645,26.6756587433329],[89.6288568437328,26.6749924963001],[89.6291186014836,26.6742310700221],[89.6292137950408,26.673660000843],[89.629213810551,26.6730175496799],[89.629213828933,26.6722561183015],[89.6291173946035,26.670373863014],[89.6308843955219,26.6701588970524],[89.6337344052698,26.6694699513323],[89.6398194210589,26.6682080675999],[89.6425554172718,26.6680921206971]]]},"properties":{"compartment":"Jainti BL2A"},"id":"comptt.131"}
]}