{"type":"FeatureCollection", "features": [
{"type":"Feature","geometry":{"type":"Polygon","coordinates":[[[89.6207196486601,26.6813857697212],[89.6201695802667,26.6822193500629],[89.6185848192881,26.6840753025234],[89.6168572938284,26.6857171018115],[89.6154724061559,26.6874160078782],[89.6135164491796,26.6895574936065],[89.6117603496458,26.6917846333801],[89.6105039495814,26.69398324284],[89.6095330908929,26.6956821569656],[89.6074472559358,26.698989372976],[89.6070257586725,26.6989234839004],[89.6067347604466,26.6988794781472],[89.6065317617158,26.6988474741314],[89.6060209542587,26.6979663725893],[89.6038794998645,26.6958819270955],[89.6031942329294,26.6949967521475],[89.602494684299,26.6945969877923],[89.6018094159788,26.6941829436903],[89.6010670453874,26.6934548179128],[89.5996393992349,26.692198427831],[89.5990683437395,26.6916558957275],[89.5979976080892,26.6907564432453],[89.5968983214741,26.6898998102848],[89.5955991639696,26.6886862627915],[89.5949424479931,26.6881722790726],[89.5944570460791,26.6878867391015],[89.594043037094,26.6874727002923],[89.5936290174189,26.6870872215342],[89.5931578965045,26.6867588417655],[89.5923869577042,26.686373356052],[89.5917730692088,26.6859593133486],[89.5904168032224,26.685102685388],[89.591330513395,26.6850027630158],[89.5950424825723,26.6842461640019],[89.5977265191042,26.6837036953374],[89.5995682321847,26.6833896506663],[89.6015955382626,26.6829328293558],[89.6030660401872,26.6827044276033],[89.6057072433942,26.682304728358],[89.6076346145547,26.6820620654832],[89.6092764440008,26.6819193272231],[89.6118177012593,26.6817766064918],[89.6144874606239,26.6815339580854],[89.6164148183513,26.6814340554676],[89.6207196486601,26.6813857697212]]]},"properties":{"compartment":"N RVBK BL6B"},"id":"comptt.147"}
]}