{"type":"FeatureCollection", "features": [
{"type":"Feature","geometry":{"type":"Polygon","coordinates":[[[89.6752413635412,26.6670787557665],[89.6746283615231,26.6672227440853],[89.6744333718132,26.6668157395361],[89.6744023838132,26.6663217380228],[89.6745354016992,26.665567739227],[89.6748284164037,26.6649297437624],[89.6755414370852,26.6640027559499],[89.6766764553631,26.6631337764663],[89.6770004531929,26.6631917828866],[89.6771944520077,26.6632217867221],[89.6773564466983,26.6634257902546],[89.6773864389268,26.663744791427],[89.6773544277779,26.6642097916601],[89.6771574142451,26.6647897888896],[89.6766703958245,26.6656007808932],[89.6758583746518,26.6665577668314],[89.6752413635412,26.6670787557665]]]},"properties":{"compartment":"CI"},"id":"comptt.114"}
]}