{"type":"FeatureCollection", "features": [
{"type":"Feature","geometry":{"type":"Polygon","coordinates":[[[89.6384939724721,26.7464248738553],[89.6399065223281,26.7467022119537],[89.6409725076519,26.7472012336855],[89.6415044955781,26.7476462448874],[89.6421364853949,26.7480032578834],[89.6434804769061,26.7482192845338],[89.6441084529895,26.749143298484],[89.6447384187164,26.750494313251],[89.6448153927123,26.7515593166933],[89.6447303550494,26.7531213178745],[89.6448833116429,26.754896324094],[89.6451132663245,26.7567423319477],[89.6456622133177,26.7588733465553],[89.6467621623916,26.7608633716774],[89.6474681141362,26.7627823889717],[89.6487300713968,26.7644184166212],[89.6503840259598,26.7661264520684],[89.6515669902968,26.7674784776618],[89.6525129535062,26.7689004987513],[89.6529029146349,26.7704635092285],[89.6528988836536,26.7717405114803],[89.6526598601069,26.7727345086204],[89.6523378178274,26.77450850556],[89.6516227937537,26.7755714935164],[89.6501167733651,26.7765614658692],[89.6486107615957,26.7771964375738],[89.6471067549939,26.7776184089287],[89.645921752743,26.7778293861377],[89.6444937356186,26.7786773597531],[89.6436207188242,26.7794563440961],[89.6424306924808,26.780660323011],[89.640686667507,26.7818632910867],[89.6399182330834,26.7817104757795],[89.6393852392309,26.7815105949919],[89.6387475581751,26.7812060119669],[89.6380337279978,26.780872867401],[89.6372342481958,26.7801209404006],[89.6367774040945,26.7795117903607],[89.6364347780977,26.7789692626759],[89.6359684277151,26.7782078321747],[89.6355401383947,26.777398802332],[89.6351118590736,26.7765897724899],[89.6345598542105,26.7756094299185],[89.6343409488343,26.7750288345855],[89.6342743421631,26.7744863122997],[89.6342838857006,26.7735154907264],[89.634331485517,26.7731062209152],[89.6344361888896,26.7725446719444],[89.6347217450557,26.7718498762677],[89.6352071707355,26.7711550744985],[89.6354451168545,26.7708790686501],[89.6356450049138,26.7705269119194],[89.6357782672918,26.7700034335752],[89.6358258763441,26.7692134430731],[89.6358354224155,26.7681379313089],[89.6357783850574,26.7651493247728],[89.6357593654211,26.7643117428818],[89.6358640723238,26.7640166943933],[89.6360258777023,26.7637787571244],[89.6362638349739,26.7634551511885],[89.6366445560541,26.762960227732],[89.6369205839255,26.7626080724882],[89.6371299817278,26.7622654359591],[89.6373869717229,26.7618276201875],[89.6375487901022,26.7614659426938],[89.6376534883892,26.7611137841009],[89.63768205663,26.7607711440373],[89.6376344725164,26.7605331926753],[89.6375393003649,26.7602191002451],[89.6373679877054,26.7599335663788],[89.637072945808,26.7596289900597],[89.6366636885732,26.7591435711806],[89.636359126468,26.758848504693],[89.6361307055626,26.7584963395901],[89.6359593965955,26.758058515448],[89.6358832692433,26.7575445530279],[89.6359118281749,26.7571733529127],[89.6359784558598,26.7568497536276],[89.6361022084832,26.756316755079],[89.6363020881523,26.7558979682251],[89.6365495597824,26.7553935321456],[89.6367399283204,26.755022335192],[89.6371682538182,26.7539277915752],[89.637377671078,26.7531949143369],[89.6375870764911,26.7525381872365],[89.6377584101503,26.7519575995302],[89.637815535009,26.7513389395233],[89.637815544007,26.7509677488496],[89.6377298927513,26.7506155865368],[89.6375966529952,26.7502063131907],[89.6374729320622,26.7498446301169],[89.6373777714411,26.7490546468238],[89.6374158551903,26.7484835765312],[89.6374920046945,26.7480838272932],[89.6376538160668,26.7475984195732],[89.6379203260317,26.7471606039848],[89.6384939724721,26.7464248738553]]]},"properties":{"compartment":"Tobgaon BL3"},"id":"comptt.197"}
]}