{"type":"FeatureCollection", "features": [
{"type":"Feature","geometry":{"type":"Polygon","coordinates":[[[89.6216683448994,26.7797597853412],[89.6213897536344,26.7802519107813],[89.6209137255224,26.7814579036481],[89.6201136706463,26.7837988922241],[89.618288640757,26.7852138590819],[89.616704620598,26.7862038298852],[89.6149626129198,26.7866957967003],[89.6127456081576,26.7871157540951],[89.6100536028659,26.7876057023251],[89.6075195937441,26.7882376538993],[89.6045925942388,26.788513597148],[89.6019805922169,26.7888615466863],[89.6003995821245,26.7894375167966],[89.5980376648389,26.7862704649378],[89.5962567011052,26.7849574277632],[89.5947197575712,26.7827873938325],[89.5933498119695,26.7806853632928],[89.59230584612,26.7793843405599],[89.5901739243271,26.7763782935191],[89.5896259597941,26.7749722803002],[89.588408020518,26.7725932522527],[89.5880910363171,26.7719742449539],[89.5878840860208,26.7699462372947],[89.5892611295762,26.7680102607546],[89.5901191702391,26.7662462743761],[89.5913414368103,26.7646138653475],[89.5928167729852,26.7617347390351],[89.5931737082592,26.7610684948193],[89.5936496195853,26.7601405124602],[89.5946173024141,26.7586880687713],[89.5950218149735,26.7581289056749],[89.5954620285987,26.7575221431906],[89.595914140752,26.7569748810448],[89.5963305644352,26.7563681280952],[89.5969254388329,26.7557137785461],[89.5974608319345,26.7551189279411],[89.5982341761814,26.7544526918563],[89.5989837201983,26.7537983553272],[89.5996737711898,26.7532748878697],[89.6003757215756,26.7527752106869],[89.6011490589028,26.7523945151112],[89.6019461838654,26.7521089901704],[89.6028515634138,26.7520232344551],[89.6030692733277,26.752430042684],[89.6032691424566,26.752858347356],[89.6034594804552,26.7533342419272],[89.6037830753581,26.7539243593066],[89.6040305234464,26.7543907449768],[89.6043446002176,26.7549047120342],[89.6049822808881,26.7556375958064],[89.6053153938414,26.7558945827752],[89.6055914083189,26.7560944685262],[89.6057151329395,26.7563038613191],[89.6057722358775,26.756589402947],[89.6059054463248,26.7582074384528],[89.6060006041695,26.7591116419345],[89.6062004365252,26.7606440185888],[89.6062575302302,26.7613102709],[89.6062955849046,26.7619384527709],[89.6063146172418,26.7622525337064],[89.606362188816,26.7625951852509],[89.6064573602735,26.7629378277255],[89.6066001234606,26.7632043309936],[89.6068380647984,26.7635374562413],[89.6073234581426,26.7641751668715],[89.6075137989043,26.7645368512406],[89.6075804229702,26.7647747929697],[89.6077041457416,26.7650603359003],[89.607856427058,26.7654029794916],[89.6080562889499,26.7657170739615],[89.6082561622269,26.7659740583292],[89.6084369846272,26.766269112393],[89.6085607167056,26.7665832053753],[89.6089128633754,26.7670971831808],[89.6092650075056,26.7677158511747],[89.609407755612,26.7681917448197],[89.6095600265375,26.7689626891809],[89.6098360294675,26.7696384657898],[89.6102547952796,26.7701809949501],[89.610540323958,26.770618821318],[89.6107021157104,26.7709424350622],[89.6112446216803,26.7714659266078],[89.6118156798892,26.7718942385408],[89.6124628776805,26.7723320719797],[89.6131671857937,26.7727508765012],[89.6138143965873,26.7730649797186],[89.6141379916378,26.773236306353],[89.6146995498008,26.7732553473652],[89.6150802588686,26.7732553548079],[89.6153657958601,26.7733505405614],[89.6158797446711,26.7737598213459],[89.616507910662,26.7742737945522],[89.6173740068317,26.7751684930965],[89.6180878273002,26.7759013783732],[89.6184875624633,26.776472457218],[89.6197058078369,26.7777764333885],[89.6208955058201,26.7789757088143],[89.6216683448994,26.7797597853412]]]},"properties":{"compartment":"Tobgaon BL1"},"id":"comptt.203"}
]}
