{"type":"FeatureCollection", "features": [
{"type":"Feature","geometry":{"type":"Polygon","coordinates":[[[89.640686667507,26.7818632910867],[89.6399016618627,26.7821742762978],[89.638549652158,26.7827092508253],[89.6375206478124,26.7829912312107],[89.6354636494893,26.7831281912263],[89.6334856595968,26.7829101521441],[89.6313526787283,26.7823361093872],[89.6295347004936,26.7816220725397],[89.6270867307403,26.780622022857],[89.6248747621372,26.7795509776652],[89.623608775642,26.7791219521343],[89.6225807782259,26.7791189320269],[89.6218677731231,26.7794009185934],[89.6217367676662,26.7796389164611],[89.6216683448994,26.7797597853412],[89.6208955058201,26.7789757088143],[89.6197058078369,26.7777764333885],[89.6184875624633,26.776472457218],[89.6180878273002,26.7759013783732],[89.6173740068317,26.7751684930965],[89.616507910662,26.7742737945522],[89.6158797446711,26.7737598213459],[89.6153657958601,26.7733505405614],[89.6150802588686,26.7732553548079],[89.6146995498008,26.7732553473652],[89.6141379916378,26.773236306353],[89.6138143965873,26.7730649797186],[89.6131671857937,26.7727508765012],[89.6124628776805,26.7723320719797],[89.6118156798892,26.7718942385408],[89.6112446216803,26.7714659266078],[89.6107021157104,26.7709424350622],[89.610540323958,26.770618821318],[89.6102547952796,26.7701809949501],[89.6098360294675,26.7696384657898],[89.6095600265375,26.7689626891809],[89.609407755612,26.7681917448197],[89.6092650075056,26.7677158511747],[89.6089128633754,26.7670971831808],[89.6085607167056,26.7665832053753],[89.6084369846272,26.766269112393],[89.6082561622269,26.7659740583292],[89.6080562889499,26.7657170739615],[89.607856427058,26.7654029794916],[89.6077041457416,26.7650603359003],[89.6075804229702,26.7647747929697],[89.6075137989043,26.7645368512406],[89.6073234581426,26.7641751668715],[89.6068380647984,26.7635374562413],[89.6066001234606,26.7632043309936],[89.6064573602735,26.7629378277255],[89.606362188816,26.7625951852509],[89.6063146172418,26.7622525337064],[89.6062955849046,26.7619384527709],[89.6062575302302,26.7613102709],[89.6062004365252,26.7606440185888],[89.6060006041695,26.7591116419345],[89.6059054463248,26.7582074384528],[89.6057722358775,26.756589402947],[89.6057151329395,26.7563038613191],[89.6055914083189,26.7560944685262],[89.6053153938414,26.7558945827752],[89.6049822808881,26.7556375958064],[89.6043446002176,26.7549047120342],[89.6040305234464,26.7543907449768],[89.6037830753581,26.7539243593066],[89.6034594804552,26.7533342419272],[89.6032691424566,26.752858347356],[89.6030692733277,26.752430042684],[89.6028515634138,26.7520232344551],[89.6030764236859,26.7520019320563],[89.6041947692112,26.7520733440298],[89.6055986394239,26.7523351119227],[89.6071452781345,26.7526444726906],[89.607775821687,26.7528467353713],[89.6082279188488,26.7529181343312],[89.6092391797387,26.7531917945779],[89.6101433668542,26.7536320130327],[89.6107382138623,26.7541079155091],[89.6112378934106,26.7544886359554],[89.6118684423499,26.7548812589802],[89.612403814983,26.7551311198891],[89.613165229659,26.7552738950218],[89.6139742473914,26.7552858108494],[89.6149022374291,26.7551906488086],[89.6160681843848,26.7547861608599],[89.6169128932797,26.754334086549],[89.6178171049139,26.7537630331857],[89.618935469775,26.7530373137268],[89.6196374219039,26.7524662564107],[89.6203274729085,26.7519427889477],[89.6210770178055,26.7512527523459],[89.6217670831358,26.75055082456],[89.6221834950964,26.7500154517283],[89.6226475129959,26.7492302393753],[89.6228973682453,26.7485758930747],[89.6229568805896,26.7476479025616],[89.6228736037668,26.7471125199681],[89.6224215298604,26.7464938500207],[89.6219337537344,26.7459703595482],[89.6212675171784,26.7454825556547],[89.6206012840816,26.7448519815042],[89.6200540195412,26.7442690097637],[89.6195900424915,26.743781209822],[89.6189119174935,26.7428175148402],[89.6185550139289,26.7421750467116],[89.6181981103637,26.7415325885834],[89.6179006963647,26.7409020216387],[89.6176984618447,26.7402833565743],[89.6173653536954,26.7394148485042],[89.6170393268453,26.7384558583767],[89.6171837788712,26.7383937531185],[89.6178637842846,26.7381017658705],[89.618967791595,26.7376887866835],[89.6230978247152,26.7359058641103],[89.6234308088882,26.736525871732],[89.6251637426618,26.7390859101969],[89.6270546863645,26.7412199509837],[89.6287346377236,26.7430589871213],[89.6307816172894,26.7436970282577],[89.633427586607,26.7446980817545],[89.6359955561418,26.7456981337303],[89.6380065359727,26.7463291741595],[89.6384939724721,26.7464248738553],[89.6379203260317,26.7471606039848],[89.6376538160668,26.7475984195732],[89.6374920046945,26.7480838272932],[89.6374158551903,26.7484835765312],[89.6373777714411,26.7490546468238],[89.6374729320622,26.7498446301169],[89.6375966529952,26.7502063131907],[89.6377298927513,26.7506155865368],[89.637815544007,26.7509677488496],[89.637815535009,26.7513389395233],[89.6377584101503,26.7519575995302],[89.6375870764911,26.7525381872365],[89.637377671078,26.7531949143369],[89.6371682538182,26.7539277915752],[89.6367399283204,26.755022335192],[89.6365495597824,26.7553935321456],[89.6363020881523,26.7558979682251],[89.6361022084832,26.756316755079],[89.6359784558598,26.7568497536276],[89.6359118281749,26.7571733529127],[89.6358832692433,26.7575445530279],[89.6359593965955,26.758058515448],[89.6361307055626,26.7584963395901],[89.636359126468,26.758848504693],[89.6366636885732,26.7591435711806],[89.637072945808,26.7596289900597],[89.6373679877054,26.7599335663788],[89.6375393003649,26.7602191002451],[89.6376344725164,26.7605331926753],[89.63768205663,26.7607711440373],[89.6376534883892,26.7611137841009],[89.6375487901022,26.7614659426938],[89.6373869717229,26.7618276201875],[89.6371299817278,26.7622654359591],[89.6369205839255,26.7626080724882],[89.6366445560541,26.762960227732],[89.6362638349739,26.7634551511885],[89.6360258777023,26.7637787571244],[89.6358640723238,26.7640166943933],[89.6357593654211,26.7643117428818],[89.6357783850574,26.7651493247728],[89.6358354224155,26.7681379313089],[89.6358258763441,26.7692134430731],[89.6357782672918,26.7700034335752],[89.6356450049138,26.7705269119194],[89.6354451168545,26.7708790686501],[89.6352071707355,26.7711550744985],[89.6347217450557,26.7718498762677],[89.6344361888896,26.7725446719444],[89.634331485517,26.7731062209152],[89.6342838857006,26.7735154907264],[89.6342743421631,26.7744863122997],[89.6343409488343,26.7750288345855],[89.6345598542105,26.7756094299185],[89.6351118590736,26.7765897724899],[89.6355401383947,26.777398802332],[89.6359684277151,26.7782078321747],[89.6364347780977,26.7789692626759],[89.6367774040945,26.7795117903607],[89.6372342481958,26.7801209404006],[89.6380337279978,26.780872867401],[89.6387475581751,26.7812060119669],[89.6393852392309,26.7815105949919],[89.6399182330834,26.7817104757795],[89.640686667507,26.7818632910867]]]},"properties":{"compartment":"Tobgaon BL2"},"id":"comptt.199"}
]}
