{"type":"FeatureCollection", "features": [
{"type":"Feature","geometry":{"type":"Polygon","coordinates":[[[89.6028515634138,26.7520232344551],[89.6019461838654,26.7521089901704],[89.6011490589028,26.7523945151112],[89.6003757215756,26.7527752106869],[89.5996737711898,26.7532748878697],[89.5989837201983,26.7537983553272],[89.5982341761814,26.7544526918563],[89.5974608319345,26.7551189279411],[89.5969254388329,26.7557137785461],[89.5963305644352,26.7563681280952],[89.595914140752,26.7569748810448],[89.5954620285987,26.7575221431906],[89.5950218149735,26.7581289056749],[89.5946173024141,26.7586880687713],[89.5936496195853,26.7601405124602],[89.5931737082592,26.7610684948193],[89.5928167729852,26.7617347390351],[89.5913414368103,26.7646138653475],[89.5901191702391,26.7662462743761],[89.5900861812819,26.7657942729252],[89.588445191759,26.7655292403866],[89.5861292057731,26.7651871945224],[89.5831112274438,26.7646011345094],[89.5806172490604,26.7639640846475],[89.5772222794354,26.763058016708],[89.5752582947288,26.7626279775746],[89.5731473065351,26.7623569358529],[89.5722798426705,26.7621890490579],[89.572160313615,26.7621659162326],[89.5703523301523,26.7616688800321],[89.5684383506881,26.7610178414903],[89.5661093929822,26.7595117933328],[89.5647024176896,26.758636764304],[89.5646044194118,26.758575762282],[89.5640404293463,26.7582237506441],[89.5636964353646,26.7580107435489],[89.562152501877,26.7554247088275],[89.5626655341127,26.7540417164049],[89.5631330970541,26.7538667948691],[89.565557553137,26.7529597709713],[89.5682025670147,26.7521158211325],[89.5711746114138,26.7499788753874],[89.575030656534,26.7477219466841],[89.5769586824766,26.7464539820813],[89.5780986871407,26.7461450037926],[89.5783561582815,26.7460751390104],[89.5814447008618,26.7452370675135],[89.5850677023783,26.7448051374882],[89.5881607028146,26.7444721972902],[89.590446708275,26.7440142411111],[89.5934396978773,26.744139299778],[89.5955836704367,26.7450543432796],[89.5957646701853,26.7450463467999],[89.5958296708007,26.745014348012],[89.5985107071855,26.7432403971931],[89.5997907295247,26.742188420305],[89.6007377421208,26.7415724376938],[89.600982185893,26.7414135129859],[89.6019097577018,26.7408104592139],[89.6040047664909,26.7402354990905],[89.6049607705177,26.7399725172858],[89.6065127730369,26.739711547122],[89.6091627749294,26.7393655982451],[89.6106487727714,26.7393046271515],[89.6119797802951,26.7388596523411],[89.6130227792957,26.738795672592],[89.6137817778772,26.7387776873802],[89.6147167747696,26.7388117056988],[89.6158897689017,26.738935728827],[89.6166627747172,26.7386177433485],[89.6170393268453,26.7384558583767],[89.6173653536954,26.7394148485042],[89.6176984618447,26.7402833565743],[89.6179006963647,26.7409020216387],[89.6181981103637,26.7415325885834],[89.6185550139289,26.7421750467116],[89.6189119174935,26.7428175148402],[89.6195900424915,26.743781209822],[89.6200540195412,26.7442690097637],[89.6206012840816,26.7448519815042],[89.6212675171784,26.7454825556547],[89.6219337537344,26.7459703595482],[89.6224215298604,26.7464938500207],[89.6228736037668,26.7471125199681],[89.6229568805896,26.7476479025616],[89.6228973682453,26.7485758930747],[89.6226475129959,26.7492302393753],[89.6221834950964,26.7500154517283],[89.6217670831358,26.75055082456],[89.6210770178055,26.7512527523459],[89.6203274729085,26.7519427889477],[89.6196374219039,26.7524662564107],[89.618935469775,26.7530373137268],[89.6178171049139,26.7537630331857],[89.6169128932797,26.754334086549],[89.6160681843848,26.7547861608599],[89.6149022374291,26.7551906488086],[89.6139742473914,26.7552858108494],[89.613165229659,26.7552738950218],[89.612403814983,26.7551311198891],[89.6118684423499,26.7548812589802],[89.6112378934106,26.7544886359554],[89.6107382138623,26.7541079155091],[89.6101433668542,26.7536320130327],[89.6092391797387,26.7531917945779],[89.6082279188488,26.7529181343312],[89.607775821687,26.7528467353713],[89.6071452781345,26.7526444726906],[89.6055986394239,26.7523351119227],[89.6041947692112,26.7520733440298],[89.6030764236859,26.7520019320563],[89.6028515634138,26.7520232344551]]]},"properties":{"compartment":"Tobgaon BL4"},"id":"comptt.190"}
]}
