{"type":"FeatureCollection", "features": [
{"type":"Feature","geometry":{"type":"Polygon","coordinates":[[[89.5471626119867,26.72309599142],[89.5469583223462,26.7231003553509],[89.545898324291,26.7231293347251],[89.5453173414161,26.7224813222551],[89.5444403744695,26.7212053029108],[89.5438524504267,26.7181252860413],[89.5432055113587,26.7156722691229],[89.5413845966115,26.712334227764],[89.5411126051721,26.7120082218894],[89.541424296415,26.7119245978202],[89.5419168484632,26.7117889771864],[89.5427163495724,26.71166050255],[89.5433873501402,26.7115677154706],[89.5439869805413,26.7114892070247],[89.5448935500042,26.7114178445761],[89.5461570485775,26.7113464790872],[89.5476917959581,26.7112965389249],[89.5495334920579,26.7112680247858],[89.5535880814444,26.7112895138852],[89.5543590296986,26.7112823989059],[89.5548944062959,26.7113680694965],[89.5554868817161,26.7114965712761],[89.5560936474461,26.7116107933093],[89.5566432964246,26.7115965340024],[89.5570237750429,26.7116145714537],[89.5575234531106,26.7116431412479],[89.5579660323561,26.7116288698533],[89.5585656546532,26.7118858619995],[89.558865451482,26.7123998287523],[89.5591081318933,26.71318506487],[89.5593365485532,26.7137133102565],[89.5596220826658,26.7139274662029],[89.5599218891595,26.7140416822513],[89.5603930152276,26.7141559116409],[89.5607356612698,26.7142844085503],[89.5611068510389,26.714255855739],[89.5612067831957,26.7145699482425],[89.5613209860074,26.7148554909739],[89.561506578642,26.7151410250977],[89.5618063796117,26.7154836815498],[89.5622346730122,26.7161261410378],[89.5627057787099,26.7170826919159],[89.5631055073457,26.7179250312007],[89.5633910204079,26.7185960479553],[89.5635623361702,26.7191671223059],[89.5638050100137,26.7202236089065],[89.5640048660341,26.7211944345207],[89.5641648303726,26.7218210781661],[89.5628323126581,26.7218676628363],[89.5586823158559,26.7221615823982],[89.5550503199318,26.7223665119089],[89.5532023156313,26.7227344765076],[89.550201318828,26.7229114182787],[89.5497813173353,26.7230164102703],[89.5496723169782,26.7230424081898],[89.5471626119867,26.72309599142]]]},"properties":{"compartment":"N RVBK BL1"},"id":"comptt.166"}
]}