{"type":"FeatureCollection", "features": [
{"type":"Feature","geometry":{"type":"Polygon","coordinates":[[[89.5570237750429,26.7116145714537],[89.5566432964246,26.7115965340024],[89.5560936474461,26.7116107933093],[89.5554868817161,26.7114965712761],[89.5548944062959,26.7113680694965],[89.5543590296986,26.7112823989059],[89.5535880814444,26.7112895138852],[89.5495334920579,26.7112680247858],[89.5476917959581,26.7112965389249],[89.5461570485775,26.7113464790872],[89.5448935500042,26.7114178445761],[89.5439869805413,26.7114892070247],[89.5433873501402,26.7115677154706],[89.5427163495724,26.71166050255],[89.5419168484632,26.7117889771864],[89.541424296415,26.7119245978202],[89.5411126051721,26.7120082218894],[89.5357987719394,26.7056581071762],[89.5318538573016,26.7025340248227],[89.5312782034834,26.7019239425378],[89.5325394177337,26.7016172965835],[89.5339099912012,26.7013317827973],[89.5358326044387,26.700998699687],[89.5374316077988,26.7006941603192],[89.5389449395355,26.7004657594146],[89.5404202099895,26.7002944678681],[89.5416099388585,26.7002183509231],[89.5430185778726,26.7001136781949],[89.5447413049552,26.700056601672],[89.5463593332212,26.699961453042],[89.5471493135519,26.6998662982724],[89.5482629083664,26.6995522294259],[89.5503092524699,26.6991715486422],[89.5538023078084,26.6985910357044],[89.5548587895518,26.6984102159782],[89.5568575273463,26.6982960347352],[89.5588534757651,26.6981564433932],[89.5588229587144,26.6984514033187],[89.5587229913666,26.6995935433849],[89.5585801875689,26.7010069430944],[89.5583945493844,26.7030199730261],[89.5581946246812,26.704890222427],[89.5579233277428,26.7064463898819],[89.5577091420401,26.7079454483491],[89.5575235173079,26.7089876565674],[89.5573236295126,26.7097443240038],[89.5572379531587,26.7104296035413],[89.5570951697076,26.7110006717637],[89.5570237750429,26.7116145714537]]]},"properties":{"compartment":"N RVBK BL3"},"id":"comptt.158"}
]}