{"type":"FeatureCollection", "features": [
{"type":"Feature","geometry":{"type":"Polygon","coordinates":[[[89.5830964613104,26.7136500435517],[89.5808484384836,26.7148230017893],[89.5798714399987,26.7148599827979],[89.5788174361663,26.7151259627115],[89.5785574311728,26.7153589580539],[89.5774134147451,26.7161549371526],[89.5767204012675,26.7167829247496],[89.5761113967977,26.7170299133085],[89.5759423752045,26.7179399116268],[89.5757783553638,26.7187769099129],[89.5750793398926,26.7194878975384],[89.5748313257737,26.7200968937806],[89.5739593143103,26.7206598777676],[89.5729043033727,26.7212198581787],[89.5708713085735,26.7212128185049],[89.569722302879,26.7215657967145],[89.5676003010969,26.7218567558322],[89.5669823058463,26.7217237435406],[89.5653439085655,26.7217803124204],[89.5642903102732,26.7218166911889],[89.5641648303726,26.7218210781661],[89.5640048660341,26.7211944345207],[89.5638050100137,26.7202236089065],[89.5635623361702,26.7191671223059],[89.5633910204079,26.7185960479553],[89.5631055073457,26.7179250312007],[89.5627057787099,26.7170826919159],[89.5622346730122,26.7161261410378],[89.5618063796117,26.7154836815498],[89.561506578642,26.7151410250977],[89.5613209860074,26.7148554909739],[89.5612067831957,26.7145699482425],[89.5611068510389,26.714255855739],[89.5614427502766,26.7142529022848],[89.5617163910359,26.7141934175164],[89.5619900332336,26.7140744526431],[89.562144696302,26.7139316854073],[89.562299368795,26.7138127182137],[89.5624659335599,26.7135985710839],[89.5626087066578,26.7134558036162],[89.5626919927801,26.7131940647781],[89.5627276893081,26.7129204249909],[89.5627039079972,26.7125635038966],[89.5625968351669,26.7122779613041],[89.5623945934353,26.7119567367927],[89.5622637306639,26.7116711937364],[89.5620971694189,26.711326169879],[89.562061487274,26.7110049386158],[89.5620614938898,26.7107312981327],[89.5621804784843,26.7105290500958],[89.5625849797818,26.7104338778156],[89.5631084684834,26.7104338880237],[89.563608148107,26.7103982077047],[89.56431008838,26.7103149412457],[89.5649406496932,26.7101959833317],[89.5657258729248,26.7099818382653],[89.5663088478083,26.7097201091707],[89.5668918247053,26.7093750999286],[89.5676175612492,26.7090300934701],[89.5683195138256,26.7088516468424],[89.5692831966174,26.7086375152553],[89.5702706687762,26.708447174174],[89.5711272806839,26.708280630583],[89.572257523354,26.7080546022223],[89.5731855150868,26.7078880600231],[89.5743276542781,26.7078048021474],[89.5763977897411,26.7077810424739],[89.5771830080904,26.707769167765],[89.5780634059179,26.7077691849336],[89.5787891321141,26.7078524792339],[89.5798360983814,26.7079000897354],[89.5806213152949,26.7079476951328],[89.5815730926615,26.7079596037151],[89.5821175999561,26.7080160144342],[89.5832206016874,26.707832035617],[89.5846466036884,26.7076040630206],[89.5852146042002,26.7075250739569],[89.5856685782041,26.7085540846435],[89.5859055526923,26.7095850911021],[89.5856075074824,26.7114850886744],[89.584186486944,26.7124790627282],[89.5830964613104,26.7136500435517]]]},"properties":{"compartment":"N RVBK BL2"},"id":"comptt.165"}
]}