{"type":"FeatureCollection", "features": [
{"type":"Feature","geometry":{"type":"Polygon","coordinates":[[[89.5468877099446,26.7809403552692],[89.5467689052389,26.781615454374],[89.5465558762932,26.7828304523426],[89.5450287832039,26.7868244294994],[89.544088739038,26.7887414144842],[89.5436177320169,26.7890794058688],[89.5433411584556,26.789278311606],[89.5427897996751,26.7888495192804],[89.5422425337548,26.7883260176647],[89.5416238888797,26.7877668345916],[89.5411956026601,26.7872433453027],[89.5408267948471,26.7867793372808],[89.5406364413884,26.7865294931224],[89.5404579884774,26.7862558491551],[89.5404104155258,26.7859703177252],[89.5405293910011,26.7857323696342],[89.5406721664163,26.7854944320084],[89.5407435543206,26.7851613028205],[89.5406959751219,26.7847211011197],[89.5405889078043,26.7842095181313],[89.5404342559873,26.783888284546],[89.5401249380229,26.7834242776879],[89.5397799307252,26.782936480091],[89.5392564696485,26.78221073859],[89.5386735155462,26.7816158561557],[89.5379240021506,26.7810090804461],[89.5374957133291,26.7805926713477],[89.5372339709143,26.7803071257332],[89.5368889587087,26.7800215784914],[89.5366272239846,26.7798312230437],[89.5363416996091,26.7796289571103],[89.5360204759006,26.7794029004378],[89.535699251326,26.7792125438277],[89.5353780221341,26.7792125375503],[89.5350092165253,26.7790697600938],[89.5344381543112,26.7788080084771],[89.5338670970034,26.7783439965076],[89.5333793177542,26.7779513762904],[89.5329510174896,26.777594447298],[89.5326892836312,26.7773684017889],[89.53233236655,26.7772851046694],[89.5320230410801,26.7771304383553],[89.5316661377501,26.7768924809662],[89.5312735294154,26.7764522725267],[89.5311188764413,26.7761786390274],[89.5309642215465,26.775571864947],[89.5309184931714,26.7753722844685],[89.5313937263652,26.7753285729144],[89.5320897177864,26.7751977162847],[89.5329165795998,26.77503712216],[89.5340884715558,26.774834884704],[89.5347368735309,26.7746861871131],[89.535754096166,26.774472056614],[89.5365155291566,26.7742698111377],[89.5372353138392,26.7740021347333],[89.5378182918953,26.7736095354371],[89.5383596271712,26.7733359055352],[89.5393352179921,26.7727886536387],[89.5404059884307,26.7722473436118],[89.5416433222025,26.7715513765675],[89.5424820907724,26.7711111921837],[89.5435647494527,26.7706412625123],[89.5447306993674,26.7701118543633],[89.5454683368944,26.7697252080963],[89.5465985856018,26.7692493393428],[89.5479489475094,26.7686188046175],[89.5486925340137,26.7682737985386],[89.5499417627147,26.7677860320871],[89.5505901668619,26.7675481043362],[89.5513278989909,26.7672943784451],[89.5513442350635,26.7675445190617],[89.5514461956985,26.7691575238897],[89.5516621440899,26.771263531812],[89.5516851129182,26.7725465345167],[89.5516990926566,26.7733805362564],[89.5498040374171,26.7758535035721],[89.5489420116562,26.7770044887485],[89.5487730062819,26.7772434858656],[89.5470499432801,26.7800184570639],[89.5468877099446,26.7809403552692]]]},"properties":{"compartment":"Adma BL5"},"id":"comptt.202"}
]}