{"type":"FeatureCollection", "features": [
{"type":"Feature","geometry":{"type":"Polygon","coordinates":[[[89.4888017828684,26.8013586955502],[89.4879935750662,26.8013533397411],[89.487822575164,26.8013673364222],[89.486072577241,26.8014663023809],[89.4860096200779,26.7997082981356],[89.4857396557953,26.7982652903843],[89.4855286905579,26.7968552838431],[89.4849687777793,26.7933202668397],[89.4839148467673,26.790588241561],[89.4828819438797,26.7866942147066],[89.4834310205756,26.7834742199184],[89.4841770794168,26.7809692302011],[89.4854201244926,26.7789792510725],[89.4860931746112,26.7768412605531],[89.4865972078471,26.7754172679556],[89.4866592928434,26.7752418291862],[89.4868902271717,26.7745892722582],[89.4868762623581,26.7731392694978],[89.4870603208382,26.7707072689197],[89.4879533858616,26.767930281594],[89.4882964363848,26.7658092846517],[89.4881484759441,26.7641922789868],[89.4874975514284,26.7611452610484],[89.4880635497173,26.7611562721172],[89.490221548476,26.7609803139454],[89.4909365606329,26.7611970108197],[89.4910777621483,26.7615641716648],[89.4912871410071,26.7620019965051],[89.4919152986518,26.7628586102418],[89.4923911749856,26.7633725904169],[89.4929051275323,26.7640388515976],[89.4933238967789,26.7644386104618],[89.4936094314388,26.7646289663646],[89.4941043455652,26.7648193363558],[89.4946373377496,26.7650858472218],[89.4949418995933,26.7653904236929],[89.4958365662438,26.7658473019494],[89.4966754284081,26.7663013067079],[89.4965789382077,26.7665135675932],[89.496578931288,26.7667990980848],[89.4966741064324,26.7669894602712],[89.4968834954382,26.767008494393],[89.4972071027689,26.7670846508435],[89.4977972075763,26.7672369426296],[89.4984824756828,26.7676557467335],[89.4999101342885,26.7683886458776],[89.5003479455622,26.7687027449695],[89.5005955398495,26.7689114401945],[89.5010141802571,26.7692643089495],[89.5017089678784,26.7697021432743],[89.5021848472094,26.7700923932419],[89.5029272337869,26.7705682985629],[89.5033840745508,26.7709014280608],[89.5041740398538,26.7714249243942],[89.505211472913,26.7720150556769],[89.5060204843978,26.7722815719397],[89.5068675541713,26.7726147090613],[89.5076956053778,26.7728907457132],[89.5088758061528,26.7731477492113],[89.5100274553858,26.7734713822677],[89.5113123526666,26.773861638043],[89.5122260518121,26.774213816502],[89.5130350575306,26.7747182831801],[89.5136061145445,26.7751941851608],[89.5140629523089,26.7756510548776],[89.5142723418543,26.7760603196777],[89.5144626754465,26.7767170545349],[89.5149004809502,26.7772691040456],[89.5152811898301,26.77768789221],[89.5161853597667,26.778420791147],[89.5169182212911,26.7791060866551],[89.5173465079721,26.779610545899],[89.5180603288512,26.7803244010859],[89.518707521515,26.780971624856],[89.5192690553185,26.7815807768866],[89.5196497690451,26.7817996947064],[89.5199257864998,26.7818758502324],[89.5200780608044,26.7820947635884],[89.5207918819133,26.7827990987614],[89.5215247336667,26.7834748742575],[89.5225621567983,26.7844742762694],[89.5231236915238,26.785045358237],[89.5240849713133,26.7857782482992],[89.5250843280039,26.7866348793222],[89.5258266967288,26.787434395224],[89.5263787054721,26.7882529374389],[89.5266071171102,26.7889858231799],[89.5267827572944,26.7897840780035],[89.5261597477765,26.790241066621],[89.5260565155192,26.7903165541897],[89.5256077239948,26.7900422854843],[89.5252365293213,26.7898614379136],[89.524484623762,26.7897567230338],[89.5234947755706,26.7897852537349],[89.5221146874429,26.7898518568744],[89.5212295278339,26.7899279797047],[89.5202682244913,26.7901659113279],[89.5196019720198,26.7903372186025],[89.5183551243199,26.7907845350076],[89.5172415267459,26.7912128139836],[89.5156234867553,26.7917933733629],[89.5145003671288,26.7923073123003],[89.5133106265171,26.7928688500173],[89.5121684764787,26.7934018286145],[89.5109501896378,26.7938110655085],[89.5099317732144,26.7941822462432],[89.5085707162765,26.7946105203784],[89.5072477280882,26.7950863853396],[89.506372083615,26.7953623886996],[89.5047445143556,26.7959143978373],[89.5028790182458,26.7963616921425],[89.5016987924722,26.7967233496952],[89.5004233969423,26.7970850053872],[89.4998808848593,26.7972277650281],[89.4985483808632,26.7975323095047],[89.4973681567114,26.7978273369415],[89.4961118018305,26.7981604429554],[89.4952075965142,26.7984745158201],[89.4942558103959,26.79882665782],[89.4934848547405,26.7991407332891],[89.4925901775535,26.7995309464702],[89.4916859687742,26.7999877795792],[89.4908483928284,26.8003208937778],[89.4900584044512,26.8007491790698],[89.4892874574118,26.8011203646357],[89.4888017828684,26.8013586955502]]]},"properties":{"compartment":"Adma BL2"},"id":"comptt.208"}
]}