{"type":"FeatureCollection", "features": [
{"type":"Feature","geometry":{"type":"Polygon","coordinates":[[[89.5155483768309,26.8066258876175],[89.5140453406176,26.8082738610791],[89.5133653208232,26.8091598493147],[89.5118763708039,26.8072578169],[89.5104604159082,26.8055487862508],[89.5083274490882,26.8044057425635],[89.5063544749419,26.8035477025008],[89.5042984855171,26.8033276619195],[89.5016095046527,26.8028216084694],[89.499254517479,26.8025405619402],[89.4984395332026,26.8019785450375],[89.495758565366,26.8009354908265],[89.4926865623118,26.8013844315408],[89.4888017828684,26.8013586955502],[89.4892874574118,26.8011203646357],[89.4900584044512,26.8007491790698],[89.4908483928284,26.8003208937778],[89.4916859687742,26.7999877795792],[89.4925901775535,26.7995309464702],[89.4934848547405,26.7991407332891],[89.4942558103959,26.79882665782],[89.4952075965142,26.7984745158201],[89.4961118018305,26.7981604429554],[89.4973681567114,26.7978273369415],[89.4985483808632,26.7975323095047],[89.4998808848593,26.7972277650281],[89.5004233969423,26.7970850053872],[89.5016987924722,26.7967233496952],[89.5028790182458,26.7963616921425],[89.5047445143556,26.7959143978373],[89.506372083615,26.7953623886996],[89.5072477280882,26.7950863853396],[89.5085707162765,26.7946105203784],[89.5099317732144,26.7941822462432],[89.5109501896378,26.7938110655085],[89.5121684764787,26.7934018286145],[89.5133106265171,26.7928688500173],[89.5145003671288,26.7923073123003],[89.5156234867553,26.7917933733629],[89.5172415267459,26.7912128139836],[89.5183551243199,26.7907845350076],[89.5196019720198,26.7903372186025],[89.5202682244913,26.7901659113279],[89.5212295278339,26.7899279797047],[89.5221146874429,26.7898518568744],[89.5234947755706,26.7897852537349],[89.524484623762,26.7897567230338],[89.5252365293213,26.7898614379136],[89.5256077239948,26.7900422854843],[89.5260565155192,26.7903165541897],[89.525385735995,26.7908070524764],[89.5243546972181,26.7925120352887],[89.5231626222885,26.79572301757],[89.5219635673964,26.7981089982756],[89.5213845078946,26.800619991318],[89.5187824425825,26.8035809455795],[89.5168564072965,26.8052349107852],[89.5155483768309,26.8066258876175]]]},"properties":{"compartment":"Adma BL1"},"id":"comptt.213"}
]}