{"type":"FeatureCollection", "features": [
{"type":"Feature","geometry":{"type":"Polygon","coordinates":[[[89.5433411584556,26.789278311606],[89.5419937077462,26.7902473761663],[89.5396087080365,26.7904823299514],[89.5376676985493,26.7910742930408],[89.5364227134303,26.7905902678555],[89.5343917537604,26.7891392256173],[89.5324407586756,26.7891391874793],[89.5296177581727,26.7894531328439],[89.5268507573168,26.7897760793188],[89.5267827572944,26.7897840780035],[89.5266071171102,26.7889858231799],[89.5263787054721,26.7882529374389],[89.5258266967288,26.787434395224],[89.5250843280039,26.7866348793222],[89.5240849713133,26.7857782482992],[89.5231236915238,26.785045358237],[89.5225621567983,26.7844742762694],[89.5215247336667,26.7834748742575],[89.5207918819133,26.7827990987614],[89.5200780608044,26.7820947635884],[89.5199257864998,26.7818758502324],[89.5196497690451,26.7817996947064],[89.5192690553185,26.7815807768866],[89.518707521515,26.780971624856],[89.5180603288512,26.7803244010859],[89.5173465079721,26.779610545899],[89.5169182212911,26.7791060866551],[89.5161853597667,26.778420791147],[89.5152811898301,26.77768789221],[89.5149004809502,26.7772691040456],[89.5144626754465,26.7767170545349],[89.5142723418543,26.7760603196777],[89.5140629523089,26.7756510548776],[89.5136061145445,26.7751941851608],[89.5130350575306,26.7747182831801],[89.5122260518121,26.774213816502],[89.5113123526666,26.773861638043],[89.5100274553858,26.7734713822677],[89.5088758061528,26.7731477492113],[89.5076956053778,26.7728907457132],[89.5068675541713,26.7726147090613],[89.5060204843978,26.7722815719397],[89.505211472913,26.7720150556769],[89.5041740398538,26.7714249243942],[89.5033840745508,26.7709014280608],[89.5029272337869,26.7705682985629],[89.5021848472094,26.7700923932419],[89.5017089678784,26.7697021432743],[89.5010141802571,26.7692643089495],[89.5005955398495,26.7689114401945],[89.5011736089305,26.768889751417],[89.5022300855529,26.7689183220993],[89.5028011537555,26.7689326132769],[89.5034150608116,26.7689897253652],[89.5038433586854,26.769032563804],[89.504642857693,26.7689897493446],[89.5050140474423,26.7689612065448],[89.5058278295288,26.7687899021423],[89.5063560702643,26.768704252311],[89.5069842493624,26.7686757045304],[89.5074696577846,26.7686899940354],[89.5077980169515,26.7686900004485],[89.5081834938973,26.7687756681253],[89.5090615121894,26.7687542752368],[89.50941843388,26.7686472020225],[89.5098943258456,26.7685163410906],[89.5106438579831,26.7683497954413],[89.5112625181456,26.7682784174007],[89.5117384069399,26.7682784266953],[89.5124403489106,26.7681237801371],[89.512963829315,26.7680524102374],[89.5138442299697,26.7679334472264],[89.5152481098767,26.7677907143983],[89.5162474902322,26.7676717537111],[89.5175204970126,26.7676717785747],[89.5199832304994,26.7676837266966],[89.5206375762507,26.7677908196634],[89.5212919305604,26.7679573927338],[89.5217321251227,26.7681358616421],[89.5220771405024,26.7682905286501],[89.5229456319648,26.7685522860693],[89.5238379262517,26.7686950737468],[89.5251228289721,26.768861659135],[89.5259080429538,26.7690282347631],[89.5264791086293,26.7691472261252],[89.5270025818293,26.7693732867445],[89.5275141639059,26.7696469272145],[89.5278948677542,26.7698610950246],[89.5282636804789,26.7701228426853],[89.5289180170035,26.770610646318],[89.529215441639,26.7708010024602],[89.5295485664728,26.7709794692791],[89.5298816787104,26.7712650162846],[89.53010771891,26.7716457313644],[89.5303932331901,26.7722643980214],[89.5305835803056,26.7727759926326],[89.5306787505455,26.7731686051768],[89.5307501026693,26.7743107485634],[89.5308333657255,26.775000791394],[89.5309184931714,26.7753722844685],[89.5309642215465,26.775571864947],[89.5311188764413,26.7761786390274],[89.5312735294154,26.7764522725267],[89.5316661377501,26.7768924809662],[89.5320230410801,26.7771304383553],[89.53233236655,26.7772851046694],[89.5326892836312,26.7773684017889],[89.5329510174896,26.7775944472979],[89.5333793177542,26.7779513762904],[89.5338670970034,26.7783439965076],[89.5344381543112,26.7788080084771],[89.5350092165253,26.7790697600938],[89.5353780221341,26.7792125375503],[89.5356992513261,26.7792125438277],[89.5360204759006,26.7794029004378],[89.5363416996091,26.7796289571103],[89.5366272239846,26.7798312230437],[89.5368889587087,26.7800215784914],[89.5372339709143,26.7803071257332],[89.5374957133291,26.7805926713477],[89.5379240021506,26.7810090804461],[89.5386735155462,26.7816158561557],[89.5392564696485,26.78221073859],[89.5397799307252,26.782936480091],[89.5401249380229,26.7834242776879],[89.5404342559873,26.783888284546],[89.5405889078043,26.7842095181313],[89.5406959751219,26.7847211011197],[89.5407435543207,26.7851613028205],[89.5406721664163,26.7854944320084],[89.5405293910011,26.7857323696342],[89.5404104155258,26.7859703177252],[89.5404579884774,26.7862558491551],[89.5406364413884,26.7865294931224],[89.5408267948471,26.7867793372808],[89.5411956026601,26.7872433453027],[89.5416238888797,26.7877668345916],[89.5422425337548,26.7883260176647],[89.5427897996751,26.7888495192804],[89.5433411584556,26.789278311606]]]},"properties":{"compartment":"Adma BL3"},"id":"comptt.204"}
]}