{"type":"FeatureCollection", "features": [
{"type":"Feature","geometry":{"type":"Polygon","coordinates":[[[88.80890986534834,26.73045413373043],[88.8096900904146,26.73032586309651],[88.81194134512346,26.72964848723715],[88.81320624159157,26.72907150166729],[88.81496831380468,26.72899821211823],[88.81609402657448,26.72867499941757],[88.81799335834745,26.72809460315422],[88.81982449364519,26.72783075377503],[88.82172568858327,26.7275032960087],[88.82440457778617,26.72748775635294],[88.82651952699942,26.72747545227246],[88.82728026577924,26.7276227615325],[88.8277903606514,26.7277213243585],[88.83032736941185,26.72757986026292],[88.83229943299236,26.72731502573225],[88.8337057065637,26.72680049119733],[88.83454749286241,26.72622580296601],[88.83615273397224,26.72400085513698],[88.83776185432177,26.72231401688462],[88.83863832915974,26.72202199567856],[88.83864012985325,26.72226765001303],[88.83899959575407,26.72252811312074],[88.83893971137286,26.72322907762384],[88.8385252742837,26.72434054494927],[88.8386260173283,26.72477769003165],[88.8411361525531,26.73017676396262],[88.84387390902813,26.73612922104341],[88.84420868461035,26.73685688874403],[88.84513296817136,26.73874844303739],[88.84638884658891,26.74151348983095],[88.84734607717326,26.74346321454473],[88.84747404466995,26.74488481857213],[88.84690865424976,26.74585928747557],[88.84613422535055,26.74665195231409],[88.84536029626916,26.74750299399901],[88.84520809205021,26.74853647914137],[88.84576944073797,26.75006888363818],[88.84439662506921,26.75055005930445],[88.84541638834762,26.75185719846308],[88.84633286168932,26.75332120067177],[88.8468987482698,26.75447478182904],[88.84652785613467,26.75613402699048],[88.84114421932162,26.75565217660107],[88.83832320693725,26.75560542333923],[88.83394988440773,26.75544139506653],[88.83303609733524,26.75548992014962],[88.82859255623693,26.75572608370943],[88.82422335137323,26.75613118744678],[88.82320892362372,26.75617938822446],[88.8222752588647,26.75490825343891],[88.82219113292804,26.75300970660704],[88.822039812577,26.75158651911819],[88.82111450703,26.75038922340368],[88.82061182008067,26.74912601513329],[88.81988445388878,26.74602880976714],[88.81845341431386,26.74476052042078],[88.81493801468216,26.74453791911135],[88.8112073418163,26.74502497057811],[88.81042236787529,26.74412069425778],[88.81041653476471,26.74329798859361],[88.81041025200261,26.74241182420911],[88.80998041693604,26.7414648999453],[88.80997458567961,26.74064191184704],[88.81066798048624,26.73899218968476],[88.80973752052903,26.7370352827808],[88.80973124473618,26.73614911747118],[88.80972496923329,26.73526295205037],[88.80964376522635,26.73374429372154],[88.80914352443753,26.73279776692607],[88.80899844367895,26.73222885291258],[88.80890986534834,26.73045413373043]]]},"properties":{"id":null,"description":null,"altitudeMode":null,"tessellate":-1,"extrude":0,"visibility":-1,"drawOrder":null,"icon":null,"AREA":"2984480","PERIMETER":"8103.01","division":"Gorumara","beat":"RAMSAI","range":"Gorumara South","layer":"Gorumara_South","path":"C:\\Users\\user\\Downloads\\Gorumara_South.geojson"}},
{"type":"Feature","geometry":{"type":"Polygon","coordinates":[[[88.80890986534834,26.73045413373043],[88.80899844367895,26.73222885291258],[88.80914352443753,26.73279776692607],[88.80964376522635,26.73374429372154],[88.80972496923329,26.73526295205037],[88.80973124473618,26.73614911747118],[88.80973752052903,26.7370352827808],[88.81066798048624,26.73899218968476],[88.80997458567961,26.74064191184704],[88.80998041693604,26.7414648999453],[88.81041025200261,26.74241182420911],[88.81041653476471,26.74329798859361],[88.81042236787529,26.74412069425778],[88.8112073418163,26.74502497057811],[88.81493801468216,26.74453791911135],[88.81845341431386,26.74476052042078],[88.81988445388878,26.74602880976714],[88.82061182008067,26.74912601513329],[88.82111450703,26.75038922340368],[88.822039812577,26.75158651911819],[88.82219113292804,26.75300970660704],[88.8222752588647,26.75490825343891],[88.82320892362372,26.75617938822446],[88.82422335137323,26.75613118744678],[88.82859255623693,26.75572608370943],[88.83303609733524,26.75548992014962],[88.83397992139429,26.75955573720299],[88.83578498239146,26.76530508975534],[88.83618402623102,26.76703648387452],[88.8344589722313,26.76721192987472],[88.82486887829602,26.76739470291441],[88.81788984862288,26.76781478262694],[88.8140832377383,26.76805838702478],[88.81346913946213,26.76807375880101],[88.81280814666472,26.76809024298952],[88.80752554350495,26.76822253932317],[88.7983597752781,26.76859092195437],[88.79371591080515,26.76902456455107],[88.79405945122333,26.76817451772257],[88.79465433970117,26.76745308592432],[88.79493577710451,26.76683607593317],[88.79518718828162,26.766014183865],[88.79518343903668,26.76547577243293],[88.79377523038869,26.76427846735733],[88.78995593011871,26.76142797163343],[88.78728433255891,26.75928881754459],[88.78592002961905,26.75820400704952],[88.78834300439806,26.75807604248798],[88.7956745344176,26.75771862631713],[88.8037812019787,26.75729297831231],[88.80730422695234,26.75709724495019],[88.80723448651568,26.75698848895077],[88.80287787590854,26.74916434874946],[88.79963411725824,26.7452762840581],[88.79925128719782,26.74481729009073],[88.79775588395637,26.7427210507258],[88.796438294247,26.74082941050093],[88.79391643492585,26.7381217606954],[88.79114683651765,26.73525721441433],[88.78904887651494,26.73264187649542],[88.78436268457067,26.72784140104307],[88.7830850877846,26.72658232894443],[88.78270003444209,26.72634160714926],[88.78520190147233,26.72685550254971],[88.78830775778937,26.72740802468871],[88.78978904333289,26.72752642815504],[88.79148583856333,26.72821307526399],[88.79303853837227,26.7284576870801],[88.79459388216821,26.72908190753599],[88.79565229335402,26.72920261693049],[88.79785137694009,26.72920013952668],[88.79967998585087,26.73050927795066],[88.80095389878345,26.73119847483553],[88.8035654663676,26.73162680846459],[88.8056090777705,26.73148857816591],[88.80715790996997,26.73116331442983],[88.80849292433473,26.73052279211395],[88.80890986534834,26.73045413373043]]]},"properties":{"id":null,"description":null,"altitudeMode":null,"tessellate":-1,"extrude":0,"visibility":-1,"drawOrder":null,"icon":null,"AREA":"2286130","PERIMETER":"7116.11","division":"Gorumara","beat":"BICHABHANGA","range":"Gorumara South","layer":"Gorumara_South","path":"C:\\Users\\user\\Downloads\\Gorumara_South.geojson"}},
{"type":"Feature","geometry":{"type":"Polygon","coordinates":[[[88.86909393640303,26.77758052798314],[88.86925141024257,26.77812983355049],[88.86932136981513,26.7795162236156],[88.8691080278757,26.78190702383244],[88.86910231064813,26.78197136531946],[88.87001099896334,26.78420635904264],[88.87020033813876,26.78564532075514],[88.87039693079251,26.78804460194136],[88.87052354750982,26.78905749505399],[88.870579298642,26.78907294699593],[88.87165541814892,26.78937037463622],[88.87308332140054,26.78952178328463],[88.87316573710851,26.78955089007488],[88.87229297186938,26.79114418145377],[88.87182134533481,26.7917825326793],[88.87056603101495,26.79348111406227],[88.86864087081888,26.79599805855237],[88.86847809837754,26.79615954040609],[88.86755230849143,26.79707819427612],[88.86605669844343,26.79708734732698],[88.86306521895375,26.79706104447397],[88.86075263255087,26.79775428294001],[88.86062780725557,26.79779142535377],[88.86003531186743,26.79855570102346],[88.85874888856941,26.79986063404891],[88.85815300367386,26.80017759848237],[88.85730717831628,26.8004063832011],[88.85562426423698,26.80051104585312],[88.85572930918327,26.80119888438806],[88.85624081743264,26.80420070510981],[88.8567508731966,26.80700538141461],[88.85823298584354,26.81552911490887],[88.85833810174594,26.81649335308617],[88.85839227531757,26.81719503417749],[88.8585049392342,26.81744988356331],[88.8579834708072,26.81740114881245],[88.84990707043322,26.81760640324821],[88.84447113779369,26.81750468164508],[88.83553121633653,26.81778195611218],[88.83543593690088,26.81617147274681],[88.83512525851917,26.8146076691005],[88.83507056194576,26.81348234637563],[88.83473639185318,26.81348431705135],[88.83202634266802,26.81364213887368],[88.829788361653,26.81377232280922],[88.82525489371413,26.81372351516106],[88.82599730624244,26.81281353473692],[88.82631648714128,26.81250057505579],[88.82876936741653,26.81009617722276],[88.82925310918253,26.80886559701603],[88.82858797981633,26.80773989485994],[88.82600075412827,26.8057414802756],[88.82587740807003,26.80563840655217],[88.82203574293905,26.80242483629125],[88.82016765696896,26.8014532977919],[88.81573687193968,26.8018472425014],[88.81059291157948,26.80202428986638],[88.80943510353815,26.80085223569156],[88.80805317001567,26.79894474193183],[88.80623100493199,26.79669592374069],[88.80457937722015,26.7953300499482],[88.80282831435105,26.79455702053807],[88.80321399343762,26.79367569021518],[88.80374868893979,26.79323407246217],[88.80443031360238,26.79283533584797],[88.80462395727231,26.79257108517993],[88.80603955118704,26.79225588678929],[88.80823853118723,26.79211164054045],[88.80847512548328,26.79211029038854],[88.80970516428721,26.79210326466781],[88.8109746598485,26.79187656917951],[88.81272992736062,26.79120849187646],[88.81677290854223,26.78914546964269],[88.81906428630249,26.78825478989644],[88.820283586387,26.78785286851117],[88.82267708548913,26.78757583923248],[88.83220377196183,26.78670846579312],[88.8365532197248,26.78650741665821],[88.83953567636463,26.78631829003125],[88.84036465837497,26.78626570931068],[88.84119596338932,26.78630449310849],[88.8414912154375,26.7865658893397],[88.84227858920508,26.78726322462538],[88.84360084202503,26.78815113724131],[88.8437033439094,26.78821991028516],[88.8463565321132,26.79000269438656],[88.84674432291463,26.79034221718866],[88.8457128113643,26.7917507136635],[88.84411812836547,26.79361073162676],[88.84300993848089,26.79433880592577],[88.84111364803869,26.79446120540674],[88.83930495647176,26.79528620246523],[88.83799800756572,26.7970333216515],[88.83788463480406,26.79713270865349],[88.83794404884534,26.79786060112339],[88.83780239678664,26.79893490783585],[88.83805921833978,26.79996229357628],[88.83860928661427,26.80018270024413],[88.83920786210126,26.80022399995099],[88.83976287558234,26.80111536081006],[88.84046868159777,26.80218464166849],[88.84047264025877,26.80272163406519],[88.8400804194159,26.80361861170911],[88.83948808532129,26.80442736610285],[88.83804819756384,26.80524113658867],[88.83706219195405,26.80676776146929],[88.83687266987823,26.80811085714762],[88.8370330625918,26.80958613817322],[88.83714429299981,26.81115139995472],[88.8371534936351,26.81240391158893],[88.83762807212945,26.81296378618145],[88.84053144075315,26.81060023997192],[88.84450261107783,26.80654279099031],[88.84863858644339,26.80250257880984],[88.85084406534015,26.79956565881432],[88.8515983901705,26.79855365745101],[88.85215195182002,26.79796649306074],[88.85268533970661,26.79759323874766],[88.8548935973536,26.79506351468684],[88.85538190008567,26.79417212235392],[88.85562045969796,26.79298665307128],[88.85561462885012,26.79220936983979],[88.85523034118049,26.79173362265171],[88.85583604663859,26.79039475902281],[88.85621632941368,26.78924848261588],[88.85671347647866,26.78775006914325],[88.86072631330843,26.78441537282199],[88.8648382060574,26.78103539770835],[88.86858857459326,26.77753934527983],[88.8688200493565,26.77732357140396],[88.86903165582744,26.77752196235193],[88.86909393640303,26.77758052798314]]]},"properties":{"id":null,"description":null,"altitudeMode":null,"tessellate":-1,"extrude":0,"visibility":-1,"drawOrder":null,"icon":null,"AREA":"2910660","PERIMETER":"7520.48","division":"Gorumara","beat":"DHUPJHORA","range":"Gorumara South","layer":"Gorumara_South","path":"C:\\Users\\user\\Downloads\\Gorumara_South.geojson"}},
{"type":"Feature","geometry":{"type":"Polygon","coordinates":[[[88.84652785613467,26.75613402699048],[88.84820950144652,26.75743719029576],[88.84933067224638,26.75830595380317],[88.84964782115374,26.75880440571969],[88.85031370798761,26.75934758551265],[88.85060167958883,26.75930270479854],[88.85094002582056,26.75924990587858],[88.85131878475894,26.75865364025718],[88.85148874144149,26.75808965303785],[88.85151538328374,26.75699514905858],[88.85164820862188,26.75611887599368],[88.85199254413162,26.7555854298667],[88.85243932765906,26.75476988365566],[88.85292222433687,26.7541416804129],[88.85358027295054,26.75363736831861],[88.8542724917589,26.75303920762021],[88.85461890939504,26.75278694405503],[88.85437088257154,26.7522254719324],[88.85387764381697,26.7514781965163],[88.85342208854958,26.75110581569856],[88.85154148153184,26.75114814664542],[88.8515575593623,26.75330543232876],[88.85051261161769,26.75331170396927],[88.8501854730108,26.75146907405444],[88.85048417106152,26.75011345380726],[88.8507360646047,26.74900293107205],[88.8510522600603,26.74780458711553],[88.85101148200583,26.74669553769214],[88.85067954175042,26.74577833510505],[88.84991139736425,26.74303945969115],[88.84950631017392,26.74102806309826],[88.84975833318519,26.73994659109258],[88.8505326928966,26.73915390740305],[88.85506559671083,26.73667509369914],[88.85558040611271,26.73595699782401],[88.8557131222753,26.73555568906001],[88.86233633180721,26.73705443520297],[88.86778603005872,26.73841649053808],[88.87194967319697,26.74094884381321],[88.87481832958296,26.7434890640444],[88.87612055359972,26.74441121642749],[88.87847911378444,26.74492490068102],[88.87853835291241,26.74524352854769],[88.87851211814603,26.74606106231185],[88.87838840636157,26.74687891771925],[88.87793951548842,26.74769906846163],[88.87722920466861,26.7483454021454],[88.87684130514656,26.74863971934773],[88.87619132021838,26.74867278758366],[88.87561054362854,26.74926021135088],[88.87548740178507,26.75016577729807],[88.87558526292959,26.7514453826319],[88.87511764920576,26.75246166259878],[88.87423239620821,26.75326728938656],[88.87411967221881,26.75406815042815],[88.87365134651591,26.75500461085034],[88.87270831012368,26.75602409365412],[88.87152340849386,26.75651142519764],[88.86950695576228,26.75705715590017],[88.86632362671554,26.76046402364765],[88.86260816063388,26.7642742851094],[88.860903994534,26.76684506491922],[88.85920136010523,26.76962932471476],[88.85920457139166,26.77005604175731],[88.8599261882758,26.771171954277],[88.86088554847287,26.77228613673023],[88.86255982156177,26.77360975393326],[88.86411122620225,26.77440046825145],[88.86638132870092,26.77590683676412],[88.86781351616987,26.77664493139477],[88.8688200493565,26.77732357140396],[88.86858857459326,26.77753934527983],[88.8648382060574,26.78103539770835],[88.86072631330843,26.78441537282199],[88.85671347647866,26.78775006914325],[88.85621632941368,26.78924848261588],[88.85583604663859,26.79039475902281],[88.85523034118049,26.79173362265171],[88.85561462885012,26.79220936983979],[88.85562045969796,26.79298665307128],[88.85538190008567,26.79417212235392],[88.8548935973536,26.79506351468684],[88.85268533970661,26.79759323874766],[88.85215195182002,26.79796649306074],[88.8515983901705,26.79855365745101],[88.85084406534015,26.79956565881432],[88.84863858644339,26.80250257880984],[88.84450261107783,26.80654279099031],[88.84053144075315,26.81060023997192],[88.83762807212945,26.81296378618145],[88.8371534936351,26.81240391158893],[88.83714429299981,26.81115139995472],[88.8370330625918,26.80958613817322],[88.83687266987823,26.80811085714762],[88.83706219195405,26.80676776146929],[88.83804819756384,26.80524113658867],[88.83948808532129,26.80442736610285],[88.8400804194159,26.80361861170911],[88.84047264025877,26.80272163406519],[88.84046868159777,26.80218464166849],[88.83976287558234,26.80111536081006],[88.83920786210126,26.80022399995099],[88.83860928661427,26.80018270024413],[88.83805921833978,26.79996229357628],[88.83780239678664,26.79893490783585],[88.83794404884534,26.79786060112339],[88.83788463480406,26.79713270865349],[88.83799800756572,26.7970333216515],[88.83930495647176,26.79528620246523],[88.84111364803869,26.79446120540674],[88.84300993848089,26.79433880592577],[88.84411812836547,26.79361073162676],[88.8457128113643,26.7917507136635],[88.84674432291463,26.79034221718866],[88.8463565321132,26.79000269438656],[88.8437033439094,26.78821991028516],[88.84360084202503,26.78815113724131],[88.84227858920508,26.78726322462538],[88.8414912154375,26.7865658893397],[88.84119596338932,26.78630449310849],[88.84036465837497,26.78626570931068],[88.83953567636463,26.78631829003125],[88.8365532197248,26.78650741665821],[88.83220377196183,26.78670846579312],[88.82267708548913,26.78757583923248],[88.820283586387,26.78785286851117],[88.81906428630249,26.78825478989644],[88.81677290854223,26.78914546964269],[88.81272992736062,26.79120849187646],[88.8109746598485,26.79187656917951],[88.80970516428721,26.79210326466781],[88.80847512548328,26.79211029038854],[88.80823853118723,26.79211164054045],[88.80603955118704,26.79225588678929],[88.80462395727231,26.79257108517993],[88.80443031360238,26.79283533584797],[88.80374868893979,26.79323407246217],[88.80321399343762,26.79367569021518],[88.80282831435105,26.79455702053807],[88.80271259607258,26.79450577953246],[88.80107035719689,26.79446600040509],[88.7977594175759,26.79464714660818],[88.7982343734679,26.79099927840837],[88.79842914156598,26.78859258978193],[88.79848943461982,26.78713659768708],[88.7986221339547,26.78593319473185],[88.79868427353873,26.7847301892819],[88.79810624779849,26.78277123401221],[88.79760233612245,26.78131813593618],[88.79709269167297,26.77904233124541],[88.79587300363531,26.77607413417115],[88.79395023781751,26.77342632410802],[88.79302636197218,26.77241865785039],[88.79309023796914,26.77146892237029],[88.7933631187815,26.77013809645256],[88.79363995376097,26.76937698755384],[88.79371591080515,26.76902456455107],[88.7983597752781,26.76859092195437],[88.80752554350495,26.76822253932317],[88.81280814666472,26.76809024298952],[88.81346913946213,26.76807375880101],[88.8140832377383,26.76805838702478],[88.81788984862288,26.76781478262694],[88.82486887829602,26.76739470291441],[88.8344589722313,26.76721192987472],[88.83618402623102,26.76703648387452],[88.83578498239146,26.76530508975534],[88.83397992139429,26.75955573720299],[88.83303609733524,26.75548992014962],[88.83394988440773,26.75544139506653],[88.83832320693725,26.75560542333923],[88.84114421932162,26.75565217660107],[88.84652785613467,26.75613402699048]]]},"properties":{"id":null,"description":null,"altitudeMode":null,"tessellate":-1,"extrude":0,"visibility":-1,"drawOrder":null,"icon":null,"AREA":"1789420","PERIMETER":"6497.07","division":"Gorumara","beat":"GORUMARA","range":"Gorumara South","layer":"Gorumara_South","path":"C:\\Users\\user\\Downloads\\Gorumara_South.geojson"}}
]}