{
"type": "FeatureCollection",
"name": "master",
"crs": { "type": "name", "properties": { "name": "urn:ogc:def:crs:OGC:1.3:CRS84" } },
"features": [
{ "type": "Feature", "properties": { "id": null, "description": null, "altitudeMode": null, "tessellate": -1, "extrude": 0, "visibility": -1, "drawOrder": null, "icon": null, "AREA": "752541", "PERIMETER": "6781.79", "division": "Gorumara", "beat": "KHUNIA", "range": "Gorumara North", "layer": "Gorumara_North", "path": "C:\\Users\\user\\Downloads\\Gorumara_North.geojson" }, "geometry": { "type": "MultiPolygon", "coordinates": [ [ [ [ 88.890844350540945, 26.825818257667269, 0.0 ], [ 88.891127840435843, 26.824055960345909, 0.0 ], [ 88.89147541361632, 26.822880190328469, 0.0 ], [ 88.891306163092608, 26.82155142280936, 0.0 ], [ 88.891285391284185, 26.821387968566778, 0.0 ], [ 88.891034207933714, 26.819682624418238, 0.0 ], [ 88.890724161118086, 26.818057467940459, 0.0 ], [ 88.89041600168072, 26.816672599363709, 0.0 ], [ 88.890585652429621, 26.81555125578025, 0.0 ], [ 88.891413433735039, 26.814959113633499, 0.0 ], [ 88.892236274515326, 26.813727041392792, 0.0 ], [ 88.892467407678296, 26.812872121145951, 0.0 ], [ 88.892335969869691, 26.811272634898689, 0.0 ], [ 88.891913080885246, 26.810421835730018, 0.0 ], [ 88.890953083371713, 26.80930760252771, 0.0 ], [ 88.890056267630754, 26.80867328563037, 0.0 ], [ 88.889458003375651, 26.80819672451225, 0.0 ], [ 88.889033485009577, 26.80713270088447, 0.0 ], [ 88.888784451316269, 26.80569386620618, 0.0 ], [ 88.88866035366533, 26.805027893246159, 0.0 ], [ 88.888238762671321, 26.804336992230191, 0.0 ], [ 88.887517896352605, 26.80338143412872, 0.0 ], [ 88.887391447435149, 26.802422148560389, 0.0 ], [ 88.887379407315393, 26.800875212052379, 0.0 ], [ 88.887251380262214, 26.799702428395129, 0.0 ], [ 88.886710174870771, 26.798905658366021, 0.0 ], [ 88.885991763461718, 26.798269913798769, 0.0 ], [ 88.884737975195563, 26.797584486352989, 0.0 ], [ 88.883960177097023, 26.79694910195888, 0.0 ], [ 88.88323939522931, 26.795993519070429, 0.0 ], [ 88.882572664050812, 26.794344047724788, 0.0 ], [ 88.881550528967708, 26.79285670411603, 0.0 ], [ 88.879876159837877, 26.791586913017941, 0.0 ], [ 88.876751482363645, 26.785264220840091, 0.0 ], [ 88.875412329459422, 26.783974811103921, 0.0 ], [ 88.872272501444087, 26.780563374198959, 0.0 ], [ 88.869093936403033, 26.77758052798314, 0.0 ], [ 88.869251410242569, 26.778129833550491, 0.0 ], [ 88.869321369815125, 26.779516223615602, 0.0 ], [ 88.869108027875697, 26.781907023832439, 0.0 ], [ 88.869102310648131, 26.78197136531946, 0.0 ], [ 88.870010998963338, 26.784206359042638, 0.0 ], [ 88.870200338138758, 26.78564532075514, 0.0 ], [ 88.870396930792509, 26.788044601941358, 0.0 ], [ 88.870523547509819, 26.789057495053989, 0.0 ], [ 88.870579298641999, 26.78907294699593, 0.0 ], [ 88.871655418148919, 26.789370374636221, 0.0 ], [ 88.873083321400543, 26.789521783284631, 0.0 ], [ 88.873165737108508, 26.789550890074882, 0.0 ], [ 88.872292971869385, 26.79114418145377, 0.0 ], [ 88.871821345334808, 26.791782532679299, 0.0 ], [ 88.870566031014945, 26.793481114062271, 0.0 ], [ 88.868640870818879, 26.795998058552371, 0.0 ], [ 88.868478098377537, 26.796159540406091, 0.0 ], [ 88.867552308491426, 26.797078194276121, 0.0 ], [ 88.86605669844343, 26.797087347326979, 0.0 ], [ 88.86306521895375, 26.797061044473971, 0.0 ], [ 88.86075263255087, 26.797754282940009, 0.0 ], [ 88.861236656001111, 26.798818882439789, 0.0 ], [ 88.862240265855917, 26.801105804360471, 0.0 ], [ 88.862927238032924, 26.803012476358852, 0.0 ], [ 88.864025544058151, 26.80594243265972, 0.0 ], [ 88.864893512999487, 26.80806911142577, 0.0 ], [ 88.86730825635189, 26.813102940778389, 0.0 ], [ 88.86831641436298, 26.815953025583941, 0.0 ], [ 88.86894912217295, 26.8165927686752, 0.0 ], [ 88.869359065087366, 26.817434974561738, 0.0 ], [ 88.870762603952187, 26.819196457735458, 0.0 ], [ 88.872258020560082, 26.821238839601151, 0.0 ], [ 88.873033893225383, 26.82300416430466, 0.0 ], [ 88.873360456313435, 26.82465126030327, 0.0 ], [ 88.873597579935918, 26.826339521405931, 0.0 ], [ 88.873821560448903, 26.82915152478569, 0.0 ], [ 88.873632871925835, 26.829218687945691, 0.0 ], [ 88.870585628807831, 26.829977549381841, 0.0 ], [ 88.862998392696809, 26.83050518859142, 0.0 ], [ 88.858378355789512, 26.83060718315377, 0.0 ], [ 88.85678053667182, 26.830713889238488, 0.0 ], [ 88.857577657033119, 26.832400762570671, 0.0 ], [ 88.85832541114965, 26.834282540527969, 0.0 ], [ 88.859223591937138, 26.836645977560899, 0.0 ], [ 88.862699043066897, 26.843490338582839, 0.0 ], [ 88.863995980131023, 26.846816459661639, 0.0 ], [ 88.86499192962782, 26.849135538215009, 0.0 ], [ 88.865347645640142, 26.850887953425911, 0.0 ], [ 88.866143558694105, 26.852637954094849, 0.0 ], [ 88.866542604462751, 26.853644377813019, 0.0 ], [ 88.867128071334179, 26.854176107093849, 0.0 ], [ 88.871420388289025, 26.853454771494711, 0.0 ], [ 88.875032673736797, 26.852859075819222, 0.0 ], [ 88.876669784471744, 26.85258917651997, 0.0 ], [ 88.879177258837416, 26.852363772366019, 0.0 ], [ 88.881959000760929, 26.852113768510911, 0.0 ], [ 88.885182826586217, 26.851369626431829, 0.0 ], [ 88.887826570258653, 26.851031246069638, 0.0 ], [ 88.889664790773892, 26.850919006572809, 0.0 ], [ 88.890954747603644, 26.850591051194861, 0.0 ], [ 88.890797246406322, 26.85019633818283, 0.0 ], [ 88.89055238712838, 26.849317908675829, 0.0 ], [ 88.890441629408741, 26.848988616659579, 0.0 ], [ 88.889943472631884, 26.847507927761029, 0.0 ], [ 88.89010899294405, 26.845853272594638, 0.0 ], [ 88.891048833933866, 26.844353659849531, 0.0 ], [ 88.891153991569539, 26.842592771293319, 0.0 ], [ 88.890548445470401, 26.84120949984014, 0.0 ], [ 88.889825231174854, 26.839987165519961, 0.0 ], [ 88.889571439972386, 26.837961721510101, 0.0 ], [ 88.88966919376152, 26.835240805425059, 0.0 ], [ 88.889475545759836, 26.83329479965078, 0.0 ], [ 88.888752395866447, 26.832072456981528, 0.0 ], [ 88.889517470069265, 26.831054269861468, 0.0 ], [ 88.890283440750409, 26.830142403242291, 0.0 ], [ 88.891165821241515, 26.828909962965501, 0.0 ], [ 88.891395738061945, 26.827895134852898, 0.0 ], [ 88.891269718701537, 26.826989160480309, 0.0 ], [ 88.89106582883764, 26.826427768585141, 0.0 ], [ 88.890844350540945, 26.825818257667269, 0.0 ] ] ] ] } },
{ "type": "Feature", "properties": { "id": null, "description": null, "altitudeMode": null, "tessellate": -1, "extrude": 0, "visibility": -1, "drawOrder": null, "icon": null, "AREA": "2984480", "PERIMETER": "8103.01", "division": "Gorumara", "beat": "RAMSAI", "range": "Gorumara South", "layer": "Gorumara_South", "path": "C:\\Users\\user\\Downloads\\Gorumara_South.geojson" }, "geometry": { "type": "MultiPolygon", "coordinates": [ [ [ [ 88.847346077173256, 26.743463214544729, 0.0 ], [ 88.846388846588908, 26.74151348983095, 0.0 ], [ 88.845132968171356, 26.738748443037391, 0.0 ], [ 88.844208684610351, 26.736856888744029, 0.0 ], [ 88.843873909028133, 26.736129221043409, 0.0 ], [ 88.841136152553105, 26.730176763962621, 0.0 ], [ 88.838626017328295, 26.724777690031651, 0.0 ], [ 88.838525274283697, 26.724340544949271, 0.0 ], [ 88.838939711372859, 26.723229077623841, 0.0 ], [ 88.838999595754075, 26.722528113120742, 0.0 ], [ 88.838640129853246, 26.722267650013031, 0.0 ], [ 88.838638329159735, 26.72202199567856, 0.0 ], [ 88.837761854321769, 26.722314016884621, 0.0 ], [ 88.836152733972241, 26.724000855136978, 0.0 ], [ 88.834547492862413, 26.72622580296601, 0.0 ], [ 88.833705706563705, 26.726800491197331, 0.0 ], [ 88.832299432992357, 26.727315025732249, 0.0 ], [ 88.830327369411847, 26.727579860262921, 0.0 ], [ 88.827790360651406, 26.727721324358502, 0.0 ], [ 88.827280265779237, 26.727622761532501, 0.0 ], [ 88.826519526999419, 26.727475452272461, 0.0 ], [ 88.824404577786169, 26.727487756352939, 0.0 ], [ 88.821725688583271, 26.727503296008699, 0.0 ], [ 88.819824493645186, 26.727830753775031, 0.0 ], [ 88.817993358347451, 26.728094603154219, 0.0 ], [ 88.816094026574476, 26.728674999417571, 0.0 ], [ 88.814968313804684, 26.728998212118231, 0.0 ], [ 88.813206241591573, 26.729071501667288, 0.0 ], [ 88.811941345123458, 26.729648487237149, 0.0 ], [ 88.809690090414605, 26.73032586309651, 0.0 ], [ 88.80890986534834, 26.730454133730429, 0.0 ], [ 88.808998443678945, 26.732228852912581, 0.0 ], [ 88.80914352443753, 26.732797766926069, 0.0 ], [ 88.809643765226355, 26.733744293721539, 0.0 ], [ 88.809724969233287, 26.73526295205037, 0.0 ], [ 88.809731244736184, 26.736149117471179, 0.0 ], [ 88.809737520529026, 26.737035282780798, 0.0 ], [ 88.810667980486244, 26.738992189684762, 0.0 ], [ 88.809974585679612, 26.740641911847039, 0.0 ], [ 88.809980416936043, 26.741464899945299, 0.0 ], [ 88.810410252002612, 26.74241182420911, 0.0 ], [ 88.810416534764713, 26.743297988593611, 0.0 ], [ 88.81042236787529, 26.744120694257781, 0.0 ], [ 88.811207341816299, 26.745024970578111, 0.0 ], [ 88.814938014682156, 26.744537919111352, 0.0 ], [ 88.818453414313865, 26.74476052042078, 0.0 ], [ 88.819884453888776, 26.746028809767139, 0.0 ], [ 88.820611820080671, 26.749126015133289, 0.0 ], [ 88.821114507030003, 26.75038922340368, 0.0 ], [ 88.822039812577003, 26.751586519118192, 0.0 ], [ 88.82219113292804, 26.753009706607038, 0.0 ], [ 88.822275258864707, 26.754908253438909, 0.0 ], [ 88.823208923623724, 26.75617938822446, 0.0 ], [ 88.824223351373234, 26.75613118744678, 0.0 ], [ 88.828592556236927, 26.75572608370943, 0.0 ], [ 88.833036097335238, 26.755489920149621, 0.0 ], [ 88.83394988440773, 26.75544139506653, 0.0 ], [ 88.838323206937247, 26.75560542333923, 0.0 ], [ 88.84114421932162, 26.755652176601071, 0.0 ], [ 88.846527856134671, 26.75613402699048, 0.0 ], [ 88.846898748269794, 26.754474781829039, 0.0 ], [ 88.846332861689319, 26.75332120067177, 0.0 ], [ 88.845416388347616, 26.751857198463082, 0.0 ], [ 88.844396625069209, 26.750550059304452, 0.0 ], [ 88.845769440737968, 26.750068883638178, 0.0 ], [ 88.845208092050214, 26.748536479141372, 0.0 ], [ 88.845360296269163, 26.74750299399901, 0.0 ], [ 88.846134225350553, 26.746651952314089, 0.0 ], [ 88.846908654249759, 26.745859287475572, 0.0 ], [ 88.847474044669951, 26.744884818572132, 0.0 ], [ 88.847346077173256, 26.743463214544729, 0.0 ] ] ] ] } },
{ "type": "Feature", "properties": { "id": null, "description": null, "altitudeMode": null, "tessellate": -1, "extrude": 0, "visibility": -1, "drawOrder": null, "icon": null, "AREA": "2286130", "PERIMETER": "7116.11", "division": "Gorumara", "beat": "BICHABHANGA", "range": "Gorumara South", "layer": "Gorumara_South", "path": "C:\\Users\\user\\Downloads\\Gorumara_South.geojson" }, "geometry": { "type": "MultiPolygon", "coordinates": [ [ [ [ 88.810416534764713, 26.743297988593611, 0.0 ], [ 88.810410252002612, 26.74241182420911, 0.0 ], [ 88.809980416936043, 26.741464899945299, 0.0 ], [ 88.809974585679612, 26.740641911847039, 0.0 ], [ 88.810667980486244, 26.738992189684762, 0.0 ], [ 88.809737520529026, 26.737035282780798, 0.0 ], [ 88.809731244736184, 26.736149117471179, 0.0 ], [ 88.809724969233287, 26.73526295205037, 0.0 ], [ 88.809643765226355, 26.733744293721539, 0.0 ], [ 88.80914352443753, 26.732797766926069, 0.0 ], [ 88.808998443678945, 26.732228852912581, 0.0 ], [ 88.80890986534834, 26.730454133730429, 0.0 ], [ 88.808492924334729, 26.730522792113948, 0.0 ], [ 88.807157909969973, 26.731163314429828, 0.0 ], [ 88.805609077770498, 26.731488578165909, 0.0 ], [ 88.803565466367601, 26.73162680846459, 0.0 ], [ 88.800953898783447, 26.73119847483553, 0.0 ], [ 88.799679985850872, 26.730509277950659, 0.0 ], [ 88.797851376940088, 26.729200139526679, 0.0 ], [ 88.795652293354024, 26.72920261693049, 0.0 ], [ 88.794593882168215, 26.729081907535988, 0.0 ], [ 88.793038538372272, 26.728457687080098, 0.0 ], [ 88.791485838563332, 26.728213075263991, 0.0 ], [ 88.789789043332888, 26.727526428155041, 0.0 ], [ 88.788307757789369, 26.72740802468871, 0.0 ], [ 88.785201901472334, 26.726855502549711, 0.0 ], [ 88.782700034442087, 26.726341607149259, 0.0 ], [ 88.783085087784599, 26.726582328944431, 0.0 ], [ 88.784362684570667, 26.727841401043069, 0.0 ], [ 88.78904887651494, 26.732641876495421, 0.0 ], [ 88.791146836517655, 26.735257214414329, 0.0 ], [ 88.793916434925848, 26.7381217606954, 0.0 ], [ 88.796438294246997, 26.740829410500929, 0.0 ], [ 88.79775588395637, 26.742721050725802, 0.0 ], [ 88.799251287197819, 26.74481729009073, 0.0 ], [ 88.799634117258236, 26.7452762840581, 0.0 ], [ 88.802877875908536, 26.74916434874946, 0.0 ], [ 88.807234486515682, 26.756988488950771, 0.0 ], [ 88.80730422695234, 26.757097244950192, 0.0 ], [ 88.803781201978694, 26.757292978312311, 0.0 ], [ 88.7956745344176, 26.757718626317128, 0.0 ], [ 88.788343004398058, 26.758076042487978, 0.0 ], [ 88.785920029619049, 26.758204007049521, 0.0 ], [ 88.787284332558912, 26.75928881754459, 0.0 ], [ 88.789955930118708, 26.761427971633431, 0.0 ], [ 88.79377523038869, 26.764278467357329, 0.0 ], [ 88.795183439036677, 26.765475772432929, 0.0 ], [ 88.795187188281616, 26.766014183865, 0.0 ], [ 88.794935777104513, 26.76683607593317, 0.0 ], [ 88.794654339701168, 26.76745308592432, 0.0 ], [ 88.794059451223333, 26.768174517722571, 0.0 ], [ 88.793715910805147, 26.769024564551071, 0.0 ], [ 88.798359775278101, 26.76859092195437, 0.0 ], [ 88.807525543504951, 26.768222539323169, 0.0 ], [ 88.812808146664722, 26.768090242989519, 0.0 ], [ 88.813469139462129, 26.768073758801009, 0.0 ], [ 88.814083237738302, 26.76805838702478, 0.0 ], [ 88.817889848622883, 26.767814782626939, 0.0 ], [ 88.824868878296016, 26.767394702914409, 0.0 ], [ 88.834458972231303, 26.767211929874719, 0.0 ], [ 88.836184026231024, 26.76703648387452, 0.0 ], [ 88.835784982391459, 26.765305089755341, 0.0 ], [ 88.833979921394288, 26.759555737202991, 0.0 ], [ 88.833036097335238, 26.755489920149621, 0.0 ], [ 88.828592556236927, 26.75572608370943, 0.0 ], [ 88.824223351373234, 26.75613118744678, 0.0 ], [ 88.823208923623724, 26.75617938822446, 0.0 ], [ 88.822275258864707, 26.754908253438909, 0.0 ], [ 88.82219113292804, 26.753009706607038, 0.0 ], [ 88.822039812577003, 26.751586519118192, 0.0 ], [ 88.821114507030003, 26.75038922340368, 0.0 ], [ 88.820611820080671, 26.749126015133289, 0.0 ], [ 88.819884453888776, 26.746028809767139, 0.0 ], [ 88.818453414313865, 26.74476052042078, 0.0 ], [ 88.814938014682156, 26.744537919111352, 0.0 ], [ 88.811207341816299, 26.745024970578111, 0.0 ], [ 88.81042236787529, 26.744120694257781, 0.0 ], [ 88.810416534764713, 26.743297988593611, 0.0 ] ] ] ] } },
{ "type": "Feature", "properties": { "id": null, "description": null, "altitudeMode": null, "tessellate": -1, "extrude": 0, "visibility": -1, "drawOrder": null, "icon": null, "AREA": "2910660", "PERIMETER": "7520.48", "division": "Gorumara", "beat": "DHUPJHORA", "range": "Gorumara South", "layer": "Gorumara_South", "path": "C:\\Users\\user\\Downloads\\Gorumara_South.geojson" }, "geometry": { "type": "MultiPolygon", "coordinates": [ [ [ [ 88.870566031014945, 26.793481114062271, 0.0 ], [ 88.871821345334808, 26.791782532679299, 0.0 ], [ 88.872292971869385, 26.79114418145377, 0.0 ], [ 88.873165737108508, 26.789550890074882, 0.0 ], [ 88.873083321400543, 26.789521783284631, 0.0 ], [ 88.871655418148919, 26.789370374636221, 0.0 ], [ 88.870579298641999, 26.78907294699593, 0.0 ], [ 88.870523547509819, 26.789057495053989, 0.0 ], [ 88.870396930792509, 26.788044601941358, 0.0 ], [ 88.870200338138758, 26.78564532075514, 0.0 ], [ 88.870010998963338, 26.784206359042638, 0.0 ], [ 88.869102310648131, 26.78197136531946, 0.0 ], [ 88.869108027875697, 26.781907023832439, 0.0 ], [ 88.869321369815125, 26.779516223615602, 0.0 ], [ 88.869251410242569, 26.778129833550491, 0.0 ], [ 88.869093936403033, 26.77758052798314, 0.0 ], [ 88.869031655827442, 26.77752196235193, 0.0 ], [ 88.868820049356501, 26.777323571403961, 0.0 ], [ 88.868588574593261, 26.77753934527983, 0.0 ], [ 88.864838206057399, 26.781035397708351, 0.0 ], [ 88.860726313308433, 26.784415372821989, 0.0 ], [ 88.85671347647866, 26.78775006914325, 0.0 ], [ 88.856216329413684, 26.789248482615879, 0.0 ], [ 88.855836046638586, 26.79039475902281, 0.0 ], [ 88.855230341180487, 26.791733622651709, 0.0 ], [ 88.85561462885012, 26.792209369839789, 0.0 ], [ 88.85562045969796, 26.792986653071281, 0.0 ], [ 88.855381900085675, 26.79417212235392, 0.0 ], [ 88.854893597353595, 26.795063514686841, 0.0 ], [ 88.852685339706611, 26.797593238747659, 0.0 ], [ 88.852151951820019, 26.797966493060741, 0.0 ], [ 88.851598390170494, 26.798553657451009, 0.0 ], [ 88.850844065340155, 26.79956565881432, 0.0 ], [ 88.848638586443386, 26.80250257880984, 0.0 ], [ 88.844502611077829, 26.80654279099031, 0.0 ], [ 88.840531440753153, 26.810600239971919, 0.0 ], [ 88.837628072129448, 26.812963786181449, 0.0 ], [ 88.8371534936351, 26.81240391158893, 0.0 ], [ 88.83714429299981, 26.811151399954721, 0.0 ], [ 88.8370330625918, 26.80958613817322, 0.0 ], [ 88.836872669878233, 26.808110857147621, 0.0 ], [ 88.837062191954047, 26.806767761469288, 0.0 ], [ 88.838048197563836, 26.80524113658867, 0.0 ], [ 88.839488085321292, 26.80442736610285, 0.0 ], [ 88.840080419415898, 26.803618611709108, 0.0 ], [ 88.840472640258767, 26.80272163406519, 0.0 ], [ 88.84046868159777, 26.802184641668489, 0.0 ], [ 88.839762875582338, 26.801115360810059, 0.0 ], [ 88.839207862101262, 26.80022399995099, 0.0 ], [ 88.838609286614272, 26.800182700244129, 0.0 ], [ 88.838059218339779, 26.799962293576279, 0.0 ], [ 88.837802396786643, 26.79893490783585, 0.0 ], [ 88.837944048845344, 26.797860601123389, 0.0 ], [ 88.837884634804055, 26.797132708653489, 0.0 ], [ 88.837998007565716, 26.797033321651501, 0.0 ], [ 88.839304956471764, 26.795286202465231, 0.0 ], [ 88.841113648038686, 26.794461205406741, 0.0 ], [ 88.84300993848089, 26.794338805925769, 0.0 ], [ 88.844118128365466, 26.79361073162676, 0.0 ], [ 88.845712811364294, 26.7917507136635, 0.0 ], [ 88.846744322914631, 26.790342217188659, 0.0 ], [ 88.846356532113205, 26.790002694386558, 0.0 ], [ 88.843703343909397, 26.788219910285161, 0.0 ], [ 88.843600842025026, 26.788151137241311, 0.0 ], [ 88.84227858920508, 26.787263224625381, 0.0 ], [ 88.8414912154375, 26.786565889339698, 0.0 ], [ 88.841195963389325, 26.786304493108489, 0.0 ], [ 88.840364658374966, 26.78626570931068, 0.0 ], [ 88.839535676364633, 26.78631829003125, 0.0 ], [ 88.836553219724806, 26.78650741665821, 0.0 ], [ 88.832203771961829, 26.786708465793119, 0.0 ], [ 88.822677085489133, 26.787575839232481, 0.0 ], [ 88.820283586387006, 26.78785286851117, 0.0 ], [ 88.819064286302492, 26.788254789896438, 0.0 ], [ 88.816772908542234, 26.789145469642691, 0.0 ], [ 88.812729927360621, 26.791208491876461, 0.0 ], [ 88.810974659848497, 26.791876569179511, 0.0 ], [ 88.809705164287209, 26.792103264667809, 0.0 ], [ 88.808475125483284, 26.792110290388539, 0.0 ], [ 88.808238531187229, 26.792111640540451, 0.0 ], [ 88.806039551187041, 26.792255886789292, 0.0 ], [ 88.804623957272312, 26.792571085179929, 0.0 ], [ 88.804430313602381, 26.792835335847968, 0.0 ], [ 88.803748688939791, 26.79323407246217, 0.0 ], [ 88.803213993437623, 26.793675690215181, 0.0 ], [ 88.802828314351046, 26.794557020538068, 0.0 ], [ 88.804579377220151, 26.795330049948198, 0.0 ], [ 88.806231004931988, 26.796695923740689, 0.0 ], [ 88.808053170015668, 26.79894474193183, 0.0 ], [ 88.809435103538149, 26.800852235691561, 0.0 ], [ 88.810592911579477, 26.802024289866381, 0.0 ], [ 88.815736871939677, 26.801847242501399, 0.0 ], [ 88.820167656968962, 26.801453297791902, 0.0 ], [ 88.82203574293905, 26.802424836291252, 0.0 ], [ 88.825877408070028, 26.80563840655217, 0.0 ], [ 88.826000754128273, 26.8057414802756, 0.0 ], [ 88.828587979816334, 26.807739894859939, 0.0 ], [ 88.829253109182531, 26.80886559701603, 0.0 ], [ 88.828769367416527, 26.810096177222761, 0.0 ], [ 88.826316487141284, 26.81250057505579, 0.0 ], [ 88.825997306242442, 26.812813534736922, 0.0 ], [ 88.825254893714131, 26.813723515161058, 0.0 ], [ 88.829788361653002, 26.813772322809221, 0.0 ], [ 88.832026342668016, 26.813642138873679, 0.0 ], [ 88.834736391853184, 26.813484317051351, 0.0 ], [ 88.835070561945756, 26.813482346375629, 0.0 ], [ 88.83512525851917, 26.8146076691005, 0.0 ], [ 88.835435936900879, 26.816171472746809, 0.0 ], [ 88.835531216336534, 26.817781956112182, 0.0 ], [ 88.84447113779369, 26.81750468164508, 0.0 ], [ 88.849907070433218, 26.81760640324821, 0.0 ], [ 88.857983470807199, 26.817401148812451, 0.0 ], [ 88.858504939234194, 26.817449883563309, 0.0 ], [ 88.85839227531757, 26.817195034177491, 0.0 ], [ 88.858338101745943, 26.81649335308617, 0.0 ], [ 88.858232985843543, 26.81552911490887, 0.0 ], [ 88.856750873196603, 26.807005381414609, 0.0 ], [ 88.856240817432635, 26.80420070510981, 0.0 ], [ 88.855729309183275, 26.801198884388061, 0.0 ], [ 88.85562426423698, 26.800511045853121, 0.0 ], [ 88.857307178316276, 26.8004063832011, 0.0 ], [ 88.858153003673863, 26.800177598482371, 0.0 ], [ 88.858748888569409, 26.799860634048908, 0.0 ], [ 88.860035311867435, 26.79855570102346, 0.0 ], [ 88.860627807255568, 26.797791425353768, 0.0 ], [ 88.86075263255087, 26.797754282940009, 0.0 ], [ 88.86306521895375, 26.797061044473971, 0.0 ], [ 88.86605669844343, 26.797087347326979, 0.0 ], [ 88.867552308491426, 26.797078194276121, 0.0 ], [ 88.868478098377537, 26.796159540406091, 0.0 ], [ 88.868640870818879, 26.795998058552371, 0.0 ], [ 88.870566031014945, 26.793481114062271, 0.0 ] ] ] ] } },
{ "type": "Feature", "properties": { "id": null, "description": null, "altitudeMode": null, "tessellate": -1, "extrude": 0, "visibility": -1, "drawOrder": null, "icon": null, "AREA": "1500770", "PERIMETER": "5372.59", "division": "Gorumara", "beat": "MURTI", "range": "Gorumara North", "layer": "Gorumara_North", "path": "C:\\Users\\user\\Downloads\\Gorumara_North.geojson" }, "geometry": { "type": "MultiPolygon", "coordinates": [ [ [ [ 88.835435936900879, 26.816171472746809, 0.0 ], [ 88.83512525851917, 26.8146076691005, 0.0 ], [ 88.835070561945756, 26.813482346375629, 0.0 ], [ 88.834736391853184, 26.813484317051351, 0.0 ], [ 88.832026342668016, 26.813642138873679, 0.0 ], [ 88.829788361653002, 26.813772322809221, 0.0 ], [ 88.825254893714131, 26.813723515161058, 0.0 ], [ 88.824749299243933, 26.814343296872199, 0.0 ], [ 88.82317601214848, 26.81631690672053, 0.0 ], [ 88.821985367908269, 26.818214664008082, 0.0 ], [ 88.822777988920706, 26.821844225038902, 0.0 ], [ 88.822516726250214, 26.823564814721092, 0.0 ], [ 88.822528428927313, 26.82518538348199, 0.0 ], [ 88.822377631337318, 26.82705255827042, 0.0 ], [ 88.822934488255953, 26.828350681336708, 0.0 ], [ 88.822838835408405, 26.83026661105168, 0.0 ], [ 88.822911013854821, 26.832672888059331, 0.0 ], [ 88.823001466552, 26.832832563990412, 0.0 ], [ 88.82363193544434, 26.833945514609638, 0.0 ], [ 88.823309125332116, 26.834733172420819, 0.0 ], [ 88.823971445684961, 26.835466020271909, 0.0 ], [ 88.824083788358294, 26.83585825551058, 0.0 ], [ 88.82392739867025, 26.836939682778681, 0.0 ], [ 88.824275321289917, 26.838154400593471, 0.0 ], [ 88.827814323814579, 26.83946019770908, 0.0 ], [ 88.830260489478803, 26.840362510677579, 0.0 ], [ 88.831054656046831, 26.840655405480579, 0.0 ], [ 88.835465175807357, 26.842721355526692, 0.0 ], [ 88.836906317237279, 26.84411826626356, 0.0 ], [ 88.83736247794829, 26.844560633376769, 0.0 ], [ 88.838802453899831, 26.845195728166889, 0.0 ], [ 88.842398772161815, 26.846300561152589, 0.0 ], [ 88.845814567000303, 26.847245615683949, 0.0 ], [ 88.84910582978948, 26.848952006899449, 0.0 ], [ 88.849957111646816, 26.849393087637651, 0.0 ], [ 88.851933622255245, 26.849783673431709, 0.0 ], [ 88.854314079394413, 26.8500358470253, 0.0 ], [ 88.855524770243591, 26.850164192331722, 0.0 ], [ 88.859296031414218, 26.85062390788606, 0.0 ], [ 88.862530254813606, 26.851248127076101, 0.0 ], [ 88.863971067354328, 26.851963338328879, 0.0 ], [ 88.865419163696444, 26.85364392350877, 0.0 ], [ 88.867128071334179, 26.854176107093849, 0.0 ], [ 88.866542604462751, 26.853644377813019, 0.0 ], [ 88.866143558694105, 26.852637954094849, 0.0 ], [ 88.865347645640142, 26.850887953425911, 0.0 ], [ 88.86499192962782, 26.849135538215009, 0.0 ], [ 88.863995980131023, 26.846816459661639, 0.0 ], [ 88.862699043066897, 26.843490338582839, 0.0 ], [ 88.859223591937138, 26.836645977560899, 0.0 ], [ 88.85832541114965, 26.834282540527969, 0.0 ], [ 88.857577657033119, 26.832400762570671, 0.0 ], [ 88.85678053667182, 26.830713889238488, 0.0 ], [ 88.858378355789512, 26.83060718315377, 0.0 ], [ 88.862998392696809, 26.83050518859142, 0.0 ], [ 88.870585628807831, 26.829977549381841, 0.0 ], [ 88.873632871925835, 26.829218687945691, 0.0 ], [ 88.873821560448903, 26.82915152478569, 0.0 ], [ 88.873597579935918, 26.826339521405931, 0.0 ], [ 88.873360456313435, 26.82465126030327, 0.0 ], [ 88.873033893225383, 26.82300416430466, 0.0 ], [ 88.872258020560082, 26.821238839601151, 0.0 ], [ 88.870762603952187, 26.819196457735458, 0.0 ], [ 88.869359065087366, 26.817434974561738, 0.0 ], [ 88.86894912217295, 26.8165927686752, 0.0 ], [ 88.86831641436298, 26.815953025583941, 0.0 ], [ 88.86730825635189, 26.813102940778389, 0.0 ], [ 88.864893512999487, 26.80806911142577, 0.0 ], [ 88.864025544058151, 26.80594243265972, 0.0 ], [ 88.862927238032924, 26.803012476358852, 0.0 ], [ 88.862240265855917, 26.801105804360471, 0.0 ], [ 88.861236656001111, 26.798818882439789, 0.0 ], [ 88.86075263255087, 26.797754282940009, 0.0 ], [ 88.860627807255568, 26.797791425353768, 0.0 ], [ 88.860035311867435, 26.79855570102346, 0.0 ], [ 88.858748888569409, 26.799860634048908, 0.0 ], [ 88.858153003673863, 26.800177598482371, 0.0 ], [ 88.857307178316276, 26.8004063832011, 0.0 ], [ 88.85562426423698, 26.800511045853121, 0.0 ], [ 88.855729309183275, 26.801198884388061, 0.0 ], [ 88.856240817432635, 26.80420070510981, 0.0 ], [ 88.856750873196603, 26.807005381414609, 0.0 ], [ 88.858232985843543, 26.81552911490887, 0.0 ], [ 88.858338101745943, 26.81649335308617, 0.0 ], [ 88.85839227531757, 26.817195034177491, 0.0 ], [ 88.858504939234194, 26.817449883563309, 0.0 ], [ 88.857983470807199, 26.817401148812451, 0.0 ], [ 88.849907070433218, 26.81760640324821, 0.0 ], [ 88.84447113779369, 26.81750468164508, 0.0 ], [ 88.835531216336534, 26.817781956112182, 0.0 ], [ 88.835435936900879, 26.816171472746809, 0.0 ] ] ] ] } },
{ "type": "Feature", "properties": { "id": null, "description": "description: <br>AREA: 1252920.00000000000<br>PERIMETER: 4816.65000000000<br>GORU_CHAPR: 48<br>GORU_CHA_1: 99<br>DIVISION: WL-II<br>BLOCK: PANGJHORA<br>COMP_NO: 2A<br>STATUS: WLS<br>AOI: x<br>Longitude: 88.846<br>Latitude: 26.889", "altitudeMode": null, "tessellate": -1, "extrude": 0, "visibility": -1, "drawOrder": null, "icon": null, "AREA": "1252920.00000000000", "PERIMETER": "4816.65000000000", "division": "Gorumara", "beat": "CHAPRAMARI", "range": "Gorumara North", "layer": "Gorumara_North_Chapramari", "path": "C:\\Users\\user\\Downloads\\Gorumara_North_Chapramari.geojson" }, "geometry": { "type": "MultiPolygon", "coordinates": [ [ [ [ 88.8355482, 26.8883013, 0.0 ], [ 88.836300479017297, 26.885705836485709, 0.0 ], [ 88.834317792436707, 26.885833984440641, 0.0 ], [ 88.831186536638413, 26.886506459153871, 0.0 ], [ 88.829945698576253, 26.886374190754179, 0.0 ], [ 88.828746542921124, 26.885976661795311, 0.0 ], [ 88.827252347352484, 26.88739436675478, 0.0 ], [ 88.826466935209297, 26.888462187947439, 0.0 ], [ 88.825712398647482, 26.888344813182709, 0.0 ], [ 88.825579635102059, 26.889537763540901, 0.0 ], [ 88.825341365163695, 26.890523917334889, 0.0 ], [ 88.825459853527292, 26.892339019015839, 0.0 ], [ 88.82547307376619, 26.893710226019468, 0.0 ], [ 88.824659986292531, 26.89442800397206, 0.0 ], [ 88.824223228223772, 26.895933674256021, 0.0 ], [ 88.824121073098283, 26.896843817243241, 0.0 ], [ 88.824467123297453, 26.898864143842211, 0.0 ], [ 88.825346518427054, 26.900456272567379, 0.0 ], [ 88.826661617830609, 26.9012849340969, 0.0 ], [ 88.827550894276584, 26.901853007234379, 0.0 ], [ 88.828221362163973, 26.903350428574509, 0.0 ], [ 88.828370767988773, 26.905298706993801, 0.0 ], [ 88.829608085303477, 26.906925851788522, 0.0 ], [ 88.830626220568263, 26.908837149332449, 0.0 ], [ 88.831092805673762, 26.911180781445619, 0.0 ], [ 88.831449502270942, 26.91177131675364, 0.0 ], [ 88.831423333357662, 26.912378126486889, 0.0 ], [ 88.831731514797994, 26.912804190771269, 0.0 ], [ 88.832621116481974, 26.91382450116205, 0.0 ], [ 88.832940404820278, 26.914705218699439, 0.0 ], [ 88.833335492471647, 26.915606603698219, 0.0 ], [ 88.834299756015184, 26.915645317495201, 0.0 ], [ 88.83533263575832, 26.915703904714729, 0.0 ], [ 88.836837124084084, 26.915684574786621, 0.0 ], [ 88.837978864614797, 26.915668875276211, 0.0 ], [ 88.840203404292424, 26.91562702756498, 0.0 ], [ 88.843550084638139, 26.915472024095681, 0.0 ], [ 88.845541944117727, 26.915500244670969, 0.0 ], [ 88.848338971628095, 26.915379776472399, 0.0 ], [ 88.853099221303751, 26.91529813728047, 0.0 ], [ 88.8498018, 26.9110197, 0.0 ], [ 88.8485368, 26.9098207, 0.0 ], [ 88.8474508, 26.9086207, 0.0 ], [ 88.8464048, 26.9068567, 0.0 ], [ 88.8443658, 26.9042547, 0.0 ], [ 88.8420138, 26.9016937, 0.0 ], [ 88.8411989, 26.9007737, 0.0 ], [ 88.8400269, 26.9000567, 0.0 ], [ 88.8394389, 26.8993557, 0.0 ], [ 88.8383059, 26.8978747, 0.0 ], [ 88.8372659, 26.8967947, 0.0 ], [ 88.8364049, 26.8956327, 0.0 ], [ 88.834876172352978, 26.894359922193555, 0.0 ], [ 88.8348861, 26.8943642, 0.0 ], [ 88.8364211, 26.8956422, 0.0 ], [ 88.8372821, 26.8968042, 0.0 ], [ 88.8383221, 26.8978842, 0.0 ], [ 88.8394551, 26.8993652, 0.0 ], [ 88.8400431, 26.9000662, 0.0 ], [ 88.8412151, 26.9007832, 0.0 ], [ 88.84203, 26.9017032, 0.0 ], [ 88.844382, 26.9042642, 0.0 ], [ 88.846421, 26.9068662, 0.0 ], [ 88.847467, 26.9086302, 0.0 ], [ 88.848553, 26.9098302, 0.0 ], [ 88.849818, 26.9110292, 0.0 ], [ 88.853128888922228, 26.91524645972456, 0.0 ], [ 88.853632105857798, 26.915299230741621, 0.0 ], [ 88.855796073848069, 26.91526104330789, 0.0 ], [ 88.8572210310125, 26.915105599114661, 0.0 ], [ 88.857189213691456, 26.911511188787369, 0.0 ], [ 88.857486843139611, 26.907992094830231, 0.0 ], [ 88.857596398579588, 26.907152986151129, 0.0 ], [ 88.857934690047102, 26.904085458684609, 0.0 ], [ 88.858671064311878, 26.900823713397578, 0.0 ], [ 88.858914963453088, 26.898919793900991, 0.0 ], [ 88.859478158885963, 26.898599872655211, 0.0 ], [ 88.859738047555808, 26.898103423962208, 0.0 ], [ 88.858492876743654, 26.897991909799501, 0.0 ], [ 88.858490936516461, 26.897991501822876, 0.0 ], [ 88.85973940703866, 26.898101948135679, 0.0 ], [ 88.860128753697751, 26.897585113551148, 0.0 ], [ 88.862219804451314, 26.89306396278657, 0.0 ], [ 88.86421542353672, 26.89028208539867, 0.0 ], [ 88.865244654611743, 26.88895195791104, 0.0 ], [ 88.8621766557862, 26.887888989125539, 0.0 ], [ 88.860168954097404, 26.887594379974669, 0.0 ], [ 88.854610950018525, 26.8869620086585, 0.0 ], [ 88.851651008822955, 26.88666236078377, 0.0 ], [ 88.850799849592377, 26.88657405718584, 0.0 ], [ 88.8509436, 26.8883141, 0.0 ], [ 88.8511346, 26.8898821, 0.0 ], [ 88.8510206, 26.8925981, 0.0 ], [ 88.850971504851898, 26.896546166572051, 0.0 ], [ 88.850908181166389, 26.896542597204427, 0.0 ], [ 88.8510179, 26.8925885, 0.0 ], [ 88.8511319, 26.8898725, 0.0 ], [ 88.8509409, 26.8883045, 0.0 ], [ 88.850792887952977, 26.886573415396651, 0.0 ], [ 88.850633493979075, 26.88654476509948, 0.0 ], [ 88.847811349900851, 26.88627429624324, 0.0 ], [ 88.846439812110631, 26.886126253302638, 0.0 ], [ 88.841977199956929, 26.885759723592891, 0.0 ], [ 88.839167555196951, 26.88549034604825, 0.0 ], [ 88.837261849159816, 26.88535806651722, 0.0 ], [ 88.83645414300922, 26.885262457379881, 0.0 ], [ 88.835551, 26.8882965, 0.0 ], [ 88.834712, 26.8901115, 0.0 ], [ 88.834522, 26.8907755, 0.0 ], [ 88.836728686165003, 26.89208207833607, 0.0 ], [ 88.838038500916213, 26.892475785828871, 0.0 ], [ 88.836727581984604, 26.892086680213382, 0.0 ], [ 88.8345301, 26.8907852, 0.0 ], [ 88.8340371, 26.8906572, 0.0 ], [ 88.8307671, 26.8894182, 0.0 ], [ 88.8301441, 26.8892452, 0.0 ], [ 88.8307271, 26.8902052, 0.0 ], [ 88.8318621, 26.8920092, 0.0 ], [ 88.832857709795064, 26.893487650617519, 0.0 ], [ 88.8328439, 26.8934817, 0.0 ], [ 88.8318459, 26.8919997, 0.0 ], [ 88.8307109, 26.8901957, 0.0 ], [ 88.8301279, 26.8892357, 0.0 ], [ 88.829384144999253, 26.889028031528834, 0.0 ], [ 88.830139119643178, 26.889235647545259, 0.0 ], [ 88.8307562, 26.8894133, 0.0 ], [ 88.8340262, 26.8906523, 0.0 ], [ 88.8345192, 26.8907803, 0.0 ], [ 88.8347092, 26.8901163, 0.0 ], [ 88.8355482, 26.8883013, 0.0 ] ], [ [ 88.840472103765777, 26.893123406032441, 0.0 ], [ 88.840557020861311, 26.893154890843611, 0.0 ], [ 88.838473513672611, 26.89260490586997, 0.0 ], [ 88.838088721642848, 26.892490692293549, 0.0 ], [ 88.840472103765777, 26.893123406032441, 0.0 ] ], [ [ 88.843690204457403, 26.89436744275066, 0.0 ], [ 88.844595504885334, 26.89480064452702, 0.0 ], [ 88.843921423022962, 26.89449416009834, 0.0 ], [ 88.842820445019456, 26.894020518051796, 0.0 ], [ 88.843690204457403, 26.89436744275066, 0.0 ] ], [ [ 88.85077258080419, 26.896534953815721, 0.0 ], [ 88.85043807514532, 26.89651609872762, 0.0 ], [ 88.848971522815603, 26.896096473219863, 0.0 ], [ 88.85077258080419, 26.896534953815721, 0.0 ] ], [ [ 88.858371047986665, 26.897966292549484, 0.0 ], [ 88.856843255827414, 26.89764503971325, 0.0 ], [ 88.857800077185104, 26.89783161183685, 0.0 ], [ 88.858371047986665, 26.897966292549484, 0.0 ] ], [ [ 88.853178665627226, 26.89680038307813, 0.0 ], [ 88.854320355449076, 26.89715341660871, 0.0 ], [ 88.855689281071434, 26.897420024333869, 0.0 ], [ 88.855941480613424, 26.897469201125066, 0.0 ], [ 88.854638968694587, 26.89724189990481, 0.0 ], [ 88.853413175582872, 26.896903216018998, 0.0 ], [ 88.852689977842232, 26.896643031778272, 0.0 ], [ 88.852298540607549, 26.896620967626742, 0.0 ], [ 88.852712716797626, 26.89664145386546, 0.0 ], [ 88.853178665627226, 26.89680038307813, 0.0 ] ] ] ] } },
{ "type": "Feature", "properties": { "id": null, "description": null, "altitudeMode": null, "tessellate": -1, "extrude": 0, "visibility": -1, "drawOrder": null, "icon": null, "AREA": "1789420", "PERIMETER": "6497.07", "division": "Gorumara", "beat": "GORUMARA", "range": "Gorumara South", "layer": "Gorumara_South", "path": "C:\\Users\\user\\Downloads\\Gorumara_South.geojson" }, "geometry": { "type": "MultiPolygon", "coordinates": [ [ [ [ 88.866381328700925, 26.775906836764118, 0.0 ], [ 88.864111226202255, 26.77440046825145, 0.0 ], [ 88.862559821561774, 26.773609753933261, 0.0 ], [ 88.860885548472865, 26.77228613673023, 0.0 ], [ 88.859926188275793, 26.771171954277001, 0.0 ], [ 88.859204571391658, 26.770056041757311, 0.0 ], [ 88.859201360105232, 26.76962932471476, 0.0 ], [ 88.860903994533999, 26.76684506491922, 0.0 ], [ 88.862608160633883, 26.764274285109401, 0.0 ], [ 88.866323626715541, 26.76046402364765, 0.0 ], [ 88.869506955762276, 26.757057155900171, 0.0 ], [ 88.871523408493857, 26.75651142519764, 0.0 ], [ 88.872708310123684, 26.756024093654119, 0.0 ], [ 88.873651346515913, 26.755004610850339, 0.0 ], [ 88.874119672218811, 26.75406815042815, 0.0 ], [ 88.874232396208214, 26.75326728938656, 0.0 ], [ 88.875117649205762, 26.75246166259878, 0.0 ], [ 88.87558526292959, 26.7514453826319, 0.0 ], [ 88.875487401785065, 26.750165777298069, 0.0 ], [ 88.87561054362854, 26.74926021135088, 0.0 ], [ 88.876191320218382, 26.748672787583661, 0.0 ], [ 88.876841305146556, 26.748639719347729, 0.0 ], [ 88.877229204668609, 26.7483454021454, 0.0 ], [ 88.877939515488421, 26.747699068461628, 0.0 ], [ 88.878388406361566, 26.746878917719251, 0.0 ], [ 88.878512118146034, 26.746061062311849, 0.0 ], [ 88.878538352912415, 26.745243528547689, 0.0 ], [ 88.878479113784437, 26.744924900681021, 0.0 ], [ 88.876120553599719, 26.744411216427491, 0.0 ], [ 88.874818329582965, 26.7434890640444, 0.0 ], [ 88.871949673196966, 26.740948843813211, 0.0 ], [ 88.867786030058724, 26.738416490538079, 0.0 ], [ 88.862336331807214, 26.737054435202971, 0.0 ], [ 88.855713122275304, 26.735555689060011, 0.0 ], [ 88.855580406112708, 26.735956997824012, 0.0 ], [ 88.85506559671083, 26.736675093699141, 0.0 ], [ 88.850532692896607, 26.73915390740305, 0.0 ], [ 88.849758333185193, 26.739946591092579, 0.0 ], [ 88.849506310173922, 26.741028063098259, 0.0 ], [ 88.849911397364252, 26.74303945969115, 0.0 ], [ 88.850679541750424, 26.745778335105051, 0.0 ], [ 88.851011482005831, 26.74669553769214, 0.0 ], [ 88.8510522600603, 26.747804587115532, 0.0 ], [ 88.850736064604703, 26.749002931072049, 0.0 ], [ 88.850484171061524, 26.750113453807259, 0.0 ], [ 88.850185473010796, 26.751469074054441, 0.0 ], [ 88.850512611617688, 26.75331170396927, 0.0 ], [ 88.851557559362305, 26.753305432328759, 0.0 ], [ 88.851541481531839, 26.75114814664542, 0.0 ], [ 88.853422088549578, 26.751105815698558, 0.0 ], [ 88.853877643816972, 26.751478196516299, 0.0 ], [ 88.854370882571544, 26.752225471932402, 0.0 ], [ 88.854618909395043, 26.752786944055028, 0.0 ], [ 88.854272491758906, 26.753039207620208, 0.0 ], [ 88.853580272950538, 26.753637368318611, 0.0 ], [ 88.852922224336865, 26.7541416804129, 0.0 ], [ 88.852439327659056, 26.754769883655658, 0.0 ], [ 88.851992544131619, 26.755585429866699, 0.0 ], [ 88.851648208621882, 26.756118875993678, 0.0 ], [ 88.85151538328374, 26.756995149058579, 0.0 ], [ 88.851488741441486, 26.75808965303785, 0.0 ], [ 88.851318784758945, 26.75865364025718, 0.0 ], [ 88.850940025820563, 26.75924990587858, 0.0 ], [ 88.850601679588834, 26.759302704798539, 0.0 ], [ 88.85031370798761, 26.75934758551265, 0.0 ], [ 88.849647821153738, 26.75880440571969, 0.0 ], [ 88.849330672246381, 26.75830595380317, 0.0 ], [ 88.848209501446519, 26.757437190295761, 0.0 ], [ 88.846527856134671, 26.75613402699048, 0.0 ], [ 88.84114421932162, 26.755652176601071, 0.0 ], [ 88.838323206937247, 26.75560542333923, 0.0 ], [ 88.83394988440773, 26.75544139506653, 0.0 ], [ 88.833036097335238, 26.755489920149621, 0.0 ], [ 88.833979921394288, 26.759555737202991, 0.0 ], [ 88.835784982391459, 26.765305089755341, 0.0 ], [ 88.836184026231024, 26.76703648387452, 0.0 ], [ 88.834458972231303, 26.767211929874719, 0.0 ], [ 88.824868878296016, 26.767394702914409, 0.0 ], [ 88.817889848622883, 26.767814782626939, 0.0 ], [ 88.814083237738302, 26.76805838702478, 0.0 ], [ 88.813469139462129, 26.768073758801009, 0.0 ], [ 88.812808146664722, 26.768090242989519, 0.0 ], [ 88.807525543504951, 26.768222539323169, 0.0 ], [ 88.798359775278101, 26.76859092195437, 0.0 ], [ 88.793715910805147, 26.769024564551071, 0.0 ], [ 88.793639953760973, 26.769376987553841, 0.0 ], [ 88.7933631187815, 26.770138096452559, 0.0 ], [ 88.793090237969139, 26.771468922370289, 0.0 ], [ 88.793026361972181, 26.772418657850391, 0.0 ], [ 88.793950237817512, 26.773426324108019, 0.0 ], [ 88.795873003635307, 26.77607413417115, 0.0 ], [ 88.797092691672972, 26.77904233124541, 0.0 ], [ 88.797602336122452, 26.781318135936178, 0.0 ], [ 88.798106247798486, 26.782771234012209, 0.0 ], [ 88.798684273538726, 26.784730189281898, 0.0 ], [ 88.798622133954694, 26.78593319473185, 0.0 ], [ 88.798489434619825, 26.787136597687081, 0.0 ], [ 88.798429141565975, 26.788592589781931, 0.0 ], [ 88.798234373467906, 26.790999278408371, 0.0 ], [ 88.797759417575904, 26.794647146608181, 0.0 ], [ 88.801070357196892, 26.794466000405091, 0.0 ], [ 88.802712596072581, 26.794505779532461, 0.0 ], [ 88.802828314351046, 26.794557020538068, 0.0 ], [ 88.803213993437623, 26.793675690215181, 0.0 ], [ 88.803748688939791, 26.79323407246217, 0.0 ], [ 88.804430313602381, 26.792835335847968, 0.0 ], [ 88.804623957272312, 26.792571085179929, 0.0 ], [ 88.806039551187041, 26.792255886789292, 0.0 ], [ 88.808238531187229, 26.792111640540451, 0.0 ], [ 88.808475125483284, 26.792110290388539, 0.0 ], [ 88.809705164287209, 26.792103264667809, 0.0 ], [ 88.810974659848497, 26.791876569179511, 0.0 ], [ 88.812729927360621, 26.791208491876461, 0.0 ], [ 88.816772908542234, 26.789145469642691, 0.0 ], [ 88.819064286302492, 26.788254789896438, 0.0 ], [ 88.820283586387006, 26.78785286851117, 0.0 ], [ 88.822677085489133, 26.787575839232481, 0.0 ], [ 88.832203771961829, 26.786708465793119, 0.0 ], [ 88.836553219724806, 26.78650741665821, 0.0 ], [ 88.839535676364633, 26.78631829003125, 0.0 ], [ 88.840364658374966, 26.78626570931068, 0.0 ], [ 88.841195963389325, 26.786304493108489, 0.0 ], [ 88.8414912154375, 26.786565889339698, 0.0 ], [ 88.84227858920508, 26.787263224625381, 0.0 ], [ 88.843600842025026, 26.788151137241311, 0.0 ], [ 88.843703343909397, 26.788219910285161, 0.0 ], [ 88.846356532113205, 26.790002694386558, 0.0 ], [ 88.846744322914631, 26.790342217188659, 0.0 ], [ 88.845712811364294, 26.7917507136635, 0.0 ], [ 88.844118128365466, 26.79361073162676, 0.0 ], [ 88.84300993848089, 26.794338805925769, 0.0 ], [ 88.841113648038686, 26.794461205406741, 0.0 ], [ 88.839304956471764, 26.795286202465231, 0.0 ], [ 88.837998007565716, 26.797033321651501, 0.0 ], [ 88.837884634804055, 26.797132708653489, 0.0 ], [ 88.837944048845344, 26.797860601123389, 0.0 ], [ 88.837802396786643, 26.79893490783585, 0.0 ], [ 88.838059218339779, 26.799962293576279, 0.0 ], [ 88.838609286614272, 26.800182700244129, 0.0 ], [ 88.839207862101262, 26.80022399995099, 0.0 ], [ 88.839762875582338, 26.801115360810059, 0.0 ], [ 88.84046868159777, 26.802184641668489, 0.0 ], [ 88.840472640258767, 26.80272163406519, 0.0 ], [ 88.840080419415898, 26.803618611709108, 0.0 ], [ 88.839488085321292, 26.80442736610285, 0.0 ], [ 88.838048197563836, 26.80524113658867, 0.0 ], [ 88.837062191954047, 26.806767761469288, 0.0 ], [ 88.836872669878233, 26.808110857147621, 0.0 ], [ 88.8370330625918, 26.80958613817322, 0.0 ], [ 88.83714429299981, 26.811151399954721, 0.0 ], [ 88.8371534936351, 26.81240391158893, 0.0 ], [ 88.837628072129448, 26.812963786181449, 0.0 ], [ 88.840531440753153, 26.810600239971919, 0.0 ], [ 88.844502611077829, 26.80654279099031, 0.0 ], [ 88.848638586443386, 26.80250257880984, 0.0 ], [ 88.850844065340155, 26.79956565881432, 0.0 ], [ 88.851598390170494, 26.798553657451009, 0.0 ], [ 88.852151951820019, 26.797966493060741, 0.0 ], [ 88.852685339706611, 26.797593238747659, 0.0 ], [ 88.854893597353595, 26.795063514686841, 0.0 ], [ 88.855381900085675, 26.79417212235392, 0.0 ], [ 88.85562045969796, 26.792986653071281, 0.0 ], [ 88.85561462885012, 26.792209369839789, 0.0 ], [ 88.855230341180487, 26.791733622651709, 0.0 ], [ 88.855836046638586, 26.79039475902281, 0.0 ], [ 88.856216329413684, 26.789248482615879, 0.0 ], [ 88.85671347647866, 26.78775006914325, 0.0 ], [ 88.860726313308433, 26.784415372821989, 0.0 ], [ 88.864838206057399, 26.781035397708351, 0.0 ], [ 88.868588574593261, 26.77753934527983, 0.0 ], [ 88.868820049356501, 26.777323571403961, 0.0 ], [ 88.867813516169875, 26.77664493139477, 0.0 ], [ 88.866381328700925, 26.775906836764118, 0.0 ] ] ] ] } }
]
}
