{"type":"FeatureCollection", "features": [
{"type":"Feature","geometry":{"type":"Polygon","coordinates":[[[89.6170393268453,26.7384558583767],[89.6166627747172,26.7386177433485],[89.6158897689017,26.738935728827],[89.6147167747696,26.7388117056988],[89.6137817778772,26.7387776873802],[89.6130227792957,26.738795672592],[89.6119797802951,26.7388596523411],[89.6106487727714,26.7393046271515],[89.6091627749294,26.7393655982451],[89.6065127730369,26.739711547122],[89.6049607705177,26.7399725172858],[89.6040047664909,26.7402354990905],[89.6019097577018,26.7408104592139],[89.600982185893,26.7414135129859],[89.6011303281339,26.7408715641042],[89.6013730489498,26.7404004279995],[89.6016014780715,26.7400006817435],[89.6021297454478,26.7392297506767],[89.6026294425481,26.738473089077],[89.6031577002694,26.7376878779835],[89.6038001818592,26.7367313488122],[89.6044141004071,26.735903299313],[89.6051707924075,26.7349182223188],[89.6058418077036,26.7342186641634],[89.6063986070314,26.7341901249822],[89.6073551484923,26.7340331033744],[89.6083545312322,26.7338189625002],[89.6099820855477,26.7334763536584],[89.6113526601478,26.7331480198252],[89.6129231108295,26.7325484194056],[89.6145649492646,26.732034490533],[89.616363831467,26.7313492344168],[89.6173774897103,26.7309066734079],[89.6185053666386,26.7305069547056],[89.6192477593228,26.7303213688638],[89.6201329188944,26.7302499960149],[89.6208577580772,26.7302108300945],[89.6211539280589,26.7318338188053],[89.6220168760497,26.7338948393734],[89.6230978247152,26.7359058641103],[89.618967791595,26.7376887866835],[89.6178637842846,26.7381017658705],[89.6171837788712,26.7383937531185],[89.6170393268453,26.7384558583767]]]},"properties":{"compartment":"Tashigaon BL2A"},"id":"comptt.178"}
]}