{"type":"FeatureCollection", "features": [
{"type":"Feature","geometry":{"type":"Polygon","coordinates":[[[89.600982185893,26.7414135129859],[89.6007377421208,26.7415724376938],[89.5997907295247,26.742188420305],[89.5985107071855,26.7432403971931],[89.5958296708007,26.745014348012],[89.5957646701853,26.7450463467999],[89.5955276827597,26.7445513412871],[89.5949427249431,26.7428693268581],[89.5944867554702,26.7416553157852],[89.5939057906382,26.7402623019528],[89.5928568724575,26.7369902756294],[89.5932809014403,26.7357502816924],[89.5933639356666,26.7343282807732],[89.5924419942959,26.7320002586191],[89.590842069981,26.7290362221004],[89.5889141417921,26.7262651795315],[89.5865021679631,26.7254291309733],[89.5847241799914,26.7251130957156],[89.5845682487324,26.7222880876423],[89.5839703204636,26.7193840708058],[89.5840403821204,26.7168280676218],[89.5836944055885,26.7158930592081],[89.5830964613104,26.7136500435517],[89.584186486944,26.7124790627282],[89.5856075074824,26.7114850886744],[89.5859055526923,26.7095850911021],[89.5856685782041,26.7085540846435],[89.5852146042002,26.7075250739569],[89.5860025671618,26.7073223889624],[89.5876491581736,26.7071130307007],[89.5886485312392,26.7068846197829],[89.5901523553668,26.706561048533],[89.5921511144942,26.7059804964759],[89.5943782935249,26.7053809088384],[89.5955965897406,26.7050002219165],[89.5971860791899,26.7044482119266],[89.5975572721918,26.7042864188758],[89.5980617248673,26.7041246284239],[89.5990135082883,26.703886696559],[89.6003745604779,26.7036582926923],[89.6014691196397,26.7035821739015],[89.6028396737554,26.7036869008172],[89.6038675973301,26.7038487211539],[89.6048860002382,26.7040391013566],[89.6057806727592,26.7042580291978],[89.6069989419592,26.7045816535385],[89.6083314341026,26.7047720398682],[89.6097115161314,26.7049624271268],[89.6109963431852,26.7049539997922],[89.6109392909664,26.7058793327219],[89.6108536114981,26.7066931125141],[89.6108107695196,26.707192802577],[89.6106536995339,26.708035131028],[89.6105394756576,26.7086204698524],[89.6103395895729,26.7093057571855],[89.6102253601841,26.709705505676],[89.6100683050301,26.7103479537673],[89.6097256310056,26.7113758789303],[89.60921161252,26.7138457533416],[89.6089546034474,26.7150735505338],[89.6087832669428,26.7157731084479],[89.6086547627506,26.716372737018],[89.6085262620122,26.7168295853317],[89.608283543625,26.7172007812628],[89.6080122715079,26.7177290169187],[89.6075982397397,26.7182572497889],[89.6072555809056,26.7186569938207],[89.6067987168238,26.7192851660341],[89.6066131062238,26.7197420132325],[89.6064274963143,26.7201703203797],[89.6062276129851,26.7207413875044],[89.6061704924155,26.7211839671842],[89.6061276528471,26.7215837170657],[89.6061561931038,26.7219834683402],[89.6063703329064,26.7223832232366],[89.6067272406321,26.7228543610474],[89.6072697403024,26.7236395930444],[89.6076694786137,26.7240821816403],[89.6079121766178,26.7245533172231],[89.6082119755185,26.7249816338434],[89.6084118367369,26.7253242783595],[89.6085117650894,26.7257954111562],[89.6084974692286,26.7264521420569],[89.6084974560969,26.7269946630313],[89.6084117772993,26.7277798827696],[89.6081404941165,26.7287649792439],[89.6078834967734,26.7295073655609],[89.6076122201558,26.7302212015477],[89.6073409445746,26.7308922074573],[89.6069554523596,26.7318487416497],[89.6067270118575,26.7323055980104],[89.6062701384331,26.7333192409111],[89.6060416972391,26.7338046473227],[89.6058418077036,26.7342186641634],[89.6051707924075,26.7349182223188],[89.6044141004071,26.735903299313],[89.6038001818592,26.7367313488122],[89.6031577002694,26.7376878779835],[89.6026294425481,26.738473089077],[89.6021297454478,26.7392297506767],[89.6016014780715,26.7400006817435],[89.6013730489498,26.7404004279995],[89.6011303281339,26.7408715641042],[89.600982185893,26.7414135129859]]]},"properties":{"compartment":"Tashigaon BL1"},"id":"comptt.179"}
]}