{"type":"FeatureCollection", "features": [
{"type":"Feature","geometry":{"type":"Polygon","coordinates":[[[89.6208577580772,26.7302108300945],[89.6201329188944,26.7302499960149],[89.6192477593228,26.7303213688638],[89.6185053666386,26.7305069547056],[89.6173774897103,26.7309066734079],[89.616363831467,26.7313492344168],[89.6145649492646,26.732034490533],[89.6129231108295,26.7325484194056],[89.6113526601478,26.7331480198252],[89.6099820855477,26.7334763536584],[89.6083545312322,26.7338189625002],[89.6073551484923,26.7340331033744],[89.6063986070314,26.7341901249822],[89.6058418077036,26.7342186641634],[89.6060416972391,26.7338046473227],[89.6062701384331,26.7333192409111],[89.6067270118575,26.7323055980104],[89.6069554523596,26.7318487416497],[89.6073409445746,26.7308922074573],[89.6076122201558,26.7302212015477],[89.6078834967734,26.7295073655609],[89.6081404941165,26.7287649792439],[89.6084117772993,26.7277798827696],[89.6084974560969,26.7269946630313],[89.6084974692286,26.7264521420569],[89.6085117650894,26.7257954111562],[89.6084118367369,26.7253242783595],[89.6082119755185,26.7249816338434],[89.6079121766178,26.7245533172231],[89.6076694786137,26.7240821816403],[89.6072697403024,26.7236395930444],[89.6067272406321,26.7228543610474],[89.6063703329064,26.7223832232366],[89.6061561931038,26.7219834683402],[89.6061276528471,26.7215837170657],[89.6061704924155,26.7211839671842],[89.6062276129851,26.7207413875044],[89.6064274963143,26.7201703203797],[89.6066131062238,26.7197420132325],[89.6067987168238,26.7192851660341],[89.6072555809056,26.7186569938207],[89.6075982397397,26.7182572497889],[89.6080122715079,26.7177290169187],[89.608283543625,26.7172007812628],[89.6085262620122,26.7168295853317],[89.6086547627506,26.716372737018],[89.6087832669428,26.7157731084479],[89.6089546034474,26.7150735505338],[89.60921161252,26.7138457533416],[89.6097256310056,26.7113758789303],[89.6100683050301,26.7103479537673],[89.6102253601841,26.709705505676],[89.6103395895729,26.7093057571855],[89.6105394756576,26.7086204698524],[89.6106536995339,26.708035131028],[89.6108107695196,26.707192802577],[89.6108536114981,26.7066931125141],[89.6109392909664,26.7058793327219],[89.6109963431852,26.7049539997922],[89.6111582228317,26.7049529353259],[89.6120624192456,26.705010063064],[89.6129475754767,26.7050767004481],[89.6132187148901,26.7051337958895],[89.6132015814885,26.7056296163974],[89.6138825380926,26.7073556327866],[89.6143575040462,26.7087156445],[89.6151754377678,26.7113736652426],[89.6157873943822,26.7131056803012],[89.6159203537083,26.7147736859002],[89.6158473210331,26.7161316869216],[89.6156342856965,26.7176136854344],[89.6156302528242,26.7189726878036],[89.6157642226135,26.7202076926426],[89.6165161937982,26.721322709326],[89.6174781674949,26.7223127298839],[89.61836814732,26.7230567485944],[89.6198811256032,26.7238017794672],[89.6210450913031,26.7251018045312],[89.6228350349013,26.7272518433514],[89.6226300287913,26.7275248398426],[89.6224480219716,26.7278248368314],[89.6218710111989,26.7283278264758],[89.6212409966091,26.7289938153795],[89.6208429700748,26.7301298096595],[89.6208577580772,26.7302108300945]]]},"properties":{"compartment":"Tashigaon BL2B"},"id":"comptt.174"}
]}