{"type":"FeatureCollection", "features": [
{"type":"Feature","geometry":{"type":"Polygon","coordinates":[[[89.7600423557549,26.5345421573331],[89.7596043449266,26.5350351497661],[89.7592823090461,26.5365611464117],[89.75886527518,26.5380121410697],[89.7587362281731,26.5399831423056],[89.7584782104026,26.5407481387478],[89.7599581140045,26.544623174842],[89.7562601574643,26.5431651002642],[89.7540411824925,26.5423340556009],[89.7523542013115,26.5417110216643],[89.750650231043,26.5406349865421],[89.7490522567878,26.5397149537758],[89.7472672757394,26.5390959179503],[89.7446943029583,26.5382078663208],[89.7433593244308,26.5374408389564],[89.7422033661255,26.5358138134455],[89.7409523767763,26.5354897885509],[89.7405193804596,26.5353777799347],[89.7378724126544,26.5342897265049],[89.7361674535717,26.5327476905079],[89.7360553162496,26.5326468181416],[89.7364869023071,26.5315190243936],[89.7367546116655,26.5306862180204],[89.7374684671296,26.5295559797446],[89.7382739529955,26.5279831724118],[89.7388260113546,26.5271646415817],[89.7395493847967,26.5261176936447],[89.7402346992385,26.5250326748964],[89.741300728738,26.5237001930674],[89.7419860386549,26.5223867438857],[89.7425380951855,26.5216443631955],[89.7434137569056,26.520654518316],[89.7439277321542,26.5199692369937],[89.7443084626885,26.5194933534814],[89.7447843602666,26.5191316820309],[89.7453173626943,26.5189794120838],[89.7461549321421,26.5189223182254],[89.7471367564739,26.5190648775433],[89.7496847408542,26.5194729277495],[89.7498127199198,26.5203339318621],[89.7533817033588,26.5206840017728],[89.7538896608855,26.5224070148943],[89.7547816395429,26.5232120337288],[89.7552865998287,26.5248200465766],[89.7557965738898,26.5258530584322],[89.7571955348367,26.5273480884184],[89.7591044725726,26.5297621300507],[89.7597404298113,26.5314841456647],[89.7594793753479,26.5337791449552],[89.7600423557549,26.5345421573331]]]},"properties":{"compartment":"Narathali BL1"},"id":"comptt.7"}
]}