{"type":"FeatureCollection", "features": [
{"type":"Feature","geometry":{"type":"Polygon","coordinates":[[[89.8430345463759,26.6906348537854],[89.8420847882819,26.6906441452566],[89.8407046973491,26.690810678631],[89.8379445149124,26.6911675454261],[89.8363026939972,26.6913578737357],[89.8324717631965,26.6913339988812],[89.8264755338391,26.6914528620255],[89.822668399561,26.6915717579176],[89.8183139913516,26.6919048035401],[89.8161248934317,26.6920237310273],[89.8152206908747,26.6922140737407],[89.8143402882646,26.6924044069186],[89.8137454273105,26.6924995754877],[89.8131505580841,26.6925233639187],[89.8123891298119,26.6925233490518],[89.8114552148558,26.6924025005839],[89.8124444573422,26.6913804779247],[89.8125885056508,26.6893704768549],[89.8125095373314,26.6880684727984],[89.8126745628195,26.6869994739551],[89.8128526249975,26.6844124724337],[89.8128276612158,26.6829174690585],[89.8124357378049,26.6797874553629],[89.8186387335281,26.6793835756452],[89.8257857255096,26.6790477144866],[89.832040714003,26.6789408363667],[89.8379117117359,26.678488950084],[89.8423787071547,26.6782640368398],[89.8425247068031,26.6782650396916],[89.842814645464,26.6807740502479],[89.8428225647166,26.6841110569148],[89.8430194906941,26.6871520666945],[89.8430344070244,26.6906080737305],[89.8430345463759,26.6906348537854]]]},"properties":{"compartment":"Kumargram BL2"},"id":"comptt.139"}
]}