{"type":"FeatureCollection", "features": [
{"type":"Feature","geometry":{"type":"Polygon","coordinates":[[[89.8600604020618,26.5232690775705],[89.8584394016206,26.5234360464185],[89.8563724006521,26.5236660067287],[89.8554944026103,26.5236649896761],[89.8541744055435,26.5236639640401],[89.8515254114578,26.5236609125921],[89.8483594199359,26.5235988509902],[89.8444814299973,26.5235367755642],[89.8407334383914,26.5235327027782],[89.8389804423484,26.5235296687335],[89.8384683557234,26.5221859661685],[89.8376879367294,26.5205488778222],[89.837116896765,26.5193496243966],[89.8365458558857,26.518188431046],[89.8355941168517,26.516151588599],[89.8349811996219,26.5148419141487],[89.8345624417789,26.5139567542953],[89.8343911413318,26.5131572494124],[89.8343245281412,26.5124624367656],[89.8343531054232,26.5117390859108],[89.8345053985506,26.5111775277723],[89.8347814300336,26.5106730921466],[89.8350955254986,26.5104161177418],[89.8355333481792,26.5102638359423],[89.8359711683495,26.5102162543467],[89.8363423686676,26.5101686714583],[89.8365232107769,26.5100639847639],[89.8365707943229,26.5099116953905],[89.8365517826214,26.5091502635367],[89.8365232657721,26.507770180292],[89.8365708753295,26.5065328588031],[89.8367898028694,26.5057809515851],[89.8372657287373,26.5046578486299],[89.8378939254073,26.5034871685358],[89.8383888700525,26.5028304468582],[89.8389123637219,26.5022117958085],[89.8392740525025,26.5018120520462],[89.8399974175174,26.5015360455428],[89.8407112634662,26.5012219687802],[89.8414441402858,26.5008698223123],[89.8422302198011,26.500400306647],[89.8422549892099,26.5004226871713],[89.8437779529618,26.5017947194032],[89.8461959118361,26.5032877692421],[89.8481068993254,26.5036338070026],[89.8495058494697,26.5055848379715],[89.8501407985848,26.5076488543376],[89.8514117462685,26.5097138830521],[89.8533217255137,26.5104039214783],[89.8542126767868,26.5123539425978],[89.8552316470336,26.5135009646291],[89.8553545944973,26.515679971292],[89.8554795392397,26.5179719782156],[89.8566234954074,26.5196940038075],[89.8587884438302,26.5216450496785],[89.8600604020618,26.5232690775705]]]},"properties":{"compartment":"S Bholka BL6"},"id":"comptt.2"}
]}