{"type":"FeatureCollection", "features": [
{"type":"Feature","geometry":{"type":"Polygon","coordinates":[[[89.6447507724634,26.5830493563241],[89.6413932015333,26.5835978377854],[89.6379490189376,26.583720007799002],[89.63327698265151,26.5839614299067],[89.6288479301638,26.5835834491466],[89.6249106930639,26.5832673754896],[89.6244639083006,26.5832809547746],[89.62302280348601,26.5833972864976],[89.622691359839,26.5834239221841],[89.6204870888248,26.583569828218103],[89.619487412281,26.5837490418964],[89.6189047967202,26.5838541144834],[89.61730815847821,26.5839118156096],[89.6162538792351,26.583946679405102],[89.6139617810154,26.5840291891332],[89.6122844524242,26.584239753115],[89.60600430061,26.5842292452705],[89.605383981885,26.5843205898461],[89.6026666127897,26.584722169046902],[89.6001011189385,26.5848109307782],[89.5972769056802,26.5849107395583],[89.595250427111,26.5851306776213],[89.59118045570621,26.585465470579102],[89.59098458729571,26.585471898836],[89.58956380435251,26.5855191384424],[89.5874292811189,26.585744689542],[89.5863245643095,26.5858210704138],[89.5861864770462,26.5858307936518],[89.5854051392274,26.5839596752311],[89.5852285491526,26.5827856806304],[89.58511610988481,26.5812474612194],[89.5847073476308,26.5790760631758],[89.58490768504791,26.5764223920901],[89.58497732622611,26.575865777365202],[89.5850084249198,26.5756189553976],[89.5849659740285,26.575544133921202],[89.5840283775809,26.573869333897402],[89.58275408868211,26.572291628938302],[89.5813957409238,26.570360646627602],[89.580285548308,26.568527843492102],[89.5791269117808,26.5662161556403],[89.5773770303592,26.563659198646903],[89.5766923614412,26.5622017767548],[89.57552818875341,26.5607665975648],[89.5769808769106,26.5608598754356],[89.5789863551629,26.560749580756802],[89.58034670402,26.560698335753802],[89.58351430764681,26.5605406217074],[89.5851505407461,26.560544344860002],[89.5874653636339,26.560289188621002],[89.5872207649563,26.5584834100514],[89.5869163723528,26.5566292298301],[89.5865343723139,26.555366158563],[89.5856254686545,26.553429617647],[89.5849047605755,26.5528513748588],[89.5842738128168,26.5524915283565],[89.5834758978902,26.551761855373503],[89.583383552322,26.551616805570102],[89.5833598714135,26.551230718433],[89.5831069059447,26.5504030263187],[89.5831081148545,26.5500815232858],[89.58295713646821,26.549483657713502],[89.5829974395118,26.548755908398302],[89.5847156300208,26.548278467782],[89.5863103979364,26.5478821949204],[89.5879662380004,26.547944330333003],[89.58956129084861,26.5474904888172],[89.5907085668013,26.548066748091802],[89.5921710158384,26.548873810347303],[89.59350623348651,26.549507722916402],[89.5945878658891,26.550199181602302],[89.5956692022019,26.550947318377503],[89.5973888844691,26.5514680144097],[89.5986620073771,26.551929987178003],[89.5992987174629,26.552103861073],[89.59953176657031,26.5522033208189],[89.600336040562,26.552549299301003],[89.6017193915207,26.5530855784964],[89.60420076921301,26.5539523543885],[89.6043931375211,26.554181706766602],[89.6056005003052,26.5548158188119],[89.60706708963511,26.5552216614246],[89.60865859923581,26.5557992241017],[89.6102514070558,26.5560324244854],[89.6119725007677,26.556152193213702],[89.612150691913,26.5561527068049],[89.6136938612067,26.5561568797143],[89.6147140586677,26.555758080153602],[89.6162901496437,26.5557057314169],[89.6177781085722,26.5550209862381],[89.6176480302605,26.5556513410256],[89.6180929472328,26.5561688239167],[89.6185353471526,26.5566854879429],[89.6192376518425,26.5568018394756],[89.6201940013464,26.5567474939339],[89.6202887537343,26.5569260491881],[89.6210169533441,26.558297018114303],[89.6214620531687,26.558814487350503],[89.6217166655,26.559216254375002],[89.6222864232131,26.5599629757454],[89.6224189486239,26.560083568437403],[89.6232396246526,26.560825724060702],[89.6241321653319,26.561114716589],[89.62483380366061,26.5614030697168],[89.6247650071368,26.5624923948213],[89.62527300912801,26.5629521654619],[89.6259091472621,26.5633549108341],[89.6266100105916,26.5639300617071],[89.6262245014525,26.564387662098703],[89.6264771100697,26.5654200037103],[89.62647603479721,26.565764343155102],[89.62621594656281,26.567024499513],[89.6254521253208,26.567309617804],[89.6250004374297,26.568798698953],[89.6259538889366,26.5696611400394],[89.6270363140155,26.5702369888125],[89.6274156555266,26.570868555979402],[89.6283050384679,26.572132442372002],[89.628493288117,26.5721435353461],[89.629260967609,26.572249494923902],[89.6302789599938,26.572538695885],[89.6306607065349,26.5732271904236],[89.63135874549991,26.5739174042004],[89.6318060761123,26.5737464403609],[89.6323790162369,26.574321056566703],[89.6335249290761,26.574667981721102],[89.6343529900991,26.5747272511204],[89.6351191143862,26.574557679178202],[89.6362037301852,26.574445342104003],[89.6369023294525,26.5749632169274],[89.6365815699361,26.5755932470834],[89.6368352288416,26.576339037693902],[89.63734149577711,26.5773720925274],[89.63791472842911,26.5778321881136],[89.6386799374707,26.5779485578744],[89.6398260239436,26.5782378997331],[89.6409071719203,26.579272470081],[89.6410945696264,26.5803622151133],[89.642750175485,26.581455827625],[89.6442747970773,26.582777950128403],[89.6447507724634,26.5830493563241]]]},"properties":{"id":null,"description":null,"altitudeMode":null,"tessellate":null,"extrude":null,"visibility":null,"drawOrder":null,"icon":null,"AREA":null,"PERIMETER":null,"division":"BuxaTR_WEST","beat":"Gadadhar","range":"EastRajabhatkhawa","layer":"master","path":"C:/Users/user/OneDrive/Desktop/Buxaroad/master.geojson","fill-opacity":0,"stroke-opacity":1,"stroke":"#ff0000","SID":"028","DID":"014","RID":"004","BID":"001","State":"West_Bengal","Beat_Ar":15.5838}},
{"type":"Feature","geometry":{"type":"Polygon","coordinates":[[[89.6573538401816,26.5965573773367],[89.6583564594206,26.597075812758302],[89.6588914815633,26.598665110372902],[89.65911362755391,26.600805993827603],[89.6590280903282,26.6042581119313],[89.6628649163667,26.6057170537643],[89.662950989649,26.6063705649781],[89.66330216376261,26.6090361335681],[89.663200381509,26.6095370311799],[89.6630052771453,26.610969904043802],[89.6630640394321,26.6123459355199],[89.6630595407436,26.613893318739002],[89.6635021175907,26.6153846938352],[89.663942314215,26.617736474138002],[89.6644455181414,26.6199733019543],[89.6646322633095,26.6214064825539],[89.6647164183245,26.6217861922438],[89.662496489825,26.6210319686147],[89.6618661232747,26.6210689742534],[89.6592267348224,26.6212239901349],[89.6546375655809,26.6218394068512],[89.65023935965701,26.622379414810602],[89.6477209196216,26.622381093699],[89.64363573649,26.622383994844903],[89.6421319486555,26.622288352381602],[89.6405470641031,26.6224908621277],[89.6375529862932,26.622825272058503],[89.6341994863883,26.623247238944902],[89.6326405366047,26.623179486825602],[89.63127725321431,26.6231196164685],[89.6277513444902,26.6233172522399],[89.62377982156761,26.623832650597603],[89.6218382009227,26.624049758898902],[89.61654148026031,26.624394566554002],[89.615132352047,26.6245448751898],[89.6134544518536,26.6247230481747],[89.60837212729021,26.6247597013128],[89.6052360934758,26.6247075750437],[89.60294330952941,26.624788250694202],[89.60122574250491,26.6248138828949],[89.5994423510203,26.625003236245],[89.59812870857,26.625115074555502],[89.5937314448425,26.6252872962264],[89.590147736883,26.6254226138678],[89.5846259609778,26.625472377649302],[89.5846062209323,26.6253843307889],[89.5840717698036,26.6224695774033],[89.5837142797281,26.6206470240195],[89.5831716948449,26.617934553161202],[89.5829370737565,26.6154512925109],[89.58305956528,26.6128041428319],[89.5855870102914,26.6123362308144],[89.586753355681,26.6119328763552],[89.5877010903023,26.611585825726202],[89.5878544174829,26.611529962273103],[89.5892778263071,26.6115921177533],[89.5923806083801,26.611717175259603],[89.5946450304553,26.611781666123502],[89.5965203874609,26.611786772461702],[89.5982026915209,26.6117334008639],[89.6007244768426,26.611449999775502],[89.6033134747725,26.611282825718202],[89.6060935804237,26.611058165803602],[89.6085526877895,26.6107166807828],[89.6112052157557,26.610326705829802],[89.6116598368524,26.6102603406841],[89.61457059621111,26.6099781937029],[89.6175468927615,26.609637428861802],[89.6195538510426,26.6093522412595],[89.6219471993739,26.6091260541702],[89.6260863442186,26.6086144398553],[89.6311970014726,26.6081053448398],[89.63199053686171,26.6080265537631],[89.6323572221056,26.607990464126402],[89.63521013945581,26.6077088470082],[89.6363527844105,26.6076164149494],[89.6379447979526,26.6074871964393],[89.63715733720821,26.6064325850682],[89.63496634343521,26.603814110014103],[89.6325187585311,26.6006136795982],[89.63080314172271,26.5985480204655],[89.6333645647567,26.5982965916073],[89.6364680146455,26.5980721366857],[89.6386675598068,26.5979615615386],[89.6419015494784,26.5977377357334],[89.6457802744668,26.5976890898153],[89.6490138723924,26.597581010221102],[89.6514087015897,26.5975866895462],[89.6529607409156,26.5974163199564],[89.6550956432127,26.597014657139002],[89.6573538401816,26.5965573773367]]]},"properties":{"id":null,"description":null,"altitudeMode":null,"tessellate":null,"extrude":null,"visibility":null,"drawOrder":null,"icon":null,"AREA":null,"PERIMETER":null,"division":"BuxaTR_WEST","beat":"Panbari-North","range":"EastRajabhatkhawa","layer":"master","path":"C:/Users/user/OneDrive/Desktop/Buxaroad/master.geojson","fill-opacity":0,"stroke-opacity":1,"stroke":"#ff0000","SID":"028","DID":"014","RID":"004","BID":"003","State":"West_Bengal","Beat_Ar":14.8932}},
{"type":"Feature","geometry":{"type":"Polygon","coordinates":[[[89.6573538401816,26.5965573773367],[89.6550956432127,26.597014657139002],[89.6529607409156,26.5974163199564],[89.6514087015897,26.5975866895462],[89.6490138723924,26.597581010221102],[89.6457802744668,26.5976890898153],[89.6419015494784,26.5977377357334],[89.6386675598068,26.5979615615386],[89.6364680146455,26.5980721366857],[89.6333645647567,26.5982965916073],[89.63080314172271,26.5985480204655],[89.6325187585311,26.6006136795982],[89.63496634343521,26.603814110014103],[89.63715733720821,26.6064325850682],[89.6379447979526,26.6074871964393],[89.6363527844105,26.6076164149494],[89.63521013945581,26.6077088470082],[89.6323572221056,26.607990464126402],[89.63199053686171,26.6080265537631],[89.6311970014726,26.6081053448398],[89.6260863442186,26.6086144398553],[89.6219471993739,26.6091260541702],[89.6195538510426,26.6093522412595],[89.6175468927615,26.609637428861802],[89.61457059621111,26.6099781937029],[89.6116598368524,26.6102603406841],[89.6112052157557,26.610326705829802],[89.6085526877895,26.6107166807828],[89.6060935804237,26.611058165803602],[89.6033134747725,26.611282825718202],[89.6007244768426,26.611449999775502],[89.5982026915209,26.6117334008639],[89.5965203874609,26.611786772461702],[89.5946450304553,26.611781666123502],[89.5923806083801,26.611717175259603],[89.5892778263071,26.6115921177533],[89.5878544174829,26.611529962273103],[89.5877010903023,26.611585825726202],[89.586753355681,26.6119328763552],[89.5855870102914,26.6123362308144],[89.58305956528,26.6128041428319],[89.58307314186621,26.612526497105602],[89.5828374503554,26.6103500688545],[89.5827357163926,26.609314550433],[89.5827614559722,26.6056622809436],[89.5829849340339,26.6035543246043],[89.5831107528578,26.6027923476062],[89.5830640540301,26.6024905583599],[89.5835156905466,26.599782762008303],[89.5843289948296,26.5977107944047],[89.58458463759911,26.5971129025881],[89.5850090808663,26.5963656332985],[89.58574561570511,26.5947017343337],[89.5870276911023,26.5906730221558],[89.58682745965561,26.5870026909],[89.5863633853923,26.5862337760008],[89.5861864770462,26.5858307936518],[89.5863245643095,26.5858210704138],[89.5874292811189,26.585744689542],[89.58956380435251,26.5855191384424],[89.59098458729571,26.585471898836],[89.59118045570621,26.585465470579102],[89.595250427111,26.5851306776213],[89.5972769056802,26.5849107395583],[89.6001011189385,26.5848109307782],[89.6026666127897,26.584722169046902],[89.605383981885,26.5843205898461],[89.60600430061,26.5842292452705],[89.6122844524242,26.584239753115],[89.6139617810154,26.5840291891332],[89.6162538792351,26.583946679405102],[89.61730815847821,26.5839118156096],[89.6189047967202,26.5838541144834],[89.619487412281,26.5837490418964],[89.6204870888248,26.583569828218103],[89.622691359839,26.5834239221841],[89.62302280348601,26.5833972864976],[89.6244639083006,26.5832809547746],[89.6249106930639,26.5832673754896],[89.6288479301638,26.5835834491466],[89.63327698265151,26.5839614299067],[89.6379490189376,26.583720007799002],[89.6413932015333,26.5835978377854],[89.6447507724634,26.5830493563241],[89.6454849181441,26.583468636362003],[89.6463148581378,26.582955066152902],[89.64682707438641,26.5828986403451],[89.6473381997133,26.5823845364657],[89.6482961390595,26.5818705962727],[89.6487447197435,26.581241029893402],[89.6501471922785,26.581474007264802],[89.6515478869851,26.582279736291],[89.6503332788872,26.583021722401803],[89.65065004070911,26.583653385028402],[89.6512215034205,26.5839411414842],[89.6517938293217,26.5847455119529],[89.65217563769001,26.5854914694039],[89.6528103960331,26.5864679744037],[89.6529343736557,26.5869267551638],[89.6535679874025,26.588246746747302],[89.65465073073331,26.5888223697102],[89.6556719399138,26.5889393231923],[89.65624607761531,26.5883677702257],[89.6568233172536,26.5875663482057],[89.6574620596903,26.5871666202647],[89.65803618809271,26.5873976347371],[89.6589878193944,26.589004905486902],[89.6588579930519,26.589606521633403],[89.65882307522901,26.590380457646003],[89.6578962680887,26.5914098839559],[89.6576683098848,26.592928584406],[89.6573156835683,26.5933576817849],[89.6569629410171,26.5946463174064],[89.6561008292817,26.5949883056556],[89.655674966245,26.5955510771057],[89.6572836502144,26.5965212558572],[89.6573538401816,26.5965573773367]]]},"properties":{"id":null,"description":null,"altitudeMode":null,"tessellate":null,"extrude":null,"visibility":null,"drawOrder":null,"icon":null,"AREA":null,"PERIMETER":null,"division":"BuxaTR_WEST","beat":"Panbari-South","range":"EastRajabhatkhawa","layer":"master","path":"C:/Users/user/OneDrive/Desktop/Buxaroad/master.geojson","fill-opacity":0,"stroke-opacity":1,"stroke":"#ff0000","SID":"028","DID":"014","RID":"004","BID":"002","State":"West_Bengal","Beat_Ar":17.0622}}
]}
