{"type":"FeatureCollection", "features": [
{"type":"Feature","geometry":{"type":"Polygon","coordinates":[[[89.4510773979068,26.640774405718002],[89.4508010202283,26.6408144656932],[89.4502873469481,26.639003268975102],[89.4498455085058,26.636852632643702],[89.449658971335,26.635400188255602],[89.4497320395692,26.6337741825597],[89.45025947221241,26.6316277144569],[89.4511098706366,26.6297145450659],[89.45163556657,26.627916379572103],[89.4519000757223,26.626697614013302],[89.4520000686351,26.6262543873525],[89.4522283378584,26.625247222840702],[89.4527538436344,26.624029444209],[89.4536624264867,26.6230457522702],[89.4545757544974,26.621597525892],[89.4554903764197,26.6198582403482],[89.4558199006444,26.6181173521751],[89.4558285648114,26.616259059627],[89.4563537329195,26.6145770737651],[89.4570736199056,26.6131280020299],[89.45781883194441,26.6121527352147],[89.4602354042154,26.6118875597508],[89.4643066300011,26.6115643519286],[89.4690551672298,26.611378959898502],[89.4723729963958,26.611119738732402],[89.475088199132,26.610858822176002],[89.47596450863381,26.610862100961903],[89.4760674555564,26.6108624381251],[89.4766126912086,26.610747050751],[89.47795213971081,26.610463191249302],[89.4834593704096,26.609602437957502],[89.4891907867315,26.6085386053983],[89.4908518628102,26.6082061221384],[89.4914546838368,26.6081405530483],[89.4915750478676,26.6081770754273],[89.4915041025047,26.6088978031902],[89.4912467391313,26.6125796615236],[89.4924471446264,26.6136671509678],[89.4950879886164,26.616059251126103],[89.4950766292265,26.6186589667689],[89.4962715513674,26.621046274751002],[89.49591763884361,26.622148453841803],[89.4952940562199,26.624075547424603],[89.4964890451057,26.626462849269203],[89.4991275086455,26.629504921873902],[89.4995119738616,26.6311745923052],[89.4995414490886,26.631303723652103],[89.49936105782061,26.6312399255602],[89.49658412437441,26.6305713298402],[89.49258151046911,26.6305571860257],[89.490573483109,26.6309432685464],[89.4884974994265,26.631342728305903],[89.4854565576192,26.631332088028703],[89.4829323888022,26.6314487982104],[89.4814505436013,26.6315173330761],[89.4775960713136,26.6315034742174],[89.4746273172444,26.6316258056558],[89.47292158387191,26.631786546681102],[89.4722533160255,26.631850465912102],[89.470288324505,26.6321481107773],[89.4695826680763,26.6321486706831],[89.4681346401185,26.6325049350798],[89.4651272361902,26.6333733991789],[89.4630845618235,26.6341776846042],[89.4614185834137,26.636026865709802],[89.460108491642,26.6374792282934],[89.4601053877281,26.637580221664102],[89.458950905037,26.6395927425195],[89.458214394751,26.6397373931883],[89.4568021924249,26.6399344022409],[89.4538694104788,26.6403732046244],[89.4510773979068,26.640774405718002]]]},"properties":{"id":null,"description":null,"altitudeMode":null,"tessellate":null,"extrude":null,"visibility":null,"drawOrder":null,"icon":null,"AREA":null,"PERIMETER":null,"division":"BuxaTR_WEST","beat":"Nimati-East","range":"Nimati","layer":"master","path":"C:/Users/user/OneDrive/Desktop/Buxaroad/master.geojson","fill-opacity":0,"stroke-opacity":1,"stroke":"#ff0000","SID":"028","DID":"014","RID":"007","BID":"002","State":"West_Bengal","Beat_Ar":10.2598}},
{"type":"Feature","geometry":{"type":"Polygon","coordinates":[[[89.4510773979068,26.640774405718002],[89.4486237526277,26.6429301743674],[89.44750674058291,26.6438567469341],[89.4449388800881,26.6462135728859],[89.4452418012185,26.647475601296502],[89.44601062726571,26.6500383173044],[89.4466952905392,26.6528565479122],[89.4479550365397,26.6567642342169],[89.44870593754901,26.6599819510872],[89.4457676609827,26.6598560637579],[89.4430851777245,26.659845670156002],[89.4383582563907,26.659827267796402],[89.43656737238871,26.6598203711391],[89.4340111822525,26.6601776823647],[89.4338829921784,26.660195903110303],[89.4333654324453,26.660236683756402],[89.4333409407194,26.660124125543],[89.43312217583811,26.6591181348692],[89.4330508823743,26.658816535953502],[89.432294481925,26.653248453301202],[89.4326282783417,26.6497130984026],[89.43164190176451,26.645475066889603],[89.4311521003298,26.643955721504803],[89.4312660653503,26.643254884764602],[89.43154571190131,26.6415464173144],[89.4313026917552,26.639364372304403],[89.4310653580716,26.637597679688803],[89.4303643604899,26.636644216833],[89.4294234973103,26.634934546607102],[89.42829399402541,26.6327972603011],[89.4268732558308,26.6321948195793],[89.4260291107005,26.6302292040423],[89.424993096284,26.6285190481179],[89.4250564995444,26.6283929117802],[89.4252822969664,26.6279233344789],[89.4258585216189,26.6266461940553],[89.4266237376964,26.6252845155321],[89.4273870781949,26.6242640937525],[89.4282508868215,26.622731920141902],[89.4293005034952,26.621200967967102],[89.4293996627657,26.6204334422302],[89.42969136144511,26.6193255506153],[89.4303685368624,26.616428308939803],[89.4304680331126,26.6155756094906],[89.4308598922865,26.613017977000002],[89.4315305628057,26.611912173863402],[89.4326800160951,26.609442761721702],[89.43338918474271,26.6087071326542],[89.4357444476218,26.610709570977],[89.4381474566046,26.6126835626442],[89.4394216485808,26.6139757920686],[89.43964698982,26.6141122536505],[89.4414581412671,26.6139161565812],[89.44590692936261,26.6134590534467],[89.4524683473045,26.6127387523326],[89.45781883194441,26.6121527352147],[89.4570736199056,26.6131280020299],[89.4563537329195,26.6145770737651],[89.4558285648114,26.616259059627],[89.4558199006444,26.6181173521751],[89.4554903764197,26.6198582403482],[89.4545757544974,26.621597525892],[89.4536624264867,26.6230457522702],[89.4527538436344,26.624029444209],[89.4522283378584,26.625247222840702],[89.4520000686351,26.6262543873525],[89.4519000757223,26.626697614013302],[89.45163556657,26.627916379572103],[89.4511098706366,26.6297145450659],[89.45025947221241,26.6316277144569],[89.4497320395692,26.6337741825597],[89.449658971335,26.635400188255602],[89.4498455085058,26.636852632643702],[89.4502873469481,26.639003268975102],[89.4508010202283,26.6408144656932],[89.4510773979068,26.640774405718002]]]},"properties":{"id":null,"description":null,"altitudeMode":null,"tessellate":null,"extrude":null,"visibility":null,"drawOrder":null,"icon":null,"AREA":null,"PERIMETER":null,"division":"BuxaTR_WEST","beat":"Nimati-West","range":"Nimati","layer":"master","path":"C:/Users/user/OneDrive/Desktop/Buxaroad/master.geojson","fill-opacity":0,"stroke-opacity":1,"stroke":"#ff0000","SID":"028","DID":"014","RID":"007","BID":"001","State":"West_Bengal","Beat_Ar":10.21}},
{"type":"Feature","geometry":{"type":"Polygon","coordinates":[[[89.4381474566046,26.6126835626442],[89.4357444476219,26.610709570977],[89.43338918474271,26.608707132654303],[89.43439852664001,26.607658240385103],[89.4354516368178,26.6053595582277],[89.4358361342879,26.6047637048947],[89.4366971900246,26.603231793915],[89.4379353231596,26.602127537899502],[89.4388895753076,26.6010227715924],[89.4393727831909,26.5992332529457],[89.4398643644853,26.597786017354302],[89.4399508881539,26.597529629612403],[89.440148708991,26.596080584562703],[89.4405165995242,26.5952790152714],[89.441011312985,26.594207392024302],[89.4416781010331,26.5933570924437],[89.4423475429306,26.5925064809128],[89.4431108718762,26.5914002479902],[89.4443549873227,26.5895287906765],[89.4445146718725,26.5892152509928],[89.444423841142,26.588793432147103],[89.4442581668045,26.5877493984479],[89.4441849980479,26.5872972233567],[89.4436098620808,26.5857942874919],[89.4435013214338,26.583842981752003],[89.44321280027751,26.580170940647402],[89.4427194721319,26.5768391216797],[89.4420971335809,26.573163420441603],[89.44173070166501,26.5700618395772],[89.4407181804023,26.5682209615729],[89.43919323050581,26.5664932911531],[89.439169167264,26.566250998981502],[89.4390707253643,26.565344742641603],[89.4385758114475,26.562357540978702],[89.4380796187877,26.5591410667863],[89.437715606011,26.555580876801802],[89.43722439438311,26.551330460050302],[89.4371088207977,26.548804451039402],[89.4371122616039,26.5481154414602],[89.4367397977982,26.5462776241394],[89.44019112138571,26.545027964370302],[89.4426213227517,26.5442342023635],[89.4449220395068,26.543783808521702],[89.4458190688794,26.5429833221242],[89.4463373151602,26.5411485789181],[89.4463433497239,26.5398859159246],[89.448769153554,26.5400097891752],[89.4523404261348,26.5403683843403],[89.4523928579664,26.5404095864173],[89.4533578039014,26.541175539024],[89.45501611131391,26.541756139260702],[89.4547552188248,26.5427881834885],[89.4544933199235,26.544050364901302],[89.4547684855554,26.545116141895402],[89.45486073814091,26.5456458119593],[89.4550617319511,26.546798822340403],[89.4550523972769,26.5487721537379],[89.4553053687215,26.5499351604947],[89.4560153543386,26.5504601751494],[89.457437346442,26.5506392030172],[89.4585983419876,26.5507022256288],[89.45930932900221,26.551170240262202],[89.4593683121371,26.5518662425351],[89.4584612945915,26.552676226415002],[89.4569712906177,26.5530191980436],[89.4562592808913,26.553539183412802],[89.4555392470193,26.5549881736206],[89.45533921274371,26.556439172209803],[89.455460162307,26.55853017811],[89.4560961174349,26.5603331934787],[89.4571880797795,26.5617892171599],[89.4576380549181,26.5627782275663],[89.4576310201145,26.5642302299044],[89.45744615145381,26.565196055502],[89.45717551250131,26.5666518484135],[89.4563217567045,26.5691101962747],[89.455764241146,26.571009211473],[89.4541672077169,26.5750095056739],[89.4533647028251,26.5773383992436],[89.4529688182597,26.5793697644525],[89.452180076789,26.5816303743883],[89.4505329037794,26.5842015590319],[89.4497006315256,26.586497164772002],[89.4506495609871,26.586443952401],[89.4548684088853,26.5866016129463],[89.4579088322551,26.586807302191403],[89.45776740037991,26.5891320947639],[89.4575607631733,26.590918095612203],[89.45706227629,26.593045185494002],[89.456602960039,26.596776949286802],[89.457715993229,26.596666346071203],[89.4643112742358,26.596577057262902],[89.4649972267434,26.5965034278293],[89.4647151061299,26.597128251073503],[89.4644535480118,26.5977660552611],[89.4645127927635,26.5985209638057],[89.4649628000474,26.5994520400003],[89.4652826084128,26.600324109837203],[89.4652138238107,26.6010792138381],[89.4648215042252,26.6017744922202],[89.4639765000917,26.602642530385502],[89.4627427622764,26.6039734187223],[89.4611860632455,26.605071017706702],[89.4601429387986,26.606403020463002],[89.45935716713831,26.6085488010505],[89.4589624340863,26.6102895228313],[89.458180168098,26.6116800223311],[89.45781883194441,26.6121527352147],[89.4524683473045,26.6127387523325],[89.44590692936261,26.6134590534467],[89.4414581412671,26.6139161565812],[89.43964698982,26.6141122536505],[89.4394216485808,26.6139757920686],[89.4381474566046,26.6126835626442]]]},"properties":{"id":null,"description":null,"altitudeMode":null,"tessellate":null,"extrude":null,"visibility":null,"drawOrder":null,"icon":null,"AREA":null,"PERIMETER":null,"division":"BuxaTR_WEST","beat":"Poro-West","range":"Nimati","layer":"master","path":"C:/Users/user/OneDrive/Desktop/Buxaroad/master.geojson","fill-opacity":0,"stroke-opacity":1,"stroke":"#ff0000","SID":"028","DID":"014","RID":"007","BID":"003","State":"West_Bengal","Beat_Ar":27.0001}}
]}
