{"type":"FeatureCollection", "features": [
{"type":"Feature","geometry":{"type":"Polygon","coordinates":[[[89.4634961251487,26.783334580245],[89.4632240445302,26.7833889950227],[89.4621532818081,26.7836150244908],[89.4614989291673,26.783793472012],[89.4600474565634,26.7840551841037],[89.4586673655079,26.7842455174683],[89.4573824519005,26.7845310228536],[89.455121958218,26.7849235893634],[89.4544319179816,26.7850068560254],[89.4526592156398,26.7852923618818],[89.4514456832968,26.7855183885598],[89.4500418028903,26.7856849214189],[89.4490781219226,26.7858276728363],[89.4480668510789,26.7859704233241],[89.4472816310933,26.7860536881269],[89.4468781803856,26.7861673793241],[89.446642055155,26.7859545054664],[89.4456210802553,26.7850284839603],[89.445121094063,26.7845124733234],[89.4445501111825,26.7838674610825],[89.4438361240171,26.7834144463731],[89.4431961429151,26.7827034326743],[89.4428411672557,26.7817374241123],[89.4424902009663,26.7803844149764],[89.4419222305349,26.7792254019306],[89.4409972704565,26.7776773812591],[89.4395753272971,26.7754843497992],[89.4388813671942,26.7739123336023],[89.4404233812468,26.7731673624534],[89.4432593977388,26.7721834161638],[89.4452464002246,26.7718684544256],[89.4469514076114,26.771381486891],[89.4484654110605,26.771077515936],[89.4495984147938,26.7708025375913],[89.449948415367,26.7707415443214],[89.4539884327703,26.7695926212517],[89.4555594393767,26.7691526511775],[89.455707810001,26.7691110840037],[89.4559194465116,26.7696452590412],[89.4561002763587,26.7700450132494],[89.456585661812,26.7710063243562],[89.4572042929992,26.7721294483398],[89.45751836858,26.7726910054249],[89.4577277492745,26.7730526901269],[89.4579085798118,26.7734238942875],[89.458070373397,26.7736713578667],[89.4582131368005,26.7739283410904],[89.4583844501302,26.7741853248716],[89.4585272169937,26.7742995478533],[89.4589554974338,26.7750609875088],[89.459336198919,26.7757843461709],[89.4595455773051,26.7762412110353],[89.4597739949497,26.7767266263201],[89.4601261401986,26.7772977041668],[89.4604116583875,26.7777545705186],[89.4606400785694,26.7781352856262],[89.461134988373,26.7789157566175],[89.4613634094774,26.7792584016608],[89.4616870031052,26.779486838369],[89.4619534968803,26.779715273962],[89.4622770958928,26.780134070994],[89.4624864733537,26.7806289959246],[89.4626958585062,26.7812191110173],[89.4631717242018,26.78217091193],[89.4634001323804,26.7830465578803],[89.4634961251487,26.783334580245]]]},"properties":{"compartment":"Pana BL4"},"id":"comptt.201"}
]}