{"type":"FeatureCollection", "features": [
{"type":"Feature","geometry":{"type":"Polygon","coordinates":[[[89.4763362333037,26.8014212619742],[89.4759156054804,26.8013761036747],[89.4754156080517,26.8013230938105],[89.4731116114017,26.8014290489545],[89.46965461503,26.8016459817505],[89.4669686166085,26.8018659296228],[89.4646696478266,26.8008238829141],[89.4643786512953,26.8007118770359],[89.4619886800569,26.7997808287416],[89.4603297151363,26.7985117941637],[89.4590877298705,26.7980367690851],[89.4586087536511,26.7971077581482],[89.4583977682701,26.7965277530411],[89.457686799806,26.7953037370714],[89.4569008175349,26.7946567206157],[89.4559708371884,26.7939457012384],[89.4556868488641,26.793494694925],[89.4551158644354,26.7929136827838],[89.4543318821339,26.7922676663714],[89.4530438965268,26.7918116404343],[89.4517579187019,26.7910346139941],[89.4511149360113,26.7903896003407],[89.4502589586014,26.7895495821971],[89.449974973404,26.7889695756684],[89.4499039829498,26.7885835736287],[89.4491189975452,26.7880655574182],[89.448476013325,26.7874835438739],[89.4470480452277,26.786320514015],[89.4468781803856,26.7861673793241],[89.4472816310933,26.7860536881269],[89.4480668510789,26.7859704233241],[89.4490781219226,26.7858276728363],[89.4500418028903,26.7856849214189],[89.4514456832968,26.7855183885598],[89.4526592156398,26.7852923618818],[89.4544319179816,26.7850068560254],[89.455121958218,26.7849235893634],[89.4573824519005,26.7845310228536],[89.4586673655079,26.7842455174683],[89.4600474565634,26.7840551841037],[89.4614989291673,26.783793472012],[89.4621532818081,26.7836150244908],[89.4632240445302,26.7833889950227],[89.4634961251487,26.783334580245],[89.4638188808352,26.7843029181962],[89.4640663365792,26.784864483985],[89.4643328118126,26.785445070178],[89.4650561406329,26.7866538563648],[89.4656938080563,26.7879292609926],[89.4662458123938,26.788928643478],[89.4672546559279,26.7907370562676],[89.4681397803988,26.7921076458967],[89.4687869733314,26.7931546303265],[89.469919546769,26.794953525524],[89.4703287963156,26.7957530348845],[89.4705001077912,26.7960861588003],[89.4707665974048,26.7964859146899],[89.4710997036132,26.7970189221088],[89.4714994394188,26.7975614508463],[89.4720229014412,26.7982467422458],[89.4722989128773,26.7985703581925],[89.472841419701,26.799055779624],[89.4733173020092,26.7993222893802],[89.4737931820071,26.799683979299],[89.4741263046823,26.7999504862652],[89.4746878430741,26.8003692779562],[89.47500192626,26.8006167545181],[89.4753731088373,26.8008832622287],[89.4757252637738,26.8010545894049],[89.4759917603167,26.8011688048094],[89.4763362333037,26.8014212619742]]]},"properties":{"compartment":"Pana BL1"},"id":"comptt.212"}
]}