{"type":"FeatureCollection", "features": [
{"type":"Feature","geometry":{"type":"Polygon","coordinates":[[[89.4866592928434,26.7752418291862],[89.4854483332609,26.7757275560479],[89.4846868965548,26.7760844617873],[89.4835804398665,26.7764770508486],[89.4823669117226,26.7769410179403],[89.4806417911401,26.7775596453036],[89.4797732864417,26.777845168828],[89.4781909404007,26.7782615386328],[89.4772629455682,26.7785589610151],[89.4754664354645,26.7791656869609],[89.4744075669316,26.7796296570705],[89.472480196591,26.7802601804992],[89.4715759937212,26.7804743132025],[89.4710168214075,26.7806289725439],[89.4705171260569,26.7809025932497],[89.46991036127,26.7811643218437],[89.4691132361071,26.78146174678],[89.4682923204293,26.7817829512919],[89.4675665721989,26.7821993478245],[89.466686166675,26.7825205611738],[89.4655083316291,26.7828536587331],[89.4643542871,26.7831629667164],[89.4634961251487,26.783334580245],[89.4634001323804,26.7830465578803],[89.4631717242018,26.78217091193],[89.4626958585062,26.7812191110173],[89.4624864733537,26.7806289959246],[89.4622770958928,26.780134070994],[89.4619534968803,26.779715273962],[89.4616870031052,26.779486838369],[89.4613634094774,26.7792584016608],[89.461134988373,26.7789157566175],[89.4606400785694,26.7781352856262],[89.4604116583875,26.7777545705186],[89.4601261401986,26.7772977041668],[89.4597739949497,26.7767266263201],[89.4595455773051,26.7762412110353],[89.459336198919,26.7757843461709],[89.4589554974338,26.7750609875088],[89.4585272169937,26.7742995478533],[89.4583844501302,26.7741853248716],[89.4582131368005,26.7739283410904],[89.458070373397,26.7736713578667],[89.4579085798118,26.7734238942875],[89.4577277492745,26.7730526901269],[89.45751836858,26.7726910054249],[89.4572042929992,26.7721294483398],[89.456585661812,26.7710063243562],[89.4561002763587,26.7700450132494],[89.4559194465116,26.7696452590412],[89.455707810001,26.7691110840037],[89.4627234695417,26.7671457876356],[89.4739985316227,26.763388001353],[89.4797615634225,26.7614661105741],[89.4797745662236,26.7613491106278],[89.4824015623387,26.7612321617115],[89.4848285601333,26.7610672088091],[89.486552554301,26.7611262425668],[89.4874975514284,26.7611452610484],[89.4881484759441,26.7641922789868],[89.4882964363848,26.7658092846517],[89.4879533858616,26.767930281594],[89.4870603208382,26.7707072689197],[89.4868762623581,26.7731392694978],[89.4868902271717,26.7745892722582],[89.4866592928434,26.7752418291862]]]},"properties":{"compartment":"Pana BL3"},"id":"comptt.200"}
]}