{"type":"FeatureCollection", "features": [
{"type":"Feature","geometry":{"type":"Polygon","coordinates":[[[89.486072577241,26.8014663023809],[89.4859035774553,26.8014752990926],[89.4834735783163,26.8016962519672],[89.4811695816266,26.8018032071102],[89.478738590875,26.801679159376],[89.4763362333037,26.8014212619742],[89.4759917603167,26.8011688048094],[89.4757252637738,26.8010545894049],[89.4753731088373,26.8008832622287],[89.47500192626,26.8006167545181],[89.4746878430741,26.8003692779562],[89.4741263046823,26.7999504862652],[89.4737931820071,26.799683979299],[89.4733173020092,26.7993222893802],[89.472841419701,26.799055779624],[89.4722989128773,26.7985703581925],[89.4720229014412,26.7982467422458],[89.4714994394188,26.7975614508463],[89.4710997036132,26.7970189221088],[89.4707665974048,26.7964859146899],[89.4705001077912,26.7960861588003],[89.4703287963156,26.7957530348845],[89.469919546769,26.794953525524],[89.4687869733314,26.7931546303265],[89.4681397803988,26.7921076458967],[89.4672546559279,26.7907370562676],[89.4662458123938,26.788928643478],[89.4656938080563,26.7879292609926],[89.4650561406329,26.7866538563648],[89.4643328118126,26.785445070178],[89.4640663365792,26.784864483985],[89.4638188808352,26.7843029181962],[89.4634961251487,26.783334580245],[89.4643542871,26.7831629667164],[89.4655083316291,26.7828536587331],[89.466686166675,26.7825205611738],[89.4675665721989,26.7821993478245],[89.4682923204293,26.7817829512919],[89.4691132361071,26.78146174678],[89.46991036127,26.7811643218437],[89.4705171260569,26.7809025932497],[89.4710168214075,26.7806289725439],[89.4715759937212,26.7804743132025],[89.472480196591,26.7802601804992],[89.4744075669316,26.7796296570705],[89.4754664354645,26.7791656869609],[89.4772629455682,26.7785589610151],[89.4781909404007,26.7782615386328],[89.4797732864417,26.777845168828],[89.4806417911401,26.7775596453036],[89.4823669117226,26.7769410179403],[89.4835804398665,26.7764770508486],[89.4846868965548,26.7760844617873],[89.4854483332609,26.7757275560479],[89.4866592928434,26.7752418291862],[89.4865972078471,26.7754172679556],[89.4860931746112,26.7768412605531],[89.4854201244926,26.7789792510725],[89.4841770794168,26.7809692302011],[89.4834310205756,26.7834742199184],[89.4828819438797,26.7866942147066],[89.4839148467673,26.790588241561],[89.4849687777793,26.7933202668397],[89.4855286905579,26.7968552838431],[89.4857396557953,26.7982652903843],[89.4860096200779,26.7997082981356],[89.486072577241,26.8014663023809]]]},"properties":{"compartment":"Pana BL2"},"id":"comptt.211"}
]}