{"type":"FeatureCollection", "features": [
{"type":"Feature","geometry":{"type":"Polygon","coordinates":[[[89.5861864770462,26.5858307936518],[89.5858124872037,26.585856410024903],[89.5841303983359,26.585909620410103],[89.5821897568909,26.5860201241406],[89.5798630908766,26.585955265292302],[89.5797326673925,26.5859519245526],[89.5772127466395,26.585889457652],[89.576728226327,26.5859095117188],[89.5745616600979,26.5859976076385],[89.57229672928081,26.586223535566003],[89.56983848460601,26.586448466533103],[89.5678975098798,26.586616309663903],[89.5667353562422,26.586612802162602],[89.5664767895781,26.5866122755328],[89.56337235662541,26.586428835914802],[89.5611734185721,26.586479860674],[89.5592324383647,26.5866481502316],[89.5568391238903,26.5869313656814],[89.5539945431676,26.587096815080702],[89.55166678706101,26.587321977657002],[89.54914335683121,26.5874877629855],[89.547460914848,26.587656733581202],[89.54635994697661,26.588060178626],[89.54519180374871,26.5889274082486],[89.5438319047733,26.5900265558136],[89.5419510645517,26.590833556772502],[89.541797825417,26.590860604757403],[89.5420990117302,26.589621559082403],[89.5452281350444,26.5867250773354],[89.5453012726248,26.5853551207198],[89.54550894987861,26.5823291430361],[89.54521822338751,26.5803046579077],[89.545082282364,26.5778912842223],[89.5450628577114,26.5764278614161],[89.5450590081615,26.5761540711399],[89.5450234967812,26.5743352079065],[89.54491649526081,26.5728335390775],[89.5452744532795,26.567980746208303],[89.5455013361221,26.565181290276602],[89.545279785275,26.5628382191936],[89.5449741541277,26.560133114276702],[89.544985908101,26.5597133536898],[89.54480080389331,26.5582804968071],[89.5448305365287,26.5571112364842],[89.5449938506985,26.5557865430926],[89.5449843550148,26.5543833582409],[89.5449458174328,26.552733729417803],[89.5450248595932,26.5511265316191],[89.545066061856,26.5495978627644],[89.5452782498468,26.5479666534845],[89.5453286599507,26.546644316288802],[89.5455514941875,26.5448725485527],[89.54585945818,26.5425169348285],[89.5464681406725,26.5402375709391],[89.5479194895347,26.5380440547205],[89.5484693093365,26.5379500695708],[89.5514096904937,26.5373849579939],[89.553453418871,26.537047315791902],[89.554476226198,26.537255240477602],[89.5545990477667,26.537280404339302],[89.5566364877646,26.538549402397603],[89.5570866245051,26.5389570468062],[89.5577817616997,26.5395864814467],[89.5585441873016,26.540966450097102],[89.559049594361,26.5420009543829],[89.5592172979248,26.5420969696865],[89.5594507055807,26.5420884829222],[89.5628461570642,26.5458788579081],[89.5642116355846,26.5477575107005],[89.56465343369621,26.5483654476404],[89.56567744935731,26.549652526018303],[89.56626148723291,26.549798647815702],[89.56819946126821,26.5496054991008],[89.5697282651889,26.5494380019449],[89.5713237397381,26.549557963856],[89.5725982922101,26.549618858745003],[89.5743195533687,26.5496240251809],[89.5766134628054,26.5495162100757],[89.5787188448357,26.5495224132504],[89.58120423456741,26.5491856591734],[89.5826733984948,26.548846381382603],[89.5829974395118,26.548755908398302],[89.58295713646821,26.549483657713502],[89.5831081148545,26.5500815232858],[89.5831069059447,26.5504030263187],[89.5833598714135,26.551230718433],[89.583383552322,26.551616805570102],[89.5834758978902,26.551761855373503],[89.5842738128168,26.5524915283565],[89.5849047605755,26.5528513748588],[89.5856254686545,26.553429617647],[89.5865343723139,26.555366158563],[89.5869163723528,26.5566292298301],[89.5872207649563,26.5584834100514],[89.5874653636339,26.560289188621002],[89.5851505407461,26.560544344860002],[89.58351430764681,26.5605406217074],[89.58034670402,26.560698335753802],[89.5789863551629,26.560749580756802],[89.5769808769106,26.5608598754356],[89.57552818875341,26.5607665975648],[89.5766923614412,26.5622017767548],[89.5773770303592,26.563659198646903],[89.5791269117808,26.5662161556403],[89.580285548308,26.568527843492102],[89.5813957409238,26.570360646627602],[89.58275408868211,26.572291628938302],[89.5840283775809,26.573869333897402],[89.5849659740285,26.575544133921202],[89.5850084249198,26.5756189553976],[89.58497732622611,26.575865777365202],[89.58490768504791,26.5764223920901],[89.5847073476308,26.5790760631758],[89.58511610988481,26.5812474612194],[89.5852285491526,26.5827856806304],[89.5854051392274,26.5839596752311],[89.5861864770462,26.5858307936518]]]},"properties":{"id":null,"description":null,"altitudeMode":null,"tessellate":null,"extrude":null,"visibility":null,"drawOrder":null,"icon":null,"AREA":null,"PERIMETER":null,"division":"BuxaTR_WEST","beat":"Checko","range":"EastDamanpur","layer":"master","path":"C:/Users/user/OneDrive/Desktop/Buxaroad/master.geojson","fill-opacity":0,"stroke-opacity":1,"stroke":"#ff0000","SID":"028","DID":"014","RID":"006","BID":"002","State":"West_Bengal","Beat_Ar":17.0174}},
{"type":"Feature","geometry":{"type":"Polygon","coordinates":[[[89.54284470752711,26.604820548318003],[89.537214807332,26.605111018648802],[89.5288476230569,26.6056259843436],[89.5284484605804,26.6056522882038],[89.5240235481015,26.6059486925595],[89.5235114966782,26.605923178934603],[89.5231156355871,26.6045357101191],[89.5226203394787,26.6028681430043],[89.522056551519,26.600804236994602],[89.5211676768256,26.5959902559985],[89.5203995823646,26.5917463245557],[89.5203251267266,26.591562687509402],[89.5201470436377,26.588490384813802],[89.5198200453099,26.586857093305802],[89.5198332326964,26.583678110183502],[89.52080191998161,26.5807173083273],[89.5230065344185,26.578705736212],[89.5231098126627,26.578591539765302],[89.5229540986081,26.5786321303083],[89.5235160055594,26.5781100105735],[89.5242293691755,26.5773575486266],[89.5242326690515,26.576544472057602],[89.5241105503961,26.574511348650702],[89.5242504767707,26.5722469777348],[89.5246500874875,26.5696930076787],[89.52478453389371,26.568125829086302],[89.5249820878002,26.5670811047123],[89.52530982869871,26.5660947665063],[89.5259613470148,26.5651097383669],[89.52615805943171,26.564297399811203],[89.5264908756979,26.5620915824041],[89.5268200699259,26.5607569398299],[89.5268381184356,26.560628147815702],[89.5270856447527,26.559015473272602],[89.5272887517421,26.556635638015102],[89.5274910266172,26.554429248802503],[89.527371902808,26.5522804659876],[89.5268828799775,26.5503855271862],[89.526848264985,26.5502477133791],[89.52686037944581,26.54729349694],[89.5285326871429,26.5439697350427],[89.5299495862002,26.541104724108003],[89.531995298997,26.5403074009686],[89.5355695367753,26.5399749143127],[89.5397846313198,26.5394142894566],[89.5445224369351,26.5386239363133],[89.5479194895347,26.5380440547205],[89.5464681406725,26.5402375709391],[89.54585945818,26.5425169348285],[89.5455514941875,26.5448725485527],[89.5453286599507,26.546644316288802],[89.5452782498468,26.5479666534845],[89.545066061856,26.5495978627644],[89.5450248595932,26.5511265316191],[89.5449458174328,26.552733729417803],[89.5449843550148,26.5543833582409],[89.5449938506985,26.5557865430926],[89.5448305365287,26.5571112364842],[89.54480080389331,26.5582804968071],[89.544985908101,26.5597133536898],[89.5449741541277,26.560133114276702],[89.545279785275,26.5628382191936],[89.5455013361221,26.565181290276602],[89.5452744532795,26.567980746208303],[89.54491649526081,26.5728335390775],[89.5450234967812,26.5743352079065],[89.5450590081615,26.5761540711399],[89.5450628577114,26.5764278614161],[89.545082282364,26.5778912842223],[89.54521822338751,26.5803046579077],[89.54550894987861,26.5823291430361],[89.5453012726248,26.5853551207198],[89.5452281350444,26.5867250773354],[89.5420990117302,26.589621559082403],[89.541797825417,26.590860604757403],[89.5417622346732,26.5910022790613],[89.5412603098865,26.5922254585384],[89.5411077494614,26.5939696587889],[89.54156737184441,26.5951620750448],[89.54168477038701,26.5965857949291],[89.5417917560444,26.598098178795603],[89.5422972592806,26.599759074543503],[89.5424281183884,26.6022150839478],[89.54272133946671,26.604248001972],[89.54284470752711,26.604820548318003]]]},"properties":{"id":null,"description":null,"altitudeMode":null,"tessellate":null,"extrude":null,"visibility":null,"drawOrder":null,"icon":null,"AREA":null,"PERIMETER":null,"division":"BuxaTR_WEST","beat":"EastDamanpur","range":"EastDamanpur","layer":"master","path":"C:/Users/user/OneDrive/Desktop/Buxaroad/master.geojson","fill-opacity":0,"stroke-opacity":1,"stroke":"#ff0000","SID":"028","DID":"014","RID":"006","BID":"001","State":"West_Bengal","Beat_Ar":14.1004}},
{"type":"Feature","geometry":{"type":"Polygon","coordinates":[[[89.5846259609778,26.625472377649302],[89.5810029623894,26.6260813928764],[89.5786665845923,26.6263835401645],[89.5744924777205,26.6266161334437],[89.5709180457915,26.6269852132022],[89.57034289350331,26.627001180488502],[89.56710093782681,26.6270901111376],[89.5644493476876,26.6270822048398],[89.56166686490991,26.627131812134103],[89.5595974345379,26.6272417594018],[89.5579150358492,26.6272365901572],[89.5552629835757,26.6273447050614],[89.5551022618052,26.627344214150202],[89.5551371458867,26.6261244289601],[89.5542442632004,26.622579520423102],[89.5529034536143,26.6180457172814],[89.552222372692,26.616243534686202],[89.5515612415362,26.6144989409574],[89.5499581433826,26.6109516181901],[89.5480326552186,26.607054720059303],[89.54647053053,26.6046414237931],[89.54414988414091,26.6048624493982],[89.5433969888528,26.604792254366902],[89.54284470752711,26.604820548318003],[89.54272133946671,26.604248001972],[89.5424281183884,26.6022150839478],[89.5422972592806,26.599759074543503],[89.5417917560444,26.598098178795603],[89.54168477038701,26.5965857949291],[89.54156737184441,26.5951620750448],[89.5411077494614,26.5939696587889],[89.5412603098865,26.5922254585384],[89.5417622346732,26.5910022790613],[89.541797825417,26.590860604757403],[89.5419510645517,26.590833556772502],[89.5438319047733,26.5900265558136],[89.54519180374871,26.5889274082486],[89.54635994697661,26.588060178626],[89.547460914848,26.587656733581202],[89.54914335683121,26.5874877629855],[89.55166678706101,26.587321977657002],[89.5539945431676,26.587096815080702],[89.5568391238903,26.5869313656814],[89.5592324383647,26.5866481502316],[89.5611734185721,26.586479860674],[89.56337235662541,26.586428835914802],[89.5664767895781,26.5866122755328],[89.5667353562422,26.586612802162602],[89.5678975098798,26.586616309663903],[89.56983848460601,26.586448466533103],[89.57229672928081,26.586223535566003],[89.5745616600979,26.5859976076385],[89.576728226327,26.5859095117188],[89.5772127466395,26.585889457652],[89.5797326673925,26.5859519245526],[89.5798630908766,26.585955265292302],[89.5821897568909,26.5860201241406],[89.5841303983359,26.585909620410103],[89.5858124872037,26.585856410024903],[89.5861864770462,26.5858307936518],[89.5863633853923,26.5862337760008],[89.58682745965561,26.5870026909],[89.5870276911023,26.5906730221558],[89.58574561570511,26.5947017343337],[89.5850090808663,26.5963656332985],[89.58458463759911,26.5971129025881],[89.5843289948296,26.5977107944047],[89.5835156905466,26.599782762008303],[89.5830640540301,26.6024905583599],[89.5831107528578,26.6027923476062],[89.5829849340339,26.6035543246043],[89.5827614559722,26.6056622809436],[89.5827357163926,26.609314550433],[89.5828374503554,26.6103500688545],[89.58307314186621,26.612526497105602],[89.58305956528,26.6128041428319],[89.5829370737565,26.6154512925109],[89.5831716948449,26.617934553161202],[89.5837142797281,26.6206470240195],[89.5840717698036,26.6224695774033],[89.5846062209323,26.6253843307889],[89.5846259609778,26.625472377649302]]]},"properties":{"id":null,"description":null,"altitudeMode":null,"tessellate":null,"extrude":null,"visibility":null,"drawOrder":null,"icon":null,"AREA":null,"PERIMETER":null,"division":"BuxaTR_WEST","beat":"SouthRajabhatkhawa","range":"EastDamanpur","layer":"master","path":"C:/Users/user/OneDrive/Desktop/Buxaroad/master.geojson","fill-opacity":0,"stroke-opacity":1,"stroke":"#ff0000","SID":"028","DID":"014","RID":"006","BID":"003","State":"West_Bengal","Beat_Ar":15.6373}}
]}
