{"type":"FeatureCollection","features":[{"type":"Feature","geometry":{"type":"Polygon","coordinates":[[[89.4162122158936,26.8015155277082],[89.4141626641363,26.8015072848216],[89.4114342245975,26.801496205257],[89.410202042945,26.8014913024459],[89.405859770909,26.8013588684869],[89.4012622431208,26.8009958887933],[89.3966641141274,26.8007478266957],[89.391939502904,26.8001548287754],[89.3878519532382,26.7999079359202],[89.384660725098,26.7994358404702],[89.3823498513656,26.7989372976011],[89.3830813914012,26.7951920292542],[89.3832144668477,26.791904120513],[89.3834570279092,26.7893359706134],[89.3832562814639,26.7840425286057],[89.3838723938285,26.7755148286262],[89.384128289081,26.7708914919702],[89.3842637663496,26.7666782546641],[89.3842797658125,26.7636627798277],[89.3842834016008,26.7629791365765],[89.3844110162511,26.7607183722711],[89.3846589497485,26.757123055607],[89.384342148045,26.7519311262059],[89.3844219492562,26.7501578698232],[89.3844729630405,26.7490544027931],[89.3844818643622,26.7488041667311],[89.3846057286333,26.7453552977189],[89.3846859895101,26.7430250516723],[89.3868763708631,26.7428030919123],[89.3900052594709,26.7424150837481],[89.3933291503121,26.7421996559589],[89.3972243532704,26.74181466081],[89.3996537493748,26.7415382546073],[89.4007373721335,26.7414852329498],[89.4024579535439,26.7421808499598],[89.4057693901594,26.7439139826036],[89.4085711096434,26.7455305597034],[89.4088067749719,26.745646096521],[89.4101733278558,26.7463135541379],[89.4110950530299,26.7469360811731],[89.4127095271779,26.7477922473998],[89.414065480766,26.7485511444884],[89.4146692777718,26.7489342906151],[89.4125379242534,26.7504009055509],[89.4115466632741,26.7535295980977],[89.4117375198349,26.7555565080045],[89.4105848032865,26.7573368003315],[89.4102598929574,26.7589246796295],[89.4094598021131,26.760547750342],[89.4082472023603,26.7617101633943],[89.4076236491887,26.7627079326351],[89.4066296832558,26.7639048190621],[89.4055853655078,26.7645753956441],[89.4045726532209,26.7655036946009],[89.4047196189813,26.7667439464377],[89.4055089108347,26.7682234517353],[89.4061129300528,26.7700567478233],[89.4062936277005,26.7701325053808],[89.4077711503084,26.7707540321688],[89.4087784164459,26.7733986037695],[89.4096503452311,26.7749697592721],[89.4097922851464,26.7752396420086],[89.4104165465411,26.7785713352859],[89.4115435646375,26.7833977542543],[89.4122907315361,26.7873040773022],[89.4130344092722,26.7918993861423],[89.413871020347,26.7965307007057],[89.4141547704353,26.7981031865554],[89.4144066760332,26.7990225661609],[89.4163177413359,26.8005229137577],[89.4162122158936,26.8015155277082]]]},"properties":{"fill-opacity":0,"stroke-opacity":1,"stroke":"#ff0000","SID":"028","DID":"014","RID":"001","BID":"004","State":"West_Bengal","Division":"BuxaTR_WEST","Range":"Hamiltonganj","Beat":"Barnabari","Beat_Ar":16.5005}},{"type":"Feature","geometry":{"type":"Polygon","coordinates":[[[89.4077711503084,26.7707540321688],[89.4062936277005,26.7701325053808],[89.4061129300528,26.7700567478233],[89.4055089108347,26.7682234517353],[89.4047196189813,26.7667439464377],[89.4045726532209,26.7655036946009],[89.4055853655078,26.7645753956441],[89.4066296832558,26.7639048190621],[89.4076236491887,26.7627079326351],[89.4082472023603,26.7617101633943],[89.4094598021131,26.760547750342],[89.4102598929574,26.7589246796295],[89.4105848032865,26.7573368003315],[89.4117375198349,26.7555565080045],[89.4115466632741,26.7535295980977],[89.4125379242534,26.7504009055509],[89.4146692777718,26.7489342906151],[89.4168365862804,26.7498091339638],[89.418757436975,26.7502303969098],[89.420400121302,26.7504671681189],[89.4228714469877,26.7508836945397],[89.4248134614598,26.7510968171916],[89.4272958499794,26.7502988031845],[89.4289637642692,26.7500149050869],[89.4291497982208,26.7499913115372],[89.4293118524593,26.7502730986336],[89.4290091344441,26.750488511853],[89.4290988433749,26.7506514558917],[89.4292187171738,26.7508143772449],[89.4292177937661,26.7510038996882],[89.4292162108106,26.7513287952943],[89.4293653055201,26.7516544251959],[89.4292429244649,26.7520059220272],[89.4292426606696,26.7520600712881],[89.4292725618192,26.7521141979087],[89.4295121852481,26.7524673966003],[89.4298130627602,26.7526310269312],[89.4301440808537,26.7527675607204],[89.4302941272095,26.7529307401069],[89.4306552094864,26.7531216793845],[89.4308359483451,26.7531765367397],[89.4311972951659,26.7533133253461],[89.4314980202862,26.7534769534868],[89.4317987756389,26.7536679359424],[89.4319793846926,26.7537498663805],[89.432280662681,26.7538322673787],[89.4324007808724,26.7539139634578],[89.4326713663641,26.754104403317],[89.4330018979533,26.754376583437],[89.4331514268404,26.7546480578675],[89.4332708919721,26.7548651260709],[89.4335719121915,26.7550016733235],[89.4340514580539,26.7556536227424],[89.4341112441455,26.7557350826313],[89.4341101985158,26.7559516792315],[89.4339883510254,26.7561948812541],[89.4339873052019,26.7564114778495],[89.4339866515705,26.7565468507184],[89.4339857364974,26.7567363727309],[89.4339550474123,26.756844694714],[89.4339546552237,26.7569259184316],[89.434044503876,26.7570615021671],[89.4343439669007,26.7575232242553],[89.4345550115639,26.7575509781403],[89.4346150602056,26.7575782886131],[89.4346748743222,26.7576868211573],[89.4347349496283,26.7577412045448],[89.4351279207106,26.757580420243],[89.4351574349148,26.7577157690909],[89.4352462459176,26.7580682304053],[89.4352752423598,26.7583121594109],[89.4352748511567,26.7583933830787],[89.4352744599559,26.7584746067457],[89.4352435108963,26.7586370780625],[89.4351823915016,26.7587992913699],[89.4350832715592,26.7590132164122],[89.4351815300158,26.7589679437822],[89.4352901319843,26.7588706758035],[89.4353838782673,26.7587041832957],[89.4356155510371,26.7586355598942],[89.4356780185178,26.7587051472671],[89.4357700546702,26.7589143129168],[89.4358921008718,26.7591234559595],[89.4360144313023,26.759305240756],[89.4361686808487,26.7596260157396],[89.4362130893832,26.7598209997934],[89.4362451384559,26.7599329155332],[89.4363977497802,26.7600861912846],[89.4365977558335,26.7603097708264],[89.4366744503502,26.760560547388],[89.4367812208804,26.760853884396],[89.4367646341607,26.7611459359117],[89.4368422099034,26.7612297519072],[89.4370424817487,26.7614118721503],[89.4372424915146,26.7616354505986],[89.4373493560044,26.7618862022124],[89.4373782871776,26.7621244909142],[89.4373593892857,26.762395132938],[89.4372053800928,26.7625424979814],[89.4373897071491,26.7629052676044],[89.4373709397017,26.7631364265279],[89.4374142136369,26.7635401107902],[89.4374331013863,26.7637793474923],[89.4374318819313,26.7640438875893],[89.4374232369497,26.7642803018767],[89.4374138936063,26.7646357325099],[89.4372402183592,26.7652173146178],[89.4372235319328,26.7655262877633],[89.4370852565517,26.7660618240246],[89.4370731992104,26.7664762227529],[89.4370612752999,26.766863828927],[89.4370230267585,26.7674939511354],[89.4370267133987,26.7677488528712],[89.4370789177616,26.7683994890706],[89.4369222391206,26.7690708599864],[89.4369081461886,26.7694111100036],[89.4368937199748,26.7697747704134],[89.4369529649265,26.770535037736],[89.4371076662764,26.7713011034297],[89.4374227225525,26.7721600134022],[89.4376878611618,26.7729728978305],[89.4380866381829,26.7736913588766],[89.4388850303443,26.7739122327591],[89.4395788863908,26.7754850031556],[89.4410014330603,26.7776778226518],[89.4419266609115,26.7792253785338],[89.4424943571097,26.7803851427775],[89.4428449690426,26.7817377590406],[89.4431998033417,26.7827036932903],[89.4438400983918,26.7834143118002],[89.4445546094786,26.7838672567408],[89.4451247857063,26.7845125945905],[89.4456251244692,26.7850289188058],[89.4466466177501,26.7859547483065],[89.4470521840156,26.7863211607403],[89.4484798332021,26.7874842201295],[89.4491232666964,26.788066183485],[89.4499079610526,26.7885838067769],[89.4499790418875,26.7889697144163],[89.4502628793393,26.7895497191705],[89.4511189627819,26.7903895049017],[89.4517621397359,26.7910351921382],[89.4530483887537,26.7918118893473],[89.4543362085629,26.7922673485292],[89.4551202432854,26.7929135444704],[89.4556908047199,26.7934945336177],[89.4559753921435,26.7939456390786],[89.4569048805678,26.7946571625939],[89.4576914613469,26.7953033169259],[89.4584024772207,26.7965278020747],[89.45861345242,26.7971079753367],[89.4590920094479,26.7980367704386],[89.4579097652294,26.7975844987036],[89.4566341183316,26.7966616588464],[89.4552278804206,26.7967708975595],[89.4526664696116,26.7971054797824],[89.448696627421,26.798008889922],[89.4457505715723,26.7988016091282],[89.4424221917071,26.7991331344681],[89.4411669682427,26.7992060064116],[89.438711956751,26.7993483327188],[89.4362781100602,26.7997980758648],[89.4347474089523,26.7991032352158],[89.4327123398292,26.7966847595522],[89.4304190424635,26.794609252819],[89.4274821233963,26.7935647564802],[89.4241617001427,26.7922882991382],[89.4210960347192,26.7913577686022],[89.4190607823513,26.7890532987509],[89.4165099307877,26.7877804909711],[89.4154935268094,26.7863986532754],[89.4147374291668,26.7837547312008],[89.4153907989283,26.7813468482866],[89.4145119478499,26.778128560932],[89.4138789319973,26.7765186705683],[89.4128677684923,26.774104020853],[89.4098115392312,26.7714505898694],[89.4077711503084,26.7707540321688]]]},"properties":{"fill-opacity":0,"stroke-opacity":1,"stroke":"#ff0000","SID":"028","DID":"014","RID":"001","BID":"002","State":"West_Bengal","Division":"BuxaTR_WEST","Range":"Hamiltonganj","Beat":"Bhutri","Beat_Ar":13.981}},{"type":"Feature","geometry":{"type":"Polygon","coordinates":[[[89.4291497982208,26.7499913115372],[89.4289637642692,26.7500149050869],[89.4272958499794,26.7502988031845],[89.4248134614598,26.7510968171916],[89.4228714469877,26.7508836945397],[89.420400121302,26.7504671681189],[89.418757436975,26.7502303969098],[89.4168365862804,26.7498091339638],[89.4146692777718,26.7489342906151],[89.414065480766,26.7485511444884],[89.4127095271779,26.7477922473998],[89.4110950530299,26.7469360811731],[89.4101733278558,26.7463135541379],[89.4088067749719,26.745646096521],[89.4085711096434,26.7455305597034],[89.4057693901594,26.7439139826036],[89.4024579535439,26.7421808499598],[89.4007373721335,26.7414852329498],[89.3996537493748,26.7415382546073],[89.3972243532704,26.74181466081],[89.3933291503121,26.7421996559589],[89.3900052594709,26.7424150837481],[89.3868763708631,26.7428030919123],[89.3846859895101,26.7430250516723],[89.384742760123,26.7413479044963],[89.3847558593972,26.7388815359783],[89.3861389680782,26.7368321168326],[89.390042284896,26.7348958683599],[89.3918817580702,26.733053991595],[89.3946382556071,26.7312154710222],[89.3975093519102,26.7295836142866],[89.3976266739424,26.7287615057148],[89.3976848474261,26.728689017234],[89.397659973062,26.7286331414472],[89.3974637388441,26.7281934401443],[89.3971688612809,26.7274072672124],[89.3972603407989,26.7257444395467],[89.3970319214902,26.7242531318951],[89.3966463246869,26.7225470665941],[89.3958636607207,26.7208398373765],[89.394137062991,26.7184895916562],[89.3927504318796,26.7164752466567],[89.3921743727734,26.7156413437558],[89.3909980623845,26.7137904559899],[89.3903795942675,26.711444781609],[89.389917114218,26.7090998288369],[89.3901642302976,26.7070414928768],[89.3904093101912,26.7058357168164],[89.3910430199998,26.7052705364122],[89.3919964793057,26.7045645873798],[89.3930252476457,26.7043559354825],[89.3946863073166,26.7042916510451],[89.3959530613182,26.7037289591677],[89.3957984892958,26.7030186691766],[89.3950159320128,26.7018086231132],[89.3940717903002,26.7007394787892],[89.3935262413863,26.699388056312],[89.3932163507216,26.6981084851368],[89.3922718745281,26.6971109628678],[89.3914089860929,26.695899990812],[89.3913836618595,26.6954580346586],[89.3913378337409,26.6946217360308],[89.3918163176285,26.6939134017127],[89.3922912694128,26.6934183064917],[89.3935582523192,26.693282329796],[89.3946655861741,26.6929318870851],[89.3949857537964,26.6922231264464],[89.3949902724996,26.6913711048343],[89.3948394624308,26.6899503708168],[89.3953206340073,26.6887450827163],[89.3959614921486,26.6872573302407],[89.3962010046094,26.6866190198569],[89.3961272454548,26.6858379914261],[89.3952648553385,26.6840590495275],[89.3945635198454,26.682209986412],[89.3943330632382,26.6811445305999],[89.3949738861727,26.6796559362554],[89.3966418799377,26.6777460412056],[89.3979912867233,26.676686453187],[89.3995768245789,26.6756284705736],[89.4012417141765,26.6747831747798],[89.403140416061,26.6743650605009],[89.4047218029356,26.6740876900049],[89.4065389287127,26.6743790505258],[89.4083564516589,26.6745998791031],[89.4098560726724,26.6746061277264],[89.4109634112663,26.6746816926668],[89.4124645600592,26.6749005398038],[89.413884412177,26.6752611903179],[89.4151439037082,26.6760478630657],[89.4157716406224,26.6771155184418],[89.4157665122655,26.6781091164739],[89.4153663647278,26.6792437187233],[89.4146482995966,26.680660689559],[89.4133732515846,26.6824303742758],[89.4119408820387,26.6844836326261],[89.411380267836,26.6860431306562],[89.4113689069372,26.6882517207326],[89.4113682090308,26.6883859678646],[89.4116750110788,26.690304295381],[89.4125600927622,26.6921409966429],[89.4133534594983,26.6932126479981],[89.4142744083575,26.6944158511268],[89.4140955475412,26.6945298785604],[89.4137227588874,26.6946951933353],[89.4129476047606,26.6949708396188],[89.4121110899239,26.6954405567685],[89.4118776446226,26.6958904434554],[89.4119028413617,26.6963792096677],[89.4118993812646,26.697065109099],[89.4120234375359,26.6978656468377],[89.4118070239693,26.6983979946309],[89.4117610021775,26.6990453996165],[89.4117583228906,26.6995784379782],[89.4118401377714,26.7003026878588],[89.4123472414029,26.7008763326224],[89.4124698921973,26.7014481678854],[89.4128067688714,26.7019073166317],[89.4134382658904,26.7032428533148],[89.4131794500169,26.7037372716723],[89.4130068543472,26.7045748898692],[89.4134271303059,26.7054144910528],[89.4137203559258,26.7060633053764],[89.4135023697324,26.7069386029841],[89.4134982973819,26.7077390059644],[89.4134554211245,26.7082718805331],[89.4131103704008,26.7089183198569],[89.4131066031976,26.7096420112311],[89.4126820747673,26.7101358254867],[89.412168639072,26.7107811215542],[89.4119547203118,26.7113517987206],[89.4121160231523,26.7127241741141],[89.4116873891538,26.7135223221127],[89.4114725190483,26.714245296814],[89.4112157047674,26.7148533444595],[89.4109141335359,26.7153476209285],[89.4105725081853,26.7158036594658],[89.4104865789906,26.7164125421583],[89.4101011247574,26.7170971672182],[89.4100981298727,26.7176685618728],[89.41000889537,26.7184297658871],[89.4099633419807,26.7189635119536],[89.4098742675295,26.7196869240543],[89.4095725064113,26.7207142102901],[89.409612233865,26.7212857435572],[89.4098189288067,26.7221627302131],[89.4101533323886,26.7231165632055],[89.4099378056714,26.7239918306596],[89.409468449495,26.7243713021571],[89.4090443216394,26.7247503221562],[89.4090410066568,26.725397863879],[89.408909513923,26.7260449888127],[89.4090348518055,26.7265787259778],[89.4088601602495,26.7273402150941],[89.4089418281919,26.728064465425],[89.4089385134516,26.7287120068812],[89.409040543395,26.7289098127916],[89.409316918019,26.7294372520379],[89.4091855779671,26.7300460213059],[89.4093508219333,26.7311521345867],[89.4090895589276,26.7321031539176],[89.4089181569369,26.7327117575291],[89.4088700719622,26.7337407473277],[89.4089097990454,26.7343500698877],[89.4093700723129,26.7352665516821],[89.4104632811428,26.7372517700676],[89.4110594896533,26.7376242932684],[89.4123564125288,26.7381305502712],[89.4140872638683,26.7387785449484],[89.415941166395,26.7394540526388],[89.4167444906224,26.7396524500477],[89.4172710661732,26.7399052226007],[89.4174557870858,26.7401563403684],[89.4176394819893,26.7406029043968],[89.4177907774533,26.7410210271259],[89.4180673507114,26.7414954256706],[89.4182510469063,26.7419417066665],[89.418498873452,26.7421380437313],[89.4187418517416,26.7423234303552],[89.4193649164202,26.7428676765423],[89.4198429583936,26.7437630725871],[89.4195064506799,26.7447095043056],[89.4193556287027,26.74470904271],[89.4192348353724,26.7447356352682],[89.4189628358771,26.7448697811373],[89.4185700228846,26.7450037273245],[89.4184793921399,26.7450302989619],[89.4180560110676,26.7452454882906],[89.4175426672922,26.7453515917242],[89.4173312673615,26.7454321088669],[89.4171184930151,26.7457560181077],[89.4173581735444,26.7460548097481],[89.4177198888673,26.7461106920913],[89.4182928897475,26.7461399211481],[89.4184441206718,26.7460594415472],[89.4185049888958,26.7459513839859],[89.4186565967223,26.7457623247961],[89.4187474933909,26.7456813215622],[89.4189889478051,26.7456552118343],[89.4196516415836,26.7458476686293],[89.4197118374575,26.7458749842666],[89.4197723017728,26.7458481504107],[89.4199542312097,26.7456593497651],[89.4203471558616,26.7454712518485],[89.4203468877136,26.745525401308],[89.4204969100611,26.7456885921545],[89.4207984261598,26.7457168693596],[89.420919220152,26.7456902754467],[89.4209796840883,26.7456634410905],[89.4211314445447,26.745474377849],[89.4211919083195,26.7454475434081],[89.4213124342469,26.7454750986177],[89.4213723626553,26.7455565629855],[89.4214317326248,26.7457192530612],[89.4215206239263,26.7460446508858],[89.4216406155259,26.7461805046517],[89.4217304440034,26.746316379284],[89.4219100981071,26.7465878463658],[89.4220296897855,26.746804923884],[89.4221798264709,26.7469139649205],[89.4224204812872,26.7470502975233],[89.4225402079982,26.7472402998349],[89.4226894313416,26.7475656543472],[89.4227776605578,26.748026424604],[89.4229276661841,26.7481625394368],[89.4230178945837,26.7482169070245],[89.4232888540395,26.7483264239885],[89.4234394177041,26.7483813125765],[89.423529913104,26.7483815304359],[89.4238015395736,26.748355672935],[89.4241031967123,26.7483568681052],[89.4246462885439,26.7483048700097],[89.4248274157345,26.7482785114323],[89.4248877471232,26.7482787500829],[89.4252802980229,26.7481989356628],[89.4254915923303,26.7481728364719],[89.4256422618182,26.7481732929426],[89.425702858708,26.7481193818993],[89.4259140200448,26.7481203567615],[89.4262152786169,26.7482027714739],[89.4263661052325,26.748203225591],[89.4265469667128,26.748231014174],[89.427089659493,26.7482602307767],[89.4273611524867,26.7482614411622],[89.4276624124792,26.748343852743],[89.4279934437173,26.7485077472768],[89.4282637193652,26.7487252727252],[89.4283536900082,26.7488340680728],[89.4285340245836,26.7489701526512],[89.4288944310279,26.749296470348],[89.4289541029911,26.7494320804599],[89.4289827938221,26.7497030878897],[89.4291497982208,26.7499913115372]]]},"properties":{"fill-opacity":0,"stroke-opacity":1,"stroke":"#ff0000","SID":"028","DID":"014","RID":"001","BID":"003","State":"West_Bengal","Division":"BuxaTR_WEST","Range":"Hamiltonganj","Beat":"Godamdabri","Beat_Ar":14.5194}},{"type":"Feature","geometry":{"type":"Polygon","coordinates":[[[89.3823498513656,26.7989372976011],[89.384660725098,26.7994358404702],[89.3878519532382,26.7999079359202],[89.391939502904,26.8001548287754],[89.3966641141274,26.8007478266957],[89.4012622431208,26.8009958887933],[89.405859770909,26.8013588684869],[89.410202042945,26.8014913024459],[89.4114342245975,26.801496205257],[89.4141626641363,26.8015072848216],[89.4162122158936,26.8015155277082],[89.4161831936642,26.8017851405945],[89.4169409230044,26.8036250101778],[89.4184637112203,26.80638642811],[89.4197343694869,26.8077693464904],[89.4208776322876,26.8094961779622],[89.4228717900422,26.8105178637694],[89.4238126442436,26.811000215042],[89.4237810832654,26.8112791606589],[89.4236811367942,26.8121476357795],[89.4235575451247,26.8122199479645],[89.4221399506402,26.8130599536375],[89.4226462482803,26.8144398163461],[89.4243000682208,26.8161679596634],[89.4269736332719,26.8187044641126],[89.4285951560403,26.8198787270366],[89.4295249860686,26.8205512236311],[89.4320733177829,26.8225133072772],[89.4345015891193,26.8233262405061],[89.4370534566392,26.8245986784206],[89.4394818122778,26.8254118047701],[89.4398644879858,26.8258726569879],[89.4394713967173,26.8275929763745],[89.4398517194476,26.8285126824002],[89.4420222507472,26.8290954497675],[89.442222985481,26.8291796951539],[89.4455993834872,26.8306011927223],[89.4491785844665,26.8311891632893],[89.4504824398067,26.8304527075117],[89.4506782800768,26.830522326428],[89.4508892872533,26.8305977114502],[89.451193159633,26.830705983078],[89.4540634035575,26.8317294832233],[89.4508107309747,26.8355263424832],[89.4476383865546,26.8382774649363],[89.4438060383535,26.8411441257793],[89.4406104905715,26.8418186190179],[89.4347526730979,26.8395246114325],[89.4339392318138,26.8392065890332],[89.4311349917797,26.8375071626066],[89.4254244508335,26.8329833776176],[89.4201725086948,26.8293783226896],[89.4192321925634,26.8287992170939],[89.4190686682954,26.8287850675642],[89.4187843025512,26.8288133054829],[89.4186433174376,26.8288415127716],[89.417689340296,26.8284895530358],[89.4149826971987,26.8274907369198],[89.4101845382919,26.8253133672875],[89.4074457962788,26.8232470237932],[89.4033309213977,26.8212777774704],[89.4005882255288,26.8200331192326],[89.3947760538231,26.8165967603553],[89.3937480740707,26.815989577717],[89.3927099562052,26.8153751548321],[89.3893964147758,26.8137173884514],[89.3852874146296,26.811233426025],[89.3835778225958,26.8096849960999],[89.3829028159249,26.8075234745716],[89.3822317206644,26.8041295047788],[89.3824766740607,26.8015613359121],[89.3822567970729,26.7994024046946],[89.3823498513656,26.7989372976011]]]},"properties":{"fill-opacity":0,"stroke-opacity":1,"stroke":"#ff0000","SID":"028","DID":"014","RID":"001","BID":"001","State":"West_Bengal","Division":"BuxaTR_WEST","Range":"Hamiltonganj","Beat":"Rangamati","Beat_Ar":12.1514}}]}