{"type":"FeatureCollection", "features": [
{"type":"Feature","geometry":{"type":"Polygon","coordinates":[[[89.4552773979068,26.645874405718],[89.4550010202283,26.6459144656932],[89.4544873469481,26.6441032689751],[89.4540455085058,26.6419526326437],[89.453858971335,26.6405001882556],[89.4539320395692,26.6388741825597],[89.4544594722124,26.6367277144569],[89.4553098706366,26.6348145450659],[89.45583556657,26.6330163795721],[89.4561000757223,26.6317976140133],[89.4562000686351,26.6313543873525],[89.4564283378584,26.6303472228407],[89.4569538436344,26.629129444209],[89.4578624264867,26.6281457522702],[89.4587757544974,26.626697525892],[89.4596903764197,26.6249582403482],[89.4600199006444,26.6232173521751],[89.4600285648114,26.621359059627],[89.4605537329195,26.6196770737651],[89.4612736199056,26.6182280020299],[89.4620188319444,26.6172527352147],[89.4644354042154,26.6169875597508],[89.4685066300011,26.6166643519286],[89.4732551672298,26.6164789598985],[89.4765729963958,26.6162197387324],[89.479288199132,26.615958822176],[89.4801645086338,26.6159621009619],[89.4802674555564,26.6159624381251],[89.4808126912086,26.615847050751],[89.4821521397108,26.6155631912493],[89.4876593704096,26.6147024379575],[89.4933907867315,26.6136386053983],[89.4950518628102,26.6133061221384],[89.4956546838368,26.6132405530483],[89.4957750478676,26.6132770754273],[89.4957041025047,26.6139978031902],[89.4954467391313,26.6176796615236],[89.4966471446264,26.6187671509678],[89.4992879886164,26.6211592511261],[89.4992766292265,26.6237589667689],[89.5004715513674,26.626146274751],[89.5001176388436,26.6272484538418],[89.4994940562199,26.6291755474246],[89.5006890451057,26.6315628492692],[89.5033275086455,26.6346049218739],[89.5037119738616,26.6362745923052],[89.5037414490886,26.6364037236521],[89.5035610578206,26.6363399255602],[89.5007841243744,26.6356713298402],[89.4967815104691,26.6356571860257],[89.494773483109,26.6360432685464],[89.4926974994265,26.6364427283059],[89.4896565576192,26.6364320880287],[89.4871323888022,26.6365487982104],[89.4856505436013,26.6366173330761],[89.4817960713136,26.6366034742174],[89.4788273172444,26.6367258056558],[89.4771215838719,26.6368865466811],[89.4764533160255,26.6369504659121],[89.474488324505,26.6372481107773],[89.4737826680763,26.6372486706831],[89.4723346401185,26.6376049350798],[89.4693272361902,26.6384733991789],[89.4672845618235,26.6392776846042],[89.4656185834137,26.6411268657098],[89.464308491642,26.6425792282934],[89.4643053877281,26.6426802216641],[89.463150905037,26.6446927425195],[89.462414394751,26.6448373931883],[89.4610021924249,26.6450344022409],[89.4580694104788,26.6454732046244],[89.4552773979068,26.645874405718]]]},"properties":{"fill-opacity":0,"stroke-opacity":1,"stroke":"#ff0000","SID":"028","DID":"014","RID":"007","BID":"002","State":"West_Bengal","Division":"BuxaTR_WEST","Range":"Nimati","Beat":"Nimati-East","Beat_Ar":10.2598}},
{"type":"Feature","geometry":{"type":"Polygon","coordinates":[[[89.4552773979068,26.645874405718],[89.4528237526277,26.6480301743674],[89.4517067405829,26.6489567469341],[89.4491388800881,26.6513135728859],[89.4494418012185,26.6525756012965],[89.4502106272657,26.6551383173044],[89.4508952905392,26.6579565479122],[89.4521550365397,26.6618642342169],[89.452905937549,26.6650819510872],[89.4499676609827,26.6649560637579],[89.4472851777245,26.664945670156],[89.4425582563907,26.6649272677964],[89.4407673723887,26.6649203711391],[89.4382111822525,26.6652776823647],[89.4380829921784,26.6652959031103],[89.4375654324453,26.6653366837564],[89.4375409407194,26.665224125543],[89.4373221758381,26.6642181348692],[89.4372508823743,26.6639165359535],[89.436494481925,26.6583484533012],[89.4368282783417,26.6548130984026],[89.4358419017645,26.6505750668896],[89.4353521003298,26.6490557215048],[89.4354660653503,26.6483548847646],[89.4357457119013,26.6466464173144],[89.4355026917552,26.6444643723044],[89.4352653580716,26.6426976796888],[89.4345643604899,26.641744216833],[89.4336234973103,26.6400345466071],[89.4324939940254,26.6378972603011],[89.4310732558308,26.6372948195793],[89.4302291107005,26.6353292040423],[89.429193096284,26.6336190481179],[89.4292564995444,26.6334929117802],[89.4294822969664,26.6330233344789],[89.4300585216189,26.6317461940553],[89.4308237376964,26.6303845155321],[89.4315870781949,26.6293640937525],[89.4324508868215,26.6278319201419],[89.4335005034952,26.6263009679671],[89.4335996627657,26.6255334422302],[89.4338913614451,26.6244255506153],[89.4345685368624,26.6215283089398],[89.4346680331126,26.6206756094906],[89.4350598922865,26.618117977],[89.4357305628057,26.6170121738634],[89.4368800160951,26.6145427617217],[89.4375891847427,26.6138071326542],[89.4399444476218,26.615809570977],[89.4423474566046,26.6177835626442],[89.4436216485808,26.6190757920686],[89.44384698982,26.6192122536505],[89.4456581412671,26.6190161565812],[89.4501069293626,26.6185590534467],[89.4566683473045,26.6178387523326],[89.4620188319444,26.6172527352147],[89.4612736199056,26.6182280020299],[89.4605537329195,26.6196770737651],[89.4600285648114,26.621359059627],[89.4600199006444,26.6232173521751],[89.4596903764197,26.6249582403482],[89.4587757544974,26.626697525892],[89.4578624264867,26.6281457522702],[89.4569538436344,26.629129444209],[89.4564283378584,26.6303472228407],[89.4562000686351,26.6313543873525],[89.4561000757223,26.6317976140133],[89.45583556657,26.6330163795721],[89.4553098706366,26.6348145450659],[89.4544594722124,26.6367277144569],[89.4539320395692,26.6388741825597],[89.453858971335,26.6405001882556],[89.4540455085058,26.6419526326437],[89.4544873469481,26.6441032689751],[89.4550010202283,26.6459144656932],[89.4552773979068,26.645874405718]]]},"properties":{"fill-opacity":0,"stroke-opacity":1,"stroke":"#ff0000","SID":"028","DID":"014","RID":"007","BID":"001","State":"West_Bengal","Division":"BuxaTR_WEST","Range":"Nimati","Beat":"Nimati-West","Beat_Ar":10.21}},
{"type":"Feature","geometry":{"type":"Polygon","coordinates":[[[89.4423474566046,26.6177835626442],[89.4399444476219,26.615809570977],[89.4375891847427,26.6138071326543],[89.43859852664,26.6127582403851],[89.4396516368178,26.6104595582277],[89.4400361342879,26.6098637048947],[89.4408971900246,26.608331793915],[89.4421353231596,26.6072275378995],[89.4430895753076,26.6061227715924],[89.4435727831909,26.6043332529457],[89.4440643644853,26.6028860173543],[89.4441508881539,26.6026296296124],[89.444348708991,26.6011805845627],[89.4447165995242,26.6003790152714],[89.445211312985,26.5993073920243],[89.4458781010331,26.5984570924437],[89.4465475429306,26.5976064809128],[89.4473108718762,26.5965002479902],[89.4485549873227,26.5946287906765],[89.4487146718725,26.5943152509928],[89.448623841142,26.5938934321471],[89.4484581668045,26.5928493984479],[89.4483849980479,26.5923972233567],[89.4478098620808,26.5908942874919],[89.4477013214338,26.588942981752],[89.4474128002775,26.5852709406474],[89.4469194721319,26.5819391216797],[89.4462971335809,26.5782634204416],[89.445930701665,26.5751618395772],[89.4449181804023,26.5733209615729],[89.4433932305058,26.5715932911531],[89.443369167264,26.5713509989815],[89.4432707253643,26.5704447426416],[89.4427758114475,26.5674575409787],[89.4422796187877,26.5642410667863],[89.441915606011,26.5606808768018],[89.4414243943831,26.5564304600503],[89.4413088207977,26.5539044510394],[89.4413122616039,26.5532154414602],[89.4409397977982,26.5513776241394],[89.4443911213857,26.5501279643703],[89.4468213227517,26.5493342023635],[89.4491220395068,26.5488838085217],[89.4500190688794,26.5480833221242],[89.4505373151602,26.5462485789181],[89.4505433497239,26.5449859159246],[89.452969153554,26.5451097891752],[89.4565404261348,26.5454683843403],[89.4565928579664,26.5455095864173],[89.4575578039014,26.546275539024],[89.4592161113139,26.5468561392607],[89.4589552188248,26.5478881834885],[89.4586933199235,26.5491503649013],[89.4589684855554,26.5502161418954],[89.4590607381409,26.5507458119593],[89.4592617319511,26.5518988223404],[89.4592523972769,26.5538721537379],[89.4595053687215,26.5550351604947],[89.4602153543386,26.5555601751494],[89.461637346442,26.5557392030172],[89.4627983419876,26.5558022256288],[89.4635093290022,26.5562702402622],[89.4635683121371,26.5569662425351],[89.4626612945915,26.557776226415],[89.4611712906177,26.5581191980436],[89.4604592808913,26.5586391834128],[89.4597392470193,26.5600881736206],[89.4595392127437,26.5615391722098],[89.459660162307,26.56363017811],[89.4602961174349,26.5654331934787],[89.4613880797795,26.5668892171599],[89.4618380549181,26.5678782275663],[89.4618310201145,26.5693302299044],[89.4616461514538,26.570296055502],[89.4613755125013,26.5717518484135],[89.4605217567045,26.5742101962747],[89.459964241146,26.576109211473],[89.4583672077169,26.5801095056739],[89.4575647028251,26.5824383992436],[89.4571688182597,26.5844697644525],[89.456380076789,26.5867303743883],[89.4547329037794,26.5893015590319],[89.4539006315256,26.591597164772],[89.4548495609871,26.591543952401],[89.4590684088853,26.5917016129463],[89.4621088322551,26.5919073021914],[89.4619674003799,26.5942320947639],[89.4617607631733,26.5960180956122],[89.46126227629,26.598145185494],[89.460802960039,26.6018769492868],[89.461915993229,26.6017663460712],[89.4685112742358,26.6016770572629],[89.4691972267434,26.6016034278293],[89.4689151061299,26.6022282510735],[89.4686535480118,26.6028660552611],[89.4687127927635,26.6036209638057],[89.4691628000474,26.6045520400003],[89.4694826084128,26.6054241098372],[89.4694138238107,26.6061792138381],[89.4690215042252,26.6068744922202],[89.4681765000917,26.6077425303855],[89.4669427622764,26.6090734187223],[89.4653860632455,26.6101710177067],[89.4643429387986,26.611503020463],[89.4635571671383,26.6136488010505],[89.4631624340863,26.6153895228313],[89.462380168098,26.6167800223311],[89.4620188319444,26.6172527352147],[89.4566683473045,26.6178387523325],[89.4501069293626,26.6185590534467],[89.4456581412671,26.6190161565812],[89.44384698982,26.6192122536505],[89.4436216485808,26.6190757920686],[89.4423474566046,26.6177835626442]]]},"properties":{"fill-opacity":0,"stroke-opacity":1,"stroke":"#ff0000","SID":"028","DID":"014","RID":"007","BID":"003","State":"West_Bengal","Division":"BuxaTR_WEST","Range":"Nimati","Beat":"Poro-West","Beat_Ar":27.0001}},
{"type":"Feature","geometry":{"type":"Polygon","coordinates":[[[89.5055138060496,26.5569392130026],[89.5083179076644,26.5566788206358],[89.5110003800825,26.55668814325],[89.5145741411524,26.5565858396311],[89.5180206275626,26.5569416673672],[89.5205726081112,26.5569505099754],[89.524149391756,26.5567328725319],[89.5272145630458,26.5563990913679],[89.5302800227692,26.5560646777301],[89.5310828799775,26.5554855271862],[89.531571902808,26.5573804659876],[89.5316910266172,26.5595292488025],[89.5314887517421,26.5617356380151],[89.5312856447527,26.5641154732726],[89.5310381184356,26.5657281478157],[89.5310200699259,26.5658569398299],[89.5306908756979,26.5671915824041],[89.5303580594317,26.5693973998112],[89.5301613470148,26.5702097383669],[89.5295098286987,26.5711947665063],[89.5291820878002,26.5721811047123],[89.5289845338937,26.5732258290863],[89.5288500874875,26.5747930076787],[89.5284504767707,26.5773469777348],[89.5283105503961,26.5796113486507],[89.5284326690515,26.5816444720576],[89.5284293691755,26.5824575486266],[89.5277160055594,26.5832100105735],[89.5271540986081,26.5837321303083],[89.5273098126627,26.5836915397653],[89.5272065344185,26.583805736212],[89.5250019199816,26.5858173083273],[89.5240332326964,26.5887781101835],[89.5240200453099,26.5919570933058],[89.5243470436377,26.5935903848138],[89.5245251267266,26.5966626875094],[89.5245995823646,26.5968463245557],[89.5253676768256,26.6010902559985],[89.526256551519,26.6059042369946],[89.5268203394787,26.6079681430043],[89.5273156355871,26.6096357101191],[89.5277114966782,26.6110231789346],[89.5267903858838,26.6109761154519],[89.5229457007889,26.6112342518701],[89.5171429233812,26.6114181729879],[89.5129217348018,26.6116747022025],[89.5093784985426,26.6118655281467],[89.5089664366376,26.6119138999458],[89.5043246721037,26.6124577834821],[89.4991226550258,26.6130494509774],[89.4958802870886,26.6133089627551],[89.4957750478676,26.6132770754273],[89.4959564344342,26.6113989286324],[89.4957923827068,26.6081921861019],[89.4957345401735,26.6070653039347],[89.4947800188482,26.6048956647023],[89.4940648209417,26.6031600587248],[89.4941127854083,26.6030839745574],[89.4955211592303,26.6007823052938],[89.4945630765196,26.5994790461969],[89.4944227659723,26.5988493741285],[89.4940829713444,26.5973227378693],[89.4957803931146,26.5966669645195],[89.498199690918,26.5945091701901],[89.5011035400424,26.59170322812],[89.5020740459863,26.5901901221407],[89.502013316041,26.5897333372983],[89.5016072909401,26.5867223332246],[89.5025842677133,26.5836927660628],[89.5057231707084,26.5821871579899],[89.5074192315718,26.5800267242454],[89.5088770235291,26.5772156564781],[89.508647255561,26.5746151058947],[89.5079365122112,26.5717962998408],[89.508056894003,26.5700800949476],[89.5081932936202,26.5681144191962],[89.5065162269772,26.5659423528344],[89.5077320164472,26.5633467807039],[89.5082205040502,26.5618319780701],[89.5079908036086,26.5592317010903],[89.506309088018,26.558142611679],[89.5055138060496,26.5569392130026]]]},"properties":{"fill-opacity":0,"stroke-opacity":1,"stroke":"#ff0000","SID":"028","DID":"014","RID":"005","BID":"003","State":"West_Bengal","Division":"BuxaTR_WEST","Range":"WestDamanpur","Beat":"Garam-East","Beat_Ar":14.7802}},
{"type":"Feature","geometry":{"type":"Polygon","coordinates":[[[89.4957750478676,26.6132770754273],[89.4956546838368,26.6132405530483],[89.4950518628102,26.6133061221384],[89.4933907867315,26.6136386053983],[89.4876593704096,26.6147024379575],[89.4821521397108,26.6155631912493],[89.4808126912086,26.6158470507511],[89.4802433574086,26.6140588078322],[89.4799297835765,26.6117932661245],[89.4791693481451,26.6084218012839],[89.4784690193971,26.6056317834233],[89.4784128187545,26.6036568514498],[89.4784875606705,26.6015663401432],[89.4787485227771,26.601044998123],[89.4787867984672,26.6009103604486],[89.4788810914261,26.6005811131519],[89.479151759232,26.5991328554603],[89.4800001468434,26.5962873399542],[89.48112071195,26.5929303074498],[89.4816254060898,26.5917806567238],[89.4822255835406,26.5904300923635],[89.483403578376,26.586949857983],[89.4851040388635,26.5827751931171],[89.4859560953131,26.5802806041291],[89.4868744606111,26.5775546281855],[89.4877210740134,26.5756991336646],[89.4878557209059,26.5747704573988],[89.4886402775585,26.5727407575434],[89.4894256902962,26.570537041086],[89.4896551710204,26.5697255343654],[89.4899509558189,26.5686806696755],[89.4905421808768,26.5666501654482],[89.4909996503021,26.565374043212],[89.4910014370971,26.564967639819],[89.4910058871711,26.5639805380378],[89.4906274057648,26.5621787579984],[89.4902476546411,26.5601448903232],[89.4900642332909,26.5579372164092],[89.4903314811036,26.5559634062899],[89.4906611248699,26.5546294003333],[89.4908733140601,26.5540117668001],[89.4913511720485,26.5540931057632],[89.4955616887773,26.5546823110876],[89.4973481971505,26.5546888998372],[89.4996442573539,26.5552707653836],[89.5015552994262,26.5560814238132],[89.5047432286444,26.557011101595],[89.5055138060496,26.5569392130026],[89.506309088018,26.558142611679],[89.5079908036086,26.5592317010903],[89.5082205040502,26.5618319780701],[89.5077320164472,26.5633467807039],[89.5065162269772,26.5659423528344],[89.5081932936202,26.5681144191962],[89.508056894003,26.5700800949476],[89.5079365122112,26.5717962998408],[89.508647255561,26.5746151058947],[89.5088770235291,26.5772156564781],[89.5074192315718,26.5800267242454],[89.5057231707084,26.5821871579899],[89.5025842677133,26.5836927660628],[89.5016072909401,26.5867223332246],[89.502013316041,26.5897333372983],[89.5020740459863,26.5901901221407],[89.5011035400424,26.59170322812],[89.498199690918,26.5945091701901],[89.4957803931146,26.5966669645195],[89.4940829713444,26.5973227378693],[89.4944227659723,26.5988493741284],[89.4945630765196,26.5994790461969],[89.4955211592303,26.6007823052938],[89.4941127854083,26.6030839745574],[89.4940648209417,26.6031600587248],[89.4947800188482,26.6048956647023],[89.4957345401735,26.6070653039347],[89.4957923827068,26.6081921861019],[89.4959564344342,26.6113989286324],[89.4957750478676,26.6132770754273]]]},"properties":{"fill-opacity":0,"stroke-opacity":1,"stroke":"#ff0000","SID":"028","DID":"014","RID":"005","BID":"002","State":"West_Bengal","Division":"BuxaTR_WEST","Range":"WestDamanpur","Beat":"Garam-West","Beat_Ar":11.1967}},
{"type":"Feature","geometry":{"type":"Polygon","coordinates":[[[89.4614293514315,26.5505368542168],[89.4621816692542,26.5506171958896],[89.4629984129121,26.5506944620088],[89.4639536989329,26.5507734176755],[89.4648721719072,26.5508541233544],[89.465336254668,26.5508983933445],[89.4664926294631,26.5511005519429],[89.4676388278426,26.5512865864482],[89.4686920170156,26.5514604497689],[89.4706375465516,26.5517411274632],[89.471118490837,26.5518089263783],[89.4711324129495,26.5518108557625],[89.4711396834108,26.5518118705336],[89.4711551705241,26.5518140494548],[89.471169054778,26.5518159482187],[89.4711821064211,26.5518177894528],[89.4712024966137,26.5518205773551],[89.4712229984784,26.5518234247729],[89.4712441551054,26.5518263706302],[89.4712613850727,26.5518287581649],[89.4712823959869,26.5518316785484],[89.471315328784,26.5518362346872],[89.4713234025677,26.5518373833571],[89.4713246489992,26.5518374657145],[89.4713251422983,26.5518375009357],[89.4713261989106,26.5518375741155],[89.4713276581082,26.5518376726612],[89.4713295584474,26.5518378008117],[89.4713307597009,26.5518378812726],[89.4716914304436,26.5518646820993],[89.4722888494943,26.5519004913508],[89.4726782104515,26.5519296307622],[89.4729886079705,26.5519500884829],[89.4739523802778,26.5520161277034],[89.4743134769954,26.5520403872854],[89.4743780575589,26.5520448257077],[89.474586877327,26.552059495903],[89.4748338873251,26.5520761680181],[89.4748964431797,26.552080508378],[89.4749208928547,26.5520842692046],[89.4750018057376,26.5520966495165],[89.4750407321707,26.5521025722732],[89.4750782809906,26.5521083662682],[89.475123758909,26.5521153379324],[89.4751466038157,26.5521187862752],[89.4752233743454,26.5521306185522],[89.4752873333589,26.5521404038825],[89.4753048720597,26.5521431328999],[89.4753641077333,26.5521523007565],[89.4754347544213,26.5521629987416],[89.475512982163,26.5521750855234],[89.4755850936721,26.5521861674197],[89.475663752862,26.5521982335203],[89.4764375250627,26.5523142520109],[89.4774712641405,26.5523146727958],[89.4814453203496,26.553029534055],[89.4834580775975,26.5530412202874],[89.4871611715369,26.5533870635066],[89.4908733140875,26.5540117665434],[89.4906275126045,26.5546885907503],[89.4903333159183,26.5559560693017],[89.4900802523615,26.5579188308695],[89.4902488147828,26.5601436336182],[89.4909934831036,26.5639926814843],[89.4910103651026,26.5653697710725],[89.4905567300541,26.5665950629501],[89.4898055263456,26.5691875800638],[89.4893448209202,26.5707618237034],[89.4888791069084,26.5720955875896],[89.4878401248984,26.574818052341],[89.487741807906,26.5756528045242],[89.4868757208455,26.5775535355103],[89.4864405100112,26.5789356252864],[89.4856869989218,26.5811795771375],[89.4850253296,26.5831037123273],[89.4841795206745,26.5850366429767],[89.4832621803689,26.5873215997001],[89.482432404687,26.589838920305],[89.4822362571777,26.5904251694055],[89.4818529809661,26.5912818213065],[89.4816284296874,26.5917781220903],[89.4811234388029,26.5929186480779],[89.4807584507383,26.5940068299838],[89.4805712510737,26.5945884963643],[89.4803359036081,26.5952928169876],[89.4800966840036,26.5960097721175],[89.4796632926863,26.5974249269383],[89.4791498509135,26.599126111584],[89.4788851016507,26.6005830054518],[89.4787595997104,26.6010372143194],[89.4784863361009,26.6015690323025],[89.4784147856286,26.6036392128202],[89.4784725835193,26.605632659779],[89.4792917389456,26.6089468250145],[89.4799359642801,26.6118003728635],[89.4802498370148,26.61406377952],[89.4808126509786,26.61584707667],[89.4745277859179,26.6163758155893],[89.4732593638242,26.6164757762489],[89.4709790860136,26.6165638254787],[89.4685102785865,26.6166649825526],[89.4648107574711,26.616957570695],[89.4620221572092,26.6172511526579],[89.462062059124,26.6171986727257],[89.4621092195459,26.6171371577628],[89.4621621167833,26.6170677177788],[89.4622174207581,26.6169950505552],[89.4622918961462,26.6168976070186],[89.4623480327457,26.6168243812995],[89.4623833856955,26.6167779540158],[89.4624502028626,26.6166583094119],[89.4624998583641,26.6165706079013],[89.4625512916582,26.6164788012899],[89.4626033985112,26.6163861844194],[89.462652894664,26.616298231043],[89.4626992580033,26.6162158738686],[89.4627474601564,26.6161304461971],[89.4627931497422,26.6160488992172],[89.4628341706823,26.6159762638632],[89.4628887591053,26.615879248837],[89.4629433550729,26.6157823631086],[89.4629973830679,26.6156856341043],[89.463043670734,26.6156044475675],[89.4630897534352,26.6155222332626],[89.4631361162063,26.6154398758986],[89.4631652414219,26.6153881685022],[89.4631737896005,26.6153496325109],[89.4631929428344,26.6152658483496],[89.463212261746,26.6151799812554],[89.4632290942308,26.6151057749853],[89.4632489123232,26.6150185871896],[89.4632575852588,26.6149797210092],[89.4632672866306,26.6149374987389],[89.4632774109404,26.6148926625252],[89.4632876562359,26.6148474314752],[89.4632967150121,26.6148077687615],[89.4633051197648,26.6147704716213],[89.4633165896935,26.614720318853],[89.4633271636109,26.6146733213252],[89.4633375413063,26.614627889417],[89.4643345466372,26.6114927232206],[89.4653488115385,26.610215952324],[89.466962122247,26.6090766122733],[89.4690633738899,26.6068183555078],[89.4694303985272,26.6061534335302],[89.4694988701503,26.6054363500756],[89.4691931798338,26.6046375113615],[89.4687090583635,26.6036313767479],[89.4686641135943,26.6028699003635],[89.4691981204218,26.6016025073143],[89.4685675092571,26.6016829068968],[89.4657539264592,26.6017257780019],[89.4631332061604,26.6017511061974],[89.4618965037693,26.6017602437664],[89.4607960231546,26.6018873841372],[89.4610892544913,26.5996572550643],[89.461258232186,26.5981385614751],[89.4617173019705,26.5962159294882],[89.4617845461021,26.5959471168428],[89.4619747196129,26.59416179789],[89.4620753951468,26.5927376529828],[89.4621087980486,26.5919071999439],[89.4590931234798,26.5917103258717],[89.4561595269181,26.5915927475958],[89.454845370121,26.5915391206692],[89.4538975826418,26.5915925453231],[89.4547510388261,26.589310838123],[89.4563902875544,26.5867343889536],[89.457180199332,26.5844722814866],[89.4575597817066,26.5824538196715],[89.4584580394303,26.579837917894],[89.4591908755675,26.5780184216224],[89.4600306767136,26.5759780102149],[89.4609359609714,26.5730131210276],[89.4614014845887,26.5716711641739],[89.4617108695144,26.5700295296282],[89.4618341068204,26.5693015155014],[89.4618427161157,26.5678817254424],[89.4613578176473,26.56685897914],[89.4602860750056,26.5654325750346],[89.4596647638792,26.56366097854],[89.4595306878692,26.5615424387529],[89.4597418159562,26.5601129883342],[89.4604669078407,26.558634137647],[89.4611744546494,26.5581106801565],[89.4626612905811,26.5577762319981],[89.4635683122331,26.5569662425262],[89.4635093289845,26.5562702403006],[89.462798341987,26.5558022256282],[89.4616373381309,26.5557391734414],[89.4602150942304,26.5555600586343],[89.4595053683957,26.5550351601145],[89.4592524173067,26.5538721814154],[89.4592617313581,26.5518987937486],[89.4589766909057,26.5502636317152],[89.4614293514315,26.5505368542168]]]},"properties":{"fill-opacity":0,"stroke-opacity":1,"stroke":"#ff0000","SID":"028","DID":"014","RID":"005","BID":"001","State":"West_Bengal","Division":"BuxaTR_WEST","Range":"WestDamanpur","Beat":"Poro-East","Beat_Ar":10.7643}},
{"type":"Feature","geometry":{"type":"Polygon","coordinates":[[[89.5561953693349,26.6469515072929],[89.5562369559518,26.6466041819801],[89.5564448740538,26.6434687972571],[89.5572320084095,26.640567611234],[89.5584680879147,26.6384807258357],[89.5589307815982,26.6363337970757],[89.5592621932272,26.6337213036888],[89.5593022618052,26.6324442141502],[89.5594629835757,26.6324447050614],[89.5621150358492,26.6323365901572],[89.5637974345379,26.6323417594018],[89.5658668649099,26.6322318121341],[89.5686493476876,26.6321822048398],[89.5713009378268,26.6321901111376],[89.5745428935033,26.6321011804885],[89.5751180457915,26.6320852132022],[89.5786924777205,26.6317161334437],[89.5828665845923,26.6314835401645],[89.5852029623894,26.6311813928764],[89.5888259609778,26.6305723776493],[89.5895404242909,26.6337104340732],[89.5900945594204,26.6360592554516],[89.5903859616936,26.6381357796386],[89.5907430077788,26.6408130834552],[89.591028233626,26.6425332192768],[89.5914008236598,26.6443722264884],[89.5934106234454,26.6512678151739],[89.5944627399315,26.6541817931053],[89.5953934946589,26.656617436016],[89.5961495198168,26.6587343979103],[89.5970285800346,26.6601709044568],[89.5959354279401,26.6603247698714],[89.5948479921776,26.660336996745],[89.592130100089,26.6603838759912],[89.5886801876742,26.6608162233306],[89.5856555851248,26.6609577826095],[89.5818697763684,26.6611813697552],[89.5790964799711,26.6613103998748],[89.5783127609611,26.6613306823218],[89.5772856595358,26.6612789348725],[89.5757051612425,26.661476979598],[89.5707512268728,26.6617391845388],[89.5701138624414,26.6615567313498],[89.5693160455639,26.6613275450132],[89.5666064878804,26.6605515150716],[89.5629124746101,26.6603593169885],[89.5558135469938,26.660671403545],[89.5548411392704,26.6607615892908],[89.5552850896732,26.658969925884],[89.555418750026,26.6575189435136],[89.5552307340822,26.6561242222278],[89.5554340164895,26.6535698274529],[89.5557025995782,26.6510158440552],[89.5559699285769,26.6487514951966],[89.5561953693349,26.6469515072929]]]},"properties":{"fill-opacity":0,"stroke-opacity":1,"stroke":"#ff0000","SID":"028","DID":"014","RID":"003","BID":"003","State":"West_Bengal","Division":"BuxaTR_WEST","Range":"WestRajabhatkhawa","Beat":"CentralRajabhatkhawa","Beat_Ar":11.0188}},
{"type":"Feature","geometry":{"type":"Polygon","coordinates":[[[89.5257836175589,26.6913983774292],[89.5258856088871,26.6947334380942],[89.5246454428837,26.692667534767],[89.523070962094,26.6900203248775],[89.5215034444692,26.6863566595243],[89.5198558744317,26.6838447093851],[89.5190356979245,26.6811323914508],[89.5182186337629,26.6782846687254],[89.5177738258846,26.6765217944686],[89.5171749519818,26.6755713440129],[89.5157456677974,26.6743469124183],[89.5142433649444,26.6731903632753],[89.5128895634866,26.6725759286094],[89.5113054803644,26.6723674911962],[89.5107174110281,26.6724315684939],[89.5094961158247,26.6725644266246],[89.5077583074994,26.6730330006341],[89.5066999323384,26.6738423382644],[89.5063912546166,26.6755348603204],[89.5064590398205,26.6772961415879],[89.5063007266731,26.6790570041693],[89.5059918252384,26.6808172096989],[89.5060622588118,26.6819687557106],[89.5063584546077,26.6831895337321],[89.5065775689753,26.6848160963943],[89.5063480240716,26.6856279044695],[89.5060442498127,26.6861689249828],[89.5052855740417,26.6873177132597],[89.5045256839028,26.6881963449419],[89.5036175344129,26.689073725303],[89.5030131778767,26.6894106500889],[89.5023055774593,26.687435617822],[89.5018391772359,26.6860815510958],[89.4987174679429,26.6858556995208],[89.4981422980182,26.6806538841645],[89.5006316918244,26.6777657148237],[89.5012256379863,26.6734452256634],[89.5009500245552,26.6697896133981],[89.5008510165004,26.6648264175418],[89.5008303046502,26.6637857328416],[89.5007042357877,26.6598699277428],[89.5021739822043,26.6556986522868],[89.5029154946819,26.6520466465747],[89.5029438820684,26.6518892654386],[89.5038084227838,26.6470901382534],[89.5049841190576,26.6440922996291],[89.5047067515711,26.6408289794251],[89.5037414490886,26.6364037236521],[89.5045609063691,26.6362368321598],[89.5062601419548,26.6358358403931],[89.5092023586402,26.6354061094324],[89.5113181598144,26.6350680298473],[89.5116901263851,26.6350079492205],[89.5144049451533,26.6349155626165],[89.5167432394943,26.6347879479782],[89.518965988285,26.6346939626407],[89.5208898856422,26.6345989143806],[89.522208373873,26.634535713687],[89.5229619674215,26.6344703834471],[89.5229617682573,26.6345380681495],[89.5231486536455,26.6348772961509],[89.5238610372427,26.6362687058697],[89.5244077354024,26.6370614902089],[89.5248793602524,26.6389704296826],[89.525519534362,26.6432690019074],[89.5253409592111,26.6457951938172],[89.5248125934014,26.6478454444867],[89.5246565694786,26.6485295850729],[89.5244699022541,26.6493528035981],[89.5238277815906,26.6509843597637],[89.5234655071322,26.6523427435627],[89.52331833792,26.6533158479027],[89.5230246638329,26.65567829551],[89.5230606689794,26.660921599527],[89.5230789021733,26.6619851443653],[89.5230812597515,26.662044341087],[89.5231362103377,26.6651472669476],[89.5232602937743,26.6673337643644],[89.5232094224157,26.6699045445463],[89.5236362674455,26.6741932691194],[89.5240283093567,26.6759964532991],[89.5243043366199,26.6772695776692],[89.524873817691,26.6798965727369],[89.5249917177749,26.6817794059083],[89.5254811587039,26.6849357408612],[89.5253388586733,26.6871338369599],[89.5253744986806,26.6888754203053],[89.5257523332358,26.6904427056303],[89.5257836175589,26.6913983774292]]]},"properties":{"fill-opacity":0,"stroke-opacity":1,"stroke":"#ff0000","SID":"028","DID":"014","RID":"003","BID":"005","State":"West_Bengal","Division":"BuxaTR_WEST","Range":"WestRajabhatkhawa","Beat":"Dima","Beat_Ar":10.6655}},
{"type":"Feature","geometry":{"type":"Polygon","coordinates":[[[89.5693160455639,26.6613275450132],[89.5693110775009,26.6626713584463],[89.5694958482014,26.6649950171865],[89.5703943364203,26.6672044595151],[89.5716812054736,26.6690085799345],[89.5732923225765,26.6707555099333],[89.5741900361355,26.6725001867542],[89.5749551577027,26.674134372968],[89.5744475785478,26.6741814630022],[89.5717933878831,26.6746378571442],[89.5693988246471,26.6748050942004],[89.566422171826,26.6747959813692],[89.564867767914,26.6747011837418],[89.5647264938274,26.6768270924431],[89.5647839835916,26.6789178129219],[89.5652906871402,26.6817649901259],[89.5658619982057,26.6848446686868],[89.5663674945536,26.6866822724881],[89.5631396300092,26.6872717537983],[89.5597720017165,26.6876094592314],[89.5567934919713,26.6880071107671],[89.5539454496275,26.6884624919197],[89.5513539774936,26.688803052905],[89.5503106723286,26.6889746448592],[89.5492177241992,26.6890288929571],[89.5471469430876,26.6891967393123],[89.5443622750451,26.6894778045839],[89.5416422981191,26.689875991263],[89.5389880940419,26.690215600951],[89.5367233297285,26.6904987692413],[89.535168221346,26.6904939031344],[89.5321275393391,26.6907163069027],[89.5281763210175,26.6911678666077],[89.5257836175589,26.6913983774292],[89.5257523332358,26.6904427056303],[89.5253744986806,26.6888754203053],[89.5253388586733,26.6871338369599],[89.5254811587039,26.6849357408612],[89.5249917177749,26.6817794059083],[89.524873817691,26.6798965727369],[89.5243043366199,26.6772695776692],[89.5240283093567,26.6759964532991],[89.5236362674455,26.6741932691194],[89.5232094224157,26.6699045445463],[89.5232602937743,26.6673337643644],[89.5231362103377,26.6651472669476],[89.5230812597515,26.662044341087],[89.5230789021733,26.6619851443653],[89.5230606689794,26.660921599527],[89.5230246638329,26.65567829551],[89.52331833792,26.6533158479027],[89.5234655071322,26.6523427435627],[89.5238277815906,26.6509843597637],[89.5244699022541,26.6493528035981],[89.5246565694786,26.6485295850729],[89.5247244533262,26.6485350599904],[89.5267310975619,26.6484835941325],[89.5292534405772,26.6482598763431],[89.5323603257064,26.6482119820315],[89.5333724400848,26.6481866679326],[89.5334628263239,26.6481845633039],[89.534429754673,26.6481608579588],[89.5368239771063,26.6479361356684],[89.5403182764573,26.6477149489586],[89.5438117721995,26.6476679668532],[89.5471779672466,26.6473887839464],[89.5506719177871,26.6472254414756],[89.5539071634208,26.6470611800118],[89.5561953693349,26.6469515072929],[89.5559699285769,26.6487514951966],[89.5557025995782,26.6510158440552],[89.5554340164895,26.6535698274529],[89.5552307340822,26.6561242222278],[89.555418750026,26.6575189435136],[89.5552850896732,26.658969925884],[89.5548411392704,26.6607615892908],[89.5558135469938,26.660671403545],[89.5629124746101,26.6603593169885],[89.5666064878804,26.6605515150716],[89.5693160455639,26.6613275450132]]]},"properties":{"fill-opacity":0,"stroke-opacity":1,"stroke":"#ff0000","SID":"028","DID":"014","RID":"003","BID":"002","State":"West_Bengal","Division":"BuxaTR_WEST","Range":"WestRajabhatkhawa","Beat":"NorthRajabhatkhawa","Beat_Ar":17.853}},
{"type":"Feature","geometry":{"type":"Polygon","coordinates":[[[89.5561953693349,26.6469515072929],[89.5539071634208,26.6470611800118],[89.5506719177871,26.6472254414756],[89.5471779672466,26.6473887839464],[89.5438117721995,26.6476679668532],[89.5403182764573,26.6477149489586],[89.5368239771063,26.6479361356684],[89.534429754673,26.6481608579588],[89.5334628263239,26.6481845633039],[89.5333724400848,26.6481866679326],[89.5323603257064,26.6482119820315],[89.5292534405772,26.6482598763431],[89.5267310975619,26.6484835941325],[89.5247244533262,26.6485350599904],[89.5246565694786,26.6485295850729],[89.5248125934014,26.6478454444867],[89.5253409592111,26.6457951938172],[89.525519534362,26.6432690019074],[89.5248793602524,26.6389704296826],[89.5244077354024,26.6370614902089],[89.5238610372427,26.6362687058697],[89.5231486536455,26.6348772961509],[89.5229617682573,26.6345380681495],[89.5229619674215,26.6344703834471],[89.522208373873,26.634535713687],[89.5208898856422,26.6345989143806],[89.518965988285,26.6346939626407],[89.5167432394943,26.6347879479782],[89.5144049451533,26.6349155626165],[89.5116901263851,26.6350079492205],[89.5113181598144,26.6350680298473],[89.5092023586402,26.6354061094324],[89.5062601419548,26.6358358403931],[89.5045609063691,26.6362368321598],[89.5037414490886,26.6364037236521],[89.5037119738616,26.6362745923052],[89.5033275086455,26.6346049218739],[89.5006890451057,26.6315628492692],[89.4994940562199,26.6291755474246],[89.5001176388436,26.6272484538418],[89.5004715513674,26.626146274751],[89.4992766292265,26.6237589667689],[89.4992879886164,26.6211592511261],[89.4966471446264,26.6187671509678],[89.4954467391313,26.6176796615236],[89.4957041025047,26.6139978031902],[89.4957750478676,26.6132770754273],[89.4958802870886,26.6133089627551],[89.4991226550258,26.6130494509774],[89.5043246721037,26.6124577834821],[89.5089664366376,26.6119138999458],[89.5093784985426,26.6118655281467],[89.5129217348018,26.6116747022025],[89.5171429233812,26.6114181729879],[89.5229457007889,26.6112342518701],[89.5267903858838,26.6109761154519],[89.5277114966782,26.6110231789346],[89.5282235481015,26.6110486925595],[89.5326484605804,26.6107522882038],[89.5330476230569,26.6107259843436],[89.541414807332,26.6102110186488],[89.5470447075271,26.609920548318],[89.5475969888528,26.6098922543669],[89.5483498841409,26.6099624493982],[89.55067053053,26.6097414237931],[89.5522326552186,26.6121547200593],[89.5541581433826,26.6160516181901],[89.5557612415362,26.6195989409574],[89.556422372692,26.6213435346862],[89.5571034536143,26.6231457172814],[89.5584442632004,26.6276795204231],[89.5593371458867,26.6312244289601],[89.5593022618052,26.6324442141502],[89.5592621932272,26.6337213036888],[89.5589307815982,26.6363337970757],[89.5584680879147,26.6384807258357],[89.5572320084095,26.640567611234],[89.5564448740538,26.6434687972571],[89.5562369559518,26.6466041819801],[89.5561953693349,26.6469515072929]]]},"properties":{"fill-opacity":0,"stroke-opacity":1,"stroke":"#ff0000","SID":"028","DID":"014","RID":"003","BID":"004","State":"West_Bengal","Division":"BuxaTR_WEST","Range":"WestRajabhatkhawa","Beat":"WestRajabhatkhawa","Beat_Ar":19.0431}},
{"type":"Feature","geometry":{"type":"Polygon","coordinates":[[[89.4860768036164,26.8014654728563],[89.4860140791604,26.7997078156969],[89.4857439060701,26.7982645208969],[89.4855337502335,26.7968549993651],[89.4849736605137,26.7933197124799],[89.483919586039,26.7905874065877],[89.4828857920394,26.786693285854],[89.483435539894,26.7834734717319],[89.4841809583854,26.7809684670148],[89.4854241593669,26.7789791008202],[89.4860974561048,26.7768411730616],[89.4866015295187,26.775416810022],[89.4868943218416,26.7745888580436],[89.4868805760688,26.7731386333896],[89.4870647450847,26.7707071946256],[89.4879568395436,26.7679301829158],[89.48830059356,26.7658089649256],[89.4881518758068,26.7641912357894],[89.4875016668568,26.7611447643893],[89.4880671416507,26.7611557392119],[89.4902248239545,26.7609799008065],[89.4936039884795,26.762003777544],[89.4963498606108,26.7624310552141],[89.4984767493912,26.7623620155551],[89.5013056056463,26.7621924352771],[89.5029017419598,26.7628162122835],[89.5054912147432,26.7633775157689],[89.5065510905318,26.763607350969],[89.5080521548666,26.7635499053947],[89.5108280780076,26.7633922611203],[89.511009830814,26.7632349345112],[89.5132839243611,26.7616488781351],[89.5143131769153,26.7601770721962],[89.5151715503057,26.7581095166919],[89.5169166477347,26.7561587938569],[89.5194454964598,26.7543350020641],[89.5211072205848,26.7530689916555],[89.5220412598729,26.7527160304463],[89.5221733397508,26.7529827981491],[89.5222632466117,26.7531386267638],[89.5229817101845,26.7538666521379],[89.5254913945343,26.7560460397793],[89.5283219616459,26.7560298833671],[89.5291283439027,26.7561511777093],[89.5327642363018,26.7571586510409],[89.5353738517967,26.7589569112537],[89.538827461497,26.7596726346738],[89.5409654884399,26.7599908774662],[89.5413121659073,26.7600420929439],[89.5422884562812,26.7604547451155],[89.5460385690748,26.7625195502875],[89.548173887632,26.762898906371],[89.5501063580108,26.7617756794625],[89.5520392996665,26.7618436059639],[89.5515153241694,26.7621234594549],[89.5510329578499,26.7653105955563],[89.5513248969605,26.7671911793717],[89.5513486944514,26.7675425769194],[89.5514504830433,26.7691556490918],[89.5516661523649,26.7712612598095],[89.5516888194593,26.7725446906371],[89.5517033267071,26.7733789794333],[89.5498082194338,26.7758520553149],[89.5489463671822,26.7770024809998],[89.548777074408,26.7772417815696],[89.5470540991413,26.7800169383466],[89.5467737508829,26.7816141699634],[89.5465604833892,26.7828282708295],[89.5450337122805,26.7868226164329],[89.5440934926152,26.7887395105989],[89.5436218796307,26.7890779874909],[89.5419980155472,26.7902457145919],[89.5396133866456,26.790480381295],[89.5376723874849,26.7910728415297],[89.5364270786248,26.7905892053654],[89.5343961110274,26.7891375051432],[89.5324449319589,26.7891375134847],[89.529622424788,26.7894520518795],[89.5268551796404,26.7897749619817],[89.526787228328,26.7897824638099],[89.526164383417,26.7902392671427],[89.5253900851378,26.7908059916385],[89.5243597460616,26.7925102600453],[89.5231673852282,26.795721326766],[89.5219681809094,26.7981081579808],[89.5213895471601,26.8006183066675],[89.518787218797,26.803579422718],[89.5168616235423,26.8052334724255],[89.515553209842,26.8066251022388],[89.5140499564612,26.808272612617],[89.51336980323,26.8091589070114],[89.511881388314,26.8072566379196],[89.5104650741888,26.8055481643963],[89.5083323131029,26.8044048471909],[89.5063592915275,26.8035463120025],[89.5043031102549,26.803326530862],[89.501614587812,26.8028204342615],[89.4992594507163,26.8025394573284],[89.4984444577691,26.801977882314],[89.4957632437094,26.8009352185386],[89.4926909391775,26.801383655351],[89.4879985759685,26.8013527571181],[89.4878274327722,26.801366684938],[89.4860768036164,26.8014654728563]]]},"properties":{"fill-opacity":0,"stroke-opacity":1,"stroke":"#ff0000","SID":"028","DID":"014","RID":"002","BID":"002","State":"West_Bengal","Division":"BuxaTR_WEST","Range":"Pana","Beat":"Adma","Beat_Ar":25.4654}},
{"type":"Feature","geometry":{"type":"Polygon","coordinates":[[[89.5411149396606,26.7120071344369],[89.5408435104603,26.7120278528363],[89.5393855547679,26.712168065211],[89.537703623241,26.7123659669698],[89.5348857083887,26.7126472253707],[89.533266829586,26.7128164732703],[89.5320375436244,26.7129575200997],[89.5312608494303,26.7130130116101],[89.5299312012406,26.7130956214555],[89.5286370602764,26.7131205883238],[89.5276014366354,26.7132042339718],[89.5265332271449,26.7132588944264],[89.5256256816125,26.7133718845546],[89.525617918695,26.7152597267852],[89.525605314414,26.7183368460743],[89.5257939841928,26.7201376872375],[89.5259131728712,26.7223450844773],[89.5261642005864,26.7242622850188],[89.5263537133178,26.7258307405419],[89.5263610862761,26.7258887545455],[89.525056504633,26.7259425706321],[89.5222083965649,26.7261658201705],[89.5202652542596,26.7262755232071],[89.5186468239038,26.7262700433687],[89.5170280530581,26.7263807359305],[89.5151507512931,26.7263746047315],[89.5129488816933,26.72648330942],[89.5113299415414,26.7265936570578],[89.5088028316258,26.7269336307587],[89.5067311330797,26.7271590142813],[89.5049838251291,26.7273273393824],[89.5032341764558,26.7274375741547],[89.5019392545739,26.727606699768],[89.5002539195719,26.7279497194419],[89.4990868427054,26.7281780969267],[89.4978572643082,26.728348186096],[89.4972737931804,26.7284618015688],[89.4966901712375,26.7285759802899],[89.4966347432015,26.728613509286],[89.493897587242,26.7286816086777],[89.4914691598765,26.7288752827015],[89.488681403875,26.7290267255871],[89.4859393437149,26.7290569341375],[89.4837386564222,26.7288876775629],[89.4826616668839,26.72864176397],[89.4826038623294,26.728641805131],[89.4835131389,26.7213984329013],[89.4841265807343,26.7196652559095],[89.4822538886447,26.7175249442548],[89.4848378737753,26.7117127145096],[89.4939425333752,26.7109421520403],[89.4952525473076,26.7101638035251],[89.4972911438608,26.7093878983739],[89.498252223825,26.7085314272594],[89.4987516322698,26.7080873382698],[89.5000694767978,26.7054822864426],[89.5010984378608,26.7028754895038],[89.5015408992267,26.7004906384167],[89.5017106022591,26.699566103743],[89.502621209479,26.6981638871183],[89.5029070471433,26.6977243050214],[89.5037193707295,26.695168011261],[89.5046014618965,26.6927728463741],[89.503949023295,26.6920225730706],[89.5030131778767,26.6894106500889],[89.5036175344129,26.689073725303],[89.5045256839028,26.6881963449419],[89.5052855740417,26.6873177132597],[89.5060442498127,26.6861689249828],[89.5063480240716,26.6856279044695],[89.5065775689753,26.6848160963943],[89.5063584546077,26.6831895337321],[89.5060622588118,26.6819687557106],[89.5059918252384,26.6808172096989],[89.5063007266731,26.6790570041693],[89.5064590398205,26.6772961415879],[89.5063912546166,26.6755348603204],[89.5066999323384,26.6738423382644],[89.5077583074994,26.6730330006341],[89.5094961158247,26.6725644266246],[89.5107174110281,26.6724315684939],[89.5113054803644,26.6723674911962],[89.5128895634866,26.6725759286094],[89.5142433649444,26.6731903632753],[89.5157456677974,26.6743469124183],[89.5171749519818,26.6755713440129],[89.5177738258846,26.6765217944686],[89.5182186337629,26.6782846687254],[89.5190356979245,26.6811323914508],[89.5198558744317,26.6838447093851],[89.5215034444692,26.6863566595243],[89.523070962094,26.6900203248775],[89.5246454428837,26.692667534767],[89.5258856088871,26.6947334380942],[89.5275375439288,26.6980780281618],[89.5288890164633,26.699393123748],[89.5303699828329,26.7009589219205],[89.5311054693786,26.7017369334564],[89.5311706238586,26.7018058854277],[89.5318559719002,26.7025331089668],[89.5358008198253,26.7056570730057],[89.5411149396606,26.7120071344369]]]},"properties":{"fill-opacity":0,"stroke-opacity":1,"stroke":"#ff0000","SID":"028","DID":"014","RID":"002","BID":"004","State":"West_Bengal","Division":"BuxaTR_WEST","Range":"Pana","Beat":"Gangutia","Beat_Ar":16.6897}},
{"type":"Feature","geometry":{"type":"Polygon","coordinates":[[[89.4860768036164,26.8014654728563],[89.4859082764564,26.8014751407546],[89.4834780215956,26.8016960985168],[89.4811740513341,26.8018023244664],[89.4787429234607,26.8016791608892],[89.4759201352808,26.8013761762231],[89.4754199235259,26.8013224586675],[89.473115960598,26.8014291174934],[89.4696597242543,26.8016461455047],[89.4669730650108,26.8018661028276],[89.4646742559564,26.8008239485154],[89.4643831271536,26.8007113412096],[89.4619933857098,26.7997811954912],[89.4603345963632,26.7985118154006],[89.4590920094479,26.7980367704386],[89.45861345242,26.7971079753367],[89.4584024772207,26.7965278020747],[89.4576914613469,26.7953033169259],[89.4569048805678,26.7946571625939],[89.4559753921435,26.7939456390786],[89.4556908047199,26.7934945336177],[89.4551202432854,26.7929135444704],[89.4543362085629,26.7922673485292],[89.4530483887537,26.7918118893473],[89.4517621397359,26.7910351921382],[89.4511189627819,26.7903895049017],[89.4502628793393,26.7895497191705],[89.4499790418875,26.7889697144163],[89.4499079610526,26.7885838067769],[89.4491232666964,26.788066183485],[89.4484798332021,26.7874842201295],[89.4470521840156,26.7863211607403],[89.4466466177501,26.7859547483065],[89.4456251244692,26.7850289188058],[89.4451247857063,26.7845125945905],[89.4445546094786,26.7838672567408],[89.4438400983918,26.7834143118002],[89.4431998033417,26.7827036932903],[89.4428449690426,26.7817377590406],[89.4424943571097,26.7803851427775],[89.4419266609115,26.7792253785338],[89.4410014330603,26.7776778226518],[89.4395788863908,26.7754850031556],[89.4388850303443,26.7739122327591],[89.4404272161115,26.7731672527079],[89.4432629111268,26.7721837364408],[89.4452504828095,26.7718684580575],[89.4469549009212,26.7713814837938],[89.4484697747779,26.7710780458357],[89.4496023680755,26.770802480972],[89.4499521690202,26.7707419295304],[89.4539925656254,26.7695927171988],[89.4555633179462,26.7691524190152],[89.4627275558095,26.7671459041397],[89.4740021639183,26.7633872913658],[89.4797651307957,26.7614655921367],[89.4797782219021,26.7613484213311],[89.4824057074113,26.7612320854762],[89.4848322209213,26.7610670485601],[89.4865564712908,26.7611253687245],[89.4875016668568,26.7611447643893],[89.4881518758068,26.7641912357894],[89.48830059356,26.7658089649256],[89.4879568395436,26.7679301829158],[89.4870647450847,26.7707071946256],[89.4868805760688,26.7731386333896],[89.4868943218416,26.7745888580436],[89.4866015295187,26.775416810022],[89.4860974561048,26.7768411730616],[89.4854241593669,26.7789791008202],[89.4841809583854,26.7809684670148],[89.483435539894,26.7834734717319],[89.4828857920394,26.786693285854],[89.483919586039,26.7905874065877],[89.4849736605137,26.7933197124799],[89.4855337502335,26.7968549993651],[89.4857439060701,26.7982645208969],[89.4860140791604,26.7997078156969],[89.4860768036164,26.8014654728563]]]},"properties":{"fill-opacity":0,"stroke-opacity":1,"stroke":"#ff0000","SID":"028","DID":"014","RID":"002","BID":"001","State":"West_Bengal","Division":"BuxaTR_WEST","Range":"Pana","Beat":"Pana","Beat_Ar":14.0011}},
{"type":"Feature","geometry":{"type":"Polygon","coordinates":[[[89.4875016668568,26.7611447643893],[89.4865564712908,26.7611253687245],[89.4848322209213,26.7610670485601],[89.4824057074113,26.7612320854762],[89.4797782219021,26.7613484213311],[89.4799167818375,26.76016084063],[89.4802929796449,26.7575392938794],[89.4805160303088,26.7559864721673],[89.4817212523822,26.7467247888785],[89.4823312717119,26.7401360098735],[89.4824835371252,26.7387006767052],[89.4823744998907,26.7304778375799],[89.4826038623294,26.728641805131],[89.4826616668839,26.72864176397],[89.4837386564222,26.7288876775629],[89.4859393437149,26.7290569341375],[89.488681403875,26.7290267255871],[89.4914691598765,26.7288752827015],[89.493897587242,26.7286816086777],[89.4966347432015,26.728613509286],[89.4966901712375,26.7285759802899],[89.4972737931804,26.7284618015688],[89.4978572643082,26.728348186096],[89.4990868427054,26.7281780969267],[89.5002539195719,26.7279497194419],[89.5019392545739,26.727606699768],[89.5032341764558,26.7274375741547],[89.5049838251291,26.7273273393824],[89.5067311330797,26.7271590142813],[89.5088028316258,26.7269336307587],[89.5113299415414,26.7265936570578],[89.5129488816933,26.72648330942],[89.5151507512931,26.7263746047315],[89.5170280530581,26.7263807359305],[89.5186468239038,26.7262700433687],[89.5202652542596,26.7262755232071],[89.5222083965649,26.7261658201705],[89.525056504633,26.7259425706321],[89.5263610862761,26.7258887545455],[89.5263537133178,26.7258307405419],[89.5261642005864,26.7242622850188],[89.5259131728712,26.7223450844773],[89.5257939841928,26.7201376872375],[89.525605314414,26.7183368460743],[89.525617918695,26.7152597267852],[89.5256256816125,26.7133718845546],[89.5265332271449,26.7132588944264],[89.5276014366354,26.7132042339718],[89.5286370602764,26.7131205883238],[89.5299312012406,26.7130956214555],[89.5312608494303,26.7130130116101],[89.5320375436244,26.7129575200997],[89.533266829586,26.7128164732703],[89.5348857083887,26.7126472253707],[89.537703623241,26.7123659669698],[89.5393855547679,26.712168065211],[89.5408435104603,26.7120278528363],[89.5411149396606,26.7120071344369],[89.5413875906961,26.7123329880891],[89.5432086980087,26.7156707307417],[89.5438548779563,26.7181239113455],[89.5444432827535,26.7212037701884],[89.5453203476364,26.7224793051955],[89.5459008730142,26.7231280700296],[89.5441537141356,26.7245532075991],[89.5403084169505,26.727175148222],[89.5365539174334,26.7303352000771],[89.534726772977,26.7322066651931],[89.5336975116835,26.7338280715925],[89.5320701012121,26.7372799605116],[89.5321855466177,26.7397817980215],[89.5320590786391,26.7424949369699],[89.5306861674789,26.7451152414441],[89.5292416238295,26.7474359711654],[89.5290492682135,26.7477479737252],[89.5272241221106,26.7496918048325],[89.5270091189478,26.7500378899223],[89.5241786666556,26.75190848785],[89.5220412598729,26.7527160304463],[89.5211072205848,26.7530689916555],[89.5194454964598,26.7543350020641],[89.5169166477347,26.7561587938569],[89.5151715503057,26.7581095166919],[89.5143131769153,26.7601770721962],[89.5132839243611,26.7616488781351],[89.511009830814,26.7632349345112],[89.5108280780076,26.7633922611203],[89.5080521548666,26.7635499053947],[89.5065510905318,26.763607350969],[89.5054912147432,26.7633775157689],[89.5029017419598,26.7628162122835],[89.5013056056463,26.7621924352771],[89.4984767493912,26.7623620155551],[89.4963498606108,26.7624310552141],[89.4936039884795,26.762003777544],[89.4902248239545,26.7609799008065],[89.4880671416507,26.7611557392119],[89.4875016668568,26.7611447643893]]]},"properties":{"fill-opacity":0,"stroke-opacity":1,"stroke":"#ff0000","SID":"028","DID":"014","RID":"002","BID":"003","State":"West_Bengal","Division":"BuxaTR_WEST","Range":"Pana","Beat":"Raimatong","Beat_Ar":19.7066}},
{"type":"Feature","geometry":{"type":"Polygon","coordinates":[[[89.5903864770462,26.5909307936518],[89.5900124872037,26.5909564100249],[89.5883303983359,26.5910096204101],[89.5863897568909,26.5911201241406],[89.5840630908766,26.5910552652923],[89.5839326673925,26.5910519245526],[89.5814127466395,26.590989457652],[89.580928226327,26.5910095117188],[89.5787616600979,26.5910976076385],[89.5764967292808,26.591323535566],[89.574038484606,26.5915484665331],[89.5720975098798,26.5917163096639],[89.5709353562422,26.5917128021626],[89.5706767895781,26.5917122755328],[89.5675723566254,26.5915288359148],[89.5653734185721,26.591579860674],[89.5634324383647,26.5917481502316],[89.5610391238903,26.5920313656814],[89.5581945431676,26.5921968150807],[89.555866787061,26.592421977657],[89.5533433568312,26.5925877629855],[89.551660914848,26.5927567335812],[89.5505599469766,26.593160178626],[89.5493918037487,26.5940274082486],[89.5480319047733,26.5951265558136],[89.5461510645517,26.5959335567725],[89.545997825417,26.5959606047574],[89.5462990117302,26.5947215590824],[89.5494281350444,26.5918250773354],[89.5495012726248,26.5904551207198],[89.5497089498786,26.5874291430361],[89.5494182233875,26.5854046579077],[89.549282282364,26.5829912842223],[89.5492628577114,26.5815278614161],[89.5492590081615,26.5812540711399],[89.5492234967812,26.5794352079065],[89.5491164952608,26.5779335390775],[89.5494744532795,26.5730807462083],[89.5497013361221,26.5702812902766],[89.549479785275,26.5679382191936],[89.5491741541277,26.5652331142767],[89.549185908101,26.5648133536898],[89.5490008038933,26.5633804968071],[89.5490305365287,26.5622112364842],[89.5491938506985,26.5608865430926],[89.5491843550148,26.5594833582409],[89.5491458174328,26.5578337294178],[89.5492248595932,26.5562265316191],[89.549266061856,26.5546978627644],[89.5494782498468,26.5530666534845],[89.5495286599507,26.5517443162888],[89.5497514941875,26.5499725485527],[89.55005945818,26.5476169348285],[89.5506681406725,26.5453375709391],[89.5521194895347,26.5431440547205],[89.5526693093365,26.5430500695708],[89.5556096904937,26.5424849579939],[89.557653418871,26.5421473157919],[89.558676226198,26.5423552404776],[89.5587990477667,26.5423804043393],[89.5608364877646,26.5436494023976],[89.5612866245051,26.5440570468062],[89.5619817616997,26.5446864814467],[89.5627441873016,26.5460664500971],[89.563249594361,26.5471009543829],[89.5634172979248,26.5471969696865],[89.5636507055807,26.5471884829222],[89.5670461570642,26.5509788579081],[89.5684116355846,26.5528575107005],[89.5688534336962,26.5534654476404],[89.5698774493573,26.5547525260183],[89.5704614872329,26.5548986478157],[89.5723994612682,26.5547054991008],[89.5739282651889,26.5545380019449],[89.5755237397381,26.554657963856],[89.5767982922101,26.554718858745],[89.5785195533687,26.5547240251809],[89.5808134628054,26.5546162100757],[89.5829188448357,26.5546224132504],[89.5854042345674,26.5542856591734],[89.5868733984948,26.5539463813826],[89.5871974395118,26.5538559083983],[89.5871571364682,26.5545836577135],[89.5873081148545,26.5551815232858],[89.5873069059447,26.5555030263187],[89.5875598714135,26.556330718433],[89.587583552322,26.5567168055701],[89.5876758978902,26.5568618553735],[89.5884738128168,26.5575915283565],[89.5891047605755,26.5579513748588],[89.5898254686545,26.558529617647],[89.5907343723139,26.560466158563],[89.5911163723528,26.5617292298301],[89.5914207649563,26.5635834100514],[89.5916653636339,26.565389188621],[89.5893505407461,26.56564434486],[89.5877143076468,26.5656406217074],[89.58454670402,26.5657983357538],[89.5831863551629,26.5658495807568],[89.5811808769106,26.5659598754356],[89.5797281887534,26.5658665975648],[89.5808923614412,26.5673017767548],[89.5815770303592,26.5687591986469],[89.5833269117808,26.5713161556403],[89.584485548308,26.5736278434921],[89.5855957409238,26.5754606466276],[89.5869540886821,26.5773916289383],[89.5882283775809,26.5789693338974],[89.5891659740285,26.5806441339212],[89.5892084249198,26.5807189553976],[89.5891773262261,26.5809657773652],[89.5891076850479,26.5815223920901],[89.5889073476308,26.5841760631758],[89.5893161098848,26.5863474612194],[89.5894285491526,26.5878856806304],[89.5896051392274,26.5890596752311],[89.5903864770462,26.5909307936518]]]},"properties":{"fill-opacity":0,"stroke-opacity":1,"stroke":"#ff0000","SID":"028","DID":"014","RID":"006","BID":"002","State":"West_Bengal","Division":"BuxaTR_WEST","Range":"EastDamanpur","Beat":"Checko","Beat_Ar":17.0174}},
{"type":"Feature","geometry":{"type":"Polygon","coordinates":[[[89.5470447075271,26.609920548318],[89.541414807332,26.6102110186488],[89.5330476230569,26.6107259843436],[89.5326484605804,26.6107522882038],[89.5282235481015,26.6110486925595],[89.5277114966782,26.6110231789346],[89.5273156355871,26.6096357101191],[89.5268203394787,26.6079681430043],[89.526256551519,26.6059042369946],[89.5253676768256,26.6010902559985],[89.5245995823646,26.5968463245557],[89.5245251267266,26.5966626875094],[89.5243470436377,26.5935903848138],[89.5240200453099,26.5919570933058],[89.5240332326964,26.5887781101835],[89.5250019199816,26.5858173083273],[89.5272065344185,26.583805736212],[89.5273098126627,26.5836915397653],[89.5271540986081,26.5837321303083],[89.5277160055594,26.5832100105735],[89.5284293691755,26.5824575486266],[89.5284326690515,26.5816444720576],[89.5283105503961,26.5796113486507],[89.5284504767707,26.5773469777348],[89.5288500874875,26.5747930076787],[89.5289845338937,26.5732258290863],[89.5291820878002,26.5721811047123],[89.5295098286987,26.5711947665063],[89.5301613470148,26.5702097383669],[89.5303580594317,26.5693973998112],[89.5306908756979,26.5671915824041],[89.5310200699259,26.5658569398299],[89.5310381184356,26.5657281478157],[89.5312856447527,26.5641154732726],[89.5314887517421,26.5617356380151],[89.5316910266172,26.5595292488025],[89.531571902808,26.5573804659876],[89.5310828799775,26.5554855271862],[89.531048264985,26.5553477133791],[89.5310603794458,26.55239349694],[89.5327326871429,26.5490697350427],[89.5341495862002,26.546204724108],[89.536195298997,26.5454074009686],[89.5397695367753,26.5450749143127],[89.5439846313198,26.5445142894566],[89.5487224369351,26.5437239363133],[89.5521194895347,26.5431440547205],[89.5506681406725,26.5453375709391],[89.55005945818,26.5476169348285],[89.5497514941875,26.5499725485527],[89.5495286599507,26.5517443162888],[89.5494782498468,26.5530666534845],[89.549266061856,26.5546978627644],[89.5492248595932,26.5562265316191],[89.5491458174328,26.5578337294178],[89.5491843550148,26.5594833582409],[89.5491938506985,26.5608865430926],[89.5490305365287,26.5622112364842],[89.5490008038933,26.5633804968071],[89.549185908101,26.5648133536898],[89.5491741541277,26.5652331142767],[89.549479785275,26.5679382191936],[89.5497013361221,26.5702812902766],[89.5494744532795,26.5730807462083],[89.5491164952608,26.5779335390775],[89.5492234967812,26.5794352079065],[89.5492590081615,26.5812540711399],[89.5492628577114,26.5815278614161],[89.549282282364,26.5829912842223],[89.5494182233875,26.5854046579077],[89.5497089498786,26.5874291430361],[89.5495012726248,26.5904551207198],[89.5494281350444,26.5918250773354],[89.5462990117302,26.5947215590824],[89.545997825417,26.5959606047574],[89.5459622346732,26.5961022790613],[89.5454603098865,26.5973254585384],[89.5453077494614,26.5990696587889],[89.5457673718444,26.6002620750448],[89.545884770387,26.6016857949291],[89.5459917560444,26.6031981787956],[89.5464972592806,26.6048590745435],[89.5466281183884,26.6073150839478],[89.5469213394667,26.609348001972],[89.5470447075271,26.609920548318]]]},"properties":{"fill-opacity":0,"stroke-opacity":1,"stroke":"#ff0000","SID":"028","DID":"014","RID":"006","BID":"001","State":"West_Bengal","Division":"BuxaTR_WEST","Range":"EastDamanpur","Beat":"EastDamanpur","Beat_Ar":14.1004}},
{"type":"Feature","geometry":{"type":"Polygon","coordinates":[[[89.5903864770462,26.5909307936518],[89.5905633853923,26.5913337760008],[89.5910274596556,26.5921026909],[89.5912276911023,26.5957730221558],[89.5899456157051,26.5998017343337],[89.5892090808663,26.6014656332985],[89.5887846375991,26.6022129025881],[89.5885289948296,26.6028107944047],[89.5877156905466,26.6048827620083],[89.5872640540301,26.6075905583599],[89.5873107528578,26.6078923476062],[89.5871849340339,26.6086543246043],[89.5869614559722,26.6107622809436],[89.5869357163926,26.614414550433],[89.5870374503554,26.6154500688545],[89.5872731418662,26.6176264971056],[89.58725956528,26.6179041428319],[89.5871370737565,26.6205512925109],[89.5873716948449,26.6230345531612],[89.5879142797281,26.6257470240195],[89.5882717698036,26.6275695774033],[89.5888062209323,26.6304843307889],[89.5888259609778,26.6305723776493],[89.5852029623894,26.6311813928764],[89.5828665845923,26.6314835401645],[89.5786924777205,26.6317161334437],[89.5751180457915,26.6320852132022],[89.5745428935033,26.6321011804885],[89.5713009378268,26.6321901111376],[89.5686493476876,26.6321822048398],[89.5658668649099,26.6322318121341],[89.5637974345379,26.6323417594018],[89.5621150358492,26.6323365901572],[89.5594629835757,26.6324447050614],[89.5593022618052,26.6324442141502],[89.5593371458867,26.6312244289601],[89.5584442632004,26.6276795204231],[89.5571034536143,26.6231457172814],[89.556422372692,26.6213435346862],[89.5557612415362,26.6195989409574],[89.5541581433826,26.6160516181901],[89.5522326552186,26.6121547200593],[89.55067053053,26.6097414237931],[89.5483498841409,26.6099624493982],[89.5475969888528,26.6098922543669],[89.5470447075271,26.609920548318],[89.5469213394667,26.609348001972],[89.5466281183884,26.6073150839478],[89.5464972592806,26.6048590745435],[89.5459917560444,26.6031981787956],[89.545884770387,26.6016857949291],[89.5457673718444,26.6002620750448],[89.5453077494614,26.5990696587889],[89.5454603098865,26.5973254585384],[89.5459622346732,26.5961022790613],[89.545997825417,26.5959606047574],[89.5461510645517,26.5959335567725],[89.5480319047733,26.5951265558136],[89.5493918037487,26.5940274082486],[89.5505599469766,26.593160178626],[89.551660914848,26.5927567335812],[89.5533433568312,26.5925877629855],[89.555866787061,26.592421977657],[89.5581945431676,26.5921968150807],[89.5610391238903,26.5920313656814],[89.5634324383647,26.5917481502316],[89.5653734185721,26.591579860674],[89.5675723566254,26.5915288359148],[89.5706767895781,26.5917122755328],[89.5709353562422,26.5917128021626],[89.5720975098798,26.5917163096639],[89.574038484606,26.5915484665331],[89.5764967292808,26.591323535566],[89.5787616600979,26.5910976076385],[89.580928226327,26.5910095117188],[89.5814127466395,26.590989457652],[89.5839326673925,26.5910519245526],[89.5840630908766,26.5910552652923],[89.5863897568909,26.5911201241406],[89.5883303983359,26.5910096204101],[89.5900124872037,26.5909564100249],[89.5903864770462,26.5909307936518]]]},"properties":{"fill-opacity":0,"stroke-opacity":1,"stroke":"#ff0000","SID":"028","DID":"014","RID":"006","BID":"003","State":"West_Bengal","Division":"BuxaTR_WEST","Range":"EastDamanpur","Beat":"SouthRajabhatkhawa","Beat_Ar":15.6373}},
{"type":"Feature","geometry":{"type":"Polygon","coordinates":[[[89.6489507724634,26.5881493563241],[89.6455932015333,26.5886978377854],[89.6421490189376,26.588820007799],[89.6374769826515,26.5890614299067],[89.6330479301638,26.5886834491466],[89.6291106930639,26.5883673754896],[89.6286639083006,26.5883809547746],[89.627222803486,26.5884972864976],[89.626891359839,26.5885239221841],[89.6246870888248,26.5886698282181],[89.623687412281,26.5888490418964],[89.6231047967202,26.5889541144834],[89.6215081584782,26.5890118156096],[89.6204538792351,26.5890466794051],[89.6181617810154,26.5891291891332],[89.6164844524242,26.589339753115],[89.61020430061,26.5893292452705],[89.609583981885,26.5894205898461],[89.6068666127897,26.5898221690469],[89.6043011189385,26.5899109307782],[89.6014769056802,26.5900107395583],[89.599450427111,26.5902306776213],[89.5953804557062,26.5905654705791],[89.5951845872957,26.590571898836],[89.5937638043525,26.5906191384424],[89.5916292811189,26.590844689542],[89.5905245643095,26.5909210704138],[89.5903864770462,26.5909307936518],[89.5896051392274,26.5890596752311],[89.5894285491526,26.5878856806304],[89.5893161098848,26.5863474612194],[89.5889073476308,26.5841760631758],[89.5891076850479,26.5815223920901],[89.5891773262261,26.5809657773652],[89.5892084249198,26.5807189553976],[89.5891659740285,26.5806441339212],[89.5882283775809,26.5789693338974],[89.5869540886821,26.5773916289383],[89.5855957409238,26.5754606466276],[89.584485548308,26.5736278434921],[89.5833269117808,26.5713161556403],[89.5815770303592,26.5687591986469],[89.5808923614412,26.5673017767548],[89.5797281887534,26.5658665975648],[89.5811808769106,26.5659598754356],[89.5831863551629,26.5658495807568],[89.58454670402,26.5657983357538],[89.5877143076468,26.5656406217074],[89.5893505407461,26.56564434486],[89.5916653636339,26.565389188621],[89.5914207649563,26.5635834100514],[89.5911163723528,26.5617292298301],[89.5907343723139,26.560466158563],[89.5898254686545,26.558529617647],[89.5891047605755,26.5579513748588],[89.5884738128168,26.5575915283565],[89.5876758978902,26.5568618553735],[89.587583552322,26.5567168055701],[89.5875598714135,26.556330718433],[89.5873069059447,26.5555030263187],[89.5873081148545,26.5551815232858],[89.5871571364682,26.5545836577135],[89.5871974395118,26.5538559083983],[89.5889156300208,26.553378467782],[89.5905103979364,26.5529821949204],[89.5921662380004,26.553044330333],[89.5937612908486,26.5525904888172],[89.5949085668013,26.5531667480918],[89.5963710158384,26.5539738103473],[89.5977062334865,26.5546077229164],[89.5987878658891,26.5552991816023],[89.5998692022019,26.5560473183775],[89.6015888844691,26.5565680144097],[89.6028620073771,26.557029987178],[89.6034987174629,26.557203861073],[89.6037317665703,26.5573033208189],[89.604536040562,26.557649299301],[89.6059193915207,26.5581855784964],[89.608400769213,26.5590523543885],[89.6085931375211,26.5592817067666],[89.6098005003052,26.5599158188119],[89.6112670896351,26.5603216614246],[89.6128585992358,26.5608992241017],[89.6144514070558,26.5611324244854],[89.6161725007677,26.5612521932137],[89.616350691913,26.5612527068049],[89.6178938612067,26.5612568797143],[89.6189140586677,26.5608580801536],[89.6204901496437,26.5608057314169],[89.6219781085722,26.5601209862381],[89.6218480302605,26.5607513410256],[89.6222929472328,26.5612688239167],[89.6227353471526,26.5617854879429],[89.6234376518425,26.5619018394756],[89.6243940013464,26.5618474939339],[89.6244887537343,26.5620260491881],[89.6252169533441,26.5633970181143],[89.6256620531687,26.5639144873505],[89.6259166655,26.564316254375],[89.6264864232131,26.5650629757454],[89.6266189486239,26.5651835684374],[89.6274396246526,26.5659257240607],[89.6283321653319,26.566214716589],[89.6290338036606,26.5665030697168],[89.6289650071368,26.5675923948213],[89.629473009128,26.5680521654619],[89.6301091472621,26.5684549108341],[89.6308100105916,26.5690300617071],[89.6304245014525,26.5694876620987],[89.6306771100697,26.5705200037103],[89.6306760347972,26.5708643431551],[89.6304159465628,26.572124499513],[89.6296521253208,26.572409617804],[89.6292004374297,26.573898698953],[89.6301538889366,26.5747611400394],[89.6312363140155,26.5753369888125],[89.6316156555266,26.5759685559794],[89.6325050384679,26.577232442372],[89.632693288117,26.5772435353461],[89.633460967609,26.5773494949239],[89.6344789599938,26.577638695885],[89.6348607065349,26.5783271904236],[89.6355587454999,26.5790174042004],[89.6360060761123,26.5788464403609],[89.6365790162369,26.5794210565667],[89.6377249290761,26.5797679817211],[89.6385529900991,26.5798272511204],[89.6393191143862,26.5796576791782],[89.6404037301852,26.579545342104],[89.6411023294525,26.5800632169274],[89.6407815699361,26.5806932470834],[89.6410352288416,26.5814390376939],[89.6415414957771,26.5824720925274],[89.6421147284291,26.5829321881136],[89.6428799374707,26.5830485578744],[89.6440260239436,26.5833378997331],[89.6451071719203,26.584372470081],[89.6452945696264,26.5854622151133],[89.646950175485,26.586555827625],[89.6484747970773,26.5878779501284],[89.6489507724634,26.5881493563241]]]},"properties":{"fill-opacity":0,"stroke-opacity":1,"stroke":"#ff0000","SID":"028","DID":"014","RID":"004","BID":"001","State":"West_Bengal","Division":"BuxaTR_WEST","Range":"EastRajabhatkhawa","Beat":"Gadadhar","Beat_Ar":15.5838}},
{"type":"Feature","geometry":{"type":"Polygon","coordinates":[[[89.6615538401816,26.6016573773367],[89.6625564594206,26.6021758127583],[89.6630914815633,26.6037651103729],[89.6633136275539,26.6059059938276],[89.6632280903282,26.6093581119313],[89.6670649163667,26.6108170537643],[89.667150989649,26.6114705649781],[89.6675021637626,26.6141361335681],[89.667400381509,26.6146370311799],[89.6672052771453,26.6160699040438],[89.6672640394321,26.6174459355199],[89.6672595407436,26.618993318739],[89.6677021175907,26.6204846938352],[89.668142314215,26.622836474138],[89.6686455181414,26.6250733019543],[89.6688322633095,26.6265064825539],[89.6689164183245,26.6268861922438],[89.666696489825,26.6261319686147],[89.6660661232747,26.6261689742534],[89.6634267348224,26.6263239901349],[89.6588375655809,26.6269394068512],[89.654439359657,26.6274794148106],[89.6519209196216,26.627481093699],[89.64783573649,26.6274839948449],[89.6463319486555,26.6273883523816],[89.6447470641031,26.6275908621277],[89.6417529862932,26.6279252720585],[89.6383994863883,26.6283472389449],[89.6368405366047,26.6282794868256],[89.6354772532143,26.6282196164685],[89.6319513444902,26.6284172522399],[89.6279798215676,26.6289326505976],[89.6260382009227,26.6291497588989],[89.6207414802603,26.629494566554],[89.619332352047,26.6296448751898],[89.6176544518536,26.6298230481747],[89.6125721272902,26.6298597013128],[89.6094360934758,26.6298075750437],[89.6071433095294,26.6298882506942],[89.6054257425049,26.6299138828949],[89.6036423510203,26.630103236245],[89.60232870857,26.6302150745555],[89.5979314448425,26.6303872962264],[89.594347736883,26.6305226138678],[89.5888259609778,26.6305723776493],[89.5888062209323,26.6304843307889],[89.5882717698036,26.6275695774033],[89.5879142797281,26.6257470240195],[89.5873716948449,26.6230345531612],[89.5871370737565,26.6205512925109],[89.58725956528,26.6179041428319],[89.5897870102914,26.6174362308144],[89.590953355681,26.6170328763552],[89.5919010903023,26.6166858257262],[89.5920544174829,26.6166299622731],[89.5934778263071,26.6166921177533],[89.5965806083801,26.6168171752596],[89.5988450304553,26.6168816661235],[89.6007203874609,26.6168867724617],[89.6024026915209,26.6168334008639],[89.6049244768426,26.6165499997755],[89.6075134747725,26.6163828257182],[89.6102935804237,26.6161581658036],[89.6127526877895,26.6158166807828],[89.6154052157557,26.6154267058298],[89.6158598368524,26.6153603406841],[89.6187705962111,26.6150781937029],[89.6217468927615,26.6147374288618],[89.6237538510426,26.6144522412595],[89.6261471993739,26.6142260541702],[89.6302863442186,26.6137144398553],[89.6353970014726,26.6132053448398],[89.6361905368617,26.6131265537631],[89.6365572221056,26.6130904641264],[89.6394101394558,26.6128088470082],[89.6405527844105,26.6127164149494],[89.6421447979526,26.6125871964393],[89.6413573372082,26.6115325850682],[89.6391663434352,26.6089141100141],[89.6367187585311,26.6057136795982],[89.6350031417227,26.6036480204655],[89.6375645647567,26.6033965916073],[89.6406680146455,26.6031721366857],[89.6428675598068,26.6030615615386],[89.6461015494784,26.6028377357334],[89.6499802744668,26.6027890898153],[89.6532138723924,26.6026810102211],[89.6556087015897,26.6026866895462],[89.6571607409156,26.6025163199564],[89.6592956432127,26.602114657139],[89.6615538401816,26.6016573773367]]]},"properties":{"fill-opacity":0,"stroke-opacity":1,"stroke":"#ff0000","SID":"028","DID":"014","RID":"004","BID":"003","State":"West_Bengal","Division":"BuxaTR_WEST","Range":"EastRajabhatkhawa","Beat":"Panbari-North","Beat_Ar":14.8932}},
{"type":"Feature","geometry":{"type":"Polygon","coordinates":[[[89.6615538401816,26.6016573773367],[89.6592956432127,26.602114657139],[89.6571607409156,26.6025163199564],[89.6556087015897,26.6026866895462],[89.6532138723924,26.6026810102211],[89.6499802744668,26.6027890898153],[89.6461015494784,26.6028377357334],[89.6428675598068,26.6030615615386],[89.6406680146455,26.6031721366857],[89.6375645647567,26.6033965916073],[89.6350031417227,26.6036480204655],[89.6367187585311,26.6057136795982],[89.6391663434352,26.6089141100141],[89.6413573372082,26.6115325850682],[89.6421447979526,26.6125871964393],[89.6405527844105,26.6127164149494],[89.6394101394558,26.6128088470082],[89.6365572221056,26.6130904641264],[89.6361905368617,26.6131265537631],[89.6353970014726,26.6132053448398],[89.6302863442186,26.6137144398553],[89.6261471993739,26.6142260541702],[89.6237538510426,26.6144522412595],[89.6217468927615,26.6147374288618],[89.6187705962111,26.6150781937029],[89.6158598368524,26.6153603406841],[89.6154052157557,26.6154267058298],[89.6127526877895,26.6158166807828],[89.6102935804237,26.6161581658036],[89.6075134747725,26.6163828257182],[89.6049244768426,26.6165499997755],[89.6024026915209,26.6168334008639],[89.6007203874609,26.6168867724617],[89.5988450304553,26.6168816661235],[89.5965806083801,26.6168171752596],[89.5934778263071,26.6166921177533],[89.5920544174829,26.6166299622731],[89.5919010903023,26.6166858257262],[89.590953355681,26.6170328763552],[89.5897870102914,26.6174362308144],[89.58725956528,26.6179041428319],[89.5872731418662,26.6176264971056],[89.5870374503554,26.6154500688545],[89.5869357163926,26.614414550433],[89.5869614559722,26.6107622809436],[89.5871849340339,26.6086543246043],[89.5873107528578,26.6078923476062],[89.5872640540301,26.6075905583599],[89.5877156905466,26.6048827620083],[89.5885289948296,26.6028107944047],[89.5887846375991,26.6022129025881],[89.5892090808663,26.6014656332985],[89.5899456157051,26.5998017343337],[89.5912276911023,26.5957730221558],[89.5910274596556,26.5921026909],[89.5905633853923,26.5913337760008],[89.5903864770462,26.5909307936518],[89.5905245643095,26.5909210704138],[89.5916292811189,26.590844689542],[89.5937638043525,26.5906191384424],[89.5951845872957,26.590571898836],[89.5953804557062,26.5905654705791],[89.599450427111,26.5902306776213],[89.6014769056802,26.5900107395583],[89.6043011189385,26.5899109307782],[89.6068666127897,26.5898221690469],[89.609583981885,26.5894205898461],[89.61020430061,26.5893292452705],[89.6164844524242,26.589339753115],[89.6181617810154,26.5891291891332],[89.6204538792351,26.5890466794051],[89.6215081584782,26.5890118156096],[89.6231047967202,26.5889541144834],[89.623687412281,26.5888490418964],[89.6246870888248,26.5886698282181],[89.626891359839,26.5885239221841],[89.627222803486,26.5884972864976],[89.6286639083006,26.5883809547746],[89.6291106930639,26.5883673754896],[89.6330479301638,26.5886834491466],[89.6374769826515,26.5890614299067],[89.6421490189376,26.588820007799],[89.6455932015333,26.5886978377854],[89.6489507724634,26.5881493563241],[89.6496849181441,26.588568636362],[89.6505148581378,26.5880550661529],[89.6510270743864,26.5879986403451],[89.6515381997133,26.5874845364657],[89.6524961390595,26.5869705962727],[89.6529447197435,26.5863410298934],[89.6543471922785,26.5865740072648],[89.6557478869851,26.587379736291],[89.6545332788872,26.5881217224018],[89.6548500407091,26.5887533850284],[89.6554215034205,26.5890411414842],[89.6559938293217,26.5898455119529],[89.65637563769,26.5905914694039],[89.6570103960331,26.5915679744037],[89.6571343736557,26.5920267551638],[89.6577679874025,26.5933467467473],[89.6588507307333,26.5939223697102],[89.6598719399138,26.5940393231923],[89.6604460776153,26.5934677702257],[89.6610233172536,26.5926663482057],[89.6616620596903,26.5922666202647],[89.6622361880927,26.5924976347371],[89.6631878193944,26.5941049054869],[89.6630579930519,26.5947065216334],[89.663023075229,26.595480457646],[89.6620962680887,26.5965098839559],[89.6618683098848,26.598028584406],[89.6615156835683,26.5984576817849],[89.6611629410171,26.5997463174064],[89.6603008292817,26.6000883056556],[89.659874966245,26.6006510771057],[89.6614836502144,26.6016212558572],[89.6615538401816,26.6016573773367]]]},"properties":{"fill-opacity":0,"stroke-opacity":1,"stroke":"#ff0000","SID":"028","DID":"014","RID":"004","BID":"002","State":"West_Bengal","Division":"BuxaTR_WEST","Range":"EastRajabhatkhawa","Beat":"Panbari-South","Beat_Ar":17.0622}},
{"type":"Feature","geometry":{"type":"Polygon","coordinates":[[[89.4162122158936,26.8015155277082],[89.4141626641363,26.8015072848216],[89.4114342245975,26.801496205257],[89.410202042945,26.8014913024459],[89.405859770909,26.8013588684869],[89.4012622431208,26.8009958887933],[89.3966641141274,26.8007478266957],[89.391939502904,26.8001548287754],[89.3878519532382,26.7999079359202],[89.384660725098,26.7994358404702],[89.3823498513656,26.7989372976011],[89.3830813914012,26.7951920292542],[89.3832144668477,26.791904120513],[89.3834570279092,26.7893359706134],[89.3832562814639,26.7840425286057],[89.3838723938285,26.7755148286262],[89.384128289081,26.7708914919702],[89.3842637663496,26.7666782546641],[89.3842797658125,26.7636627798277],[89.3842834016008,26.7629791365765],[89.3844110162511,26.7607183722711],[89.3846589497485,26.757123055607],[89.384342148045,26.7519311262059],[89.3844219492562,26.7501578698232],[89.3844729630405,26.7490544027931],[89.3844818643622,26.7488041667311],[89.3846057286333,26.7453552977189],[89.3846859895101,26.7430250516723],[89.3868763708631,26.7428030919123],[89.3900052594709,26.7424150837481],[89.3933291503121,26.7421996559589],[89.3972243532704,26.74181466081],[89.3996537493748,26.7415382546073],[89.4007373721335,26.7414852329498],[89.4024579535439,26.7421808499598],[89.4057693901594,26.7439139826036],[89.4085711096434,26.7455305597034],[89.4088067749719,26.745646096521],[89.4101733278558,26.7463135541379],[89.4110950530299,26.7469360811731],[89.4127095271779,26.7477922473998],[89.414065480766,26.7485511444884],[89.4146692777718,26.7489342906151],[89.4125379242534,26.7504009055509],[89.4115466632741,26.7535295980977],[89.4117375198349,26.7555565080045],[89.4105848032865,26.7573368003315],[89.4102598929574,26.7589246796295],[89.4094598021131,26.760547750342],[89.4082472023603,26.7617101633943],[89.4076236491887,26.7627079326351],[89.4066296832558,26.7639048190621],[89.4055853655078,26.7645753956441],[89.4045726532209,26.7655036946009],[89.4047196189813,26.7667439464377],[89.4055089108347,26.7682234517353],[89.4061129300528,26.7700567478233],[89.4062936277005,26.7701325053808],[89.4077711503084,26.7707540321688],[89.4087784164459,26.7733986037695],[89.4096503452311,26.7749697592721],[89.4097922851464,26.7752396420086],[89.4104165465411,26.7785713352859],[89.4115435646375,26.7833977542543],[89.4122907315361,26.7873040773022],[89.4130344092722,26.7918993861423],[89.413871020347,26.7965307007057],[89.4141547704353,26.7981031865554],[89.4144066760332,26.7990225661609],[89.4163177413359,26.8005229137577],[89.4162122158936,26.8015155277082]]]},"properties":{"fill-opacity":0,"stroke-opacity":1,"stroke":"#ff0000","SID":"028","DID":"014","RID":"001","BID":"004","State":"West_Bengal","Division":"BuxaTR_WEST","Range":"Hamiltonganj","Beat":"Barnabari","Beat_Ar":16.5005}},
{"type":"Feature","geometry":{"type":"Polygon","coordinates":[[[89.4077711503084,26.7707540321688],[89.4062936277005,26.7701325053808],[89.4061129300528,26.7700567478233],[89.4055089108347,26.7682234517353],[89.4047196189813,26.7667439464377],[89.4045726532209,26.7655036946009],[89.4055853655078,26.7645753956441],[89.4066296832558,26.7639048190621],[89.4076236491887,26.7627079326351],[89.4082472023603,26.7617101633943],[89.4094598021131,26.760547750342],[89.4102598929574,26.7589246796295],[89.4105848032865,26.7573368003315],[89.4117375198349,26.7555565080045],[89.4115466632741,26.7535295980977],[89.4125379242534,26.7504009055509],[89.4146692777718,26.7489342906151],[89.4168365862804,26.7498091339638],[89.418757436975,26.7502303969098],[89.420400121302,26.7504671681189],[89.4228714469877,26.7508836945397],[89.4248134614598,26.7510968171916],[89.4272958499794,26.7502988031845],[89.4289637642692,26.7500149050869],[89.4291497982208,26.7499913115372],[89.4293118524593,26.7502730986336],[89.4290091344441,26.750488511853],[89.4290988433749,26.7506514558917],[89.4292187171738,26.7508143772449],[89.4292177937661,26.7510038996882],[89.4292162108106,26.7513287952943],[89.4293653055201,26.7516544251959],[89.4292429244649,26.7520059220272],[89.4292426606696,26.7520600712881],[89.4292725618192,26.7521141979087],[89.4295121852481,26.7524673966003],[89.4298130627602,26.7526310269312],[89.4301440808537,26.7527675607204],[89.4302941272095,26.7529307401069],[89.4306552094864,26.7531216793845],[89.4308359483451,26.7531765367397],[89.4311972951659,26.7533133253461],[89.4314980202862,26.7534769534868],[89.4317987756389,26.7536679359424],[89.4319793846926,26.7537498663805],[89.432280662681,26.7538322673787],[89.4324007808724,26.7539139634578],[89.4326713663641,26.754104403317],[89.4330018979533,26.754376583437],[89.4331514268404,26.7546480578675],[89.4332708919721,26.7548651260709],[89.4335719121915,26.7550016733235],[89.4340514580539,26.7556536227424],[89.4341112441455,26.7557350826313],[89.4341101985158,26.7559516792315],[89.4339883510254,26.7561948812541],[89.4339873052019,26.7564114778495],[89.4339866515705,26.7565468507184],[89.4339857364974,26.7567363727309],[89.4339550474123,26.756844694714],[89.4339546552237,26.7569259184316],[89.434044503876,26.7570615021671],[89.4343439669007,26.7575232242553],[89.4345550115639,26.7575509781403],[89.4346150602056,26.7575782886131],[89.4346748743222,26.7576868211573],[89.4347349496283,26.7577412045448],[89.4351279207106,26.757580420243],[89.4351574349148,26.7577157690909],[89.4352462459176,26.7580682304053],[89.4352752423598,26.7583121594109],[89.4352748511567,26.7583933830787],[89.4352744599559,26.7584746067457],[89.4352435108963,26.7586370780625],[89.4351823915016,26.7587992913699],[89.4350832715592,26.7590132164122],[89.4351815300158,26.7589679437822],[89.4352901319843,26.7588706758035],[89.4353838782673,26.7587041832957],[89.4356155510371,26.7586355598942],[89.4356780185178,26.7587051472671],[89.4357700546702,26.7589143129168],[89.4358921008718,26.7591234559595],[89.4360144313023,26.759305240756],[89.4361686808487,26.7596260157396],[89.4362130893832,26.7598209997934],[89.4362451384559,26.7599329155332],[89.4363977497802,26.7600861912846],[89.4365977558335,26.7603097708264],[89.4366744503502,26.760560547388],[89.4367812208804,26.760853884396],[89.4367646341607,26.7611459359117],[89.4368422099034,26.7612297519072],[89.4370424817487,26.7614118721503],[89.4372424915146,26.7616354505986],[89.4373493560044,26.7618862022124],[89.4373782871776,26.7621244909142],[89.4373593892857,26.762395132938],[89.4372053800928,26.7625424979814],[89.4373897071491,26.7629052676044],[89.4373709397017,26.7631364265279],[89.4374142136369,26.7635401107902],[89.4374331013863,26.7637793474923],[89.4374318819313,26.7640438875893],[89.4374232369497,26.7642803018767],[89.4374138936063,26.7646357325099],[89.4372402183592,26.7652173146178],[89.4372235319328,26.7655262877633],[89.4370852565517,26.7660618240246],[89.4370731992104,26.7664762227529],[89.4370612752999,26.766863828927],[89.4370230267585,26.7674939511354],[89.4370267133987,26.7677488528712],[89.4370789177616,26.7683994890706],[89.4369222391206,26.7690708599864],[89.4369081461886,26.7694111100036],[89.4368937199748,26.7697747704134],[89.4369529649265,26.770535037736],[89.4371076662764,26.7713011034297],[89.4374227225525,26.7721600134022],[89.4376878611618,26.7729728978305],[89.4380866381829,26.7736913588766],[89.4388850303443,26.7739122327591],[89.4395788863908,26.7754850031556],[89.4410014330603,26.7776778226518],[89.4419266609115,26.7792253785338],[89.4424943571097,26.7803851427775],[89.4428449690426,26.7817377590406],[89.4431998033417,26.7827036932903],[89.4438400983918,26.7834143118002],[89.4445546094786,26.7838672567408],[89.4451247857063,26.7845125945905],[89.4456251244692,26.7850289188058],[89.4466466177501,26.7859547483065],[89.4470521840156,26.7863211607403],[89.4484798332021,26.7874842201295],[89.4491232666964,26.788066183485],[89.4499079610526,26.7885838067769],[89.4499790418875,26.7889697144163],[89.4502628793393,26.7895497191705],[89.4511189627819,26.7903895049017],[89.4517621397359,26.7910351921382],[89.4530483887537,26.7918118893473],[89.4543362085629,26.7922673485292],[89.4551202432854,26.7929135444704],[89.4556908047199,26.7934945336177],[89.4559753921435,26.7939456390786],[89.4569048805678,26.7946571625939],[89.4576914613469,26.7953033169259],[89.4584024772207,26.7965278020747],[89.45861345242,26.7971079753367],[89.4590920094479,26.7980367704386],[89.4579097652294,26.7975844987036],[89.4566341183316,26.7966616588464],[89.4552278804206,26.7967708975595],[89.4526664696116,26.7971054797824],[89.448696627421,26.798008889922],[89.4457505715723,26.7988016091282],[89.4424221917071,26.7991331344681],[89.4411669682427,26.7992060064116],[89.438711956751,26.7993483327188],[89.4362781100602,26.7997980758648],[89.4347474089523,26.7991032352158],[89.4327123398292,26.7966847595522],[89.4304190424635,26.794609252819],[89.4274821233963,26.7935647564802],[89.4241617001427,26.7922882991382],[89.4210960347192,26.7913577686022],[89.4190607823513,26.7890532987509],[89.4165099307877,26.7877804909711],[89.4154935268094,26.7863986532754],[89.4147374291668,26.7837547312008],[89.4153907989283,26.7813468482866],[89.4145119478499,26.778128560932],[89.4138789319973,26.7765186705683],[89.4128677684923,26.774104020853],[89.4098115392312,26.7714505898694],[89.4077711503084,26.7707540321688]]]},"properties":{"fill-opacity":0,"stroke-opacity":1,"stroke":"#ff0000","SID":"028","DID":"014","RID":"001","BID":"002","State":"West_Bengal","Division":"BuxaTR_WEST","Range":"Hamiltonganj","Beat":"Bhutri","Beat_Ar":13.981}},
{"type":"Feature","geometry":{"type":"Polygon","coordinates":[[[89.4291497982208,26.7499913115372],[89.4289637642692,26.7500149050869],[89.4272958499794,26.7502988031845],[89.4248134614598,26.7510968171916],[89.4228714469877,26.7508836945397],[89.420400121302,26.7504671681189],[89.418757436975,26.7502303969098],[89.4168365862804,26.7498091339638],[89.4146692777718,26.7489342906151],[89.414065480766,26.7485511444884],[89.4127095271779,26.7477922473998],[89.4110950530299,26.7469360811731],[89.4101733278558,26.7463135541379],[89.4088067749719,26.745646096521],[89.4085711096434,26.7455305597034],[89.4057693901594,26.7439139826036],[89.4024579535439,26.7421808499598],[89.4007373721335,26.7414852329498],[89.3996537493748,26.7415382546073],[89.3972243532704,26.74181466081],[89.3933291503121,26.7421996559589],[89.3900052594709,26.7424150837481],[89.3868763708631,26.7428030919123],[89.3846859895101,26.7430250516723],[89.384742760123,26.7413479044963],[89.3847558593972,26.7388815359783],[89.3861389680782,26.7368321168326],[89.390042284896,26.7348958683599],[89.3918817580702,26.733053991595],[89.3946382556071,26.7312154710222],[89.3975093519102,26.7295836142866],[89.3976266739424,26.7287615057148],[89.3976848474261,26.728689017234],[89.397659973062,26.7286331414472],[89.3974637388441,26.7281934401443],[89.3971688612809,26.7274072672124],[89.3972603407989,26.7257444395467],[89.3970319214902,26.7242531318951],[89.3966463246869,26.7225470665941],[89.3958636607207,26.7208398373765],[89.394137062991,26.7184895916562],[89.3927504318796,26.7164752466567],[89.3921743727734,26.7156413437558],[89.3909980623845,26.7137904559899],[89.3903795942675,26.711444781609],[89.389917114218,26.7090998288369],[89.3901642302976,26.7070414928768],[89.3904093101912,26.7058357168164],[89.3910430199998,26.7052705364122],[89.3919964793057,26.7045645873798],[89.3930252476457,26.7043559354825],[89.3946863073166,26.7042916510451],[89.3959530613182,26.7037289591677],[89.3957984892958,26.7030186691766],[89.3950159320128,26.7018086231132],[89.3940717903002,26.7007394787892],[89.3935262413863,26.699388056312],[89.3932163507216,26.6981084851368],[89.3922718745281,26.6971109628678],[89.3914089860929,26.695899990812],[89.3913836618595,26.6954580346586],[89.3913378337409,26.6946217360308],[89.3918163176285,26.6939134017127],[89.3922912694128,26.6934183064917],[89.3935582523192,26.693282329796],[89.3946655861741,26.6929318870851],[89.3949857537964,26.6922231264464],[89.3949902724996,26.6913711048343],[89.3948394624308,26.6899503708168],[89.3953206340073,26.6887450827163],[89.3959614921486,26.6872573302407],[89.3962010046094,26.6866190198569],[89.3961272454548,26.6858379914261],[89.3952648553385,26.6840590495275],[89.3945635198454,26.682209986412],[89.3943330632382,26.6811445305999],[89.3949738861727,26.6796559362554],[89.3966418799377,26.6777460412056],[89.3979912867233,26.676686453187],[89.3995768245789,26.6756284705736],[89.4012417141765,26.6747831747798],[89.403140416061,26.6743650605009],[89.4047218029356,26.6740876900049],[89.4065389287127,26.6743790505258],[89.4083564516589,26.6745998791031],[89.4098560726724,26.6746061277264],[89.4109634112663,26.6746816926668],[89.4124645600592,26.6749005398038],[89.413884412177,26.6752611903179],[89.4151439037082,26.6760478630657],[89.4157716406224,26.6771155184418],[89.4157665122655,26.6781091164739],[89.4153663647278,26.6792437187233],[89.4146482995966,26.680660689559],[89.4133732515846,26.6824303742758],[89.4119408820387,26.6844836326261],[89.411380267836,26.6860431306562],[89.4113689069372,26.6882517207326],[89.4113682090308,26.6883859678646],[89.4116750110788,26.690304295381],[89.4125600927622,26.6921409966429],[89.4133534594983,26.6932126479981],[89.4142744083575,26.6944158511268],[89.4140955475412,26.6945298785604],[89.4137227588874,26.6946951933353],[89.4129476047606,26.6949708396188],[89.4121110899239,26.6954405567685],[89.4118776446226,26.6958904434554],[89.4119028413617,26.6963792096677],[89.4118993812646,26.697065109099],[89.4120234375359,26.6978656468377],[89.4118070239693,26.6983979946309],[89.4117610021775,26.6990453996165],[89.4117583228906,26.6995784379782],[89.4118401377714,26.7003026878588],[89.4123472414029,26.7008763326224],[89.4124698921973,26.7014481678854],[89.4128067688714,26.7019073166317],[89.4134382658904,26.7032428533148],[89.4131794500169,26.7037372716723],[89.4130068543472,26.7045748898692],[89.4134271303059,26.7054144910528],[89.4137203559258,26.7060633053764],[89.4135023697324,26.7069386029841],[89.4134982973819,26.7077390059644],[89.4134554211245,26.7082718805331],[89.4131103704008,26.7089183198569],[89.4131066031976,26.7096420112311],[89.4126820747673,26.7101358254867],[89.412168639072,26.7107811215542],[89.4119547203118,26.7113517987206],[89.4121160231523,26.7127241741141],[89.4116873891538,26.7135223221127],[89.4114725190483,26.714245296814],[89.4112157047674,26.7148533444595],[89.4109141335359,26.7153476209285],[89.4105725081853,26.7158036594658],[89.4104865789906,26.7164125421583],[89.4101011247574,26.7170971672182],[89.4100981298727,26.7176685618728],[89.41000889537,26.7184297658871],[89.4099633419807,26.7189635119536],[89.4098742675295,26.7196869240543],[89.4095725064113,26.7207142102901],[89.409612233865,26.7212857435572],[89.4098189288067,26.7221627302131],[89.4101533323886,26.7231165632055],[89.4099378056714,26.7239918306596],[89.409468449495,26.7243713021571],[89.4090443216394,26.7247503221562],[89.4090410066568,26.725397863879],[89.408909513923,26.7260449888127],[89.4090348518055,26.7265787259778],[89.4088601602495,26.7273402150941],[89.4089418281919,26.728064465425],[89.4089385134516,26.7287120068812],[89.409040543395,26.7289098127916],[89.409316918019,26.7294372520379],[89.4091855779671,26.7300460213059],[89.4093508219333,26.7311521345867],[89.4090895589276,26.7321031539176],[89.4089181569369,26.7327117575291],[89.4088700719622,26.7337407473277],[89.4089097990454,26.7343500698877],[89.4093700723129,26.7352665516821],[89.4104632811428,26.7372517700676],[89.4110594896533,26.7376242932684],[89.4123564125288,26.7381305502712],[89.4140872638683,26.7387785449484],[89.415941166395,26.7394540526388],[89.4167444906224,26.7396524500477],[89.4172710661732,26.7399052226007],[89.4174557870858,26.7401563403684],[89.4176394819893,26.7406029043968],[89.4177907774533,26.7410210271259],[89.4180673507114,26.7414954256706],[89.4182510469063,26.7419417066665],[89.418498873452,26.7421380437313],[89.4187418517416,26.7423234303552],[89.4193649164202,26.7428676765423],[89.4198429583936,26.7437630725871],[89.4195064506799,26.7447095043056],[89.4193556287027,26.74470904271],[89.4192348353724,26.7447356352682],[89.4189628358771,26.7448697811373],[89.4185700228846,26.7450037273245],[89.4184793921399,26.7450302989619],[89.4180560110676,26.7452454882906],[89.4175426672922,26.7453515917242],[89.4173312673615,26.7454321088669],[89.4171184930151,26.7457560181077],[89.4173581735444,26.7460548097481],[89.4177198888673,26.7461106920913],[89.4182928897475,26.7461399211481],[89.4184441206718,26.7460594415472],[89.4185049888958,26.7459513839859],[89.4186565967223,26.7457623247961],[89.4187474933909,26.7456813215622],[89.4189889478051,26.7456552118343],[89.4196516415836,26.7458476686293],[89.4197118374575,26.7458749842666],[89.4197723017728,26.7458481504107],[89.4199542312097,26.7456593497651],[89.4203471558616,26.7454712518485],[89.4203468877136,26.745525401308],[89.4204969100611,26.7456885921545],[89.4207984261598,26.7457168693596],[89.420919220152,26.7456902754467],[89.4209796840883,26.7456634410905],[89.4211314445447,26.745474377849],[89.4211919083195,26.7454475434081],[89.4213124342469,26.7454750986177],[89.4213723626553,26.7455565629855],[89.4214317326248,26.7457192530612],[89.4215206239263,26.7460446508858],[89.4216406155259,26.7461805046517],[89.4217304440034,26.746316379284],[89.4219100981071,26.7465878463658],[89.4220296897855,26.746804923884],[89.4221798264709,26.7469139649205],[89.4224204812872,26.7470502975233],[89.4225402079982,26.7472402998349],[89.4226894313416,26.7475656543472],[89.4227776605578,26.748026424604],[89.4229276661841,26.7481625394368],[89.4230178945837,26.7482169070245],[89.4232888540395,26.7483264239885],[89.4234394177041,26.7483813125765],[89.423529913104,26.7483815304359],[89.4238015395736,26.748355672935],[89.4241031967123,26.7483568681052],[89.4246462885439,26.7483048700097],[89.4248274157345,26.7482785114323],[89.4248877471232,26.7482787500829],[89.4252802980229,26.7481989356628],[89.4254915923303,26.7481728364719],[89.4256422618182,26.7481732929426],[89.425702858708,26.7481193818993],[89.4259140200448,26.7481203567615],[89.4262152786169,26.7482027714739],[89.4263661052325,26.748203225591],[89.4265469667128,26.748231014174],[89.427089659493,26.7482602307767],[89.4273611524867,26.7482614411622],[89.4276624124792,26.748343852743],[89.4279934437173,26.7485077472768],[89.4282637193652,26.7487252727252],[89.4283536900082,26.7488340680728],[89.4285340245836,26.7489701526512],[89.4288944310279,26.749296470348],[89.4289541029911,26.7494320804599],[89.4289827938221,26.7497030878897],[89.4291497982208,26.7499913115372]]]},"properties":{"fill-opacity":0,"stroke-opacity":1,"stroke":"#ff0000","SID":"028","DID":"014","RID":"001","BID":"003","State":"West_Bengal","Division":"BuxaTR_WEST","Range":"Hamiltonganj","Beat":"Godamdabri","Beat_Ar":14.5194}},
{"type":"Feature","geometry":{"type":"Polygon","coordinates":[[[89.3823498513656,26.7989372976011],[89.384660725098,26.7994358404702],[89.3878519532382,26.7999079359202],[89.391939502904,26.8001548287754],[89.3966641141274,26.8007478266957],[89.4012622431208,26.8009958887933],[89.405859770909,26.8013588684869],[89.410202042945,26.8014913024459],[89.4114342245975,26.801496205257],[89.4141626641363,26.8015072848216],[89.4162122158936,26.8015155277082],[89.4161831936642,26.8017851405945],[89.4169409230044,26.8036250101778],[89.4184637112203,26.80638642811],[89.4197343694869,26.8077693464904],[89.4208776322876,26.8094961779622],[89.4228717900422,26.8105178637694],[89.4238126442436,26.811000215042],[89.4237810832654,26.8112791606589],[89.4236811367942,26.8121476357795],[89.4235575451247,26.8122199479645],[89.4221399506402,26.8130599536375],[89.4226462482803,26.8144398163461],[89.4243000682208,26.8161679596634],[89.4269736332719,26.8187044641126],[89.4285951560403,26.8198787270366],[89.4295249860686,26.8205512236311],[89.4320733177829,26.8225133072772],[89.4345015891193,26.8233262405061],[89.4370534566392,26.8245986784206],[89.4394818122778,26.8254118047701],[89.4398644879858,26.8258726569879],[89.4394713967173,26.8275929763745],[89.4398517194476,26.8285126824002],[89.4420222507472,26.8290954497675],[89.442222985481,26.8291796951539],[89.4455993834872,26.8306011927223],[89.4491785844665,26.8311891632893],[89.4504824398067,26.8304527075117],[89.4506782800768,26.830522326428],[89.4508892872533,26.8305977114502],[89.451193159633,26.830705983078],[89.4540634035575,26.8317294832233],[89.4508107309747,26.8355263424832],[89.4476383865546,26.8382774649363],[89.4438060383535,26.8411441257793],[89.4406104905715,26.8418186190179],[89.4347526730979,26.8395246114325],[89.4339392318138,26.8392065890332],[89.4311349917797,26.8375071626066],[89.4254244508335,26.8329833776176],[89.4201725086948,26.8293783226896],[89.4192321925634,26.8287992170939],[89.4190686682954,26.8287850675642],[89.4187843025512,26.8288133054829],[89.4186433174376,26.8288415127716],[89.417689340296,26.8284895530358],[89.4149826971987,26.8274907369198],[89.4101845382919,26.8253133672875],[89.4074457962788,26.8232470237932],[89.4033309213977,26.8212777774704],[89.4005882255288,26.8200331192326],[89.3947760538231,26.8165967603553],[89.3937480740707,26.815989577717],[89.3927099562052,26.8153751548321],[89.3893964147758,26.8137173884514],[89.3852874146296,26.811233426025],[89.3835778225958,26.8096849960999],[89.3829028159249,26.8075234745716],[89.3822317206644,26.8041295047788],[89.3824766740607,26.8015613359121],[89.3822567970729,26.7994024046946],[89.3823498513656,26.7989372976011]]]},"properties":{"fill-opacity":0,"stroke-opacity":1,"stroke":"#ff0000","SID":"028","DID":"014","RID":"001","BID":"001","State":"West_Bengal","Division":"BuxaTR_WEST","Range":"Hamiltonganj","Beat":"Rangamati","Beat_Ar":12.1514}}
]}