{"type":"FeatureCollection", "features": [
{"type":"Feature","geometry":{"type":"Polygon","coordinates":[[[89.4818768036164,26.7963654728563],[89.4818140791604,26.794607815696903],[89.4815439060701,26.7931645208969],[89.4813337502335,26.7917549993651],[89.4807736605137,26.7882197124799],[89.479719586039,26.785487406587702],[89.4786857920394,26.781593285854],[89.479235539894,26.7783734717319],[89.4799809583854,26.775868467014803],[89.4812241593669,26.773879100820203],[89.4818974561048,26.771741173061603],[89.4824015295187,26.770316810022003],[89.4826943218416,26.7694888580436],[89.4826805760688,26.7680386333896],[89.4828647450847,26.765607194625602],[89.4837568395436,26.762830182915803],[89.48410059356,26.760708964925602],[89.48395187580681,26.759091235789402],[89.4833016668568,26.7560447643893],[89.4838671416507,26.756055739211902],[89.48602482395451,26.7558799008065],[89.48940398847951,26.756903777544],[89.49214986061081,26.757331055214102],[89.4942767493912,26.757262015555103],[89.4971056056463,26.7570924352771],[89.4987017419598,26.7577162122835],[89.5012912147432,26.758277515768903],[89.5023510905318,26.758507350969],[89.5038521548666,26.758449905394702],[89.50662807800761,26.7582922611203],[89.506809830814,26.7581349345112],[89.50908392436111,26.756548878135103],[89.5101131769153,26.7550770721962],[89.5109715503057,26.7530095166919],[89.5127166477347,26.751058793856902],[89.5152454964598,26.7492350020641],[89.5169072205848,26.7479689916555],[89.51784125987291,26.747616030446302],[89.5179733397508,26.747882798149103],[89.5180632466117,26.7480386267638],[89.5187817101845,26.748766652137903],[89.5212913945343,26.7509460397793],[89.5241219616459,26.7509298833671],[89.5249283439027,26.7510511777093],[89.5285642363018,26.7520586510409],[89.53117385179671,26.753856911253703],[89.534627461497,26.754572634673803],[89.5367654884399,26.754890877466202],[89.5371121659073,26.7549420929439],[89.5380884562812,26.7553547451155],[89.5418385690748,26.7574195502875],[89.543973887632,26.757798906371],[89.5459063580108,26.7566756794625],[89.5478392996665,26.7567436059639],[89.5473153241694,26.757023459454903],[89.5468329578499,26.760210595556302],[89.5471248969605,26.7620911793717],[89.54714869445141,26.7624425769194],[89.5472504830433,26.7640556490918],[89.5474661523649,26.7661612598095],[89.5474888194593,26.767444690637102],[89.5475033267071,26.7682789794333],[89.5456082194338,26.7707520553149],[89.5447463671822,26.771902480999803],[89.544577074408,26.7721417815696],[89.54285409914131,26.7749169383466],[89.54257375088291,26.776514169963402],[89.5423604833892,26.777728270829503],[89.5408337122805,26.7817226164329],[89.5398934926152,26.783639510598903],[89.53942187963071,26.7839779874909],[89.5377980155472,26.785145714591902],[89.5354133866456,26.785380381295003],[89.5334723874849,26.785972841529702],[89.5322270786248,26.7854892053654],[89.53019611102741,26.7840375051432],[89.52824493195891,26.7840375134847],[89.525422424788,26.7843520518795],[89.52265517964041,26.7846749619817],[89.522587228328,26.7846824638099],[89.521964383417,26.7851392671427],[89.5211900851378,26.7857059916385],[89.52015974606161,26.787410260045302],[89.51896738522821,26.790621326766],[89.5177681809094,26.7930081579808],[89.5171895471601,26.7955183066675],[89.514587218797,26.798479422718],[89.5126616235423,26.8001334724255],[89.511353209842,26.801525102238802],[89.50984995646121,26.803172612617],[89.50916980323001,26.804058907011402],[89.507681388314,26.8021566379196],[89.5062650741888,26.8004481643963],[89.5041323131029,26.7993048471909],[89.5021592915275,26.7984463120025],[89.5001031102549,26.798226530862003],[89.497414587812,26.7977204342615],[89.4950594507163,26.7974394573284],[89.4942444577691,26.796877882314],[89.49156324370941,26.795835218538603],[89.48849093917751,26.796283655351],[89.4837985759685,26.7962527571181],[89.48362743277221,26.796266684938],[89.4818768036164,26.7963654728563]]]},"properties":{"id":null,"description":null,"altitudeMode":null,"tessellate":null,"extrude":null,"visibility":null,"drawOrder":null,"icon":null,"AREA":null,"PERIMETER":null,"division":"BuxaTR_WEST","beat":"Adma","range":"Pana","layer":"master","path":"C:/Users/user/OneDrive/Desktop/Buxaroad/master.geojson","fill-opacity":0,"stroke-opacity":1,"stroke":"#ff0000","SID":"028","DID":"014","RID":"002","BID":"002","State":"West_Bengal","Beat_Ar":25.4654}},
{"type":"Feature","geometry":{"type":"Polygon","coordinates":[[[89.5369149396606,26.7069071344369],[89.53664351046031,26.7069278528363],[89.5351855547679,26.707068065211],[89.533503623241,26.7072659669698],[89.5306857083887,26.7075472253707],[89.529066829586,26.707716473270303],[89.5278375436244,26.7078575200997],[89.5270608494303,26.707913011610103],[89.5257312012406,26.707995621455503],[89.5244370602764,26.7080205883238],[89.5234014366354,26.708104233971802],[89.5223332271449,26.7081588944264],[89.5214256816125,26.708271884554602],[89.52141791869501,26.7101597267852],[89.521405314414,26.713236846074302],[89.5215939841928,26.7150376872375],[89.5217131728712,26.7172450844773],[89.5219642005864,26.7191622850188],[89.5221537133178,26.720730740541903],[89.5221610862761,26.720788754545502],[89.520856504633,26.7208425706321],[89.51800839656491,26.7210658201705],[89.5160652542596,26.7211755232071],[89.5144468239038,26.7211700433687],[89.5128280530581,26.721280735930502],[89.51095075129311,26.7212746047315],[89.50874888169331,26.721383309420002],[89.50712994154141,26.721493657057803],[89.5046028316258,26.721833630758702],[89.5025311330797,26.7220590142813],[89.5007838251291,26.7222273393824],[89.49903417645581,26.7223375741547],[89.4977392545739,26.722506699768],[89.4960539195719,26.7228497194419],[89.4948868427054,26.723078096926702],[89.4936572643082,26.723248186096],[89.4930737931804,26.7233618015688],[89.4924901712375,26.7234759802899],[89.4924347432015,26.723513509286],[89.489697587242,26.7235816086777],[89.4872691598765,26.723775282701503],[89.48448140387501,26.723926725587102],[89.4817393437149,26.7239569341375],[89.4795386564222,26.7237876775629],[89.4784616668839,26.72354176397],[89.4784038623294,26.723541805131003],[89.4793131389,26.7162984329013],[89.4799265807343,26.714565255909502],[89.47805388864471,26.712424944254803],[89.48063787377531,26.7066127145096],[89.4897425333752,26.7058421520403],[89.4910525473076,26.7050638035251],[89.49309114386081,26.704287898373902],[89.49405222382501,26.7034314272594],[89.4945516322698,26.7029873382698],[89.49586947679781,26.7003822864426],[89.4968984378608,26.6977754895038],[89.4973408992267,26.6953906384167],[89.4975106022591,26.694466103743],[89.498421209479,26.693063887118303],[89.4987070471433,26.6926243050214],[89.4995193707295,26.690068011261],[89.5004014618965,26.687672846374102],[89.499749023295,26.6869225730706],[89.4988131778767,26.6843106500889],[89.4994175344129,26.683973725303],[89.5003256839028,26.6830963449419],[89.5010855740417,26.6822177132597],[89.5018442498127,26.6810689249828],[89.5021480240716,26.6805279044695],[89.5023775689753,26.6797160963943],[89.50215845460771,26.678089533732102],[89.5018622588118,26.6768687557106],[89.5017918252384,26.675717209698902],[89.5021007266731,26.673957004169303],[89.5022590398205,26.6721961415879],[89.5021912546166,26.670434860320402],[89.50249993233841,26.6687423382644],[89.5035583074994,26.6679330006341],[89.5052961158247,26.6674644266246],[89.5065174110281,26.6673315684939],[89.5071054803644,26.667267491196203],[89.5086895634866,26.667475928609402],[89.51004336494441,26.6680903632753],[89.5115456677974,26.669246912418302],[89.5129749519818,26.670471344012903],[89.5135738258846,26.6714217944686],[89.5140186337629,26.6731846687254],[89.5148356979245,26.6760323914508],[89.5156558744317,26.6787447093851],[89.5173034444692,26.6812566595243],[89.518870962094,26.684920324877503],[89.5204454428837,26.687567534767002],[89.5216856088871,26.6896334380942],[89.5233375439288,26.6929780281618],[89.5246890164633,26.694293123748],[89.5261699828329,26.6958589219205],[89.5269054693786,26.6966369334564],[89.5269706238586,26.6967058854277],[89.5276559719002,26.697433108966802],[89.5316008198253,26.7005570730057],[89.5369149396606,26.7069071344369]]]},"properties":{"id":null,"description":null,"altitudeMode":null,"tessellate":null,"extrude":null,"visibility":null,"drawOrder":null,"icon":null,"AREA":null,"PERIMETER":null,"division":"BuxaTR_WEST","beat":"Gangutia","range":"Pana","layer":"master","path":"C:/Users/user/OneDrive/Desktop/Buxaroad/master.geojson","fill-opacity":0,"stroke-opacity":1,"stroke":"#ff0000","SID":"028","DID":"014","RID":"002","BID":"004","State":"West_Bengal","Beat_Ar":16.6897}},
{"type":"Feature","geometry":{"type":"Polygon","coordinates":[[[89.4548920094479,26.7929367704386],[89.45441345242,26.792007975336702],[89.4542024772207,26.7914278020747],[89.4534914613469,26.7902033169259],[89.45270488056781,26.7895571625939],[89.4517753921435,26.788845639078602],[89.4514908047199,26.7883945336177],[89.45092024328541,26.787813544470403],[89.45013620856291,26.787167348529202],[89.4488483887537,26.786711889347302],[89.44756213973591,26.7859351921382],[89.44691896278191,26.7852895049017],[89.44606287933931,26.7844497191705],[89.4457790418875,26.7838697144163],[89.4457079610526,26.7834838067769],[89.4449232666964,26.782966183485],[89.4442798332021,26.7823842201295],[89.4428521840156,26.7812211607403],[89.44244661775011,26.780854748306503],[89.4414251244692,26.7799289188058],[89.4409247857063,26.7794125945905],[89.4403546094786,26.7787672567408],[89.4396400983918,26.7783143118002],[89.4389998033417,26.777603693290303],[89.4386449690426,26.7766377590406],[89.4382943571097,26.775285142777502],[89.43772666091151,26.7741253785338],[89.4368014330603,26.7725778226518],[89.43537888639081,26.770385003155603],[89.4346850303443,26.7688122327591],[89.4362272161115,26.7680672527079],[89.4390629111268,26.767083736440803],[89.4410504828095,26.766768458057502],[89.4427549009212,26.7662814837938],[89.44426977477791,26.765978045835702],[89.4454023680755,26.765702480972003],[89.4457521690202,26.7656419295304],[89.4497925656254,26.764492717198802],[89.4513633179462,26.7640524190152],[89.4585275558095,26.7620459041397],[89.4698021639183,26.7582872913658],[89.4755651307957,26.756365592136703],[89.4755782219021,26.7562484213311],[89.4782057074113,26.7561320854762],[89.48063222092131,26.7559670485601],[89.4823564712908,26.7560253687245],[89.4833016668568,26.7560447643893],[89.48395187580681,26.759091235789402],[89.48410059356,26.760708964925602],[89.4837568395436,26.762830182915803],[89.4828647450847,26.765607194625602],[89.4826805760688,26.7680386333896],[89.4826943218416,26.7694888580436],[89.4824015295187,26.770316810022003],[89.4818974561048,26.771741173061603],[89.4812241593669,26.773879100820203],[89.4799809583854,26.775868467014803],[89.479235539894,26.7783734717319],[89.4786857920394,26.781593285854],[89.479719586039,26.785487406587702],[89.4807736605137,26.7882197124799],[89.4813337502335,26.7917549993651],[89.4815439060701,26.7931645208969],[89.4818140791604,26.794607815696903],[89.4818768036164,26.7963654728563],[89.4817082764564,26.796375140754602],[89.4792780215956,26.7965960985168],[89.4769740513341,26.796702324466402],[89.4745429234607,26.796579160889202],[89.4717201352808,26.796276176223103],[89.47121992352591,26.7962224586675],[89.468915960598,26.7963291174934],[89.4654597242543,26.796546145504703],[89.46277306501081,26.7967661028276],[89.4604742559564,26.795723948515402],[89.4601831271536,26.7956113412096],[89.4577933857098,26.7946811954912],[89.4561345963632,26.793411815400603],[89.4548920094479,26.7929367704386]]]},"properties":{"id":null,"description":null,"altitudeMode":null,"tessellate":null,"extrude":null,"visibility":null,"drawOrder":null,"icon":null,"AREA":null,"PERIMETER":null,"division":"BuxaTR_WEST","beat":"Pana","range":"Pana","layer":"master","path":"C:/Users/user/OneDrive/Desktop/Buxaroad/master.geojson","fill-opacity":0,"stroke-opacity":1,"stroke":"#ff0000","SID":"028","DID":"014","RID":"002","BID":"001","State":"West_Bengal","Beat_Ar":14.0011}},
{"type":"Feature","geometry":{"type":"Polygon","coordinates":[[[89.4833016668568,26.7560447643893],[89.4823564712908,26.7560253687245],[89.48063222092131,26.7559670485601],[89.4782057074113,26.7561320854762],[89.4755782219021,26.7562484213311],[89.4757167818375,26.75506084063],[89.4760929796449,26.7524392938794],[89.47631603030881,26.750886472167302],[89.4775212523822,26.7416247888785],[89.4781312717119,26.7350360098735],[89.47828353712521,26.7336006767052],[89.4781744998907,26.725377837579902],[89.4784038623294,26.723541805131003],[89.4784616668839,26.72354176397],[89.4795386564222,26.7237876775629],[89.4817393437149,26.7239569341375],[89.48448140387501,26.723926725587102],[89.4872691598765,26.723775282701503],[89.489697587242,26.7235816086777],[89.4924347432015,26.723513509286],[89.4924901712375,26.7234759802899],[89.4930737931804,26.7233618015688],[89.4936572643082,26.723248186096],[89.4948868427054,26.723078096926702],[89.4960539195719,26.7228497194419],[89.4977392545739,26.722506699768],[89.49903417645581,26.7223375741547],[89.5007838251291,26.7222273393824],[89.5025311330797,26.7220590142813],[89.5046028316258,26.721833630758702],[89.50712994154141,26.721493657057803],[89.50874888169331,26.721383309420002],[89.51095075129311,26.7212746047315],[89.5128280530581,26.721280735930502],[89.5144468239038,26.7211700433687],[89.5160652542596,26.7211755232071],[89.51800839656491,26.7210658201705],[89.520856504633,26.7208425706321],[89.5221610862761,26.720788754545502],[89.5221537133178,26.720730740541903],[89.5219642005864,26.7191622850188],[89.5217131728712,26.7172450844773],[89.5215939841928,26.7150376872375],[89.521405314414,26.713236846074302],[89.52141791869501,26.7101597267852],[89.5214256816125,26.708271884554602],[89.5223332271449,26.7081588944264],[89.5234014366354,26.708104233971802],[89.5244370602764,26.7080205883238],[89.5257312012406,26.707995621455503],[89.5270608494303,26.707913011610103],[89.5278375436244,26.7078575200997],[89.529066829586,26.707716473270303],[89.5306857083887,26.7075472253707],[89.533503623241,26.7072659669698],[89.5351855547679,26.707068065211],[89.53664351046031,26.7069278528363],[89.5369149396606,26.7069071344369],[89.5371875906961,26.7072329880891],[89.5390086980087,26.7105707307417],[89.53965487795631,26.713023911345502],[89.54024328275351,26.7161037701884],[89.54112034763641,26.7173793051955],[89.54170087301421,26.7180280700296],[89.5399537141356,26.719453207599102],[89.5361084169505,26.722075148222],[89.5323539174334,26.7252352000771],[89.530526772977,26.7271066651931],[89.5294975116835,26.728728071592503],[89.5278701012121,26.7321799605116],[89.5279855466177,26.7346817980215],[89.5278590786391,26.737394936969903],[89.52648616747891,26.7400152414441],[89.52504162382951,26.742335971165403],[89.5248492682135,26.7426479737252],[89.5230241221106,26.744591804832503],[89.5228091189478,26.7449378899223],[89.5199786666556,26.74680848785],[89.51784125987291,26.747616030446302],[89.5169072205848,26.7479689916555],[89.5152454964598,26.7492350020641],[89.5127166477347,26.751058793856902],[89.5109715503057,26.7530095166919],[89.5101131769153,26.7550770721962],[89.50908392436111,26.756548878135103],[89.506809830814,26.7581349345112],[89.50662807800761,26.7582922611203],[89.5038521548666,26.758449905394702],[89.5023510905318,26.758507350969],[89.5012912147432,26.758277515768903],[89.4987017419598,26.7577162122835],[89.4971056056463,26.7570924352771],[89.4942767493912,26.757262015555103],[89.49214986061081,26.757331055214102],[89.48940398847951,26.756903777544],[89.48602482395451,26.7558799008065],[89.4838671416507,26.756055739211902],[89.4833016668568,26.7560447643893]]]},"properties":{"id":null,"description":null,"altitudeMode":null,"tessellate":null,"extrude":null,"visibility":null,"drawOrder":null,"icon":null,"AREA":null,"PERIMETER":null,"division":"BuxaTR_WEST","beat":"Raimatong","range":"Pana","layer":"master","path":"C:/Users/user/OneDrive/Desktop/Buxaroad/master.geojson","fill-opacity":0,"stroke-opacity":1,"stroke":"#ff0000","SID":"028","DID":"014","RID":"002","BID":"003","State":"West_Bengal","Beat_Ar":19.7066}}
]}
