{"type":"FeatureCollection", "features": [
{"type":"Feature","geometry":{"type":"Polygon","coordinates":[[[89.5235114966782,26.605923178934603],[89.5225903858838,26.605876115451903],[89.5187457007889,26.606134251870103],[89.5129429233812,26.6063181729879],[89.5087217348018,26.6065747022025],[89.5051784985426,26.606765528146703],[89.50476643663761,26.606813899945802],[89.50012467210371,26.6073577834821],[89.4949226550258,26.6079494509774],[89.4916802870886,26.6082089627551],[89.4915750478676,26.6081770754273],[89.49175643443421,26.606298928632402],[89.4915923827068,26.6030921861019],[89.4915345401735,26.6019653039347],[89.4905800188482,26.599795664702302],[89.4898648209417,26.5980600587248],[89.48991278540831,26.5979839745574],[89.4913211592303,26.595682305293803],[89.4903630765196,26.594379046196902],[89.4902227659723,26.5937493741285],[89.4898829713444,26.5922227378693],[89.4915803931146,26.5915669645195],[89.493999690918,26.589409170190102],[89.4969035400424,26.58660322812],[89.49787404598631,26.585090122140702],[89.497813316041,26.5846333372983],[89.4974072909401,26.5816223332246],[89.4983842677133,26.5785927660628],[89.5015231707084,26.5770871579899],[89.5032192315718,26.5749267242454],[89.5046770235291,26.5721156564781],[89.504447255561,26.569515105894702],[89.5037365122112,26.5666962998408],[89.50385689400301,26.5649800949476],[89.5039932936202,26.5630144191962],[89.5023162269772,26.560842352834403],[89.50353201644721,26.5582467807039],[89.5040205040502,26.5567319780701],[89.50379080360861,26.554131701090302],[89.502109088018,26.553042611679],[89.50131380604961,26.5518392130026],[89.50411790766441,26.5515788206358],[89.50680038008251,26.55158814325],[89.5103741411524,26.551485839631102],[89.51382062756261,26.551841667367203],[89.5163726081112,26.551850509975402],[89.519949391756,26.5516328725319],[89.5230145630458,26.551299091367902],[89.52608002276921,26.5509646777301],[89.5268828799775,26.5503855271862],[89.527371902808,26.5522804659876],[89.5274910266172,26.554429248802503],[89.5272887517421,26.556635638015102],[89.5270856447527,26.559015473272602],[89.5268381184356,26.560628147815702],[89.5268200699259,26.5607569398299],[89.5264908756979,26.5620915824041],[89.52615805943171,26.564297399811203],[89.5259613470148,26.5651097383669],[89.52530982869871,26.5660947665063],[89.5249820878002,26.5670811047123],[89.52478453389371,26.568125829086302],[89.5246500874875,26.5696930076787],[89.5242504767707,26.5722469777348],[89.5241105503961,26.574511348650702],[89.5242326690515,26.576544472057602],[89.5242293691755,26.5773575486266],[89.5235160055594,26.5781100105735],[89.5229540986081,26.5786321303083],[89.5231098126627,26.578591539765302],[89.5230065344185,26.578705736212],[89.52080191998161,26.5807173083273],[89.5198332326964,26.583678110183502],[89.5198200453099,26.586857093305802],[89.5201470436377,26.588490384813802],[89.5203251267266,26.591562687509402],[89.5203995823646,26.5917463245557],[89.5211676768256,26.5959902559985],[89.522056551519,26.600804236994602],[89.5226203394787,26.6028681430043],[89.5231156355871,26.6045357101191],[89.5235114966782,26.605923178934603]]]},"properties":{"id":null,"description":null,"altitudeMode":null,"tessellate":null,"extrude":null,"visibility":null,"drawOrder":null,"icon":null,"AREA":null,"PERIMETER":null,"division":"BuxaTR_WEST","beat":"Garam-East","range":"WestDamanpur","layer":"master","path":"C:/Users/user/OneDrive/Desktop/Buxaroad/master.geojson","fill-opacity":0,"stroke-opacity":1,"stroke":"#ff0000","SID":"028","DID":"014","RID":"005","BID":"003","State":"West_Bengal","Beat_Ar":14.7802}},
{"type":"Feature","geometry":{"type":"Polygon","coordinates":[[[89.4915750478676,26.6081770754273],[89.4914546838368,26.6081405530483],[89.4908518628102,26.6082061221384],[89.4891907867315,26.6085386053983],[89.4834593704096,26.609602437957502],[89.47795213971081,26.610463191249302],[89.4766126912086,26.6107470507511],[89.4760433574086,26.608958807832202],[89.4757297835765,26.606693266124502],[89.47496934814511,26.6033218012839],[89.4742690193971,26.6005317834233],[89.47421281875451,26.5985568514498],[89.4742875606705,26.596466340143202],[89.4745485227771,26.595944998123002],[89.4745867984672,26.595810360448603],[89.4746810914261,26.5954811131519],[89.474951759232,26.594032855460302],[89.4758001468434,26.5911873399542],[89.47692071195,26.587830307449803],[89.47742540608981,26.5866806567238],[89.4780255835406,26.585330092363503],[89.479203578376,26.581849857983002],[89.4809040388635,26.577675193117102],[89.4817560953131,26.575180604129102],[89.48267446061111,26.5724546281855],[89.4835210740134,26.5705991336646],[89.4836557209059,26.5696704573988],[89.4844402775585,26.5676407575434],[89.4852256902962,26.565437041086],[89.4854551710204,26.5646255343654],[89.4857509558189,26.563580669675503],[89.4863421808768,26.5615501654482],[89.4867996503021,26.560274043212],[89.4868014370971,26.559867639819],[89.4868058871711,26.5588805380378],[89.4864274057648,26.5570787579984],[89.4860476546411,26.555044890323202],[89.4858642332909,26.552837216409202],[89.4861314811036,26.550863406289903],[89.4864611248699,26.549529400333302],[89.4866733140601,26.548911766800103],[89.4871511720485,26.548993105763202],[89.4913616887773,26.5495823110876],[89.4931481971505,26.5495888998372],[89.49544425735391,26.5501707653836],[89.4973552994262,26.5509814238132],[89.5005432286444,26.551911101595],[89.50131380604961,26.5518392130026],[89.502109088018,26.553042611679],[89.50379080360861,26.554131701090302],[89.5040205040502,26.5567319780701],[89.50353201644721,26.5582467807039],[89.5023162269772,26.560842352834403],[89.5039932936202,26.5630144191962],[89.50385689400301,26.5649800949476],[89.5037365122112,26.5666962998408],[89.504447255561,26.569515105894702],[89.5046770235291,26.5721156564781],[89.5032192315718,26.5749267242454],[89.5015231707084,26.5770871579899],[89.4983842677133,26.5785927660628],[89.4974072909401,26.5816223332246],[89.497813316041,26.5846333372983],[89.49787404598631,26.585090122140702],[89.4969035400424,26.58660322812],[89.493999690918,26.589409170190102],[89.4915803931146,26.5915669645195],[89.4898829713444,26.5922227378693],[89.4902227659723,26.5937493741284],[89.4903630765196,26.594379046196902],[89.4913211592303,26.595682305293803],[89.48991278540831,26.5979839745574],[89.4898648209417,26.5980600587248],[89.4905800188482,26.599795664702302],[89.4915345401735,26.6019653039347],[89.4915923827068,26.6030921861019],[89.49175643443421,26.606298928632402],[89.4915750478676,26.6081770754273]]]},"properties":{"id":null,"description":null,"altitudeMode":null,"tessellate":null,"extrude":null,"visibility":null,"drawOrder":null,"icon":null,"AREA":null,"PERIMETER":null,"division":"BuxaTR_WEST","beat":"Garam-West","range":"WestDamanpur","layer":"master","path":"C:/Users/user/OneDrive/Desktop/Buxaroad/master.geojson","fill-opacity":0,"stroke-opacity":1,"stroke":"#ff0000","SID":"028","DID":"014","RID":"005","BID":"002","State":"West_Bengal","Beat_Ar":11.1967}},
{"type":"Feature","geometry":{"type":"Polygon","coordinates":[[[89.45722935143151,26.545436854216803],[89.45798166925421,26.5455171958896],[89.4587984129121,26.5455944620088],[89.4597536989329,26.545673417675502],[89.4606721719072,26.545754123354403],[89.461136254668,26.5457983933445],[89.46229262946311,26.5460005519429],[89.46343882784261,26.5461865864482],[89.4644920170156,26.5463604497689],[89.4664375465516,26.5466411274632],[89.466918490837,26.5467089263783],[89.4669324129495,26.546710855762502],[89.4669396834108,26.546711870533603],[89.4669551705241,26.546714049454803],[89.466969054778,26.5467159482187],[89.4669821064211,26.546717789452803],[89.4670024966137,26.546720577355103],[89.4670229984784,26.5467234247729],[89.4670441551054,26.5467263706302],[89.4670613850727,26.5467287581649],[89.4670823959869,26.5467316785484],[89.467115328784,26.546736234687202],[89.46712340256771,26.5467373833571],[89.4671246489992,26.5467374657145],[89.4671251422983,26.546737500935702],[89.4671261989106,26.5467375741155],[89.4671276581082,26.5467376726612],[89.4671295584474,26.5467378008117],[89.46713075970091,26.546737881272602],[89.4674914304436,26.5467646820993],[89.46808884949431,26.5468004913508],[89.46847821045151,26.5468296307622],[89.46878860797051,26.546850088482902],[89.4697523802778,26.5469161277034],[89.47011347699541,26.5469403872854],[89.4701780575589,26.5469448257077],[89.470386877327,26.546959495903],[89.4706338873251,26.5469761680181],[89.4706964431797,26.546980508378002],[89.4707208928547,26.5469842692046],[89.47080180573761,26.5469966495165],[89.4708407321707,26.5470025722732],[89.4708782809906,26.5470083662682],[89.47092375890901,26.5470153379324],[89.4709466038157,26.547018786275203],[89.4710233743454,26.547030618552203],[89.47108733335891,26.5470404038825],[89.4711048720597,26.5470431328999],[89.4711641077333,26.5470523007565],[89.4712347544213,26.547062998741602],[89.471312982163,26.547075085523403],[89.4713850936721,26.5470861674197],[89.47146375286201,26.547098233520302],[89.47223752506271,26.5472142520109],[89.47327126414051,26.5472146727958],[89.4772453203496,26.547929534055],[89.4792580775975,26.547941220287402],[89.4829611715369,26.548287063506603],[89.4866733140875,26.5489117665434],[89.48642751260451,26.5495885907503],[89.48613331591831,26.5508560693017],[89.4858802523615,26.5528188308695],[89.4860488147828,26.5550436336182],[89.4867934831036,26.558892681484302],[89.4868103651026,26.5602697710725],[89.4863567300541,26.5614950629501],[89.48560552634561,26.564087580063802],[89.4851448209202,26.5656618237034],[89.4846791069084,26.566995587589602],[89.4836401248984,26.569718052341003],[89.48354180790601,26.5705528045242],[89.4826757208455,26.572453535510302],[89.48224051001121,26.573835625286403],[89.48148699892181,26.576079577137502],[89.48082532960001,26.578003712327302],[89.4799795206745,26.5799366429767],[89.4790621803689,26.5822215997001],[89.478232404687,26.584738920305],[89.4780362571777,26.5853251694055],[89.4776529809661,26.5861818213065],[89.47742842968741,26.5866781220903],[89.4769234388029,26.587818648077903],[89.47655845073831,26.588906829983802],[89.4763712510737,26.5894884963643],[89.4761359036081,26.590192816987603],[89.4758966840036,26.590909772117502],[89.4754632926863,26.5923249269383],[89.4749498509135,26.594026111584],[89.4746851016507,26.5954830054518],[89.4745595997104,26.595937214319402],[89.4742863361009,26.5964690323025],[89.4742147856286,26.598539212820203],[89.47427258351931,26.600532659779002],[89.47509173894561,26.6038468250145],[89.4757359642801,26.6067003728635],[89.4760498370148,26.60896377952],[89.47661265097861,26.610747076670002],[89.4703277859179,26.611275815589302],[89.4690593638242,26.611375776248902],[89.4667790860136,26.6114638254787],[89.46431027858651,26.6115649825526],[89.4606107574711,26.611857570695],[89.45782215720921,26.6121511526579],[89.457862059124,26.6120986727257],[89.4579092195459,26.612037157762803],[89.4579621167833,26.6119677177788],[89.4580174207581,26.6118950505552],[89.4580918961462,26.6117976070186],[89.4581480327457,26.611724381299503],[89.4581833856955,26.6116779540158],[89.4582502028626,26.6115583094119],[89.4582998583641,26.6114706079013],[89.4583512916582,26.611378801289902],[89.45840339851121,26.611286184419402],[89.458452894664,26.611198231043],[89.4584992580033,26.611115873868602],[89.4585474601564,26.611030446197102],[89.4585931497422,26.610948899217203],[89.4586341706823,26.6108762638632],[89.4586887591053,26.610779248837],[89.4587433550729,26.6106823631086],[89.4587973830679,26.6105856341043],[89.458843670734,26.6105044475675],[89.4588897534352,26.6104222332626],[89.4589361162063,26.6103398758986],[89.45896524142191,26.6102881685022],[89.4589737896005,26.6102496325109],[89.4589929428344,26.610165848349602],[89.459012261746,26.610079981255403],[89.4590290942308,26.6100057749853],[89.4590489123232,26.6099185871896],[89.4590575852588,26.6098797210092],[89.4590672866306,26.6098374987389],[89.45907741094041,26.6097926625252],[89.45908765623591,26.609747431475203],[89.45909671501211,26.609707768761503],[89.4591051197648,26.6096704716213],[89.45911658969351,26.609620318853],[89.4591271636109,26.6095733213252],[89.4591375413063,26.609527889417002],[89.4601345466372,26.6063927232206],[89.46114881153851,26.605115952324002],[89.462762122247,26.6039766122733],[89.4648633738899,26.601718355507803],[89.4652303985272,26.6010534335302],[89.4652988701503,26.6003363500756],[89.4649931798338,26.5995375113615],[89.4645090583635,26.5985313767479],[89.4644641135943,26.597769900363502],[89.4649981204218,26.5965025073143],[89.4643675092571,26.596582906896803],[89.4615539264592,26.5966257780019],[89.45893320616041,26.596651106197402],[89.4576965037693,26.5966602437664],[89.4565960231546,26.5967873841372],[89.4568892544913,26.594557255064302],[89.457058232186,26.5930385614751],[89.4575173019705,26.5911159294882],[89.4575845461021,26.590847116842802],[89.4577747196129,26.58906179789],[89.4578753951468,26.587637652982803],[89.4579087980486,26.5868071999439],[89.4548931234798,26.5866103258717],[89.4519595269181,26.586492747595802],[89.45064537012101,26.5864391206692],[89.4496975826418,26.5864925453231],[89.4505510388261,26.584210838123003],[89.4521902875544,26.581634388953603],[89.452980199332,26.579372281486602],[89.45335978170661,26.5773538196715],[89.4542580394303,26.574737917894],[89.4549908755675,26.5729184216224],[89.4558306767136,26.5708780102149],[89.4567359609714,26.5679131210276],[89.45720148458871,26.5665711641739],[89.45751086951441,26.564929529628202],[89.45763410682041,26.564201515501402],[89.4576427161157,26.562781725442402],[89.4571578176473,26.561758979140002],[89.4560860750056,26.5603325750346],[89.4554647638792,26.55856097854],[89.4553306878692,26.556442438752903],[89.45554181595621,26.5550129883342],[89.4562669078407,26.553534137647002],[89.4569744546494,26.5530106801565],[89.4584612905811,26.552676231998102],[89.4593683122331,26.551866242526202],[89.4593093289845,26.5511702403006],[89.458598341987,26.5507022256282],[89.4574373381309,26.5506391734414],[89.45601509423041,26.5504600586343],[89.4553053683957,26.5499351601145],[89.4550524173067,26.5487721814154],[89.4550617313581,26.5467987937486],[89.4547766909057,26.5451636317152],[89.45722935143151,26.545436854216803]]]},"properties":{"id":null,"description":null,"altitudeMode":null,"tessellate":null,"extrude":null,"visibility":null,"drawOrder":null,"icon":null,"AREA":null,"PERIMETER":null,"division":"BuxaTR_WEST","beat":"Poro-East","range":"WestDamanpur","layer":"master","path":"C:/Users/user/OneDrive/Desktop/Buxaroad/master.geojson","fill-opacity":0,"stroke-opacity":1,"stroke":"#ff0000","SID":"028","DID":"014","RID":"005","BID":"001","State":"West_Bengal","Beat_Ar":10.7643}}
]}
