{"type":"FeatureCollection", "features": [
{"type":"Feature","geometry":{"type":"Polygon","coordinates":[[[89.5519953693349,26.641851507292902],[89.5520369559518,26.6415041819801],[89.5522448740538,26.6383687972571],[89.5530320084095,26.635467611234002],[89.5542680879147,26.6333807258357],[89.55473078159821,26.6312337970757],[89.5550621932272,26.628621303688803],[89.5551022618052,26.627344214150202],[89.5552629835757,26.6273447050614],[89.5579150358492,26.6272365901572],[89.5595974345379,26.6272417594018],[89.56166686490991,26.627131812134103],[89.5644493476876,26.6270822048398],[89.56710093782681,26.6270901111376],[89.57034289350331,26.627001180488502],[89.5709180457915,26.6269852132022],[89.5744924777205,26.6266161334437],[89.5786665845923,26.6263835401645],[89.5810029623894,26.6260813928764],[89.5846259609778,26.625472377649302],[89.5853404242909,26.628610434073202],[89.5858945594204,26.6309592554516],[89.5861859616936,26.6330357796386],[89.5865430077788,26.6357130834552],[89.58682823362601,26.6374332192768],[89.5872008236598,26.6392722264884],[89.5892106234454,26.6461678151739],[89.5902627399315,26.6490817931053],[89.5911934946589,26.651517436016],[89.59194951981681,26.653634397910302],[89.5928285800346,26.6550709044568],[89.59173542794011,26.655224769871403],[89.59064799217761,26.655236996745],[89.587930100089,26.655283875991202],[89.5844801876742,26.6557162233306],[89.5814555851248,26.655857782609502],[89.57766977636841,26.656081369755203],[89.5748964799711,26.6562103998748],[89.5741127609611,26.6562306823218],[89.5730856595358,26.6561789348725],[89.5715051612425,26.656376979598],[89.5665512268728,26.6566391845388],[89.5659138624414,26.656456731349802],[89.5651160455639,26.656227545013202],[89.56240648788041,26.6554515150716],[89.5587124746101,26.655259316988502],[89.5516135469938,26.655571403545],[89.5506411392704,26.6556615892908],[89.55108508967321,26.653869925884003],[89.55121875002601,26.652418943513602],[89.5510307340822,26.6510242222278],[89.5512340164895,26.6484698274529],[89.5515025995782,26.6459158440552],[89.5517699285769,26.6436514951966],[89.5519953693349,26.641851507292902]]]},"properties":{"id":null,"description":null,"altitudeMode":null,"tessellate":null,"extrude":null,"visibility":null,"drawOrder":null,"icon":null,"AREA":null,"PERIMETER":null,"division":"BuxaTR_WEST","beat":"CentralRajabhatkhawa","range":"WestRajabhatkhawa","layer":"master","path":"C:/Users/user/OneDrive/Desktop/Buxaroad/master.geojson","fill-opacity":0,"stroke-opacity":1,"stroke":"#ff0000","SID":"028","DID":"014","RID":"003","BID":"003","State":"West_Bengal","Beat_Ar":11.0188}},
{"type":"Feature","geometry":{"type":"Polygon","coordinates":[[[89.5216856088871,26.6896334380942],[89.5204454428837,26.687567534767002],[89.518870962094,26.684920324877503],[89.5173034444692,26.6812566595243],[89.5156558744317,26.6787447093851],[89.5148356979245,26.6760323914508],[89.5140186337629,26.6731846687254],[89.5135738258846,26.6714217944686],[89.5129749519818,26.670471344012903],[89.5115456677974,26.669246912418302],[89.51004336494441,26.6680903632753],[89.5086895634866,26.667475928609402],[89.5071054803644,26.667267491196203],[89.5065174110281,26.6673315684939],[89.5052961158247,26.6674644266246],[89.5035583074994,26.6679330006341],[89.50249993233841,26.6687423382644],[89.5021912546166,26.670434860320402],[89.5022590398205,26.6721961415879],[89.5021007266731,26.673957004169303],[89.5017918252384,26.675717209698902],[89.5018622588118,26.6768687557106],[89.50215845460771,26.678089533732102],[89.5023775689753,26.6797160963943],[89.5021480240716,26.6805279044695],[89.5018442498127,26.6810689249828],[89.5010855740417,26.6822177132597],[89.5003256839028,26.6830963449419],[89.4994175344129,26.683973725303],[89.4988131778767,26.6843106500889],[89.4981055774593,26.682335617822],[89.4976391772359,26.6809815510958],[89.4945174679429,26.6807556995208],[89.4939422980182,26.6755538841645],[89.4964316918244,26.6726657148237],[89.4970256379863,26.6683452256634],[89.4967500245552,26.6646896133981],[89.49665101650041,26.6597264175418],[89.4966303046502,26.6586857328416],[89.4965042357877,26.6547699277428],[89.4979739822043,26.650598652286803],[89.4987154946819,26.6469466465747],[89.4987438820684,26.646789265438603],[89.49960842278381,26.6419901382534],[89.5007841190576,26.638992299629102],[89.50050675157111,26.6357289794251],[89.4995414490886,26.631303723652103],[89.5003609063691,26.6311368321598],[89.5020601419548,26.6307358403931],[89.5050023586402,26.6303061094324],[89.5071181598144,26.6299680298473],[89.50749012638511,26.629907949220502],[89.5102049451533,26.6298155626165],[89.5125432394943,26.6296879479782],[89.514765988285,26.6295939626407],[89.51668988564221,26.6294989143806],[89.518008373873,26.629435713687002],[89.5187619674215,26.6293703834471],[89.5187617682573,26.6294380681495],[89.51894865364551,26.629777296150902],[89.5196610372427,26.6311687058697],[89.52020773540241,26.6319614902089],[89.5206793602524,26.633870429682602],[89.52131953436201,26.6381690019074],[89.52114095921111,26.6406951938172],[89.52061259340141,26.6427454444867],[89.5204565694786,26.6434295850729],[89.5202699022541,26.6442528035981],[89.5196277815906,26.645884359763702],[89.5192655071322,26.6472427435627],[89.51911833792,26.6482158479027],[89.5188246638329,26.65057829551],[89.5188606689794,26.655821599527002],[89.5188789021733,26.6568851443653],[89.51888125975151,26.656944341087],[89.5189362103377,26.6600472669476],[89.5190602937743,26.6622337643644],[89.5190094224157,26.6648045445463],[89.5194362674455,26.6690932691194],[89.5198283093567,26.6708964532991],[89.52010433661991,26.6721695776692],[89.520673817691,26.674796572736902],[89.5207917177749,26.676679405908303],[89.5212811587039,26.6798357408612],[89.5211388586733,26.682033836959903],[89.52117449868061,26.683775420305302],[89.5215523332358,26.6853427056303],[89.5215836175589,26.6862983774292],[89.5216856088871,26.6896334380942]]]},"properties":{"id":null,"description":null,"altitudeMode":null,"tessellate":null,"extrude":null,"visibility":null,"drawOrder":null,"icon":null,"AREA":null,"PERIMETER":null,"division":"BuxaTR_WEST","beat":"Dima","range":"WestRajabhatkhawa","layer":"master","path":"C:/Users/user/OneDrive/Desktop/Buxaroad/master.geojson","fill-opacity":0,"stroke-opacity":1,"stroke":"#ff0000","SID":"028","DID":"014","RID":"003","BID":"005","State":"West_Bengal","Beat_Ar":10.6655}},
{"type":"Feature","geometry":{"type":"Polygon","coordinates":[[[89.5651160455639,26.656227545013202],[89.5651110775009,26.6575713584463],[89.5652958482014,26.6598950171865],[89.56619433642031,26.662104459515103],[89.5674812054736,26.6639085799345],[89.56909232257651,26.665655509933302],[89.56999003613551,26.6674001867542],[89.5707551577027,26.669034372968],[89.57024757854781,26.6690814630022],[89.56759338788311,26.669537857144203],[89.5651988246471,26.669705094200403],[89.56222217182601,26.669695981369202],[89.560667767914,26.6696011837418],[89.5605264938274,26.671727092443103],[89.5605839835916,26.6738178129219],[89.56109068714021,26.6766649901259],[89.56166199820571,26.6797446686868],[89.5621674945536,26.6815822724881],[89.5589396300092,26.6821717537983],[89.5555720017165,26.6825094592314],[89.55259349197131,26.6829071107671],[89.54974544962751,26.683362491919702],[89.54715397749361,26.683703052905003],[89.54611067232861,26.683874644859202],[89.5450177241992,26.683928892957102],[89.5429469430876,26.684096739312302],[89.5401622750451,26.6843778045839],[89.5374422981191,26.684775991263002],[89.5347880940419,26.685115600951],[89.5325233297285,26.685398769241303],[89.530968221346,26.6853939031344],[89.5279275393391,26.685616306902702],[89.5239763210175,26.6860678666077],[89.5215836175589,26.6862983774292],[89.5215523332358,26.6853427056303],[89.52117449868061,26.683775420305302],[89.5211388586733,26.682033836959903],[89.5212811587039,26.6798357408612],[89.5207917177749,26.676679405908303],[89.520673817691,26.674796572736902],[89.52010433661991,26.6721695776692],[89.5198283093567,26.6708964532991],[89.5194362674455,26.6690932691194],[89.5190094224157,26.6648045445463],[89.5190602937743,26.6622337643644],[89.5189362103377,26.6600472669476],[89.51888125975151,26.656944341087],[89.5188789021733,26.6568851443653],[89.5188606689794,26.655821599527002],[89.5188246638329,26.65057829551],[89.51911833792,26.6482158479027],[89.5192655071322,26.6472427435627],[89.5196277815906,26.645884359763702],[89.5202699022541,26.6442528035981],[89.5204565694786,26.6434295850729],[89.5205244533262,26.643435059990402],[89.52253109756191,26.6433835941325],[89.5250534405772,26.643159876343102],[89.52816032570641,26.643111982031503],[89.5291724400848,26.6430866679326],[89.5292628263239,26.6430845633039],[89.530229754673,26.6430608579588],[89.5326239771063,26.6428361356684],[89.5361182764573,26.642614948958602],[89.5396117721995,26.6425679668532],[89.5429779672466,26.6422887839464],[89.5464719177871,26.642125441475603],[89.5497071634208,26.6419611800118],[89.5519953693349,26.641851507292902],[89.5517699285769,26.6436514951966],[89.5515025995782,26.6459158440552],[89.5512340164895,26.6484698274529],[89.5510307340822,26.6510242222278],[89.55121875002601,26.652418943513602],[89.55108508967321,26.653869925884003],[89.5506411392704,26.6556615892908],[89.5516135469938,26.655571403545],[89.5587124746101,26.655259316988502],[89.56240648788041,26.6554515150716],[89.5651160455639,26.656227545013202]]]},"properties":{"id":null,"description":null,"altitudeMode":null,"tessellate":null,"extrude":null,"visibility":null,"drawOrder":null,"icon":null,"AREA":null,"PERIMETER":null,"division":"BuxaTR_WEST","beat":"NorthRajabhatkhawa","range":"WestRajabhatkhawa","layer":"master","path":"C:/Users/user/OneDrive/Desktop/Buxaroad/master.geojson","fill-opacity":0,"stroke-opacity":1,"stroke":"#ff0000","SID":"028","DID":"014","RID":"003","BID":"002","State":"West_Bengal","Beat_Ar":17.853}},
{"type":"Feature","geometry":{"type":"Polygon","coordinates":[[[89.5519953693349,26.641851507292902],[89.5497071634208,26.6419611800118],[89.5464719177871,26.642125441475603],[89.5429779672466,26.6422887839464],[89.5396117721995,26.6425679668532],[89.5361182764573,26.642614948958602],[89.5326239771063,26.6428361356684],[89.530229754673,26.6430608579588],[89.5292628263239,26.6430845633039],[89.5291724400848,26.6430866679326],[89.52816032570641,26.643111982031503],[89.5250534405772,26.643159876343102],[89.52253109756191,26.6433835941325],[89.5205244533262,26.643435059990402],[89.5204565694786,26.6434295850729],[89.52061259340141,26.6427454444867],[89.52114095921111,26.6406951938172],[89.52131953436201,26.6381690019074],[89.5206793602524,26.633870429682602],[89.52020773540241,26.6319614902089],[89.5196610372427,26.6311687058697],[89.51894865364551,26.629777296150902],[89.5187617682573,26.6294380681495],[89.5187619674215,26.6293703834471],[89.518008373873,26.629435713687002],[89.51668988564221,26.6294989143806],[89.514765988285,26.6295939626407],[89.5125432394943,26.6296879479782],[89.5102049451533,26.6298155626165],[89.50749012638511,26.629907949220502],[89.5071181598144,26.6299680298473],[89.5050023586402,26.6303061094324],[89.5020601419548,26.6307358403931],[89.5003609063691,26.6311368321598],[89.4995414490886,26.631303723652103],[89.4995119738616,26.6311745923052],[89.4991275086455,26.629504921873902],[89.4964890451057,26.626462849269203],[89.4952940562199,26.624075547424603],[89.49591763884361,26.622148453841803],[89.4962715513674,26.621046274751002],[89.4950766292265,26.6186589667689],[89.4950879886164,26.616059251126103],[89.4924471446264,26.6136671509678],[89.4912467391313,26.6125796615236],[89.4915041025047,26.6088978031902],[89.4915750478676,26.6081770754273],[89.4916802870886,26.6082089627551],[89.4949226550258,26.6079494509774],[89.50012467210371,26.6073577834821],[89.50476643663761,26.606813899945802],[89.5051784985426,26.606765528146703],[89.5087217348018,26.6065747022025],[89.5129429233812,26.6063181729879],[89.5187457007889,26.606134251870103],[89.5225903858838,26.605876115451903],[89.5235114966782,26.605923178934603],[89.5240235481015,26.6059486925595],[89.5284484605804,26.6056522882038],[89.5288476230569,26.6056259843436],[89.537214807332,26.605111018648802],[89.54284470752711,26.604820548318003],[89.5433969888528,26.604792254366902],[89.54414988414091,26.6048624493982],[89.54647053053,26.6046414237931],[89.5480326552186,26.607054720059303],[89.5499581433826,26.6109516181901],[89.5515612415362,26.6144989409574],[89.552222372692,26.616243534686202],[89.5529034536143,26.6180457172814],[89.5542442632004,26.622579520423102],[89.5551371458867,26.6261244289601],[89.5551022618052,26.627344214150202],[89.5550621932272,26.628621303688803],[89.55473078159821,26.6312337970757],[89.5542680879147,26.6333807258357],[89.5530320084095,26.635467611234002],[89.5522448740538,26.6383687972571],[89.5520369559518,26.6415041819801],[89.5519953693349,26.641851507292902]]]},"properties":{"id":null,"description":null,"altitudeMode":null,"tessellate":null,"extrude":null,"visibility":null,"drawOrder":null,"icon":null,"AREA":null,"PERIMETER":null,"division":"BuxaTR_WEST","beat":"WestRajabhatkhawa","range":"WestRajabhatkhawa","layer":"master","path":"C:/Users/user/OneDrive/Desktop/Buxaroad/master.geojson","fill-opacity":0,"stroke-opacity":1,"stroke":"#ff0000","SID":"028","DID":"014","RID":"003","BID":"004","State":"West_Bengal","Beat_Ar":19.0431}}
]}
