{"type":"FeatureCollection", "features": [
{"type":"Feature","geometry":{"type":"Polygon","coordinates":[[[89.7597719037839,26.5520634253032],[89.7583119574298,26.5521340371284],[89.7568557269928,26.5522910591398],[89.7551282361509,26.5524908959634],[89.7532437056715,26.5526907397366],[89.750859487028,26.5528620137498],[89.7464908015789,26.5530903593258],[89.7446062759133,26.5530903227221],[89.7422220596872,26.5531616565482],[89.7394951984274,26.5534756941774],[89.7374107853488,26.5538040243113],[89.736568374383,26.5540191972062],[89.7363614523696,26.55361245357],[89.7360640321969,26.5528153262924],[89.7357071298752,26.552113378039],[89.7352193584264,26.5513876271997],[89.7346007147083,26.5507689540208],[89.7341010532858,26.5500432129516],[89.7336370694955,26.5494126427549],[89.7332325749961,26.5488058737585],[89.7329232617045,26.5481396164987],[89.7327091273358,26.5475090511546],[89.7326496640371,26.5468190087021],[89.7326377797712,26.5461646572406],[89.7326497043023,26.5451414855476],[89.7328757611991,26.5444157485715],[89.7332565060187,26.5433449939495],[89.733542050778,26.5427025482846],[89.733839506937,26.5420006127388],[89.7340774549533,26.5416436966867],[89.7343867990858,26.541025041528],[89.7345533684085,26.5406205340003],[89.7347913372726,26.5398115270972],[89.7349222249561,26.5390619882271],[89.7350055273156,26.5381221080748],[89.7350293466715,26.5373130870141],[89.735065054572,26.5365635562962],[89.7351959445358,26.5357188472465],[89.7353149356678,26.5348265478761],[89.7355410048395,26.5340056407183],[89.7357551686156,26.5334107837548],[89.7360553162496,26.5326468181416],[89.7361674535717,26.5327476905079],[89.7378724126544,26.5342897265049],[89.7405193804596,26.5353777799347],[89.7409523767763,26.5354897885509],[89.7422033661255,26.5358138134455],[89.7433593244308,26.5374408389564],[89.7446943029583,26.5382078663208],[89.7472672757394,26.5390959179503],[89.7490522567878,26.5397149537758],[89.750650231043,26.5406349865421],[89.7523542013115,26.5417110216643],[89.7540411824925,26.5423340556009],[89.7562601574643,26.5431651002642],[89.7599581140045,26.544623174842],[89.760769089344,26.5455731923956],[89.7607040676454,26.5464831928613],[89.760645022258,26.5483791953158],[89.7602339775751,26.5502791909405],[89.7598009636292,26.5509011837109],[89.7597719037839,26.5520634253032]]]},"properties":{"compartment":"SRD BL7"},"id":"comptt.8"}
]}