{"type":"FeatureCollection", "features": [
{"type":"Feature","geometry":{"type":"Polygon","coordinates":[[[89.8422302198011,26.500400306647],[89.8414441402858,26.5008698223123],[89.8407112634662,26.5012219687802],[89.8399974175174,26.5015360455428],[89.8392740525025,26.5018120520462],[89.8389123637219,26.5022117958085],[89.8383888700525,26.5028304468582],[89.8378939254073,26.5034871685358],[89.8372657287373,26.5046578486299],[89.8367898028694,26.5057809515851],[89.8365708753295,26.5065328588031],[89.8365232657721,26.507770180292],[89.8365517826214,26.5091502635367],[89.8365707943229,26.5099116953905],[89.8365232107769,26.5100639847639],[89.8363423686676,26.5101686714583],[89.8359711683495,26.5102162543467],[89.8355333481792,26.5102638359423],[89.8350955254986,26.5104161177418],[89.8347814300336,26.5106730921466],[89.8345053985506,26.5111775277723],[89.8343531054232,26.5117390859108],[89.8343245281412,26.5124624367656],[89.8343911413318,26.5131572494124],[89.8345624417789,26.5139567542953],[89.8349811996219,26.5148419141487],[89.8355941168517,26.516151588599],[89.8365458558857,26.518188431046],[89.837116896765,26.5193496243966],[89.8376879367294,26.5205488778222],[89.8384683557234,26.5221859661685],[89.8389804423484,26.5235296687335],[89.8389567823991,26.5235296405142],[89.8371784463929,26.5235276337398],[89.8331074625092,26.5232325541196],[89.8290364688982,26.5233434752929],[89.8250954819448,26.5231653984308],[89.8227874871623,26.5231623536154],[89.8227394894765,26.523070352505],[89.8226624932948,26.5229183507152],[89.822663506991,26.5223473496267],[89.8228555368129,26.5210863509074],[89.8234335781254,26.5193103586816],[89.823945623731,26.5173613648375],[89.824653703212,26.5139813720177],[89.8251657419246,26.5123193787275],[89.8255497891668,26.510313382284],[89.8260648374793,26.5082503882707],[89.826320872628,26.5067603903436],[89.8267079157282,26.5049263942894],[89.8270909450765,26.5036663992722],[89.8280819915732,26.5016344145497],[89.8287220686785,26.4983574205942],[89.8292470863457,26.4975714292501],[89.8351910729942,26.4975785445727],[89.8385120693073,26.4974256087013],[89.841983059044,26.4975336762506],[89.8418720423954,26.4982386754742],[89.8419949954166,26.5001876816676],[89.8422302198011,26.500400306647]]]},"properties":{"compartment":"S Bholka BL 5"},"id":"comptt.1"}
]}