{"type":"FeatureCollection", "features": [
{"type":"Feature","geometry":{"type":"Polygon","coordinates":[[[89.6916614680902,26.6611350647763],[89.6910454625949,26.6614230533057],[89.6904634639955,26.6614220419626],[89.69007447194,26.6611310338437],[89.6897214846992,26.6606370260509],[89.6895604984037,26.6600850218922],[89.6895945172461,26.659301021104],[89.6897265302567,26.6587490226546],[89.690115541235,26.6582560293218],[89.6903745440979,26.6581120341017],[89.6908285444,26.6580550428423],[89.6914405366057,26.6583180552538],[89.6919565185636,26.6590150665988],[89.692150497758,26.6598580719403],[89.6919844813509,26.6605540699946],[89.6916614680902,26.6611350647763]]]},"properties":{"compartment":"CII"},"id":"comptt.105"}
]}