{"type":"FeatureCollection", "features": [
{"type":"Feature","geometry":{"type":"Polygon","coordinates":[[[89.6731961359952,26.6655217930442],[89.6702820720561,26.6655581663255],[89.6660704188885,26.6661053552607],[89.6625012264982,26.6665573865399],[89.6588844459557,26.666938036761],[89.6563622156749,26.6671997280924],[89.6511987900101,26.6675327480901],[89.6453215260837,26.6678657641806],[89.6425554172718,26.6680921206971],[89.642534431105,26.6675211192491],[89.6428624625142,26.6661871232126],[89.6429324931905,26.6649091222511],[89.6434545297278,26.6633431295708],[89.6444925510021,26.6623581479989],[89.6460465653902,26.661607176904],[89.6484465874977,26.6604522215513],[89.6510366035558,26.6595292703205],[89.6539516300121,26.6581433245724],[89.6553776475643,26.6572743507614],[89.6566106837704,26.6556513718111],[89.6575987278462,26.6537263875338],[89.6576517302283,26.6536223883759],[89.6594558378639,26.6535416533665],[89.661692526539,26.6533751366257],[89.6636912786562,26.6530896350325],[89.665261732372,26.6527803350534],[89.6671177154094,26.6524710406354],[89.6703299967005,26.6516858817598],[89.6726517508796,26.6512836762419],[89.6727197462792,26.6514676779048],[89.6732227121539,26.6528326902132],[89.6743047109081,26.6527777111878],[89.6746257004468,26.6531797181804],[89.6748146861493,26.6537537229186],[89.6743656678912,26.6545547156465],[89.6735336422434,26.655699701546],[89.6730166089201,26.6571316941088],[89.6729505772726,26.6584496952473],[89.6732665529675,26.6594257031992],[89.6739645319277,26.660228718276],[89.674141513285,26.6609837231138],[89.6742185050165,26.6613187252307],[89.6736404842831,26.662234715654],[89.6738324741233,26.6626367201348],[89.673764449375,26.6636687207086],[89.673508432025,26.664412717089],[89.6731864092792,26.6653867126061],[89.6731961359952,26.6655217930442]]]},"properties":{"compartment":"Jainti BL3B"},"id":"comptt.116"}
]}