{"type":"FeatureCollection", "features": [
{"type":"Feature","geometry":{"type":"Polygon","coordinates":[[[89.7280178225282,26.5843700392706],[89.7260042006074,26.5858915929778],[89.7257181789516,26.5868195891576],[89.7260991449456,26.5881965991479],[89.7262220977763,26.5901456051949],[89.7248140459556,26.5924355821095],[89.7258269856152,26.594845606328],[89.7257979685981,26.5955556070953],[89.7250259329972,26.5971095949945],[89.7243969249782,26.5975035834993],[89.7241809004761,26.5985425812455],[89.7238228782285,26.5995015760793],[89.7236768570513,26.6003955749146],[89.723461840631,26.6010985720497],[89.7234598175524,26.6020575738076],[89.723528783523,26.603464577786],[89.7237397599458,26.6044235836876],[89.723950731745,26.6055745899491],[89.7240887067943,26.6065975945509],[89.7244426828563,26.6075576032373],[89.7238716672585,26.6082605934451],[89.7230166539111,26.6088975780031],[89.7220216516536,26.6090875589994],[89.7209526357237,26.6098525396321],[89.7193156380713,26.6099135078951],[89.7185326384046,26.6099754927763],[89.7176086390674,26.6100374749141],[89.7174666563264,26.6093344708369],[89.7174686747898,26.608567469442],[89.7173307013076,26.6074794647231],[89.7173337228484,26.6065844631083],[89.7172627476424,26.6055614598146],[89.7170517681396,26.6047304541565],[89.7168397794188,26.604282449195],[89.7164158081385,26.6031304387941],[89.7160638305027,26.6022354302744],[89.7156388499795,26.6014674205727],[89.7149288778463,26.6003784047285],[89.7149308963008,26.5996114033346],[89.7150079330371,26.5980774019666],[89.7148669595473,26.5969893971921],[89.7155919968123,26.5953704082667],[89.7155970436931,26.5934214047222],[89.7161141141769,26.5904414092064],[89.7147311447031,26.5893063801958],[89.7149241709996,26.5881943818709],[89.7149922207222,26.5861203793183],[89.7156972173232,26.5861933931604],[89.7167132296016,26.5855844117739],[89.7163442554717,26.5845444026564],[89.7141732606522,26.5845393604437],[89.7129152818135,26.5837813345739],[89.7126442863652,26.5836183290017],[89.7126242622108,26.5833771681621],[89.7138958201233,26.5833406728113],[89.7161087166821,26.5832693256939],[89.7173698208836,26.5833883204311],[89.7190116436279,26.5835311226142],[89.7205820748239,26.5837453035438],[89.7217242221675,26.5837453257472],[89.7228901511734,26.5836739682793],[89.7242702379664,26.5836739951086],[89.7259120601477,26.5838405873389],[89.7269590148559,26.5839595879159],[89.7275776688424,26.5841499503004],[89.7280178225282,26.5843700392706]]]},"properties":{"compartment":"Dhawla BL1"},"id":"comptt.61"}
]}