{"type":"FeatureCollection", "features": [
{"type":"Feature","geometry":{"type":"Polygon","coordinates":[[[89.7600575138374,26.569598224196],[89.760104449354,26.5722762301928],[89.7611223826127,26.5749552550679],[89.7616823345379,26.57690126965],[89.7628052547698,26.5801112975814],[89.7635442100727,26.581899315348],[89.7639361532725,26.5842233273874],[89.7653831056697,26.5860643590272],[89.7661250629495,26.5877693767004],[89.7667079820393,26.5910763943301],[89.7662519008225,26.5944943919612],[89.766049238201,26.5950030586507],[89.7655254482828,26.5946690281612],[89.765054326922,26.5943549283989],[89.7645403680645,26.5939408976135],[89.764026420238,26.5934840267473],[89.7634268111972,26.5926702435367],[89.7627129979513,26.592042048458],[89.7621704840055,26.5918421575256],[89.7611282870464,26.591399556413],[89.7604715674854,26.5910283529346],[89.7601289361733,26.5906999756469],[89.7596149907507,26.5901431745937],[89.7593151931188,26.5896577578415],[89.7589011826191,26.5888867983262],[89.7584015095673,26.5882300573622],[89.7580017656374,26.5880158991815],[89.7576305823289,26.5877731915023],[89.7569453059246,26.5872734872276],[89.7559602329565,26.5866595669066],[89.7551892953751,26.5862169710754],[89.7539615091875,26.5857600863339],[89.7526623317911,26.5853603103131],[89.7516772502387,26.5851033106712],[89.750592221321,26.5847463688971],[89.749492917629,26.5845893072243],[89.7488076412674,26.5845036337374],[89.748036695447,26.5844036785578],[89.7469802244057,26.5841323975029],[89.746180730369,26.5839610616339],[89.745109979362,26.5836897803022],[89.7442962170763,26.5834470540217],[89.7433825015876,26.5833471060676],[89.7417406846901,26.5833756241998],[89.7405271619561,26.5831900002558],[89.7396705701152,26.5829330031171],[89.7388139689614,26.582647455925],[89.7380573065472,26.5824047307569],[89.7376147316903,26.5822334018298],[89.7378907604847,26.5818411764573],[89.7380692260804,26.5815913394562],[89.7381644110105,26.5813771809032],[89.7382952892909,26.5810202727751],[89.738414267885,26.5806514543932],[89.7385927412049,26.5800803867867],[89.738759310833,26.5796639792401],[89.739056752447,26.5791524040582],[89.739294712768,26.578700307832],[89.7396278603065,26.5779388828728],[89.7398896125745,26.5774035069516],[89.7401989555904,26.5768324418881],[89.740472595256,26.5764041463996],[89.7407462569345,26.575476159969],[89.7408890563504,26.5742388404111],[89.7408890789442,26.573298948639],[89.7408545871544,26.5725138265205],[89.7408415150781,26.5722162956727],[89.7407463707573,26.5707410210414],[89.7406512221444,26.5694442167467],[89.7404727934357,26.5681593008561],[89.7403181560931,26.5672313061012],[89.7400683355384,26.5664460797663],[89.7398065987211,26.5659225936935],[89.7389916722453,26.5650218061609],[89.7423466592938,26.5652388717594],[89.7447656514141,26.5653349189442],[89.7469066454283,26.56537896063],[89.7489386335211,26.5656800006845],[89.7508126224368,26.565962037634],[89.7542995780198,26.5674771082662],[89.754688572897,26.5676531161596],[89.755979562292,26.567971141852],[89.7570395318838,26.56913516466],[89.7580985304412,26.5690941851645],[89.7598085152972,26.5695612192861],[89.7600575138374,26.569598224196]]]},"properties":{"compartment":"SRD BL3"},"id":"comptt.46"}
]}