{"type":"FeatureCollection", "features": [
{"type":"Feature","geometry":{"type":"Polygon","coordinates":[[[89.8600604020618,26.5232690775705],[89.8603153936777,26.5235950831632],[89.8622253481515,26.5253171236426],[89.8623503010973,26.5272661299028],[89.8637502457147,26.5294451613821],[89.8648952156392,26.5305931858829],[89.8643841782283,26.5321981791144],[89.8659101445747,26.5334602112442],[89.8675660830911,26.5358692481618],[89.8671820426516,26.5375882440862],[89.8638649949407,26.5398781841402],[89.8632189727747,26.5408601735186],[89.8630535470905,26.5411119607994],[89.862041169786,26.5410924710881],[89.8551026774781,26.5409923960645],[89.8518190354145,26.5409637822041],[89.8477285340446,26.5409809727575],[89.847688007427,26.5408438717018],[89.8476900311269,26.5398568698096],[89.8480150568967,26.5387538739659],[89.8484680781797,26.537825880951],[89.8496970824261,26.5375359042605],[89.851183079094,26.5375379331348],[89.8526050745123,26.5375979608797],[89.8544130537589,26.5382959973756],[89.8557700409665,26.5387040245417],[89.8568690343161,26.5388800462407],[89.857386037355,26.5387060559444],[89.8579690555709,26.537894065678],[89.8580350735566,26.537139065478],[89.8575810843309,26.5367320558582],[89.8566790988782,26.5362090373072],[89.8550641192243,26.5355100045597],[89.8537731346546,26.5349859784515],[89.8526101553734,26.5342299543763],[89.8518361780183,26.5333579376318],[89.8517722060328,26.5321969341138],[89.8520322277609,26.531267937344],[89.8520332500598,26.530338935543],[89.8519062712479,26.5294679313695],[89.8512602922126,26.5286539172275],[89.8503563234909,26.5274338972804],[89.8499053454152,26.5265618868138],[89.8499073635064,26.5258078853762],[89.8503593750596,26.52528489313],[89.8509413821022,26.5249379037528],[89.8519123841109,26.5247649222707],[89.8537873910863,26.5243019577757],[89.8554944026103,26.5236649896761],[89.8563724006521,26.5236660067287],[89.8584394016206,26.5234360464185],[89.8600604020618,26.5232690775705]]]},"properties":{"compartment":"S Bholka BL3B"},"id":"comptt.5"}
]}