{"type":"FeatureCollection", "features": [
{"type":"Feature","geometry":{"type":"Polygon","coordinates":[[[89.8695215046088,26.559764333258],[89.8675084978305,26.5602302950318],[89.8659264980898,26.5603642645326],[89.8632894941834,26.5607682140496],[89.8613284904031,26.5611051765796],[89.8596724924691,26.5611711445078],[89.8587694944859,26.561170126947],[89.8577114821787,26.5617791075695],[89.8562054660047,26.562590079876],[89.8540174448479,26.5636710394484],[89.8510794139564,26.5652259853619],[89.8497214039543,26.5657669600124],[89.8484414052039,26.5658329352499],[89.8477334083127,26.5657689213564],[89.8483544190801,26.5652639324447],[89.848804426908,26.5648969404774],[89.8498554718298,26.5629319570687],[89.8498564945014,26.5619889552422],[89.8470975254514,26.5609558995756],[89.846566531389,26.5607578888641],[89.8470145513115,26.5598878958731],[89.8479865714664,26.5589599129557],[89.8490865885253,26.5581489327549],[89.8498636147131,26.5569879455883],[89.8507056379439,26.5559439599132],[89.8514166503116,26.5553639725993],[89.8519346672884,26.5546099811923],[89.8520006838945,26.5539129811098],[89.85167870554,26.5530419731442],[89.8508387269604,26.5522279552216],[89.8499997455906,26.5515299375467],[89.8494207719834,26.5504849242469],[89.8493567916606,26.5496719214115],[89.8494228068684,26.5490329214435],[89.8499408210516,26.5483949302621],[89.850717843023,26.5474089434325],[89.8516218535654,26.546886959979],[89.8525278612931,26.5464819767931],[89.8536268630213,26.5463089978126],[89.8545328582094,26.5464260156497],[89.8558248567265,26.5463690406477],[89.8561498713614,26.5457300457103],[89.8561508950709,26.5447430437933],[89.8560869133495,26.5439880410682],[89.855635925491,26.5435240313936],[89.8549229312685,26.5433490171947],[89.8533079418726,26.5430559852367],[89.8507889516903,26.5428789359405],[89.8487199688522,26.5423548947108],[89.8479449859389,26.5417148783995],[89.8477560017526,26.5410738734731],[89.8477285340446,26.5409809727575],[89.8518190354145,26.5409637822041],[89.8551026774781,26.5409923960645],[89.862041169786,26.5410924710881],[89.8630535470905,26.5411119607994],[89.8625849509898,26.541825163096],[89.86347692145,26.5429731826881],[89.8648788990514,26.5437772115165],[89.8660228441849,26.545956238039],[89.8674248410792,26.5459572652904],[89.8690828125922,26.5469912995535],[89.8685687724143,26.5487102929495],[89.867865716138,26.5511162840233],[89.8679906648614,26.5532382906331],[89.8688805912475,26.556219313809],[89.8686215325546,26.5586843136293],[89.8695215046088,26.559764333258]]]},"properties":{"compartment":"S Bholka BL2A"},"id":"comptt.16"}
]}