{"type":"FeatureCollection", "features": [
{"type":"Feature","geometry":{"type":"Polygon","coordinates":[[[89.8114552148558,26.6924025005839],[89.8108524859203,26.69241504884],[89.8072928070992,26.6927005198897],[89.8034285699037,26.6929479049204],[89.8011823604142,26.693138221432],[89.7991455395304,26.693366602105],[89.7980224316317,26.6933856202145],[89.7969183659936,26.6933094585132],[89.7953574537029,26.6931381077102],[89.7940249572075,26.6931190416596],[89.7928257034998,26.6933855187582],[89.7917216304969,26.6936139276418],[89.7903510558019,26.6939375015049],[89.7883523048497,26.6941658929216],[89.7865819852197,26.6943181486521],[89.7854779245257,26.6944513773533],[89.7835933879258,26.6944894106356],[89.7822228224523,26.6944322737703],[89.7797291637048,26.6942037946536],[89.7787444816565,26.6939686249823],[89.778746491777,26.6931368234335],[89.7789915435912,26.6909718240833],[89.7816465583726,26.6901088742582],[89.7823725985795,26.6883778851208],[89.783580621981,26.6872959066298],[89.7838246580645,26.6857809084951],[89.7835877110153,26.6836138997265],[89.7826277708641,26.6812298764354],[89.7835958104994,26.6794988920144],[89.7860098415514,26.6779859362219],[89.7908368827088,26.6758270262673],[89.7920449113277,26.6745290473473],[89.7934929289321,26.6736640739384],[89.7951769666901,26.6719431034892],[89.7954219588561,26.6722441088467],[89.7979709030821,26.6743111625481],[89.8002648700567,26.675461209518],[89.798984825899,26.6774081882854],[89.8005137641437,26.6798182227561],[89.8039597506672,26.6800512904539],[89.8117447382593,26.6798334419658],[89.8124357378049,26.6797874553629],[89.8128276612158,26.6829174690585],[89.8128526249975,26.6844124724337],[89.8126745628195,26.6869994739551],[89.8125095373314,26.6880684727984],[89.8125885056508,26.6893704768549],[89.8124444573422,26.6913804779247],[89.8114552148558,26.6924025005839]]]},"properties":{"compartment":"Newlands BL2"},"id":"comptt.141"}
]}