{"type":"FeatureCollection", "features": [
{"type":"Feature","geometry":{"type":"Polygon","coordinates":[[[89.4091165202257,26.7290592478716],[89.4081127396554,26.7291912985276],[89.4073988997951,26.7292626747337],[89.4049956543525,26.7293340080136],[89.4034252084607,26.7293339774063],[89.4022592855378,26.7291673944067],[89.4005698739869,26.7290008012053],[89.3999036291827,26.7288580179843],[89.3989042652515,26.7287152282714],[89.3982618103857,26.7285724455143],[89.397657570543,26.7286314538366],[89.3974605816695,26.7281924492701],[89.3971666014361,26.7274064422386],[89.3972576413864,26.7257434412568],[89.3970296780373,26.7242514343423],[89.3966437202699,26.7225454239953],[89.3958607635636,26.7208384059129],[89.3941348248588,26.7184883683974],[89.3927478771433,26.7164743380466],[89.3921718987975,26.7156403254476],[89.3909959465858,26.7137892994814],[89.3903770048608,26.7114432835486],[89.3911976218642,26.7114782295885],[89.392006640891,26.7114306652662],[89.3930536004437,26.7113355054993],[89.3943147182869,26.7112879399821],[89.3951475329994,26.7110024157294],[89.3954568702326,26.7106693012024],[89.3957186198889,26.7102409955908],[89.395932776797,26.7099316692492],[89.3962897027563,26.7096461457275],[89.3968607752825,26.7094795965733],[89.3973128769716,26.709360625181],[89.3980029197612,26.7091702883043],[89.3984788062177,26.7092654777302],[89.3989784920375,26.7093844576591],[89.3992164322224,26.7097651729247],[89.3993591955289,26.7100269161393],[89.399716095402,26.7104076437219],[89.4000254199964,26.7105980000623],[89.4005964933313,26.7108121715403],[89.4011437613256,26.7108359722388],[89.4018575994589,26.7108359861422],[89.4026666225152,26.7106218515439],[89.403190106893,26.7103839113445],[89.4040229204625,26.7101459871697],[89.4049033227594,26.7099556440008],[89.4059026941715,26.7097891031885],[89.4069734548238,26.7096463538061],[89.4088770256027,26.709408440486],[89.4097812149682,26.7093370779781],[89.411280283933,26.7092181369777],[89.4124224215314,26.7091943591838],[89.4131064697493,26.7091943725074],[89.4131039889773,26.7096407232035],[89.4126799781527,26.7101347157685],[89.4121659639157,26.7107797068319],[89.411951950684,26.7113507036151],[89.4121139171265,26.7127227090575],[89.411684898947,26.7135217020321],[89.4114698820448,26.7142446990486],[89.4112128680293,26.7148526950551],[89.4109118568818,26.7153466900142],[89.410569846759,26.7158026841112],[89.4104838322724,26.7164116834502],[89.4100988167536,26.7170956770887],[89.4100958029435,26.7176676779829],[89.4100067847914,26.7184286775161],[89.4099607720105,26.7189626775091],[89.4098717547754,26.7196856769789],[89.4095697307504,26.7207126728047],[89.4096097168254,26.7212846745364],[89.4098166950946,26.7221616800301],[89.4101506711706,26.723115688127],[89.4099356505874,26.7239906853944],[89.4094656426313,26.7243706768683],[89.4090416345794,26.7247496692367],[89.4090386189514,26.7253966702551],[89.4089066036597,26.7260436687597],[89.4090325904249,26.726577672104],[89.4088575724892,26.7273386699601],[89.4089395547519,26.7280636727649],[89.4089355391238,26.7287106737638],[89.4090375340715,26.7289086760814],[89.4091165202257,26.7290592478716]]]},"properties":{"compartment":"Godamdabri BL2"},"id":"comptt.172"}
]}