{"type":"FeatureCollection", "features": [
{"type":"Feature","geometry":{"type":"Polygon","coordinates":[[[89.4252965689269,26.7509396401919],[89.4248099563151,26.7510960206714],[89.4228679665262,26.7508829824329],[89.4203969830558,26.7504659335358],[89.4187539930503,26.7502299010938],[89.4168330082732,26.7498078629197],[89.4146660350783,26.7489338191953],[89.414062045947,26.7485498067746],[89.4127060678294,26.7477917790645],[89.4110920927816,26.7469347461596],[89.4101701102401,26.7463127271431],[89.4090688848313,26.7457745674468],[89.408803129975,26.7456446993729],[89.4085681333718,26.7455296945989],[89.4057661798192,26.7439126372706],[89.4024552304073,26.7421795698324],[89.4007342517264,26.7414845351242],[89.3996502532863,26.7415375140774],[89.3972212529823,26.7418134671772],[89.3933262538982,26.7421983918754],[89.3900022574364,26.7424133274255],[89.3868732562866,26.7428012670633],[89.3846832566856,26.7430232247337],[89.3847392970938,26.7413462230613],[89.3847533566874,26.7388802192695],[89.3861364026113,26.7368302428473],[89.3900394391495,26.7348943157268],[89.3918784788464,26.7330523485261],[89.3946355160369,26.7312143992191],[89.3975065479535,26.7295824524696],[89.3976235675143,26.7287604533878],[89.397682569124,26.7286874544166],[89.397657570543,26.7286314538366],[89.3982618103857,26.7285724455143],[89.3989042652515,26.7287152282714],[89.3999036291827,26.7288580179843],[89.4005698739869,26.7290008012053],[89.4022592855378,26.7291673944067],[89.4034252084607,26.7293339774063],[89.4049956543525,26.7293340080136],[89.4073988997951,26.7292626747337],[89.4081127396554,26.7291912985276],[89.4091165202257,26.7290592478716],[89.4093145205853,26.729436682359],[89.4091825062332,26.7300446807983],[89.4093484790636,26.7311506858749],[89.4090864567577,26.7321016823511],[89.4089154424813,26.7327106800315],[89.4088674177287,26.7337396808084],[89.4089074029,26.7343486826017],[89.4093673795261,26.7352656930952],[89.4104603286718,26.7372507177081],[89.4110563180949,26.7376237299488],[89.4123533024715,26.7381297560785],[89.4140842822821,26.7387777909078],[89.4159382611204,26.7394528281823],[89.4167412542134,26.7396518441714],[89.4172682467202,26.7399048548693],[89.417453240167,26.7401558588957],[89.4176362289024,26.7406018632087],[89.4177872183983,26.7410198668512],[89.4180642061867,26.7414948730458],[89.4182481949187,26.7419408773787],[89.4184961895312,26.7421368825421],[89.4187391843985,26.7423228875914],[89.4193621696154,26.7428669006492],[89.4198401467186,26.7437619114664],[89.4195031246865,26.744708906477],[89.4193521251041,26.7447079035306],[89.4192321247637,26.7447349012355],[89.4189601222307,26.7448688961548],[89.4185671200133,26.7450028887145],[89.4184761195973,26.7450298869849],[89.4180531154985,26.7452448790947],[89.4175391142743,26.7453508692477],[89.417328112889,26.7454308652664],[89.4171151056058,26.7457548616534],[89.4173550977458,26.7460538668331],[89.4177170954468,26.7461098739866],[89.418290093251,26.74613888521],[89.4184410947929,26.7460588880212],[89.418502097247,26.7459508890305],[89.418653101426,26.7457618916596],[89.4187441031485,26.7456808932991],[89.4189861031709,26.7456538979735],[89.419648096776,26.7458469112067],[89.4197090959637,26.7458739124415],[89.4197690964606,26.7458469135665],[89.419951100535,26.7456589168018],[89.4203441040595,26.745470924152],[89.4203441027529,26.7455249242423],[89.4204940984185,26.7456879274402],[89.4207950969569,26.7457159333573],[89.4209160972706,26.7456899356736],[89.4209760977676,26.7456629367986],[89.4211281019445,26.745473939447],[89.4211891024388,26.7454469405915],[89.421309101473,26.7454739429771],[89.4213690993328,26.7455559442843],[89.4214280952354,26.7457189457076],[89.4215170871402,26.7460439479869],[89.4216370835371,26.7461799505547],[89.4217270800121,26.7463159525375],[89.4219070729863,26.7465869565013],[89.4220260674258,26.7468039591853],[89.4221770643952,26.7469129623127],[89.4224170604553,26.7470499672228],[89.4225370555454,26.7472399698812],[89.4226860472935,26.747564973331],[89.4227740359093,26.7480259758188],[89.4229240322278,26.7481619789721],[89.4230150306842,26.7482159808374],[89.4232860273167,26.7483259863073],[89.4234360255953,26.748380989325],[89.4235270253584,26.7483809910999],[89.4237980252821,26.7483549963423],[89.4241000244718,26.7483560022345],[89.4246430243169,26.7483040127386],[89.424824024475,26.7482780162254],[89.4248840243189,26.7482780173958],[89.4252770252322,26.7481980249272],[89.4254880253124,26.7481720289992],[89.4256390248953,26.7481730319462],[89.4257000260434,26.7481190330455],[89.4259110254703,26.7481200371628],[89.426212022703,26.7482020431713],[89.4263630222861,26.7482030461182],[89.426544021162,26.7482300496938],[89.4270860190264,26.748260060316],[89.427358018295,26.7482610656232],[89.4276590155281,26.7483430716317],[89.4279900106989,26.7485070783631],[89.4282600047215,26.7487250839951],[89.4283500018739,26.7488330859318],[89.4285309981123,26.7489690896904],[89.4288909892631,26.749296097261],[89.4289509858401,26.7494310986579],[89.4289799792063,26.7497020996782],[89.429146971778,26.7499911034205],[89.4289599717074,26.7500140998114],[89.4272929691681,26.7502980677698],[89.4252965689269,26.7509396401919]]]},"properties":{"compartment":"Godamdabri BL1"},"id":"comptt.183"}
]}