{"type":"FeatureCollection", "features": [
{"type":"Feature","geometry":{"type":"Polygon","coordinates":[[[89.4114471241439,26.68888868634],[89.4100137052949,26.6889956286183],[89.4091095156407,26.6890788911581],[89.4082172153821,26.689185953969],[89.407491477273,26.6891859398435],[89.4067538474736,26.6892573056054],[89.4054689382405,26.6893643607748],[89.404100750948,26.6894000242047],[89.4026492833004,26.6894594860535],[89.402304263627,26.6894832693779],[89.4016975017672,26.6896260278056],[89.4008527899553,26.6897925716416],[89.4004363755901,26.6900186139121],[89.4000080712562,26.6902446559511],[89.3992704305561,26.6907681224628],[89.3988778041203,26.691077445334],[89.3984732925497,26.6916009183291],[89.3981758444301,26.6919697331511],[89.3977594328904,26.692493205914],[89.3976047555454,26.6928144334359],[89.3974857752368,26.6932546318497],[89.3974024848347,26.6936948309583],[89.397402476798,26.6940279515103],[89.3974024635941,26.6945752324173],[89.3973310577063,26.6952414821318],[89.3972358822142,26.6954794206735],[89.3968075644357,26.695848232947],[89.3965339282621,26.6961337680935],[89.3960104287235,26.6965858486518],[89.3955226293785,26.6970260398851],[89.3948563756201,26.6976684879791],[89.3939164757366,26.6981800505288],[89.3933097895745,26.6985012492497],[89.3932143193303,26.6981073167393],[89.3922703458845,26.6971092967116],[89.3914073773647,26.6958982779101],[89.3913813880969,26.6954562766733],[89.3913364083842,26.6946202744152],[89.3918144242124,26.6939122825486],[89.3922894349097,26.6934172909755],[89.3935564348726,26.6932813154116],[89.3946634404424,26.6929303363773],[89.3949834567086,26.692221341432],[89.394988477248,26.6913693401188],[89.3948375118952,26.6899493348288],[89.3953185397251,26.6887433421931],[89.3959595739121,26.6872563522048],[89.3961995886951,26.6866173558168],[89.3961256077231,26.6858363530831],[89.3952636528765,26.684057333363],[89.3945616992952,26.6822083166423],[89.3943317255738,26.6811433104042],[89.394972759795,26.6796543204101],[89.3966408014789,26.6777443496972],[89.3979898234822,26.6766853741856],[89.3995758448434,26.6756274032845],[89.4012398608928,26.6747814342508],[89.4031388660159,26.674363470498],[89.4047208685695,26.6740865008126],[89.4065378568229,26.6743775366432],[89.408354846766,26.6745985723586],[89.4098548427186,26.6746046015497],[89.4109618380076,26.6746806232123],[89.4124628288265,26.6748996527788],[89.4138828164587,26.6752596810054],[89.4151427942142,26.6760467068328],[89.4157697668392,26.6771147208148],[89.4157647429122,26.6781077223753],[89.4153647165862,26.679242716487],[89.4146466842854,26.6806597048809],[89.4133716449185,26.6824296830231],[89.4119395991333,26.6844826585789],[89.4113785629935,26.6860416502594],[89.4113675097414,26.6882506537268],[89.4113665065117,26.6883846539306],[89.4114471241439,26.68888868634]]]},"properties":{"compartment":"Godamdabri BL4"},"id":"comptt.145"}
]}