{"type":"FeatureCollection", "features": [
{"type":"Feature","geometry":{"type":"Polygon","coordinates":[[[89.4131064697493,26.7091943725074],[89.4124224215314,26.7091943591838],[89.411280283933,26.7092181369777],[89.4097812149682,26.7093370779781],[89.4088770256027,26.709408440486],[89.4069734548238,26.7096463538061],[89.4059026941715,26.7097891031885],[89.4049033227594,26.7099556440008],[89.4040229204625,26.7101459871697],[89.403190106893,26.7103839113445],[89.4026666225152,26.7106218515439],[89.4018575994589,26.7108359861422],[89.4011437613256,26.7108359722388],[89.4005964933313,26.7108121715403],[89.4000254199964,26.7105980000623],[89.399716095402,26.7104076437219],[89.3993591955289,26.7100269161393],[89.3992164322224,26.7097651729247],[89.3989784920375,26.7093844576591],[89.3984788062177,26.7092654777302],[89.3980029197612,26.7091702883043],[89.3973128769716,26.709360625181],[89.3968607752825,26.7094795965733],[89.3962897027563,26.7096461457275],[89.395932776797,26.7099316692492],[89.3957186198889,26.7102409955908],[89.3954568702326,26.7106693012024],[89.3951475329994,26.7110024157294],[89.3943147182869,26.7112879399821],[89.3930536004437,26.7113355054993],[89.392006640891,26.7114306652662],[89.3911976218642,26.7114782295885],[89.3903770048608,26.7114432835486],[89.3899150626927,26.7090982706766],[89.3901621117289,26.7070402720863],[89.3904071401991,26.7058342748642],[89.3910411521747,26.7052692862756],[89.3919941667176,26.7045633036648],[89.3930231690653,26.7043543233552],[89.3946841662583,26.7042903555914],[89.3959511765301,26.7037273793295],[89.3957961940734,26.7030173751357],[89.3950142253253,26.7018073579062],[89.3940702535972,26.7007383377575],[89.3935242876548,26.6993863248903],[89.3933097895745,26.6985012492497],[89.3939164757366,26.6981800505288],[89.3948563756201,26.6976684879791],[89.3955226293785,26.6970260398851],[89.3960104287235,26.6965858486518],[89.3965339282621,26.6961337680935],[89.3968075644357,26.695848232947],[89.3972358822142,26.6954794206735],[89.3973310577063,26.6952414821318],[89.3974024635941,26.6945752324173],[89.397402476798,26.6940279515103],[89.3974024848347,26.6936948309583],[89.3974857752368,26.6932546318497],[89.3976047555454,26.6928144334359],[89.3977594328904,26.692493205914],[89.3981758444301,26.6919697331511],[89.3984732925497,26.6916009183291],[89.3988778041203,26.691077445334],[89.3992704305561,26.6907681224628],[89.4000080712562,26.6902446559511],[89.4004363755901,26.6900186139121],[89.4008527899553,26.6897925716416],[89.4016975017672,26.6896260278056],[89.402304263627,26.6894832693779],[89.4026492833004,26.6894594860535],[89.404100750948,26.6894000242047],[89.4054689382405,26.6893643607748],[89.4067538474736,26.6892573056054],[89.407491477273,26.6891859398435],[89.4082172153821,26.689185953969],[89.4091095156407,26.6890788911581],[89.4100137052949,26.6889956286183],[89.4114471241439,26.68888868634],[89.4116734594215,26.6903036631043],[89.4125584128248,26.6921396833919],[89.4133513848972,26.6932117006165],[89.4142723534746,26.6944147205527],[89.4140933511894,26.6945287172582],[89.4137203481784,26.6946937102718],[89.4129453435352,26.6949696956444],[89.4121093343699,26.6954396801525],[89.4118753241204,26.695889676347],[89.4119013122767,26.6963776776665],[89.4118972957326,26.6970636787321],[89.4120212760794,26.6978646824814],[89.4118052638027,26.6983966791626],[89.4117592482834,26.699044679347],[89.4117562354273,26.6995776801769],[89.4118382177394,26.7003016829801],[89.4123452025646,26.7008756938091],[89.4124681884618,26.701446697156],[89.4128041764833,26.7019067044657],[89.4134361426117,26.7032417189989],[89.4131771313365,26.7037367147806],[89.413005111578,26.7045737128267],[89.4134250902047,26.7054137224069],[89.4137180737727,26.7060627291955],[89.413500053214,26.7069377264091],[89.4134960339081,26.7077377276653],[89.4134530211502,26.7082707277166],[89.4131080064258,26.7089177220759],[89.4131064697493,26.7091943725074]]]},"properties":{"compartment":"Godamdabri BL3"},"id":"comptt.155"}
]}