{"type":"FeatureCollection", "features": [
{"type":"Feature","geometry":{"type":"Polygon","coordinates":[[[89.8430963853296,26.5409381726722],[89.83959553349,26.5409216646212],[89.8353125084328,26.5411119417788],[89.8254710817242,26.5410546404712],[89.8216870562165,26.5412193672796],[89.8216480775786,26.5403333648038],[89.8245391559983,26.5367984141026],[89.8248052365448,26.5334184127072],[89.8266432474727,26.5327924471886],[89.8279572766125,26.5314564701122],[89.8275233134368,26.5299624587802],[89.8263013501661,26.5285454322966],[89.8260403865994,26.5270514243264],[89.826110389467,26.5269254254409],[89.8256194042147,26.5263564148018],[89.8249814313107,26.5252864003359],[89.8247334350547,26.5251533952625],[89.8241894475203,26.5246843837896],[89.823967455501,26.5243723788736],[89.8237444608207,26.5241713741538],[89.8236084631153,26.5240883713522],[89.8231074715981,26.5237813610293],[89.8227874871623,26.5231623536154],[89.8250954819448,26.5231653984308],[89.8290364688982,26.5233434752929],[89.8331074625092,26.5232325541196],[89.8371784463929,26.5235276337398],[89.8389567823991,26.5235296405142],[89.8393294298103,26.5244367272802],[89.8400146799708,26.5256169528904],[89.8410996705135,26.5275776477885],[89.8421846300337,26.5304139943996],[89.8427746916611,26.532374689691],[89.8431934346315,26.5338785207631],[89.8433551763118,26.5367091294363],[89.843319431882,26.5389791431777],[89.843133790636,26.5407137729604],[89.8430963853296,26.5409381726722]]]},"properties":{"compartment":"S Bholka BL4"},"id":"comptt.6"}
]}