{"type":"FeatureCollection", "features": [
{"type":"Feature","geometry":{"type":"Polygon","coordinates":[[[89.860953477936,26.6988286498198],[89.8610195888335,26.6983725402159],[89.8610576672762,26.6980203802683],[89.8609815368953,26.6976301480149],[89.8607055260381,26.6972779819316],[89.8602296433219,26.6970209921308],[89.8593825577467,26.6969162753777],[89.8586116178538,26.6969828904484],[89.8577169373158,26.6970875731765],[89.856508175406,26.697277899937],[89.8554992735118,26.6974492005644],[89.8544808574912,26.6977918313415],[89.8532340231349,26.698086857563],[89.8522727113675,26.6982486391009],[89.8502454069168,26.6986198002248],[89.8485417147409,26.698867227428],[89.8471996915261,26.6991241817146],[89.8461907987177,26.6993335624157],[89.8452104544637,26.6996000437858],[89.8442872170862,26.6999902565127],[89.8434125416102,26.7003414399162],[89.8433911734105,26.7002250994674],[89.8433911761709,26.7001110992449],[89.843403260935,26.6966090926461],[89.842908306687,26.6947650793802],[89.8430383889116,26.691356075268],[89.8430345463759,26.6906348537854],[89.8447117022736,26.690648956565],[89.8478954154847,26.6906347387109],[89.8504509487274,26.6906776187019],[89.8533919618049,26.6906919561665],[89.8557618961647,26.6907062824791],[89.8585886908923,26.6906635076033],[89.8600877530785,26.6904351064325],[89.8612584477261,26.6901353187082],[89.8626290195109,26.6899354650836],[89.86434223088,26.6897213481229],[89.8658127434825,26.689478676366],[89.8672975388199,26.689121784663],[89.8682683601177,26.6889790333429],[89.8693296077596,26.68897905407],[89.8691893831931,26.6891805817281],[89.8677813613417,26.6902125562589],[89.8668843105392,26.6923935430289],[89.8664962363973,26.6954915415424],[89.8659841930801,26.6973275351505],[89.8621491738958,26.6984724624797],[89.8614201702663,26.6986894486639],[89.860953477936,26.6988286498198]]]},"properties":{"compartment":"Sankosh BL1A"},"id":"comptt.148"}
]}