{"type":"FeatureCollection", "features": [
{"type":"Feature","geometry":{"type":"Polygon","coordinates":[[[89.8696663800607,26.6726753885706],[89.869662595883,26.6724936481093],[89.8696245367861,26.6720463064854],[89.8695769613929,26.6714466743758],[89.869548418131,26.6711706632751],[89.8694627656864,26.6708660910034],[89.8693390444769,26.670513927895],[89.8692438720533,26.6702093454376],[89.8690630402797,26.6698857412708],[89.868672815288,26.669714413317],[89.8682349971802,26.6696763246967],[89.8678352464561,26.6697429470255],[89.8674164530127,26.6699237792074],[89.8669120081487,26.6701712298485],[89.8665693549966,26.6703330334788],[89.8660173181671,26.6706661433594],[89.8656651522747,26.6709421570285],[89.8655414174861,26.6711515450253],[89.8653700930331,26.6713514220743],[89.865198770882,26.6714561089362],[89.8648275714766,26.6714656217095],[89.8644183014654,26.671503683796],[89.8640756583142,26.6716654774261],[89.8636854211257,26.671998600464],[89.8632856614266,26.6724364135215],[89.8630001117036,26.6728647087894],[89.8627336035494,26.673226384298],[89.8624766162946,26.6735499899175],[89.8621530078071,26.6739306943486],[89.8618103507429,26.6742542982956],[89.8613630032212,26.674606450255],[89.8608395117254,26.6751299210641],[89.8601637405687,26.6756533889003],[89.8592214540202,26.6764243220192],[89.8588502458688,26.6767955055011],[89.8583077274084,26.6771952456947],[89.857888931435,26.6774807780792],[89.8572797803607,26.6779947271955],[89.8567277275474,26.6785753075569],[89.8561661686695,26.678994077415],[89.855728340897,26.6793557495764],[89.8552429246123,26.6796603106967],[89.8548051002938,26.6798792125782],[89.8542816170875,26.6800600427127],[89.8538723477709,26.6800695547412],[89.8533869404663,26.6800029251342],[89.8530157449795,26.6798506275892],[89.8527397395099,26.6796888218841],[89.8524066187729,26.6793366546913],[89.8521306172175,26.6790130386696],[89.8518165387401,26.6785656916625],[89.8514834226072,26.6780231640977],[89.8513121149611,26.677528239785],[89.8510741747014,26.6771475143951],[89.8505643160593,26.6767250236157],[89.8510457424175,26.6760042016025],[89.8518277689428,26.6748352145791],[89.8536218702256,26.6704812410697],[89.8559229592883,26.6665852783415],[89.857459036193,26.663262301799],[89.859377112238,26.6599393327029],[89.8602721323842,26.6590233483666],[89.8630781260754,26.6590264031177],[89.8657581366796,26.6583414540585],[89.8689511295263,26.6583445163611],[89.8710801167137,26.6586795585596],[89.8717581158649,26.658652571735],[89.8719423961609,26.6586234452731],[89.8719315001309,26.6588739455543],[89.8718958030216,26.6591713754441],[89.8718125114167,26.6596591647803],[89.8717292229746,26.6600160838587],[89.8715626529915,26.6604443814526],[89.8713841850473,26.6607894086503],[89.8710629445439,26.6612533932963],[89.870598932631,26.661788765297],[89.8703490842695,26.6621575811482],[89.8701706166128,26.6624906983219],[89.8700635419612,26.6626929466308],[89.8700397333862,26.6630498668693],[89.8701230077374,26.6632759189396],[89.870230081748,26.6635138714979],[89.8703847373789,26.663680434844],[89.8705631912312,26.6639183887952],[89.8708249223106,26.6642634145826],[89.8710628622921,26.6646560299996],[89.8712413124052,26.6650486442557],[89.8714911325804,26.665845770702],[89.8717171622322,26.666666686731],[89.8718123233236,26.6674400201125],[89.8718123083649,26.6680586813315],[89.8717647040868,26.6686535415747],[89.8716576116658,26.6691770305161],[89.8714553503189,26.6696648075297],[89.8712173916399,26.6700455236353],[89.8710151348957,26.6703429502734],[89.8708247689882,26.6706046870735],[89.8706344125051,26.6708902239204],[89.8705273264128,26.6711519623458],[89.8703845486735,26.6714850802151],[89.8702417715094,26.6717944080375],[89.8700276145034,26.6721037344665],[89.8696663800607,26.6726753885706]]]},"properties":{"compartment":"Sankosh BL3A"},"id":"comptt.125"}
]}