{"type":"FeatureCollection", "features": [
{"type":"Feature","geometry":{"type":"Polygon","coordinates":[[[89.30988438625548,26.673057593733006],[89.30407371812765,26.674412170585242],[89.29989182294935,26.675343366403297],[89.29417351879289,26.676540096947974],[89.2929765742096,26.676516433986308],[89.28069267592633,26.67925921154341],[89.27694144539146,26.68113648246276],[89.2736152308583,26.68141837405875],[89.27359337283593,26.67838845556281],[89.27487845547643,26.676432555118367],[89.2752452439729,26.67445720413673],[89.27866499159614,26.67329957881259],[89.27933164194178,26.6713145646155],[89.2803702905565,26.67029082855896],[89.28061554017512,26.669372394120728],[89.28004026005004,26.667399313027943],[89.27985268485361,26.665504738253105],[89.27945256928069,26.664616354661064],[89.27891932706535,26.663769605183177],[89.27783131376418,26.662345709486942],[89.28949865933572,26.662083817014604],[89.29619567319185,26.660729356174897],[89.29716416119714,26.660561551674334],[89.3019011629084,26.659861621017058],[89.30420066912563,26.660368872825245],[89.30626596220446,26.660861011526492],[89.30828548158973,26.66141112142617],[89.30941290318299,26.66133055476132],[89.310122179595,26.66394834184257],[89.3110834316551,26.667699816993036],[89.31131334063821,26.668564868573867],[89.31069716294377,26.6695457204587],[89.31013914170808,26.670447928429212],[89.30998923731352,26.67203662848766],[89.30988438625548,26.673057593733006]]]},"properties":{"compartment":"JP-4","Area_in_Ha":617.766,"Shape_Area":0.00049851911,"beat":"50 Feet Beat","range":"Jaldapara West","division":"Jaldapara"}}
]}