{"type":"FeatureCollection", "features": [
{"type":"Feature","geometry":{"type":"Polygon","coordinates":[[[89.27825814010112,26.751635657859367],[89.2747126888396,26.754508643758925],[89.2729391592149,26.755370977588598],[89.27089171588005,26.75657705568665],[89.26974445524246,26.757532107820566],[89.26930290880227,26.758695933070896],[89.26920144908769,26.76007293002175],[89.26925927909252,26.761589976596213],[89.2677547115108,26.76402440630136],[89.2660236829467,26.76537292801828],[89.26543235531898,26.766278738672895],[89.26521371574046,26.76704501771343],[89.25942412322479,26.766837955107576],[89.25988928676122,26.765242466966356],[89.26077870007703,26.763611358477476],[89.26208334926719,26.763435233449343],[89.26388552050042,26.76202543102886],[89.26430206578777,26.76143430934593],[89.26416239118146,26.760318046540647],[89.26424280046496,26.759254843736073],[89.2650587616526,26.757605956549696],[89.26641191397869,26.756318209218023],[89.2675688729052,26.755563073676967],[89.2706849725335,26.753783030262696],[89.27130942399077,26.75292290696666],[89.27173125369444,26.752505831978624],[89.27219533534651,26.751474754756202],[89.27251869108477,26.75091435031709],[89.27724047446839,26.751294229345262],[89.27825814010112,26.751635657859367]]]},"properties":{"compartment":"Gergenda RL","Area_in_Ha":0,"Shape_Area":0.00008566487,"beat":"Bhagatjote Beat","range":"Lankapara","division":"Jaldapara"}},
{"type":"Feature","geometry":{"type":"Polygon","coordinates":[[[89.28005226510004,26.749950712355542],[89.28081837237005,26.75188696081466],[89.27571701123117,26.755895052115022],[89.27156797548173,26.761799696698688],[89.26543721165802,26.781466643171086],[89.26384986417997,26.788673558238145],[89.26241521259203,26.792531701077166],[89.25911487784941,26.79244092710718],[89.25573503404462,26.792319916131248],[89.25587946606458,26.79084118697125],[89.25717496735092,26.789288964314323],[89.25990931016656,26.787450044983643],[89.26060026019394,26.785261886526882],[89.2626959683443,26.782497423617258],[89.26332656576847,26.778193585765393],[89.26446345362552,26.775363018188784],[89.26653280174747,26.771622552538815],[89.2664301603237,26.77097330767208],[89.26625046588634,26.769882141347807],[89.26563078713116,26.768738022941477],[89.2652479601253,26.766993417312392],[89.26543820091229,26.7662803007953],[89.26602621633685,26.765398778131157],[89.26681109605528,26.764724720969127],[89.26771447134581,26.764054056949192],[89.26925800565249,26.76156015597644],[89.2691653377102,26.76005718379207],[89.26930110925883,26.758647185319376],[89.26975226675376,26.757520544337694],[89.27090727684941,26.756570938498044],[89.27304119989151,26.75531218620847],[89.27474293124135,26.754466949390235],[89.27675061914579,26.752828438581616],[89.27826164655778,26.751626911952485],[89.27920056035765,26.750104107018956],[89.28005226510004,26.749950712355542]]]},"properties":{"compartment":"Titi-3A","Area_in_Ha":0,"Shape_Area":0.00015151364,"beat":"Bhagatjote Beat","range":"Lankapara","division":"Jaldapara"}},
{"type":"Feature","geometry":{"type":"Polygon","coordinates":[[[89.30020218438335,26.794777319917443],[89.29613584399408,26.794684258072095],[89.2882443820726,26.79499512942175],[89.27956758897312,26.794070081369227],[89.26941359106445,26.79294026128406],[89.26241180326218,26.79253315797888],[89.26381316644455,26.788819399495765],[89.26541920543207,26.78165629310348],[89.26811285032784,26.772952310800576],[89.26869834675136,26.770852076362303],[89.27164937491875,26.761717195592155],[89.27568670677613,26.755874075428267],[89.28081448550017,26.75188300919359],[89.28368979524794,26.757832376163265],[89.28476158657804,26.759392900462046],[89.28618883854415,26.76419565970201],[89.28701514823058,26.76778241232853],[89.28947290814824,26.772636768372195],[89.29155716163376,26.77713285429786],[89.2918558696527,26.778795105409813],[89.29302512860687,26.78072698226447],[89.2962965294613,26.783814094045283],[89.29868662888487,26.792737182674898],[89.30020218438335,26.794777319917443]]]},"properties":{"compartment":"Titi-3B","Area_in_Ha":0,"Shape_Area":0.00089840275,"beat":"Bhagatjote Beat","range":"Lankapara","division":"Jaldapara"}}
]}