{"type":"FeatureCollection", "features": [
{"type":"Feature","geometry":{"type":"Polygon","coordinates":[[[89.35702258602356,26.82658953687769],[89.35810452170637,26.834402532051286],[89.36139155008004,26.837386971831336],[89.36685911155882,26.843933426586432],[89.3689630026405,26.846455835168683],[89.37117195702024,26.84977483174316],[89.37068364673297,26.851191355696585],[89.37167449817963,26.853774939761706],[89.37194606286056,26.854990413976452],[89.37261056472585,26.857302020571865],[89.37285797181801,26.86004495101372],[89.36430245859162,26.85711205857467],[89.35969066409291,26.855234903667906],[89.3463309257317,26.849980354709658],[89.32777628414823,26.845556002307717],[89.32802164798073,26.844359694444393],[89.32783974840572,26.843164658222463],[89.32773286577918,26.84216242675467],[89.32777587135945,26.84100356126538],[89.32419896541,26.833410259675816],[89.32112488570499,26.82562110463033],[89.35702258602356,26.82658953687769]]]},"properties":{"compartment":"JG-1","Area_in_Ha":1194.775,"Shape_Area":0.00096716588,"beat":"Dalsingpara","range":"Nilpara","division":"Jaldapara"}},
{"type":"Feature","geometry":{"type":"Polygon","coordinates":[[[89.33687589800434,26.7987007382485],[89.3375439656815,26.798570360833537],[89.34297383567406,26.79774757738886],[89.34414636456313,26.798221755729514],[89.34444906377331,26.798340604735188],[89.34465449590834,26.80739117406347],[89.34573202581242,26.810811138423333],[89.3490126429192,26.81330634970834],[89.35012393697019,26.81639147758466],[89.35110997704385,26.82023499025263],[89.35256855239686,26.82271321784077],[89.35448244191122,26.824176442688724],[89.35588280864476,26.825627897209756],[89.35702258602356,26.82658953687769],[89.32112609439378,26.8256212134483],[89.32013846162079,26.822930621750857],[89.3201022261369,26.82238700585566],[89.32003660080852,26.821654627658972],[89.31938821479434,26.821036082049602],[89.31929299007948,26.821055467835606],[89.3189143422232,26.818281528769603],[89.31845173905657,26.814627310801825],[89.31735639538141,26.810521664643147],[89.31571910585211,26.804625194896857],[89.31633184993501,26.804518132405917],[89.32234379263195,26.803428690981377],[89.32460985306233,26.80299804342502],[89.32940360199467,26.80152899726545],[89.33449105781614,26.80070576685773],[89.33687589800434,26.7987007382485]]]},"properties":{"compartment":"JG-2","Area_in_Ha":943.224,"Shape_Area":0.00075906538,"beat":"Dalsingpara","range":"Nilpara","division":"Jaldapara"}},
{"type":"Feature","geometry":{"type":"Polygon","coordinates":[[[89.33713579937768,26.777171204087836],[89.3417368856488,26.791693255939037],[89.34381676752986,26.794320377083807],[89.34414636546245,26.798221756628834],[89.34297383657338,26.79774757648954],[89.33754396658082,26.798570360833537],[89.33687589800434,26.7987007382485],[89.33449105781614,26.80070576685773],[89.32940360199467,26.80152899726545],[89.32877744092622,26.79731874826166],[89.32839199779255,26.79507768628622],[89.3284987689031,26.792524030759466],[89.32998889067483,26.79162726818396],[89.32947147293021,26.7900067995742],[89.32893612989852,26.78835577649795],[89.32854469817931,26.78711097988787],[89.32799104045421,26.78537269379484],[89.32787664219336,26.784827309832508],[89.32757217401667,26.783347332413484],[89.32748175977542,26.78291665607884],[89.3271723777031,26.781387566682895],[89.32653600303416,26.780626666487535],[89.32594282010513,26.780052639118026],[89.32586966385395,26.779259375020217],[89.32575061429947,26.778670354153576],[89.3335287328648,26.777302820768625],[89.33713579937768,26.777171204087836]]]},"properties":{"compartment":"DSP-2","Area_in_Ha":345.469,"Shape_Area":0.00027878339,"beat":"Dalsingpara","range":"Nilpara","division":"Jaldapara"}},
{"type":"Feature","geometry":{"type":"Polygon","coordinates":[[[89.32940360199467,26.80152899726545],[89.32460985306233,26.80299804342502],[89.32234379263195,26.803428690981377],[89.32170381437959,26.801984074905192],[89.32036667538182,26.79867987667501],[89.31977972925114,26.7971075928412],[89.31999179118827,26.790338507316335],[89.31546762932771,26.785936411336365],[89.31439222991753,26.784398853024697],[89.31458470282183,26.780779952332978],[89.32575061429947,26.778670354153576],[89.32586966295463,26.779259375020217],[89.32594282010513,26.780052639118026],[89.32653600303416,26.780626667386855],[89.3271723777031,26.781387566682895],[89.32748175977542,26.782916656978216],[89.32757217401667,26.78334733331286],[89.32787664219336,26.78482730893319],[89.32799103955489,26.78537269289552],[89.32854469817931,26.78711097988787],[89.32893612989852,26.78835577739727],[89.32947147293021,26.79000679867488],[89.3299888897755,26.79162726818396],[89.3284987689031,26.792524030759466],[89.32839199779255,26.79507768628622],[89.32877744092622,26.79731874916098],[89.32940360199467,26.80152899726545]]]},"properties":{"compartment":"DSP-1","Area_in_Ha":263.628,"Shape_Area":0.00023417827,"beat":"Dalsingpara","range":"Nilpara","division":"Jaldapara"}}
]}