{"type":"FeatureCollection", "features": [
{"type":"Feature","geometry":{"type":"Polygon","coordinates":[[[89.3484608800656,26.553084318586457],[89.34807965115505,26.553306949356283],[89.34622415641974,26.554212806775638],[89.34464973219946,26.554437713729556],[89.34322064022041,26.554643430949625],[89.34223998618648,26.554710261369507],[89.34125281026905,26.554671955646313],[89.34055814604164,26.55463011378879],[89.33801469602145,26.55444446404084],[89.33701889560558,26.552274668840937],[89.33517573777016,26.551116463454093],[89.33303702493879,26.54969912651353],[89.33170054244613,26.547945631985385],[89.33176686924566,26.547356113793683],[89.3321288085977,26.546828127216372],[89.33284777790271,26.54590574835163],[89.33283876849441,26.54518653622972],[89.33275592294757,26.544402630477066],[89.33230963708013,26.543753021384873],[89.33143680096765,26.54402300505768],[89.3305177316081,26.543508796094102],[89.32903934598909,26.54221574725898],[89.32726539008576,26.540729369364954],[89.32700727746396,26.540535736335187],[89.32567218981978,26.538750775428014],[89.32404483959772,26.537034319478323],[89.32374861370761,26.53671034500644],[89.32338064889791,26.53651779655911],[89.32175682311896,26.535095653641577],[89.32146278977598,26.53490253862134],[89.3210008853826,26.532978527237276],[89.32010266320742,26.531124586530495],[89.32196249717157,26.526895868149836],[89.32260304649344,26.52535528002221],[89.32406418401496,26.525341409778264],[89.32434161587292,26.52409774361604],[89.32416181621488,26.521420208276027],[89.32536354249356,26.518271443472372],[89.32739897448312,26.51817761900196],[89.32864592496952,26.518815946099096],[89.32997002919353,26.519715769966865],[89.33154346326029,26.52277429409844],[89.33280678410586,26.52459102715426],[89.33252730898818,26.525575083323474],[89.33196733172701,26.527218415397613],[89.33186528205715,26.530814016453746],[89.33269271319824,26.533026529450808],[89.33418298605602,26.53536527218961],[89.33544278695513,26.53679104926755],[89.33785485771557,26.537093071288268],[89.33765150571247,26.53833773210073],[89.33853299510167,26.538786575640017],[89.3405838963298,26.539223830515425],[89.34274706532489,26.540428328504618],[89.3424494742639,26.541623757730292],[89.343206598206,26.5442294255476],[89.34554910370821,26.546590436399583],[89.34824321265421,26.549351030425782],[89.34760217230246,26.551389709867294],[89.3484608800656,26.553084318586457]]]},"properties":{"compartment":"CP-4B","Area_in_Ha":502.979,"Shape_Area":0.00040588877,"beat":"Dhoidhoi Ghat","range":"Chilapata","division":"Jaldapara"}}
]}