{"type":"FeatureCollection", "features": [
{"type":"Feature","geometry":{"type":"Polygon","coordinates":[[[89.36055018394387,26.66844246005155],[89.35192433024372,26.672166548147743],[89.34229782338588,26.681322072855437],[89.34321297439931,26.664792943739428],[89.34823698305041,26.664204825792126],[89.34854548018984,26.66418355772504],[89.3553186891063,26.66402956051587],[89.35986408485968,26.663952128887672],[89.35963050124667,26.66697823785546],[89.36055018394387,26.66844246005155]]]},"properties":{"compartment":"BD-1A","Area_in_Ha":201.32,"Shape_Area":0.00016245939,"beat":"Kodalbasti Beat","range":"Kodalbasti","division":"Jaldapara"}},
{"type":"Feature","geometry":{"type":"Polygon","coordinates":[[[89.3694325063052,26.613063014246734],[89.3659523970855,26.63129653760518],[89.34896203626903,26.630868703128215],[89.34844223082433,26.629403487181264],[89.34938223550182,26.624906692589832],[89.34965601071639,26.621488326325277],[89.35000809529743,26.6192365273439],[89.35072602588542,26.616029429814375],[89.35095498698314,26.615400532108936],[89.35152740906273,26.61410167455267],[89.35281721314391,26.61395361107037],[89.35553038951593,26.61373247677244],[89.35847143430931,26.613582245923965],[89.35979641627165,26.613460867125355],[89.3694325063052,26.613063014246734]]]},"properties":{"compartment":"BD-7A","Area_in_Ha":391.195,"Shape_Area":0.00031568303,"beat":"Kodalbasti Beat","range":"Kodalbasti","division":"Jaldapara"}},
{"type":"Feature","geometry":{"type":"Polygon","coordinates":[[[89.35986408485968,26.663952128887672],[89.3553186891063,26.66402956051587],[89.34854548018984,26.66418355772504],[89.34823698305041,26.664204825792126],[89.34321297439931,26.664792943739428],[89.3435954119987,26.653037872000255],[89.34373348401311,26.645745506050332],[89.34636714772574,26.63809172235517],[89.348996990219,26.638885663642498],[89.35066145456256,26.64003058154617],[89.35221481216394,26.64122014089685],[89.35243360192925,26.6414904816005],[89.3530872363869,26.643091108467956],[89.35315563612374,26.643418867286925],[89.35353852608216,26.64572438547208],[89.35360083830813,26.646473275221524],[89.35363342883971,26.646831440118945],[89.35381050085397,26.64911307860575],[89.35459191458523,26.650976677132007],[89.35520496803491,26.652536152821256],[89.35562061489952,26.65345720248797],[89.35930706996538,26.65947864022712],[89.35939773511745,26.660463099292656],[89.35986408485968,26.663952128887672]]]},"properties":{"compartment":"BD-3","Area_in_Ha":364.431,"Shape_Area":0.00029408503,"beat":"Kodalbasti Beat","range":"Kodalbasti","division":"Jaldapara"}},
{"type":"Feature","geometry":{"type":"Polygon","coordinates":[[[89.36372130769223,26.645277335180936],[89.35562061489952,26.65345720248797],[89.35520496803491,26.652536152821256],[89.35459191458523,26.650976677132007],[89.35381050085397,26.64911307860575],[89.35363342883971,26.646831440118945],[89.35360083830813,26.646473275221524],[89.35353852608216,26.64572438547208],[89.35315563612374,26.643418867286925],[89.3530872363869,26.643091108467956],[89.35243360192925,26.6414904816005],[89.35221481216394,26.64122014089685],[89.35066145456256,26.64003058154617],[89.348996990219,26.638885663642498],[89.34636714772574,26.63809172235517],[89.3474059033598,26.636214374094152],[89.34836195733851,26.635152996913348],[89.34873845311716,26.633555626491045],[89.34874650924405,26.631512051140305],[89.34896203626903,26.630868703128215],[89.3659523970855,26.63129653760518],[89.36372130769223,26.645277335180936]]]},"properties":{"compartment":"BD-6A","Area_in_Ha":318.557,"Shape_Area":0.00025706618,"beat":"Kodalbasti Beat","range":"Kodalbasti","division":"Jaldapara"}}
]}