{"type":"FeatureCollection", "features": [
{"type":"Feature","geometry":{"type":"Polygon","coordinates":[[[89.25308259518567,26.81595000488886],[89.25110743216231,26.817793692425028],[89.24660258594065,26.82003294316587],[89.24336225756218,26.820349071952137],[89.24090140217805,26.820679043103382],[89.23594123280174,26.82073866006118],[89.23489185437563,26.819660453866902],[89.23418767622036,26.818920053717534],[89.23361598798749,26.81805721626756],[89.2325787881806,26.817370588382005],[89.23185125373243,26.816533045263895],[89.23168277204235,26.815621681295625],[89.23236268828748,26.81472455899126],[89.23328728577968,26.814329143275415],[89.23360358633647,26.81394044099858],[89.23411423758205,26.812788935561002],[89.23522376716318,26.811793366270877],[89.23579719918143,26.811433584392432],[89.23611726519971,26.811136850385367],[89.23688032017071,26.811573741035374],[89.23754266006574,26.811542585821712],[89.23866882800405,26.81155109071034],[89.24071902686165,26.811427466304565],[89.2434037351943,26.810953447143902],[89.24577832670849,26.81003631132677],[89.2472720547616,26.809370107944176],[89.24822397905342,26.80952631388834],[89.2494089851366,26.80870430835722],[89.25105108963612,26.80809456261403],[89.25154895971679,26.807156304419948],[89.25139455241674,26.80612925436168],[89.25060409959957,26.805911996141788],[89.24988291526438,26.806193644920825],[89.24935125585586,26.8062733500351],[89.24880730901015,26.80571940003034],[89.24865914840103,26.805301224272114],[89.24794988817683,26.805728278137565],[89.24681789532968,26.805604663624365],[89.2458512869074,26.805288675132317],[89.2455134385944,26.805015406236066],[89.24568901863336,26.80363089095289],[89.24542942572748,26.802256851872244],[89.24593191562548,26.802095982043966],[89.24884919313581,26.800696940911166],[89.24930033174496,26.801036863960178],[89.2497648117967,26.801501066121375],[89.25050736492301,26.80145719809127],[89.25112172958421,26.801472258138233],[89.25187094758621,26.801453377771224],[89.25252342191845,26.80104139204667],[89.2533659805556,26.800994320631446],[89.2540683007116,26.800921990857262],[89.25490375560389,26.80079234099378],[89.25598207061614,26.800780002295312],[89.25642047916101,26.800932604945267],[89.25560103865706,26.802126305384718],[89.25527861461643,26.803392245056102],[89.25459418827126,26.80461713876997],[89.25431633103392,26.805503680550487],[89.25415314635069,26.806323577171383],[89.25383041743987,26.807138095846483],[89.25332157563025,26.80793072142569],[89.25318367628569,26.808566684205175],[89.2528883775966,26.809678420722605],[89.25179391615637,26.811350346741165],[89.25173025314871,26.811638316854896],[89.25174977653103,26.81247864427405],[89.25195292438804,26.813178110881154],[89.2520341799335,26.813445425366126],[89.25276408319593,26.81446411352806],[89.25290056927739,26.815059929257863],[89.25293556772232,26.815227476067207],[89.25308259518567,26.81595000488886]]]},"properties":{"compartment":"Lankapara RL","Area_in_Ha":0,"Shape_Area":0.00022906073,"beat":"Lankapara Beat","range":"Lankapara","division":"Jaldapara"}},
{"type":"Feature","geometry":{"type":"Polygon","coordinates":[[[89.25293556772232,26.815227476067207],[89.25276408319593,26.81446411352806],[89.2520341799335,26.813445425366126],[89.25174977653103,26.81247864427405],[89.25173025314871,26.811638316854896],[89.25179391615637,26.811350346741165],[89.2528883775966,26.809678420722605],[89.25332157563025,26.80793072142569],[89.25383041743987,26.807138095846483],[89.25415314635069,26.806323577171383],[89.25430820026327,26.805519201949664],[89.25459418827126,26.80461713876997],[89.25527460723737,26.803404706062395],[89.25558585540296,26.80213014998651],[89.25691558848371,26.800219850565725],[89.25717777953093,26.799592154354514],[89.25762035029896,26.79940613678383],[89.25751950482135,26.800084649187284],[89.25728684211413,26.801323602902016],[89.25719481538846,26.801726307623028],[89.25697006042003,26.802327577255937],[89.25620827529173,26.80332863780643],[89.25504030326744,26.805093320800154],[89.25471934961837,26.806248484679884],[89.25470067249807,26.810146996286903],[89.25493671665623,26.812168834124464],[89.25459369724138,26.813800547857056],[89.25492186165462,26.815495840061033],[89.25308259518567,26.81595000488886],[89.25293556772232,26.815227476067207]]]},"properties":{"compartment":"Titi-1A","Area_in_Ha":0,"Shape_Area":0.00002527837,"beat":"Lankapara Beat","range":"Lankapara","division":"Jaldapara"}},
{"type":"Feature","geometry":{"type":"Polygon","coordinates":[[[89.26041600529447,26.795236854597192],[89.26022118426033,26.79651604218168],[89.25852057166713,26.79937415869051],[89.25761777284202,26.799410430147304],[89.2579116802799,26.798254179886555],[89.25791209037072,26.796186515295517],[89.25788933392568,26.79462211671739],[89.2581003841255,26.793448778438403],[89.25911487784941,26.79244092710718],[89.26164960624442,26.79250875667384],[89.26099389884939,26.793590944166795],[89.26077994743667,26.794141929106786],[89.26041600529447,26.795236854597192]]]},"properties":{"compartment":"Titi-2A","Area_in_Ha":0,"Shape_Area":0.00001504038,"beat":"Lankapara Beat","range":"Lankapara","division":"Jaldapara"}},
{"type":"Feature","geometry":{"type":"Polygon","coordinates":[[[89.26060026019394,26.785261886526882],[89.25993493275098,26.787483691319323],[89.25842991011234,26.788423514333772],[89.25702945524523,26.7894373929214],[89.25591189291958,26.790812330424785],[89.25576175200331,26.792330896853457],[89.25911487784941,26.79244092710718],[89.2581003841255,26.793448778438403],[89.25788933392568,26.79462211671739],[89.25791651323658,26.797053649706243],[89.25789426850577,26.798236862541216],[89.25762563831262,26.79939853661324],[89.25717777953093,26.799592154354514],[89.25691558848371,26.800219850565725],[89.25642047916101,26.800932604945267],[89.25598841173587,26.80078194752889],[89.25490375560389,26.80079234099378],[89.25405355003136,26.800925680775606],[89.2525152821546,26.801054420525134],[89.25187094758621,26.801453377771224],[89.25112172958421,26.801472258138233],[89.25050736492301,26.80145719809127],[89.2497648117967,26.801501066121375],[89.24930033174496,26.801036863960178],[89.24931542686551,26.800056071430618],[89.24948685833192,26.79808451558796],[89.25003262990202,26.79802069789696],[89.25092285530559,26.79690621125269],[89.25132973467959,26.796227358905526],[89.25175013266255,26.79313934240679],[89.25308754325556,26.792482460497183],[89.25319812209574,26.791470608981456],[89.25346608858916,26.790106903111166],[89.25375807507515,26.787908933050858],[89.2537593332267,26.786981425352565],[89.25343542350606,26.783305946512257],[89.25332274115164,26.781521500916597],[89.24932755512265,26.781498307401023],[89.25019393140485,26.780075549347202],[89.25147701125513,26.778809503555806],[89.2533308818148,26.77798184848359],[89.25475491690594,26.77494965919948],[89.25619238606981,26.771892217851644],[89.25693663801547,26.770321786621196],[89.25768932560197,26.76694734774196],[89.25893178307541,26.76686689619038],[89.26523363572375,26.767015547829317],[89.26561478819195,26.768704387397634],[89.26624419671236,26.7698920788564],[89.26651615619573,26.77154741058456],[89.26599056181504,26.772761297495947],[89.26524482688728,26.774203318128684],[89.2644354037709,26.775406222519223],[89.2632610663452,26.77825092563978],[89.26295360432545,26.78065026289937],[89.2626959683443,26.782497423617258],[89.26060026019394,26.785261886526882]]]},"properties":{"compartment":"Titi-Ext","Area_in_Ha":0,"Shape_Area":0.00027434002,"beat":"Lankapara Beat","range":"Lankapara","division":"Jaldapara"}}
]}