{"type":"FeatureCollection", "features": [
{"type":"Feature","geometry":{"type":"Polygon","coordinates":[[[89.33720291937931,26.64499077070758],[89.33214671050234,26.644993313090993],[89.32745165227198,26.644790958436033],[89.32560324779172,26.64473851357161],[89.32380572965076,26.64467323538156],[89.3260084948962,26.64165143596506],[89.32810107790249,26.6291085581135],[89.3285356698853,26.62748351735047],[89.32997566614415,26.6228429319558],[89.33039936284035,26.61828127556049],[89.33055341670689,26.61677599571567],[89.3305780680235,26.615931922620177],[89.3327072723228,26.615371505590588],[89.33362725449427,26.614805079291045],[89.33673343819765,26.61346849427565],[89.3393774063423,26.613540956250176],[89.34256232479152,26.613641281020364],[89.3457779424981,26.614559793699584],[89.3468523112852,26.61464491093392],[89.34667763776281,26.615073500841447],[89.34640359005368,26.615864394326366],[89.34599517014107,26.61703267571744],[89.34563355004838,26.61810179066515],[89.34518689096228,26.61882911647058],[89.34489345566851,26.61928198807334],[89.34401679294069,26.61968816507681],[89.34306397832,26.620127699733587],[89.34283275542737,26.620409882709964],[89.3425055047253,26.62081897441618],[89.34146766729907,26.62219843191218],[89.3413884613085,26.622656224605123],[89.34110537271482,26.62416862438255],[89.34098997800515,26.62479826223006],[89.34083356251898,26.625632027296263],[89.34067266211372,26.62654028590555],[89.34055832320809,26.62714681387439],[89.3405322527613,26.62805436291859],[89.34052427307682,26.628455138593836],[89.34051411613359,26.629037423538307],[89.34096274923155,26.63077558912221],[89.3411280563148,26.63177351823333],[89.3411543884643,26.632084997524657],[89.34124923546392,26.633342560011158],[89.33981478172683,26.635018846842343],[89.33945330732433,26.636308242631344],[89.33895381216877,26.63769282896095],[89.33875734177798,26.638477643028864],[89.3382225050646,26.640368768004294],[89.33811747414217,26.641651446756896],[89.33720291937931,26.64499077070758]]]},"properties":{"compartment":"MLG-3","Area_in_Ha":493.646,"Shape_Area":0.00039835734,"beat":"Malangi","range":"Jaldapara East","division":"Jaldapara"}}
]}