{"type":"FeatureCollection", "features": [
{"type":"Feature","geometry":{"type":"Polygon","coordinates":[[[89.39118666503265,26.64738394401388],[89.38822978497666,26.650248321602817],[89.38400385449432,26.65384304312198],[89.38377369549971,26.653282280752705],[89.38080979893311,26.645395889209],[89.3806025582615,26.644693230008613],[89.37892642431507,26.636486203175764],[89.38174475032002,26.631231018396818],[89.38601965788098,26.622992469426947],[89.38309288712708,26.61257879947209],[89.39129013563132,26.61216462120035],[89.39118666503265,26.64738394401388]]]},"properties":{"compartment":"MB-1","Area_in_Ha":424.568,"Shape_Area":0.00034261408,"beat":"Manthuram Beat","range":"Kodalbasti","division":"Jaldapara"}},
{"type":"Feature","geometry":{"type":"Polygon","coordinates":[[[89.38174475032002,26.631231018396818],[89.3659523970855,26.63129653760518],[89.3694325063052,26.613063014246734],[89.3751226508897,26.612802678500884],[89.37855958905385,26.612671670661143],[89.37927912942831,26.61267571581169],[89.38139281592578,26.61260437079511],[89.38309288712708,26.61257879947209],[89.38601965788098,26.622992469426947],[89.38174475032002,26.631231018396818]]]},"properties":{"compartment":"BD-8","Area_in_Ha":378.919,"Shape_Area":0.00030577675,"beat":"Manthuram Beat","range":"Kodalbasti","division":"Jaldapara"}},
{"type":"Feature","geometry":{"type":"Polygon","coordinates":[[[89.3806025582615,26.644693230008613],[89.36372130769223,26.645277335180936],[89.3659523970855,26.63129653760518],[89.38174475032002,26.631231018396818],[89.37892642431507,26.636486203175764],[89.3806025582615,26.644693230008613]]]},"properties":{"compartment":"BD-5","Area_in_Ha":257.319,"Shape_Area":0.00020764843,"beat":"Manthuram Beat","range":"Kodalbasti","division":"Jaldapara"}},
{"type":"Feature","geometry":{"type":"Polygon","coordinates":[[[89.38400385449432,26.65384304312198],[89.37930108098016,26.658001687228136],[89.37016920394564,26.66114823969957],[89.3697777974075,26.661318054184903],[89.36955897526656,26.661661542146476],[89.36951579521781,26.662101389767372],[89.36966785978399,26.662459228210878],[89.36970947771027,26.662993126931326],[89.36996464235443,26.66326670969096],[89.37002522428475,26.663623425780543],[89.36989786679317,26.663976699265334],[89.36967545455866,26.66432969036299],[89.36945244427494,26.664683626648127],[89.36913454292488,26.665036084447763],[89.36891020434251,26.66539191830242],[89.36877079863353,26.665841709727147],[89.3684597123459,26.666106459345656],[89.36823355173709,26.666465173728852],[89.3678169237121,26.666819963470573],[89.36759873829118,26.667089132357603],[89.36737056679829,26.66745050963334],[89.36732286495828,26.66790958655821],[89.36727565234952,26.668369072674636],[89.36742918640789,26.668742314706094],[89.36746845350638,26.66929948158588],[89.36770942774797,26.66977042956171],[89.36766254788836,26.670236101215153],[89.36791397405074,26.670616609768786],[89.3679981173193,26.67122945997164],[89.36766485734734,26.671174425959066],[89.36721086069275,26.670881536553736],[89.36685411582482,26.67059150429452],[89.36639199469488,26.670393143528827],[89.36570498729537,26.670049488293273],[89.36495606157303,26.669844986057285],[89.3643469750329,26.66969055537487],[89.36363275414834,26.669625359922463],[89.36055018394387,26.66844246005155],[89.35963050124667,26.66697823785546],[89.35986408485968,26.663952128887672],[89.35939773511745,26.660463099292656],[89.35930706996538,26.65947864022712],[89.35562061489952,26.65345720248797],[89.36372130769223,26.645277335180936],[89.3806025582615,26.644693230008613],[89.38080979893311,26.645395889209],[89.38377369549971,26.653282280752705],[89.38400385449432,26.65384304312198]]]},"properties":{"compartment":"BD-4","Area_in_Ha":529.632,"Shape_Area":0.00042739704,"beat":"Manthuram Beat","range":"Kodalbasti","division":"Jaldapara"}}
]}