{"type":"FeatureCollection", "features": [
{"type":"Feature","geometry":{"type":"Polygon","coordinates":[[[89.39129013563132,26.61216462120035],[89.38309288712708,26.61257879947209],[89.38305744574461,26.59583313698971],[89.39877623533505,26.59545268779135],[89.3967348462362,26.60052014808639],[89.39656275826474,26.61172696342868],[89.39129013563132,26.61216462120035]]]},"properties":{"compartment":"MB-4","Area_in_Ha":284.992,"Shape_Area":0.00022998013,"beat":"Mendabari Beat","range":"Chilapata","division":"Jaldapara"}},
{"type":"Feature","geometry":{"type":"Polygon","coordinates":[[[89.41078818492684,26.59518250356973],[89.41075606743863,26.595688265201318],[89.41073014627926,26.596209228073462],[89.41063249879085,26.59666415912369],[89.41049713643378,26.59711911085833],[89.41043656349666,26.597576685016065],[89.41041348239634,26.598036132461573],[89.4103838964997,26.598628249694002],[89.4102852975285,26.599087859017516],[89.4102686178025,26.599418028019613],[89.41025191289555,26.599748674561738],[89.4102301609932,26.60017922948788],[89.41020501235153,26.60067699614649],[89.41018149508,26.60114247804296],[89.41016464897945,26.601475550056648],[89.41002724426198,26.601939834955488],[89.40988958953301,26.602404967015673],[89.40979651239917,26.60273793290935],[89.40955131134399,26.603067561418868],[89.40945572240372,26.60346858440772],[89.40924340505916,26.60390108007084],[89.40895675604952,26.60426511574252],[89.40878573647262,26.604598891925377],[89.40854592505445,26.604795910902624],[89.40837888947425,26.605062620143883],[89.40805341583251,26.60542744811829],[89.40773119324001,26.605724924965386],[89.40749065696832,26.605922818982947],[89.40724981672571,26.606120906354818],[89.40692812563253,26.60638535739838],[89.40668672151503,26.60658385935767],[89.40628814018555,26.60684680043954],[89.40604609844877,26.607045740368676],[89.40572721683765,26.60724290413674],[89.4054122778544,26.607371842636496],[89.4049735669766,26.607634827785148],[89.40445765109979,26.607896141094102],[89.40414190002872,26.608025444718578],[89.40374991522646,26.608152605258567],[89.40324019477924,26.6083447849839],[89.40280712804656,26.60853897289536],[89.40240939207985,26.608735268817668],[89.40208938181956,26.608866153450265],[89.40168558172428,26.60913188063182],[89.40136011078056,26.609399183425637],[89.40103429809443,26.60966676410993],[89.40092948210997,26.610078833471448],[89.40044773327634,26.612060123575873],[89.39807757541985,26.61185483443313],[89.39656275826474,26.61172696342868],[89.3967348462362,26.60052014808639],[89.39877623533505,26.59545268779135],[89.41011846519507,26.59516385882506],[89.41078818492684,26.59518250356973]]]},"properties":{"compartment":"MB-3","Area_in_Ha":214.248,"Shape_Area":0.00017289141,"beat":"Mendabari Beat","range":"Chilapata","division":"Jaldapara"}},
{"type":"Feature","geometry":{"type":"Polygon","coordinates":[[[89.40044773327634,26.612060123575873],[89.40097454264111,26.613289994137972],[89.4012850290809,26.61375818749042],[89.40148731628665,26.61415865559752],[89.40169699502036,26.61442771296862],[89.40198659560497,26.61463311362735],[89.40234434501559,26.61497276777908],[89.40257751134311,26.61550853619002],[89.40266835456094,26.61590912030971],[89.40283547737545,26.61631241318736],[89.40300284930208,26.616716272637916],[89.40312785056989,26.617186490364304],[89.40316946759691,26.617789427340256],[89.40310085202276,26.618324086887128],[89.40288360099743,26.618789015700543],[89.40271235299275,26.619121297210143],[89.40247245793762,26.61931745643551],[89.40215619335368,26.61951187547271],[89.40183965177857,26.619706465381114],[89.40166152755751,26.620141408998904],[89.40186881499386,26.620518995655175],[89.4020823131483,26.620795544378893],[89.4024049898984,26.621177040388147],[89.40283718428867,26.621663939639177],[89.40316086738017,26.622046764846345],[89.40344862255597,26.622395152314482],[89.40373314107165,26.62281233791913],[89.40408946685545,26.623334820645482],[89.40437684521527,26.623719295209355],[89.4043902631002,26.62420068431419],[89.40447352593253,26.624822630260212],[89.4043678708806,26.62537224283477],[89.40419564621214,26.625713743294682],[89.40402317782747,26.62605572489184],[89.40388252296015,26.626504032435207],[89.40381648214498,26.62702364542497],[89.40386695479617,26.62754687728659],[89.40384312905724,26.627999926955113],[89.40382462910338,26.628349141799504],[89.40365458169367,26.62862498725343],[89.40325514600823,26.628825261776456],[89.4029272675794,26.62913284520471],[89.40266993287116,26.629582283195873],[89.40249672884102,26.629928050938872],[89.40238429200156,26.630559310264005],[89.40226667057044,26.631263840054203],[89.40224297613253,26.631688481038623],[89.40222319734272,26.632042947024445],[89.40220339157332,26.63239792832178],[89.40217537049699,26.63289605920579],[89.40214718034815,26.6333953628058],[89.40204254692605,26.63385793449612],[89.40193364352291,26.63439304820065],[89.40190102691093,26.634967357057917],[89.4017233199753,26.63532292471325],[89.4015494882184,26.635606944105234],[89.40132561458552,26.636070773947097],[89.40102249539189,26.636533395100173],[89.40084771934681,26.63681897031927],[89.40077943382386,26.63732408713696],[89.40047346467873,26.63782458503664],[89.40014839753059,26.637962076988288],[89.39973408076327,26.638244750994488],[89.39940761966596,26.63838364948589],[89.39899371928476,26.638665118400525],[89.39881682983287,26.638953384391243],[89.39855342649952,26.63934980644848],[89.39828973987966,26.639746683562635],[89.39803262280736,26.640034160847904],[89.39772430553234,26.64050375534407],[89.39118666503265,26.64738394401388],[89.39129013563132,26.61216462120035],[89.39656275826474,26.61172696342868],[89.39807757541985,26.61185483443313],[89.40044773327634,26.612060123575873]]]},"properties":{"compartment":"MB-2","Area_in_Ha":416.311,"Shape_Area":0.00033595086,"beat":"Mendabari Beat","range":"Chilapata","division":"Jaldapara"}},
{"type":"Feature","geometry":{"type":"Polygon","coordinates":[[[89.38309288712708,26.61257879947209],[89.38139281592578,26.61260437079511],[89.37927912942831,26.61267571581169],[89.37855958905385,26.612671670661143],[89.3751226508897,26.612802678500884],[89.37499341561369,26.611600073584555],[89.37495372133725,26.611263981647483],[89.37491501721433,26.610919150098766],[89.37491843283948,26.6104259295131],[89.37497421418868,26.61001443212041],[89.37502893883453,26.60961069227966],[89.3751763512077,26.609262383951886],[89.3752945158293,26.608881749493207],[89.37532778804706,26.608431243107418],[89.375224291368,26.608136555058024],[89.37513893851127,26.60764945975484],[89.37515394999485,26.607224358317524],[89.37517888010132,26.606677872685736],[89.37520489748806,26.60621278739029],[89.37523491955596,26.60585018343926],[89.37526520242722,26.60546555958797],[89.37530150536026,26.6048704629016],[89.375429405143,26.604428002750183],[89.37548461722139,26.604068741579226],[89.37549755576765,26.603759485411956],[89.37533999724315,26.603305306194954],[89.37509682775647,26.602843753436503],[89.37491711443334,26.602501004717624],[89.3746574127095,26.602163036794764],[89.37442237669137,26.601905544705176],[89.37416050580276,26.601634621240805],[89.37390530878304,26.601367529787694],[89.37369821020428,26.60113190201571],[89.37348076132815,26.60080789606758],[89.37327005107204,26.600356578493347],[89.37302775842437,26.59987262632069],[89.37288791924215,26.599510647398517],[89.37276163644043,26.599159764311707],[89.3726400364086,26.598644000420336],[89.37254609142906,26.59807717931841],[89.37239572118563,26.597586880630104],[89.37234322865714,26.597140583071507],[89.37227102748597,26.59668003575507],[89.37208065180067,26.59623902261285],[89.37192503581178,26.59595650778664],[89.37176804835678,26.59551165184132],[89.38305744574461,26.59583313698971],[89.38309288712708,26.61257879947209]]]},"properties":{"compartment":"MB-5A","Area_in_Ha":184.929,"Shape_Area":0.00014923259,"beat":"Mendabari Beat","range":"Chilapata","division":"Jaldapara"}}
]}