{"type":"FeatureCollection", "features": [
{"type":"Feature","geometry":{"type":"Polygon","coordinates":[[[89.28409882580024,26.55846147301861],[89.28656207248173,26.558183856799587],[89.29023682556908,26.557677654500196],[89.29256620366743,26.558807249754807],[89.29337141076206,26.560140834631852],[89.2932907739501,26.561347578228208],[89.29269098460134,26.56272451492447],[89.29198558246873,26.56280446825167],[89.29115192981777,26.562626773906516],[89.2896792809741,26.562657546009007],[89.29014407488921,26.56020771811177],[89.28963443088435,26.560108710848397],[89.28714626219033,26.56071088070263],[89.2867720578842,26.56146429404197],[89.28578986061365,26.56224240816067],[89.28601226205632,26.563811135175797],[89.28408783608484,26.564094418922366],[89.28414278106453,26.565889910890746],[89.28532338766428,26.565843846716177],[89.2855279519535,26.566614897559532],[89.28531553388484,26.56776299006998],[89.28620681239454,26.5678643229802],[89.28617083861337,26.56846935807448],[89.28308797612925,26.570413011551295],[89.2828971327965,26.571374593662597],[89.28140759198686,26.572008104890187],[89.28218235433224,26.574498775498114],[89.28135024311928,26.575043531733627],[89.28116598192457,26.575529560440884],[89.28349651115514,26.575984746898598],[89.28415913793395,26.575643408316694],[89.28536152431496,26.575581775978208],[89.28592523735989,26.57624153481902],[89.2863799858477,26.577124139367584],[89.28499983857176,26.577282142157173],[89.28504776614153,26.577849791534675],[89.28306480959333,26.578193837975277],[89.28168279712344,26.57836957719428],[89.28190999554994,26.57987035413356],[89.28220615129288,26.581341360815202],[89.28522266899103,26.586895343545336],[89.28261070412077,26.58781536348829],[89.28504682724935,26.595413534007434],[89.28596879872111,26.596723727518054],[89.28636012432037,26.598026513313016],[89.28506960707676,26.59814778059564],[89.28431244536313,26.59934046419113],[89.28386744642557,26.599515747453836],[89.28333365562378,26.599690278883315],[89.28263885739739,26.599819625675252],[89.28211472081779,26.599842849767754],[89.28162904824205,26.59986459717345],[89.28114569951447,26.599794370014195],[89.28051921379074,26.59973759491413],[89.2800451460667,26.599682938616752],[89.27971694657987,26.599616368100953],[89.27909709875217,26.599480401399433],[89.27874844328608,26.599499357309526],[89.27838309820146,26.59942714624583],[89.27762403622035,26.599262586499208],[89.27696688181618,26.59912144599798],[89.27639805072954,26.599025014392964],[89.27597616526788,26.598883265050688],[89.27558522098121,26.59873477169242],[89.27516300816637,26.59852583040282],[89.27471350722266,26.598303446047225],[89.27426037661513,26.59800148068382],[89.27390269285507,26.597771232656328],[89.27355604737375,26.59754837885464],[89.27328198437613,26.597322238930246],[89.27297477056925,26.59697355738382],[89.27268275620429,26.59652936064151],[89.27252449530926,26.596055390044285],[89.2725144651705,26.59566088354302],[89.27250418232222,26.595253046391008],[89.27239991132689,26.5948689612336],[89.2722298585212,26.594422539568598],[89.272212720141,26.593744654891964],[89.27209114888745,26.59328951250103],[89.271906100786,26.59297950899719],[89.27180873208738,26.592666192390936],[89.27136619459424,26.59252552673172],[89.27092618599477,26.592464044580026],[89.27018340084334,26.592533653005717],[89.26970765318572,26.59275101554698],[89.26927203957302,26.59284795706759],[89.26874697669166,26.592868968827872],[89.26839893006661,26.592962298671182],[89.26804803888592,26.592976904560544],[89.26761162667526,26.593074271460523],[89.2672653930835,26.593246927803534],[89.26691469615633,26.593261297171182],[89.26656430050213,26.593275451600846],[89.2662961028829,26.59304801035745],[89.26611204763293,26.592658627293872],[89.26601729236421,26.59234535655304],[89.26600757069286,26.591950125198196],[89.26582496694874,26.59164124494754],[89.26555571172679,26.59133576863087],[89.26537489763348,26.591026519658215],[89.26501792613647,26.59064572332153],[89.26466405100518,26.59042318698056],[89.2640080684177,26.590450295244977],[89.26343698812656,26.590475009514137],[89.26316990566664,26.590249491021268],[89.26298693589843,26.58986326907467],[89.26279969794774,26.589241549757787],[89.26261882989513,26.58893463542512],[89.2623507617783,26.588631545009832],[89.26201596216697,26.588312809988224],[89.26012927534583,26.588451510628772],[89.25793057053943,26.586692671429716],[89.25741296933313,26.58571886933038],[89.25772137654036,26.584638272738175],[89.25807320571391,26.58408200158317],[89.25835076527568,26.583708547311687],[89.25797598450413,26.582963694618854],[89.25771041920052,26.582587236611744],[89.2574449833993,26.58221112484358],[89.2571797850191,26.58183534582463],[89.25700483180759,26.581476701588542],[89.25591809194646,26.579779671894414],[89.25548037212155,26.57909145850408],[89.2542869393908,26.57886310894537],[89.25358131872292,26.57901790475256],[89.2532069255592,26.57859267471224],[89.25299772076824,26.57831124446841],[89.25264479172381,26.577916931321397],[89.25230142876796,26.57749753878045],[89.25207308100795,26.577245960632638],[89.25050345826804,26.575380621918214],[89.25058753858411,26.574905403061962],[89.25058864025362,26.574191971782113],[89.25061965607233,26.573593418101837],[89.25102418461847,26.57326070132035],[89.25116155965833,26.572651455600237],[89.25069405338792,26.572418119300835],[89.250230201063,26.572176310488373],[89.25005252830158,26.571277544223335],[89.2501467349839,26.569225512547405],[89.24966326484787,26.569195411339194],[89.24959565471573,26.568582836328858],[89.24948454257765,26.568031631054964],[89.24947726886091,26.56764430923755],[89.24947000323812,26.567257329162487],[89.24946274480988,26.566870691729093],[89.24945694238403,26.56656162262084],[89.24944824504053,26.566098433096272],[89.24943813306345,26.56555865910491],[89.24943294847185,26.565250470432943],[89.24934137590384,26.564945989665716],[89.24933251128641,26.5644845304368],[89.24940917489357,26.563981699695717],[89.24983680882173,26.563772416663767],[89.25044065501226,26.56374812147868],[89.25087217760898,26.563730760066562],[89.25121437504345,26.563563419616173],[89.25120644302297,26.563180035030655],[89.25128317228064,26.56271695792134],[89.25127680777854,26.562410817904947],[89.25126568136614,26.561875597181142],[89.25125731677178,26.56149367309456],[89.25125059523884,26.561188360454537],[89.25124052013393,26.560730780900883],[89.25123045672024,26.560273662699444],[89.25122207773677,26.559893081300686],[89.2510640443702,26.55953250262297],[89.25138108866639,26.559479162933087],[89.2519847181203,26.559378321952067],[89.25240950479485,26.559295229990937],[89.25275224901714,26.559220615938727],[89.25309399229394,26.55920958215654],[89.25360858886535,26.55919290243054],[89.25403741439521,26.559179000710344],[89.25455201096656,26.559162318286383],[89.25506660214205,26.559145636761798],[89.25549517945905,26.559125652027262],[89.26679975290631,26.558864192128794],[89.28409882580024,26.55846147301861]]]},"properties":{"compartment":"TR-2","Area_in_Ha":1375.773,"Shape_Area":0.0011102077,"beat":"Moiradanga Beat","range":"Jaldapara West","division":"Jaldapara"}}
]}