{"type":"FeatureCollection", "features": [
{"type":"Feature","geometry":{"type":"Polygon","coordinates":[[[89.34229782338588,26.681322072855437],[89.34214181709126,26.681867467609607],[89.34078225529692,26.682497994886603],[89.33986984361843,26.681617493852286],[89.33808028807488,26.679755569863687],[89.33770593627997,26.68089232911774],[89.33703969152862,26.68206876016518],[89.33518466534008,26.683091750683786],[89.33391909439075,26.684903462824593],[89.33307495294679,26.686628545071358],[89.33222424105594,26.688133800634432],[89.33258048949807,26.689621739751544],[89.33291822089922,26.691659466811018],[89.33049592754509,26.694189612260857],[89.32989121980398,26.69690426891691],[89.32888613119007,26.69782875669182],[89.32849956030651,26.696736468912945],[89.3280168662854,26.69540768191905],[89.3277891354603,26.694820309509737],[89.32687076937054,26.69260880555197],[89.32603471463045,26.69061140679105],[89.32605830564637,26.687596019540706],[89.32606577541526,26.68526786901697],[89.32607506721064,26.68461821945533],[89.32619088100444,26.68112920874603],[89.32617044301162,26.6806888404177],[89.32854965074586,26.67963999528962],[89.33094461010575,26.677778913965767],[89.33382889598681,26.676903221606437],[89.3342119757022,26.676574754121646],[89.33509815865318,26.673408195332],[89.3328749140461,26.670936987851746],[89.33230157555732,26.668259199802264],[89.33309930029253,26.664485402579317],[89.33543549435262,26.664361587517305],[89.34040142298733,26.664096744369317],[89.34321297439931,26.664792943739428],[89.34229782338588,26.681322072855437]]]},"properties":{"compartment":"BD-1B","Area_in_Ha":340.827,"Shape_Area":0.00027503757,"beat":"NEC Beat","range":"Kodalbasti","division":"Jaldapara"}},
{"type":"Feature","geometry":{"type":"Polygon","coordinates":[[[89.34896203626903,26.630868703128215],[89.34874650924405,26.631512051140305],[89.34873845311716,26.633555626491045],[89.34836195733851,26.635152996913348],[89.3474059033598,26.636214374094152],[89.34636714772574,26.63809172235517],[89.34480228599676,26.637486116191383],[89.34297885389105,26.63669661935353],[89.34086467996104,26.63686264679376],[89.33945330732433,26.636308242631344],[89.33981478172683,26.635018846842343],[89.34124923546392,26.633342560011158],[89.3411543884643,26.632084997524657],[89.3411280563148,26.63177351823333],[89.34096274923155,26.63077558912221],[89.34896203626903,26.630868703128215]]]},"properties":{"compartment":"BD-6B","Area_in_Ha":61.248,"Shape_Area":0.00004942563,"beat":"NEC Beat","range":"Kodalbasti","division":"Jaldapara"}},
{"type":"Feature","geometry":{"type":"Polygon","coordinates":[[[89.34636714772574,26.63809172235517],[89.34373348401311,26.645745506050332],[89.3435954119987,26.653037872000255],[89.34321297439931,26.664792943739428],[89.34040142298733,26.664096744369317],[89.33543549435262,26.664361587517305],[89.33309930029253,26.664485402579317],[89.33389790996063,26.660657479658994],[89.334170930644,26.65886740700529],[89.33415394424918,26.658324747089466],[89.33387483875288,26.656708504394032],[89.3335747601671,26.65505142888037],[89.33412835853699,26.653172288270525],[89.33569933475655,26.651205112126263],[89.33659205667811,26.650146851096338],[89.33689853753754,26.64754337582616],[89.33714725404258,26.645445709851685],[89.33720291937931,26.64499077070758],[89.33811747414217,26.641651446756896],[89.3382225050646,26.640368768004294],[89.33875734177798,26.638477643028864],[89.33895381216877,26.63769282896095],[89.33945330732433,26.636308242631344],[89.34086467996104,26.63686264679376],[89.34297885389105,26.63669661935353],[89.34480228599676,26.637486116191383],[89.34636714772574,26.63809172235517]]]},"properties":{"compartment":"BD-2","Area_in_Ha":278.278,"Shape_Area":0.00022456178,"beat":"NEC Beat","range":"Kodalbasti","division":"Jaldapara"}}
]}