{"type":"FeatureCollection", "features": [
{"type":"Feature","geometry":{"type":"Polygon","coordinates":[[[89.3427918983275,26.71176361150151],[89.34598711311486,26.713026497075248],[89.34678257245781,26.71329599871143],[89.34744962390107,26.713403956927095],[89.3487402319762,26.713332609212614],[89.35035919422148,26.71319895017149],[89.35030993475573,26.713545404097147],[89.34988766438426,26.713602323088764],[89.34911138847986,26.71390277129592],[89.34856181817344,26.714437349004527],[89.34807765735803,26.71493382873325],[89.34776291802433,26.715400426688404],[89.34640624215439,26.715588425465512],[89.3445733338923,26.71592980271828],[89.3427918983275,26.71176361150151]]]},"properties":{"compartment":"Nilpara","Area_in_Ha":0,"Shape_Area":0.00001360135,"beat":"Nilpara","range":"Nilpara","division":"Jaldapara"}},
{"type":"Feature","geometry":{"type":"Polygon","coordinates":[[[89.34219163233803,26.709254606415016],[89.34200705727994,26.70898009105838],[89.34157030602483,26.708176723976692],[89.34133029225922,26.70785563452995],[89.34122122697812,26.70753576906054],[89.3410610343393,26.707133013078135],[89.34090920899285,26.706431583251003],[89.34095111290361,26.70592660223093],[89.34044973546696,26.705776137558757],[89.34033478861966,26.7048379971759],[89.34016610548144,26.70289659560143],[89.3402024497833,26.701409406518962],[89.3410537687165,26.701207308170808],[89.34148119849857,26.701094389294667],[89.3417940195784,26.704151880105258],[89.34182852746466,26.704484514149044],[89.34219163233803,26.709254606415016]]]},"properties":{"compartment":"Nilpara","Area_in_Ha":0,"Shape_Area":0.00000918669,"beat":"Nilpara","range":"Nilpara","division":"Jaldapara"}},
{"type":"Feature","geometry":{"type":"Polygon","coordinates":[[[89.32575061429947,26.778670354153576],[89.31702045632903,26.78025143965226],[89.31456545193413,26.780830174073344],[89.31389787079019,26.778511679570386],[89.31081486801179,26.777679175353683],[89.30975435328082,26.775440038826787],[89.30759499471327,26.769543215646934],[89.30875273605,26.761077252413315],[89.31008236660801,26.755677675184586],[89.31058593119582,26.753225714994812],[89.3088317837599,26.750410051882454],[89.3086525209971,26.747385092248237],[89.30892568377334,26.745799199873204],[89.31147620516282,26.74556891407417],[89.31507621199762,26.745270138606088],[89.31918000105628,26.74353649661208],[89.31975921661461,26.74489774103796],[89.32017982593828,26.746462543411724],[89.32056231839636,26.748112463019822],[89.32068895643027,26.748464488245588],[89.32075425440536,26.748860661190633],[89.32088015499522,26.749209539688536],[89.3210174257137,26.74959320036595],[89.32203350134506,26.751595995958496],[89.32227982115688,26.751942665721515],[89.32270872312915,26.752583263606766],[89.32423203078366,26.754823178946594],[89.32441862481971,26.755301261244256],[89.32468430613585,26.756068358667846],[89.32518726727864,26.757451633785934],[89.32529985340557,26.7577652768461],[89.3254876489359,26.75834891616961],[89.32555027412593,26.75988915356163],[89.32556103631282,26.760275078731922],[89.32557109612924,26.760620818595953],[89.32558157682837,26.760990670183332],[89.32564096355969,26.76231806862404],[89.32564491068416,26.76289142689791],[89.3256643477315,26.76334051055619],[89.32569827915233,26.76444862640301],[89.32571306670474,26.764834691867577],[89.32573061697445,26.76514856335558],[89.32574787136724,26.765897239965682],[89.32584400979329,26.76642590643047],[89.32596449016916,26.767077342945072],[89.32605011911778,26.76754758585247],[89.32619683181838,26.768285305122788],[89.32656430559831,26.770328300410767],[89.3264240761103,26.775310040026397],[89.32575061429947,26.778670354153576]]]},"properties":{"compartment":"DSP-4","Area_in_Ha":528.692,"Shape_Area":0.00053291968,"beat":"Nilpara","range":"jaldapara North","division":"Jaldapara"}},
{"type":"Feature","geometry":{"type":"Polygon","coordinates":[[[89.33713579937768,26.777171204087836],[89.3335287328648,26.777302820768625],[89.32575061429947,26.778670354153576],[89.3264240761103,26.775310040026397],[89.32656430649763,26.770328300410767],[89.3261968327177,26.76828530422347],[89.32605011911778,26.76754758585247],[89.32596449016916,26.767077342945072],[89.32584400979329,26.76642590553115],[89.32574787136724,26.765897239965682],[89.32573061697445,26.76514856335558],[89.32571306670474,26.764834691867577],[89.32569827915233,26.76444862550369],[89.3256643477315,26.76334051055619],[89.32564491158348,26.76289142689791],[89.32564096355969,26.76231806952336],[89.32558157682837,26.760990670183332],[89.32557109612924,26.760620818595953],[89.32556103631282,26.7602750796313],[89.32555027412593,26.75988915446095],[89.3254876489359,26.75834891616961],[89.32529985340557,26.75776527774542],[89.32518726727864,26.757451634685253],[89.32468430613585,26.756068358667846],[89.32441862571903,26.755301261244256],[89.32423203078366,26.754823178946594],[89.32270872312915,26.752583264506086],[89.32227982115688,26.751942665721515],[89.32203350134506,26.751595995958496],[89.32101742661303,26.74959319946663],[89.32088015499522,26.749209539688536],[89.32075425350604,26.748860660291314],[89.32068895553095,26.748464488245588],[89.32056231839636,26.748112463019822],[89.32017982593828,26.746462542512404],[89.31975921751393,26.74489774103796],[89.31918000105628,26.7435364975114],[89.3278700123912,26.73928164932869],[89.32808666536738,26.73971691130646],[89.32862780902622,26.74157689725604],[89.32911566875316,26.743685780474436],[89.32916961368676,26.746234982558462],[89.32934642040107,26.74847625947183],[89.33063229534423,26.75066536491471],[89.33208254027704,26.753357445889492],[89.33272539366203,26.755994966794333],[89.33277592027258,26.75654106571767],[89.33296209342592,26.75819215804171],[89.33297911759229,26.758717925092242],[89.33299215596327,26.759120870831566],[89.33337670247289,26.760608653466647],[89.33391728135751,26.76163357572898],[89.33516197364622,26.762392838258904],[89.33607488264977,26.76319464411756],[89.33601559214594,26.764220541245038],[89.33560299398306,26.765814278406253],[89.33547792346747,26.766110258781453],[89.33510517156645,26.767100786472156],[89.33568500945569,26.767868786815086],[89.33665312154437,26.769614812473662],[89.33604322201717,26.773384406265393],[89.33713579937768,26.777171204087836]]]},"properties":{"compartment":"DSP-3","Area_in_Ha":417.096,"Shape_Area":0.00033658379,"beat":"Nilpara","range":"jaldapara North","division":"Jaldapara"}}
]}