{"type":"FeatureCollection", "features": [
{"type":"Feature","geometry":{"type":"Polygon","coordinates":[[[89.2327283436382,26.645349602901888],[89.23337811820562,26.64538299293082],[89.23352050606655,26.645474015113734],[89.233812245239,26.646090575020082],[89.23453542696842,26.64768321680708],[89.23507914718493,26.648897342938085],[89.23503905181087,26.649144998243116],[89.23417968124733,26.649517448871222],[89.23374256936415,26.649977051000178],[89.23353531969929,26.650827797964553],[89.23386614880377,26.651886898961266],[89.23413365304572,26.65244632673665],[89.2347581656569,26.652492587862696],[89.23506674373527,26.652730105110322],[89.23533940468985,26.652869859756265],[89.23537638930895,26.653150906888868],[89.23489650566927,26.653232044623223],[89.23345222773816,26.653322030787137],[89.23280766923858,26.65305110372549],[89.23097878814065,26.65245596387166],[89.22940646024,26.652547494171586],[89.22976165287804,26.6510837126433],[89.23006982626151,26.649778986111357],[89.23017861095417,26.64931762221056],[89.22991254922482,26.648508821425025],[89.22926084291362,26.647073255226587],[89.22857580143216,26.646550413670695],[89.22788448628006,26.64604629510046],[89.22751202216216,26.645777433781575],[89.22724918630098,26.64560539887009],[89.22658415293637,26.64578486487966],[89.2250776212353,26.646208307067752],[89.22377848938584,26.646560533741706],[89.22212824782042,26.64723054665245],[89.22182535165871,26.647358433844715],[89.22132678370417,26.647551658582245],[89.22080562298117,26.64769560406893],[89.22037898460252,26.64779756920251],[89.21995176706048,26.64702002885133],[89.21928420120497,26.645815244877724],[89.21869003171963,26.645772116989633],[89.21764744677233,26.645713347193293],[89.21711301475386,26.645668024959434],[89.21547937737142,26.645567609357727],[89.21536186385902,26.644881497683002],[89.21550927623218,26.644479658109788],[89.21669208886885,26.64475572030028],[89.2172748891249,26.644120968907657],[89.21702529488152,26.643495040763582],[89.21630805227483,26.64291930108493],[89.21599551717941,26.6426405247405],[89.21588370896603,26.64191246508824],[89.21486439217801,26.642134371903808],[89.21399703923203,26.641998970875875],[89.21332226890763,26.641045424206993],[89.21337620934463,26.640428900273605],[89.21282956363353,26.639193486290424],[89.211775174185,26.637768309959597],[89.21455045863684,26.636493295229457],[89.21847631413067,26.635837594129725],[89.21949957894248,26.63640370566651],[89.22074894141059,26.636957408357773],[89.22211648109078,26.637599669089525],[89.22339669929829,26.638352191200738],[89.22471547413988,26.639120988342995],[89.22577002366774,26.640157415632302],[89.22657672723426,26.641237153372003],[89.22675262833121,26.641655937971223],[89.22733446001735,26.64255967119192],[89.22757985892343,26.642830893231178],[89.22833721489059,26.64369462640593],[89.22907063360293,26.644579168094197],[89.23002991974505,26.64543769059702],[89.23128664226476,26.645579772688393],[89.2327283436382,26.645349602901888]]]},"properties":{"compartment":"KB-2A","Area_in_Ha":188.041,"Shape_Area":0.00015126622,"beat":"North Khairbari","range":"Madarihat","division":"Jaldapara"}},
{"type":"Feature","geometry":{"type":"Polygon","coordinates":[[[89.23280766923858,26.65305110372549],[89.2334337250864,26.653317009872183],[89.2322792231077,26.653446952914578],[89.23234133208689,26.653763999009414],[89.23370187144428,26.65477614370411],[89.2340795165565,26.655503665561753],[89.2340031856985,26.65625579466922],[89.23343251280028,26.657049556092204],[89.23322471814629,26.657503694839704],[89.23285923366677,26.658340317052023],[89.23314861571612,26.658997165686685],[89.23376989076792,26.65959061841238],[89.2344901173251,26.659925443204713],[89.2354632818051,26.660115684890968],[89.23725536983949,26.659753008094924],[89.23948698803412,26.660495098070385],[89.2405278031157,26.662944247878784],[89.24143625238122,26.66510748072568],[89.24186186193543,26.665530755639907],[89.243764079149,26.66738883772473],[89.24477510328842,26.66902134106209],[89.24563452421398,26.670046462074595],[89.2478569099685,26.669215552355922],[89.24884497801338,26.66989372301697],[89.2482764239179,26.671177920724517],[89.24829969027854,26.672802805904837],[89.25089787573643,26.674511244398445],[89.25393197607991,26.676693946668365],[89.25628265282222,26.679079053955206],[89.25717115872203,26.68169779881441],[89.259492200105,26.685667165307507],[89.26303318083666,26.688863229954165],[89.26389273666052,26.690982886151346],[89.26225761719536,26.695423590926055],[89.26069622595014,26.6959115405852],[89.25856851812267,26.69656008308141],[89.25834733885864,26.696623934047352],[89.25812436544715,26.696681205573213],[89.25789979304108,26.696731846397654],[89.25767381859191,26.696775811554517],[89.25744664084988,26.696813064171636],[89.25721845946441,26.696843569175428],[89.25698947498432,26.696867302284204],[89.25675988795854,26.69688424101497],[89.25652989893575,26.69689437007918],[89.2562997111628,26.69689768228227],[89.25606952698712,26.696894174026966],[89.25583954695759,26.696883848011225],[89.25560997432092,26.696866713228303],[89.25538100962598,26.696842785865954],[89.25515285432084,26.69681208570921],[89.25492570895437,26.696774639737896],[89.25469977227675,26.69673048122678],[89.25447524303809,26.696679648846782],[89.25425231818997,26.696622187563946],[89.2540311928853,26.696558147740404],[89.2538120622769,26.69648758513398],[89.25359511881976,26.696410561798018],[89.25338055137138,26.69632714518167],[89.2531685496889,26.696237409029266],[89.25295929903245,26.69614143158185],[89.25275298466255,26.696039297375705],[89.2524579233945,26.69308278604177],[89.25229361905531,26.691577802973256],[89.25167929126633,26.691378890923147],[89.25068686330815,26.69107154401661],[89.24926068872986,26.68984879518581],[89.24834280018013,26.689034002217454],[89.24649329942628,26.68864983432246],[89.24562131587106,26.68841815277557],[89.24392493009151,26.688003088671678],[89.24347902373802,26.68788808156978],[89.2424789578377,26.687256541656097],[89.24188173605336,26.687326599742846],[89.24157359324681,26.687840475057953],[89.2406549798435,26.687589299806405],[89.23903867689347,26.686195641116],[89.23842993029712,26.685801271311675],[89.23843773641244,26.685076383568287],[89.23909693137836,26.68509903569202],[89.23955156115568,26.68427114140013],[89.23936221159687,26.683109426858607],[89.23813480157986,26.680447105349685],[89.23816777612205,26.680139501237022],[89.23814492794611,26.680121909598483],[89.23808858811793,26.68010119101723],[89.23801016273887,26.680074125920214],[89.23777187567157,26.67996738628591],[89.23762694093062,26.679717709304896],[89.23700565688563,26.678467025732687],[89.23410370921886,26.67227950299673],[89.23407114386828,26.672175006271573],[89.23397887702362,26.671999003551207],[89.23391346663323,26.671795029217265],[89.23375184677036,26.67151283994565],[89.23372652815681,26.671408084215784],[89.23382253618115,26.671357571994406],[89.23401247029932,26.671337669997513],[89.23411399296646,26.67136506694436],[89.23429034012713,26.671290648944364],[89.23481418622578,26.67120017534785],[89.23505816240436,26.671107438157776],[89.23622496890727,26.67077910467202],[89.23509580442789,26.670393132736933],[89.234559497323,26.670082461936147],[89.23385926179554,26.669701331051613],[89.23253274109317,26.6693626256847],[89.23198658641189,26.668833613880224],[89.23142848603584,26.667937267690775],[89.2311929661825,26.666982941309755],[89.23166837569505,26.666496718348924],[89.23170671739115,26.66627464336017],[89.23155643438201,26.66603799305898],[89.23097883220743,26.66504046324684],[89.23046030829664,26.663733867024405],[89.22944988130706,26.66264164579536],[89.22845885089532,26.661871997894423],[89.22816006373603,26.661526315587025],[89.22723559394757,26.660371461074135],[89.225944012806,26.65756768070395],[89.22539613772165,26.656764783068354],[89.22525831661807,26.657061374083185],[89.22513501506893,26.65733354940386],[89.22458165232143,26.65749734562604],[89.22364716858203,26.657310410746902],[89.22359445032367,26.656609210246927],[89.22337366406339,26.655755346232297],[89.22358382213577,26.655054302214353],[89.2244370350412,26.65463438177136],[89.22473245603805,26.653563653439903],[89.22377998765637,26.65266781356877],[89.22204163681215,26.652195866446107],[89.22119548088682,26.65131373763893],[89.22025666871036,26.65086901839055],[89.219233179068,26.650706074725633],[89.21879272800203,26.650354875976802],[89.21820760030056,26.649708188781915],[89.21756880195869,26.64942603908048],[89.21739997313034,26.648678266288982],[89.2171785888209,26.648307726720248],[89.21659258068308,26.647517136306874],[89.2168118425925,26.646091030077002],[89.21558463582232,26.64556669564655],[89.21764744677233,26.645713347193293],[89.21869003171963,26.645772116989633],[89.21928420120497,26.645815244877724],[89.21995176706048,26.64702002885133],[89.22037898460252,26.64779756920251],[89.22080562298117,26.64769560406893],[89.22132678370417,26.647551658582245],[89.22182535165871,26.647358433844715],[89.22212824782042,26.64723054665245],[89.22377848938584,26.646560533741706],[89.2250776212353,26.646208307067752],[89.22658415293637,26.64578486487966],[89.22724918630098,26.64560539887009],[89.22751202216216,26.645777433781575],[89.22788448628006,26.64604629510046],[89.22857580143216,26.646550413670695],[89.22926084291362,26.647073255226587],[89.22991254922482,26.648508821425025],[89.23017861095417,26.64931762221056],[89.23006982626151,26.649778986111357],[89.22976165287804,26.6510837126433],[89.22940646024,26.652547494171586],[89.23097878814065,26.65245596387166],[89.23280766923858,26.65305110372549]]]},"properties":{"compartment":"KB-1","Area_in_Ha":799.045,"Shape_Area":0.00066625983,"beat":"North Khairbari","range":"Madarihat","division":"Jaldapara"}}
]}