{"type":"FeatureCollection", "features": [
{"type":"Feature","geometry":{"type":"Polygon","coordinates":[[[89.31333967058936,26.701926381797136],[89.31225155926211,26.702606075909728],[89.31116102426193,26.702752200453745],[89.30998095096015,26.7029150604817],[89.30847612167571,26.70310596316972],[89.30656340397798,26.702188955056272],[89.30337067221882,26.70065482765824],[89.29825258458919,26.699253879063292],[89.29542752356144,26.69862768741791],[89.28412050126019,26.69609549421176],[89.2835595068658,26.694295563189712],[89.2827614071133,26.69302587244613],[89.28216813065478,26.69298375449671],[89.2795561918648,26.689721479063053],[89.27808988773819,26.687080138737485],[89.27464888373908,26.684781416729038],[89.27385598926253,26.68312535744934],[89.2736152308583,26.68141837405875],[89.27694144539146,26.68113648246276],[89.28069267592633,26.67925921154341],[89.2929765742096,26.676516433986308],[89.29417351879289,26.676540096947974],[89.29989182294935,26.675343366403297],[89.30407371812765,26.674412170585242],[89.30988438625548,26.673057593733006],[89.31307918735467,26.6729014309563],[89.31695657388684,26.672739356935836],[89.31836163598075,26.672700669900053],[89.32094890726631,26.67269341237113],[89.32065915289763,26.67292578549666],[89.32011715848012,26.67341987842468],[89.31904895004908,26.67430798142823],[89.31815341055153,26.675803325563095],[89.31780492685596,26.67868558707022],[89.31700057591593,26.680823494109006],[89.31579108938735,26.690682377689654],[89.31388540798525,26.6994629282716],[89.31333967058936,26.701926381797136]]]},"properties":{"compartment":"JP-1","Area_in_Ha":1092.948,"Shape_Area":0.0008819769,"beat":"NWC Beat","range":"jaldapara North","division":"Jaldapara"}}
]}