{"type":"FeatureCollection", "features": [
{"type":"Feature","geometry":{"type":"Polygon","coordinates":[[[89.32931500708196,26.699511395434627],[89.3260009981476,26.700778139099896],[89.32472666510358,26.70218427048775],[89.32016194651669,26.70279306924482],[89.31817403830127,26.70307473061439],[89.31333967058936,26.701926381797136],[89.31388540798525,26.6994629282716],[89.31579108938735,26.690682377689654],[89.31700057591593,26.680823494109006],[89.31780492685596,26.67868558707022],[89.31815341055153,26.675803325563095],[89.31904895004908,26.67430798142823],[89.32011715848012,26.67341987842468],[89.32065915289763,26.67292578549666],[89.32094890726631,26.67269341237113],[89.32153464290951,26.672693001380935],[89.3219069424515,26.672668147716877],[89.32302524761712,26.6725121836904],[89.32397627348627,26.671808828414726],[89.32580490727071,26.67109631084611],[89.32678145859751,26.671009756495096],[89.32733185628018,26.672816203105356],[89.3274659056271,26.673222515906446],[89.32714936764927,26.67540605004922],[89.32618430965823,26.6772876350164],[89.32617044301162,26.6806888404177],[89.32619088100444,26.68112920874603],[89.32607506721064,26.68461821945533],[89.32606577541526,26.68526786901697],[89.32605830564637,26.687596019540706],[89.32603471463045,26.69061140679105],[89.32687076937054,26.69260880555197],[89.3277891354603,26.694820309509737],[89.3280168662854,26.69540768191905],[89.32849956030651,26.696736468912945],[89.32888613119007,26.69782875669182],[89.32931500708196,26.699511395434627]]]},"properties":{"compartment":"JP-2","Area_in_Ha":398.65,"Shape_Area":0.00032169843,"beat":"Siltorsa Beat","range":"Jaldapara East","division":"Jaldapara"}}
]}