{"type":"FeatureCollection", "features": [
{"type":"Feature","geometry":{"type":"Polygon","coordinates":[[[89.20559420031213,26.61995552812516],[89.2056898540036,26.619806076988937],[89.20548442456658,26.619112231144584],[89.20438445927545,26.616568626440994],[89.20523342378351,26.61559048241486],[89.20541786124534,26.61450855302735],[89.20480449932825,26.61345537676425],[89.20428069999434,26.613235661596548],[89.20185643892358,26.614041592645435],[89.20076050439383,26.613881605951406],[89.19869503234992,26.613084752659233],[89.19812580736016,26.613670507188203],[89.19679546723711,26.614180695282926],[89.19618997438789,26.613268928418336],[89.19492229812562,26.61118682071526],[89.19412448076025,26.607835273179376],[89.19423126356202,26.60624886729147],[89.19658249068948,26.60484016474186],[89.19706829366686,26.604583086340426],[89.19663934133257,26.603743728390384],[89.19453717604989,26.603552222257292],[89.19222836634611,26.603226173049507],[89.1911920622639,26.603102483892542],[89.19082047138772,26.6027440905674],[89.19044441987415,26.60048343506253],[89.18996104056964,26.59944741516614],[89.18952423625456,26.598563014671413],[89.189495198045,26.598050784216355],[89.19067938934239,26.597694416164416],[89.19114668876875,26.597546766370215],[89.1916151905886,26.597451724217763],[89.19193212516751,26.59728926708607],[89.1922506389559,26.597126201113326],[89.19256639002691,26.596892478105417],[89.19288360429493,26.596781007137793],[89.19316307041942,26.596675822431337],[89.19360825371797,26.596423436692305],[89.19385951980104,26.59627838683815],[89.19410993062883,26.596077317314382],[89.19423191377189,26.59598784376402],[89.19440962610344,26.595831478639866],[89.19450333995724,26.595757653293106],[89.19467634703585,26.595636858154535],[89.19483027139995,26.595516761789156],[89.19525487641147,26.594649576117092],[89.19547972940603,26.594174842894745],[89.19650044913647,26.593595013998765],[89.19666565099908,26.593455547135818],[89.19670462491854,26.5924990992541],[89.19615682177994,26.591934300727473],[89.19573542285156,26.591619779928976],[89.19545342963215,26.591411880054295],[89.19521419198145,26.59114766823035],[89.19497669721687,26.591079569766407],[89.19457774266874,26.590885633665096],[89.19424310763338,26.59073907294993],[89.19389217058728,26.590518694981824],[89.19343970907539,26.59027731874329],[89.19316730892422,26.589848200933773],[89.19302348394666,26.589571035275128],[89.19275506059762,26.58911507000454],[89.19268110574848,26.58887906811458],[89.19262412920028,26.58856629200085],[89.19258905114384,26.588206198057662],[89.1925177394022,26.587694777891727],[89.19281890257037,26.5871669208168],[89.19327021025208,26.58641263063845],[89.19388635377226,26.586775529567092],[89.1942228306192,26.586865790024262],[89.1944493977216,26.586947643618885],[89.19474428721912,26.58701818284294],[89.19591847086082,26.58684707783044],[89.19634612457406,26.58674374033143],[89.19672397563102,26.586694793829736],[89.19709143682041,26.58665368312103],[89.19740496836465,26.586562438805572],[89.19756455935698,26.586459046447885],[89.19787610789609,26.58644009593371],[89.19826231185624,26.586416482434743],[89.19888052921311,26.58628614818724],[89.1993166122719,26.587116776418156],[89.19958277112806,26.58774077281845],[89.19965562340838,26.588971706379198],[89.19952632697846,26.58920580980032],[89.19939217690751,26.589580853173914],[89.19927089883299,26.58984584111272],[89.19918250177108,26.590111583582768],[89.19902777611105,26.590563357113297],[89.19906248904272,26.590949927996803],[89.19913777398915,26.591710099741363],[89.1993439759438,26.592650567569706],[89.19995364434527,26.593031943069775],[89.20076751191118,26.59348286764026],[89.20115898589853,26.59508772581796],[89.20126351499925,26.595627775001844],[89.20135267378691,26.595948168373297],[89.20150674563985,26.596008782679235],[89.20193722862024,26.59617745862289],[89.20216627785152,26.596259103574823],[89.20259230469117,26.596514762846084],[89.20291943938071,26.596653729685954],[89.20315950260903,26.596754004993386],[89.20346343478974,26.596894694034972],[89.20381449414367,26.597037543248064],[89.20418661472053,26.597187960256235],[89.20492911029027,26.597323185916366],[89.20525016466343,26.59730800715886],[89.20542311958138,26.597294151304084],[89.20562156758132,26.596557466254126],[89.20601704984705,26.59621344769249],[89.20645901087471,26.596223080330958],[89.20698100886653,26.596201394079117],[89.20726883868599,26.59688856425589],[89.20754923560878,26.59738370129685],[89.20782269336269,26.59785491637132],[89.20800782779907,26.598206527009665],[89.20818433593843,26.59849485415424],[89.20838913495066,26.598861785642953],[89.2087019272522,26.599207500325917],[89.20903225903157,26.599576546120772],[89.20937662023488,26.599943004566057],[89.20964189685611,26.600226432204124],[89.20970716155631,26.600433932779822],[89.20988056523595,26.60080164757801],[89.21002209424432,26.601195270945027],[89.210169572268,26.601699339153242],[89.21038470269195,26.602219946793184],[89.2106271203454,26.602926030611854],[89.21078784808077,26.603443555375804],[89.21083800417063,26.603668232103303],[89.21092893192474,26.603953544720355],[89.21102074101447,26.604300409636267],[89.21108186433662,26.604508537938727],[89.21113131985459,26.60468766040725],[89.21127391186161,26.60517129601857],[89.21178538328888,26.605547149681286],[89.21215742112815,26.605813571139436],[89.21242904876163,26.60600096107555],[89.21295668190538,26.606347643429046],[89.21310911609288,26.60705350691387],[89.21298653669936,26.607592233195078],[89.21288165776235,26.60802801498096],[89.21280034825753,26.608376685735493],[89.21258271412103,26.608714821831597],[89.21228063184572,26.60913598423832],[89.21203076240982,26.609505280944006],[89.21185908183122,26.609754482183632],[89.21162819978167,26.61010707757964],[89.21125365912911,26.610691821270564],[89.21161124126581,26.610980672719904],[89.21214064607403,26.611391495621092],[89.21234845421787,26.61153609311623],[89.21298850531531,26.611824171148612],[89.21350569283351,26.612050728358497],[89.21403723892752,26.612305973042282],[89.2146106475634,26.6125621359339],[89.2146517960436,26.612699036131687],[89.21479359394925,26.613077890832074],[89.21490159263448,26.61338443374467],[89.21504005135733,26.61379611010244],[89.21510716956027,26.614026511014742],[89.21519753703677,26.614326112060496],[89.21527471685476,26.614618158801022],[89.21532268669267,26.614910794597563],[89.21543469815288,26.615316530933228],[89.2155874282173,26.615863041746024],[89.21569957097847,26.61638506132158],[89.21595836798434,26.616976940233656],[89.21613713971726,26.617332760598458],[89.21636902720888,26.617794007587406],[89.21649657985336,26.618064034427675],[89.21664118364379,26.618363096779547],[89.2167910700519,26.61868853894498],[89.21696653767566,26.619076053217327],[89.21718795525999,26.619541190673488],[89.21791724878204,26.620118382757198],[89.21808910382913,26.6201874210127],[89.21816758676476,26.620777617293243],[89.21726696699699,26.620435680662183],[89.21605731229516,26.62002896586415],[89.21547416040426,26.62003027977363],[89.21474474727233,26.619913284270694],[89.21348407762815,26.620039779312435],[89.21266190122583,26.62032805699431],[89.21225371243895,26.619959039078424],[89.2119154189615,26.61964588884672],[89.21167770835962,26.619432081325556],[89.21089868142906,26.61918890374494],[89.20970595736412,26.61964185089073],[89.20939619937513,26.619798832050492],[89.20872008006768,26.620144956824333],[89.20839258834735,26.6203011987414],[89.20778976558529,26.620304553212634],[89.20730203985732,26.62030336700684],[89.20685659935265,26.62030136241799],[89.20622006010774,26.62011964540534],[89.20559420031213,26.61995552812516]]]},"properties":{"compartment":"KB-3","Area_in_Ha":524.337,"Shape_Area":0.00042742762,"beat":"South Khairbari","range":"Madarihat","division":"Jaldapara"}},
{"type":"Feature","geometry":{"type":"Polygon","coordinates":[[[89.2327283436382,26.645349602901888],[89.23128664226476,26.645579772688393],[89.23002991974505,26.64543769059702],[89.22907063360293,26.644579168094197],[89.22833721489059,26.64369462640593],[89.22757985892343,26.642830893231178],[89.22733446001735,26.64255967119192],[89.22675262833121,26.641655937971223],[89.22657672723426,26.641237153372003],[89.22577002366774,26.640157415632302],[89.22471547413988,26.639120988342995],[89.22339669929829,26.638352191200738],[89.22211648109078,26.637599669089525],[89.22074894141059,26.636957408357773],[89.21949957894248,26.63640370566651],[89.21847631413067,26.635837594129725],[89.21455045863684,26.636493295229457],[89.211775174185,26.637768309959597],[89.2115964393243,26.637476979978715],[89.21043276875736,26.636567330118226],[89.2087585800445,26.63528952659044],[89.20783544574925,26.63479836725088],[89.20726852302397,26.633496823419705],[89.20787364535249,26.63228272696631],[89.2081161169653,26.631367965359345],[89.20878132839567,26.63064927214623],[89.20702302609186,26.629644845433347],[89.20584902860986,26.628681844191817],[89.20540444605842,26.62841109699457],[89.20446563118401,26.627612758022394],[89.20425070490614,26.626482777857973],[89.20500991617473,26.625295814850006],[89.20507892924923,26.624186844647227],[89.20340562277136,26.622429077440017],[89.2032096371151,26.621049324966407],[89.20446179557547,26.620213540022917],[89.20559420031213,26.61995552812516],[89.20622006010774,26.62011964540534],[89.20685659935265,26.62030136241799],[89.20730203985732,26.62030336700684],[89.20778976558529,26.620304553212634],[89.20839258834735,26.6203011987414],[89.20872008006768,26.620144956824333],[89.20939619937513,26.619798832050492],[89.20970595736412,26.61964185089073],[89.21089868142906,26.61918890374494],[89.21167770835962,26.619432081325556],[89.2119154189615,26.61964588884672],[89.21225371243895,26.619959039078424],[89.21266190122583,26.62032805699431],[89.21348407762815,26.620039779312435],[89.21474474727233,26.619913284270694],[89.21547416040426,26.62003027977363],[89.21605731229516,26.62002896586415],[89.21726696699699,26.620435680662183],[89.21816758676476,26.620777617293243],[89.21844715990858,26.622211239157423],[89.21865416405848,26.623062219046233],[89.22010441528658,26.622922125355842],[89.2210900398735,26.622778634026815],[89.22162472640008,26.623087654571634],[89.22228457517309,26.625020446936105],[89.22144661656813,26.625725510923644],[89.2208300503666,26.626536551920367],[89.22041501504094,26.627784039302014],[89.22107392222381,26.628324800749],[89.2229221279539,26.628120878575714],[89.22524313606192,26.627874316846317],[89.22565953116248,26.62791352009293],[89.22656613681784,26.629024324912734],[89.22720827973836,26.629463049280332],[89.22754815332468,26.631820614829564],[89.22724213201883,26.632747784382786],[89.22713752377774,26.634837614564333],[89.2275968606067,26.635207073147967],[89.22852229986432,26.635468785755904],[89.22882513307349,26.636992048444313],[89.22919369323444,26.63803149116046],[89.22951224389499,26.639331173394964],[89.23030665732642,26.640652764013907],[89.23309410600825,26.64092731084679],[89.23340150417613,26.642201660977946],[89.23344748921033,26.643191709329983],[89.233270366834,26.64475934996409],[89.23310875506508,26.645367333036063],[89.2327283436382,26.645349602901888]]]},"properties":{"compartment":"KB-2B","Area_in_Ha":425.805,"Shape_Area":0.00034491108,"beat":"South Khairbari","range":"Madarihat","division":"Jaldapara"}}
]}