{"type":"FeatureCollection", "features": [
{"type":"Feature","geometry":{"type":"Polygon","coordinates":[[[89.5271547305583,26.583732726052],[89.5265301701263,26.5838154040725],[89.5253737468328,26.5840723620727],[89.5245171479365,26.5841151755195],[89.5229466912195,26.5845577258057],[89.5216332252355,26.5849431709807],[89.5203054816883,26.585228685704],[89.5189349051642,26.5856426798192],[89.5167077249511,26.5862993677276],[89.514823176286,26.5868561321124],[89.5135810908181,26.5872130286209],[89.5119107026512,26.5877269570872],[89.5103259753009,26.5881980571414],[89.5079845729897,26.588954683001],[89.5069138077854,26.5892830327836],[89.5062428026092,26.5895685502521],[89.5057145615328,26.5896684801706],[89.5035016667374,26.5896827172381],[89.5020136492318,26.5897342484419],[89.5020112085346,26.5897161385168],[89.5016077225549,26.5867232353597],[89.5025847928539,26.5836932490872],[89.5057238211422,26.5821873074037],[89.5074198687477,26.5800273365792],[89.5088779325713,26.5772163600042],[89.5086479955689,26.5746153510358],[89.5079370649677,26.5717973323604],[89.5080581058613,26.5700803317344],[89.5080809537229,26.5697502716058],[89.5086785022325,26.5697501331977],[89.5099538906434,26.5696835278245],[89.511562409822,26.5695503087984],[89.5125617821218,26.5693504578395],[89.5135611680761,26.5689983166163],[89.5145986125661,26.5687032862302],[89.5159787091713,26.5682845222764],[89.5172541053538,26.5678943163404],[89.518577091419,26.5675041113274],[89.5202236864518,26.5671234226083],[89.5211849902238,26.5668664608099],[89.5224984533487,26.5665999858264],[89.5238690256481,26.5663620720005],[89.5252110468785,26.5661717377034],[89.5268100377004,26.5659718883748],[89.5286755387759,26.56573398415],[89.5300841780199,26.5656197912782],[89.531071237979,26.5655194402519],[89.5310391530366,26.5657287699952],[89.5310211499864,26.5658577698714],[89.5306921187735,26.5671927658208],[89.5303590666693,26.5693987632132],[89.5301620476737,26.570210760809],[89.529511025653,26.5711957498974],[89.5291830028055,26.5721817452543],[89.5289849782181,26.5732267432365],[89.5288509409419,26.5747937433715],[89.5284508806315,26.5773477400665],[89.5283108266054,26.5796127413022],[89.5284327774923,26.581645747218],[89.528429757979,26.5824587485785],[89.5277167416951,26.5832107360506],[89.5271547305583,26.583732726052]]]},"properties":{"compartment":"Damanpur BL6"},"id":"comptt.38"}
]}