{"type":"FeatureCollection", "features": [
{"type":"Feature","geometry":{"type":"Polygon","coordinates":[[[89.5145122918726,26.5970576210361],[89.5106093868037,26.597264778362],[89.5052222916119,26.5976263543828],[89.5017958733496,26.5979118283443],[89.4953618148869,26.5985208444657],[89.4943868832781,26.5986899158271],[89.4940834868781,26.5973231075816],[89.495780498367,26.5966671393996],[89.4981995441236,26.5945091826435],[89.5011036042032,26.5917042341795],[89.5020746381277,26.5901902504139],[89.5020136492318,26.5897342484419],[89.5035016667374,26.5896827172381],[89.5057145615328,26.5896684801706],[89.5062428026092,26.5895685502521],[89.5069138077854,26.5892830327836],[89.5079845729897,26.588954683001],[89.5103259753009,26.5881980571414],[89.5119107026512,26.5877269570872],[89.5135810908181,26.5872130286209],[89.514823176286,26.5868561321124],[89.5167077249511,26.5862993677276],[89.5189349051642,26.5856426798192],[89.5203054816883,26.585228685704],[89.5216332252355,26.5849431709807],[89.5229466912195,26.5845577258057],[89.5245171479365,26.5841151755195],[89.5253737468328,26.5840723620727],[89.5265301701263,26.5838154040725],[89.5271547305583,26.583732726052],[89.5273107311308,26.5836927290104],[89.527206728652,26.5838067271905],[89.5250026858206,26.5858186879143],[89.5240336171449,26.5887786742603],[89.5240205408173,26.5919576795461],[89.5243475007489,26.5935916887423],[89.5245254264972,26.5966636975512],[89.5245325583801,26.5966814367848],[89.5225257107539,26.5966939387703],[89.5181094394863,26.5967890331756],[89.5149114515304,26.5970364315047],[89.5145122918726,26.5970576210361]]]},"properties":{"compartment":"Damanpur BL5"},"id":"comptt.50"}
]}