{"type":"FeatureCollection", "features": [
{"type":"Feature","geometry":{"type":"Polygon","coordinates":[[[89.531071237979,26.5655194402519],[89.5300841780199,26.5656197912782],[89.5286755387759,26.56573398415],[89.5268100377004,26.5659718883748],[89.5252110468785,26.5661717377034],[89.5238690256481,26.5663620720005],[89.5224984533487,26.5665999858264],[89.5211849902238,26.5668664608099],[89.5202236864518,26.5671234226083],[89.518577091419,26.5675041113274],[89.5172541053538,26.5678943163404],[89.5159787091713,26.5682845222764],[89.5145986125661,26.5687032862302],[89.5135611680761,26.5689983166163],[89.5125617821218,26.5693504578395],[89.511562409822,26.5695503087984],[89.5099538906434,26.5696835278245],[89.5086785022325,26.5697501331977],[89.5080809537229,26.5697502716058],[89.5081941526633,26.5681153309694],[89.5065172089589,26.5659432946789],[89.5077332681839,26.56334731377],[89.5082213032982,26.5618323206108],[89.5079923662191,26.5592323116664],[89.5063103965345,26.5581432771635],[89.5055154273892,26.5569392596639],[89.5083194266155,26.5566793135856],[89.5110014197035,26.5566883656081],[89.514575413235,26.5565864347365],[89.5180213961144,26.5569425021804],[89.5205733895473,26.5569515516863],[89.5241503858814,26.5567336206758],[89.5272153862786,26.5563996795342],[89.5302813866814,26.556065738412],[89.5310843985742,26.5554867529736],[89.5315733519211,26.5573817657687],[89.531692300089,26.5595307718322],[89.5314892476822,26.5617367717497],[89.5312861910955,26.5641167719705],[89.531071237979,26.5655194402519]]]},"properties":{"compartment":"Damanpur BL9"},"id":"comptt.19"}
]}