{"type":"FeatureCollection", "features": [
{"type":"Feature","geometry":{"type":"Polygon","coordinates":[[[89.5277110733844,26.6110237844724],[89.5267900768097,26.6109767664959],[89.5229450801712,26.6112356922415],[89.5171430902645,26.6114185798344],[89.5129210946495,26.611675498255],[89.509378098934,26.6118664297537],[89.5089660988129,26.6119144218327],[89.5088402889926,26.6119291612799],[89.5088149956412,26.6091505741094],[89.5088864114993,26.6076515128998],[89.5091005918493,26.606366604834],[89.5094147116039,26.6050959687338],[89.5098715934498,26.6041394359501],[89.5102428148234,26.6032114515517],[89.5110708967176,26.6017980651841],[89.5117847640931,26.6005845569435],[89.5126985030259,26.5992853824347],[89.513312420701,26.5984858929694],[89.5141690542866,26.5974151477459],[89.5145122918726,26.5970576210361],[89.5149114515304,26.5970364315047],[89.5181094394863,26.5967890331756],[89.5225257107539,26.5966939387703],[89.5245325583801,26.5966814367848],[89.5245994218917,26.5968476993089],[89.5253673179906,26.6010917216202],[89.5262562000625,26.60590574728],[89.5268201490603,26.6079687618336],[89.5273151077222,26.6096367743594],[89.5277110733844,26.6110237844724]]]},"properties":{"compartment":"Damanpur BL2"},"id":"comptt.63"}
]}