{"type":"FeatureCollection", "features": [
{"type":"Feature","geometry":{"type":"Polygon","coordinates":[[[89.5088402889926,26.6119291612799],[89.5043240973812,26.6124583325924],[89.4991220962227,26.6130502325558],[89.4958800981559,26.6133091700213],[89.4957750991898,26.6132771679264],[89.4959561438854,26.6113991682061],[89.4957922213917,26.608192159494],[89.4957342486026,26.6070661564272],[89.4947803031589,26.6048961341602],[89.4940653466782,26.6031601172847],[89.4941133483837,26.6030841180859],[89.4955214001304,26.6007831414638],[89.4945634338727,26.599479120615],[89.4944224493397,26.5988501167937],[89.4943868832781,26.5986899158271],[89.4953618148869,26.5985208444657],[89.5017958733496,26.5979118283443],[89.5052222916119,26.5976263543828],[89.5106093868037,26.597264778362],[89.5145122918726,26.5970576210361],[89.5141690542866,26.5974151477459],[89.513312420701,26.5984858929694],[89.5126985030259,26.5992853824347],[89.5117847640931,26.6005845569435],[89.5110708967176,26.6017980651841],[89.5102428148234,26.6032114515517],[89.5098715934498,26.6041394359501],[89.5094147116039,26.6050959687338],[89.5091005918493,26.606366604834],[89.5088864114993,26.6076515128998],[89.5088149956412,26.6091505741094],[89.5088402889926,26.6119291612799]]]},"properties":{"compartment":"Damanpur BL1"},"id":"comptt.65"}
]}