{"type":"FeatureCollection", "features": [
{"type":"Feature","geometry":{"type":"Polygon","coordinates":[[[89.7376147316903,26.5822334018298],[89.7372292430108,26.583047175868],[89.7370864613237,26.5835468540331],[89.7369294055487,26.5842178622433],[89.7368841666947,26.5854218736311],[89.7368484496074,26.5861357142808],[89.7369079248749,26.5867424765799],[89.7370506739393,26.5875990809687],[89.7372766996617,26.5885865672235],[89.7373599508474,26.5897763010831],[89.7373479956302,26.5920724851751],[89.7372749936003,26.5946573786234],[89.7369759713322,26.5943648222568],[89.735195017324,26.5926247843442],[89.7338410602553,26.5909707549014],[89.7316981269756,26.5884037084038],[89.7310061597542,26.5871076925134],[89.7290892192542,26.5848186509427],[89.7285992377067,26.5840986400646],[89.7285212405091,26.5839896383435],[89.7287107832876,26.5834400009964],[89.7289487318914,26.5830592849074],[89.7290439219704,26.5826309859536],[89.7291629217212,26.5817981767029],[89.7291153495687,26.5810605443928],[89.7288060380227,26.5803228969947],[89.7286157042093,26.5792521412843],[89.728687112648,26.5780624104382],[89.7285444324897,26.5747549414543],[89.7284730901261,26.5727799863593],[89.7316377745111,26.5727086677278],[89.7371343100828,26.5727801546854],[89.7393472009681,26.5729467580074],[89.7399658606838,26.5728991899417],[89.7406083160646,26.5726136618897],[89.7408545871544,26.5725138265205],[89.7408890789442,26.573298948639],[89.7408890563504,26.5742388404111],[89.7407462569345,26.575476159969],[89.740472595256,26.5764041463996],[89.7401989555904,26.5768324418881],[89.7398896125745,26.5774035069516],[89.7396278603065,26.5779388828728],[89.739294712768,26.578700307832],[89.739056752447,26.5791524040582],[89.738759310833,26.5796639792401],[89.7385927412049,26.5800803867867],[89.738414267885,26.5806514543932],[89.7382952892909,26.5810202727751],[89.7381644110105,26.5813771809032],[89.7380692260804,26.5815913394562],[89.7378907604847,26.5818411764573],[89.7376147316903,26.5822334018298]]]},"properties":{"compartment":"SRD BL1"},"id":"comptt.45"}
]}