{"type":"FeatureCollection", "features": [
{"type":"Feature","geometry":{"type":"Polygon","coordinates":[[[89.4090688848313,26.7457745674468],[89.4083022195722,26.7461288404104],[89.4078168030129,26.7464524414827],[89.4070077826952,26.7469663865607],[89.4065033231925,26.7474137174669],[89.4058275397631,26.7480418853324],[89.405542001069,26.7484321104124],[89.4053135626861,26.7488032965744],[89.4052564466175,26.7490602858877],[89.4052278884017,26.7494029259003],[89.4052469016366,26.7505069981062],[89.4052183304263,26.7509733683241],[89.4051707306471,26.751382638076],[89.4050755509925,26.7517919068998],[89.4049327696197,26.7522773149217],[89.4047328788572,26.7527436817979],[89.4044758852493,26.7533337877657],[89.4042474450216,26.7537811240532],[89.4039619031006,26.7543045993532],[89.4036573205384,26.7548566243289],[89.4032765877146,26.7554276878507],[89.4027055021645,26.7561319978803],[89.4021629674609,26.7567982384031],[89.4017156236593,26.7574168907035],[89.4013729641906,26.7578451947297],[89.4010493505249,26.7584448094116],[89.4008780219887,26.7588160066853],[89.4007447617399,26.7592538248119],[89.400573429978,26.7597582623063],[89.400449679934,26.7601865706026],[89.4004401549816,26.7608052314431],[89.4004686931549,26.761290642805],[89.4005733808977,26.7617855656685],[89.4008208294175,26.7622329112386],[89.401049241765,26.7629372368637],[89.4012586210753,26.7633560316439],[89.4014679957764,26.76396517674],[89.4015631612376,26.7645552895762],[89.4017535036828,26.7652596144592],[89.4019248075604,26.765906828876],[89.4020961086713,26.7666682634826],[89.4023435528088,26.767296449354],[89.4025910041797,26.7680388454153],[89.4026671250774,26.7688193081966],[89.4026879338284,26.76928149937],[89.4022003750024,26.7688729791769],[89.4018434642379,26.768530331643],[89.4015151002865,26.7683161748796],[89.4013152335776,26.7682019507897],[89.4007156131045,26.7678735785436],[89.400144557743,26.7673310465],[89.3994592951013,26.7666885820625],[89.3985432142185,26.7659985130429],[89.3977580112628,26.7653798366962],[89.3972107501914,26.7650704955054],[89.3965563947922,26.7649515125406],[89.3956522103384,26.7648206246816],[89.3948669973006,26.7646183590261],[89.3942840325792,26.7644636773957],[89.3938795259479,26.7643684893458],[89.3933084655162,26.7640353576528],[89.3926898180906,26.7635832448349],[89.3921425524932,26.7630478532723],[89.3911908000579,26.762012772993],[89.3908814821053,26.7615487661918],[89.3905483776712,26.7609419986907],[89.3900487056914,26.7602519378029],[89.3897037007116,26.7596689701097],[89.3893943856375,26.759085993113],[89.3889660914523,26.7584792237563],[89.3885735006283,26.7577296848606],[89.3884188499624,26.7573608612351],[89.3882523001914,26.7569563473187],[89.3880024658225,26.7563376814243],[89.3877407348621,26.7559926557499],[89.3874671053727,26.7555881397451],[89.3873243546745,26.7552193163522],[89.3872172884885,26.7546601433412],[89.3870745280776,26.7542794299286],[89.3869674793764,26.7534109164077],[89.3869317881071,26.7530539951228],[89.3868247373891,26.7522687717393],[89.3864797326915,26.7516739040297],[89.3860395525623,26.7509005641698],[89.3855636719506,26.7501510236536],[89.3851234860633,26.7496156341869],[89.3844701113911,26.749053230519],[89.3844791174396,26.7488022302808],[89.3846022005213,26.7453542269965],[89.3846832566856,26.7430232247337],[89.3868732562866,26.7428012670633],[89.3900022574364,26.7424133274255],[89.3933262538982,26.7421983918754],[89.3972212529823,26.7418134671772],[89.3996502532863,26.7415375140774],[89.4007342517264,26.7414845351242],[89.4024552304073,26.7421795698324],[89.4057661798192,26.7439126372706],[89.4085681333718,26.7455296945989],[89.408803129975,26.7456446993729],[89.4090688848313,26.7457745674468]]]},"properties":{"compartment":"Barnabari BL4"},"id":"comptt.192"}
]}