{"type":"FeatureCollection", "features": [
{"type":"Feature","geometry":{"type":"Polygon","coordinates":[[[89.4077675248732,26.7707527209507],[89.4065975554002,26.7708575382905],[89.4057266811419,26.7707147510561],[89.405298376069,26.7705577024359],[89.4045131653908,26.770257876613],[89.4039992122721,26.7700294362029],[89.4031711730899,26.76967249945],[89.4027286028964,26.7693155702203],[89.4026879338284,26.76928149937],[89.4026671250774,26.7688193081966],[89.4025910041797,26.7680388454153],[89.4023435528088,26.767296449354],[89.4020961086713,26.7666682634826],[89.4019248075604,26.765906828876],[89.4017535036828,26.7652596144592],[89.4015631612376,26.7645552895762],[89.4014679957764,26.76396517674],[89.4012586210753,26.7633560316439],[89.401049241765,26.7629372368637],[89.4008208294175,26.7622329112386],[89.4005733808977,26.7617855656685],[89.4004686931549,26.761290642805],[89.4004401549816,26.7608052314431],[89.400449679934,26.7601865706026],[89.400573429978,26.7597582623063],[89.4007447617399,26.7592538248119],[89.4008780219887,26.7588160066853],[89.4010493505249,26.7584448094116],[89.4013729641906,26.7578451947297],[89.4017156236593,26.7574168907035],[89.4021629674609,26.7567982384031],[89.4027055021645,26.7561319978803],[89.4032765877146,26.7554276878507],[89.4036573205384,26.7548566243289],[89.4039619031006,26.7543045993532],[89.4042474450216,26.7537811240532],[89.4044758852493,26.7533337877657],[89.4047328788572,26.7527436817979],[89.4049327696197,26.7522773149217],[89.4050755509925,26.7517919068998],[89.4051707306471,26.751382638076],[89.4052183304263,26.7509733683241],[89.4052469016366,26.7505069981062],[89.4052278884017,26.7494029259003],[89.4052564466175,26.7490602858877],[89.4053135626861,26.7488032965744],[89.405542001069,26.7484321104124],[89.4058275397631,26.7480418853324],[89.4065033231925,26.7474137174669],[89.4070077826952,26.7469663865607],[89.4078168030129,26.7464524414827],[89.4083022195722,26.7461288404104],[89.4090688848313,26.7457745674468],[89.4101701102401,26.7463127271431],[89.4110920927816,26.7469347461596],[89.4127060678294,26.7477917790645],[89.414062045947,26.7485498067746],[89.4146660350783,26.7489338191953],[89.4125350051696,26.7503997800757],[89.411542932038,26.7535287659397],[89.4117338824773,26.7555557730423],[89.4105818424028,26.7573357535332],[89.4102568048104,26.7589237498367],[89.409456767611,26.76054673693],[89.4082437426525,26.7617087151966],[89.4076197201224,26.7627067046813],[89.4066256937421,26.7639036872763],[89.40558168023,26.7645746680203],[89.4045686604135,26.7655026497952],[89.4047156299988,26.7667426547235],[89.4055055920834,26.768222672599],[89.4061095461025,26.7700556874328],[89.4062895437897,26.7701316910721],[89.4077675248732,26.7707527209507]]]},"properties":{"compartment":"Barnabari BL3"},"id":"comptt.193"}
]}