{"type":"FeatureCollection", "features": [
{"type":"Feature","geometry":{"type":"Polygon","coordinates":[[[89.4026879338284,26.76928149937],[89.4027622536487,26.7709322735611],[89.4027622402765,26.7714843144774],[89.4028574066544,26.7720363472513],[89.4031809896654,26.7727026046732],[89.4034094038479,26.7733307901746],[89.4035307427768,26.7741874039655],[89.4035664090474,26.7751629762819],[89.4036615395042,26.7771974215176],[89.4036971965451,26.7785537244663],[89.403673377291,26.7793508453251],[89.4037209464072,26.7802074476764],[89.4038280073845,26.7809807810509],[89.4039707677828,26.7813614944704],[89.404220595593,26.7818373901385],[89.4044942201684,26.7824441564888],[89.4046250794436,26.7828724697553],[89.4048273162243,26.7833959545737],[89.4050890408299,26.7840027206922],[89.405362668576,26.7844786168258],[89.4055530188475,26.7848593411754],[89.4058623382298,26.7852638578876],[89.4061597547592,26.7857873445654],[89.4065166585364,26.786417902583],[89.4068616629209,26.787024680329],[89.4070520120376,26.7874529847583],[89.407313737217,26.7880359608389],[89.407658741889,26.7886308285658],[89.4079680555001,26.7892732956751],[89.4082654688537,26.7899276525721],[89.408634273462,26.7905225207647],[89.409157737087,26.7911411920179],[89.4093956743456,26.7916408874966],[89.4095622215026,26.7921524816011],[89.4096454868583,26.7927473442175],[89.4097406536248,26.7932827269676],[89.4098239175368,26.7939370796832],[89.4099904519958,26.7949721546592],[89.4101688924824,26.7957573794521],[89.4102878483188,26.7963284527265],[89.4104306017835,26.7969947066245],[89.4105376702476,26.7974586994887],[89.4106090388048,26.7979227016555],[89.4107636939688,26.7985175656674],[89.410965930739,26.79904106049],[89.4111324822206,26.7993741842987],[89.4113347263926,26.8000047493001],[89.411513170338,26.8006472038564],[89.4115721996101,26.8014954746852],[89.4114297699912,26.8014948436389],[89.4101977733206,26.8014908195613],[89.405854787952,26.8013577344885],[89.401257808847,26.8009946440757],[89.3966598269718,26.8007465538389],[89.3919348538177,26.8001534605557],[89.3878478706021,26.7999063803127],[89.3846558904897,26.7994343171846],[89.3823459086806,26.7989362712445],[89.3830769975932,26.7951902793547],[89.383210076967,26.7919022765381],[89.3834531385824,26.7893342770543],[89.3832522674103,26.7840412644133],[89.3838684724185,26.7755132623915],[89.3841245837215,26.7708902597715],[89.38425968539,26.7666772554644],[89.3842757583717,26.7636612508071],[89.3842797749207,26.7629772497582],[89.3844078292932,26.7607172485312],[89.3846559156781,26.7571212474427],[89.3843390421548,26.7519292327039],[89.3844190848409,26.7501562313422],[89.3844701113911,26.749053230519],[89.3851234860633,26.7496156341869],[89.3855636719506,26.7501510236536],[89.3860395525623,26.7509005641698],[89.3864797326915,26.7516739040297],[89.3868247373891,26.7522687717393],[89.3869317881071,26.7530539951228],[89.3869674793764,26.7534109164077],[89.3870745280776,26.7542794299286],[89.3872172884885,26.7546601433412],[89.3873243546745,26.7552193163522],[89.3874671053727,26.7555881397451],[89.3877407348621,26.7559926557499],[89.3880024658225,26.7563376814243],[89.3882523001914,26.7569563473187],[89.3884188499624,26.7573608612351],[89.3885735006283,26.7577296848606],[89.3889660914523,26.7584792237563],[89.3893943856375,26.759085993113],[89.3897037007116,26.7596689701097],[89.3900487056914,26.7602519378029],[89.3905483776712,26.7609419986907],[89.3908814821053,26.7615487661918],[89.3911908000579,26.762012772993],[89.3921425524932,26.7630478532723],[89.3926898180906,26.7635832448349],[89.3933084655162,26.7640353576528],[89.3938795259479,26.7643684893458],[89.3942840325792,26.7644636773957],[89.3948669973006,26.7646183590261],[89.3956522103384,26.7648206246816],[89.3965563947922,26.7649515125406],[89.3972107501914,26.7650704955054],[89.3977580112628,26.7653798366962],[89.3985432142185,26.7659985130429],[89.3994592951013,26.7666885820625],[89.400144557743,26.7673310465],[89.4007156131045,26.7678735785436],[89.4013152335776,26.7682019507897],[89.4015151002865,26.7683161748796],[89.4018434642379,26.768530331643],[89.4022003750024,26.7688729791769],[89.4026879338284,26.76928149937]]]},"properties":{"compartment":"Barnabari BL1"},"id":"comptt.209"}
]}