{"type":"FeatureCollection", "features": [
{"type":"Feature","geometry":{"type":"Polygon","coordinates":[[[89.4077675248732,26.7707527209507],[89.4087744581588,26.7733977450054],[89.4096464178121,26.7749687646408],[89.4097884108981,26.7752387678621],[89.4104123285238,26.7785707855899],[89.4115392086045,26.7833968156297],[89.4122861119565,26.7873028367228],[89.4130299985639,26.7918988589108],[89.4138668840515,26.7965298829782],[89.4141498451767,26.7981018911271],[89.4144018221977,26.799021897584],[89.4163127808001,26.8005219374219],[89.4162077569821,26.801514937027],[89.4141577625473,26.8015068969594],[89.4115721996101,26.8014954746852],[89.411513170338,26.8006472038564],[89.4113347263926,26.8000047493001],[89.4111324822206,26.7993741842987],[89.410965930739,26.79904106049],[89.4107636939688,26.7985175656674],[89.4106090388048,26.7979227016555],[89.4105376702476,26.7974586994887],[89.4104306017835,26.7969947066245],[89.4102878483188,26.7963284527265],[89.4101688924824,26.7957573794521],[89.4099904519958,26.7949721546592],[89.4098239175368,26.7939370796832],[89.4097406536248,26.7932827269676],[89.4096454868583,26.7927473442175],[89.4095622215026,26.7921524816011],[89.4093956743456,26.7916408874966],[89.409157737087,26.7911411920179],[89.408634273462,26.7905225207647],[89.4082654688537,26.7899276525721],[89.4079680555001,26.7892732956751],[89.407658741889,26.7886308285658],[89.407313737217,26.7880359608389],[89.4070520120376,26.7874529847583],[89.4068616629209,26.787024680329],[89.4065166585364,26.786417902583],[89.4061597547592,26.7857873445654],[89.4058623382298,26.7852638578876],[89.4055530188475,26.7848593411754],[89.405362668576,26.7844786168258],[89.4050890408299,26.7840027206922],[89.4048273162243,26.7833959545737],[89.4046250794436,26.7828724697553],[89.4044942201684,26.7824441564888],[89.404220595593,26.7818373901385],[89.4039707677828,26.7813614944704],[89.4038280073845,26.7809807810509],[89.4037209464072,26.7802074476764],[89.403673377291,26.7793508453251],[89.4036971965451,26.7785537244663],[89.4036615395042,26.7771974215176],[89.4035664090474,26.7751629762819],[89.4035307427768,26.7741874039655],[89.4034094038479,26.7733307901746],[89.4031809896654,26.7727026046732],[89.4028574066544,26.7720363472513],[89.4027622402765,26.7714843144774],[89.4027622536487,26.7709322735611],[89.4026879338284,26.76928149937],[89.4027286028964,26.7693155702203],[89.4031711730899,26.76967249945],[89.4039992122721,26.7700294362029],[89.4045131653908,26.770257876613],[89.405298376069,26.7705577024359],[89.4057266811419,26.7707147510561],[89.4065975554002,26.7708575382905],[89.4077675248732,26.7707527209507]]]},"properties":{"compartment":"Barnabari BL2"},"id":"comptt.210"}
]}