{"type":"FeatureCollection", "features": [
{"type":"Feature","geometry":{"type":"Polygon","coordinates":[[[89.8422302198011,26.500400306647],[89.8414441402858,26.5008698223123],[89.8407112634662,26.5012219687802],[89.8399974175174,26.5015360455428],[89.8392740525025,26.5018120520462],[89.8389123637219,26.5022117958085],[89.8383888700525,26.5028304468582],[89.8378939254073,26.5034871685358],[89.8372657287373,26.5046578486299],[89.8367898028694,26.5057809515851],[89.8365708753295,26.5065328588031],[89.8365232657721,26.507770180292],[89.8365517826214,26.5091502635367],[89.8365707943229,26.5099116953905],[89.8365232107769,26.5100639847639],[89.8363423686676,26.5101686714583],[89.8359711683495,26.5102162543467],[89.8355333481792,26.5102638359423],[89.8350955254986,26.5104161177418],[89.8347814300336,26.5106730921466],[89.8345053985506,26.5111775277723],[89.8343531054232,26.5117390859108],[89.8343245281412,26.5124624367656],[89.8343911413318,26.5131572494124],[89.8345624417789,26.5139567542953],[89.8349811996219,26.5148419141487],[89.8355941168517,26.516151588599],[89.8365458558857,26.518188431046],[89.837116896765,26.5193496243966],[89.8376879367294,26.5205488778222],[89.8384683557234,26.5221859661685],[89.8389804423484,26.5235296687335],[89.8389567823991,26.5235296405142],[89.8371784463929,26.5235276337398],[89.8331074625092,26.5232325541196],[89.8290364688982,26.5233434752929],[89.8250954819448,26.5231653984308],[89.8227874871623,26.5231623536154],[89.8227394894765,26.523070352505],[89.8226624932948,26.5229183507152],[89.822663506991,26.5223473496267],[89.8228555368129,26.5210863509074],[89.8234335781254,26.5193103586816],[89.823945623731,26.5173613648375],[89.824653703212,26.5139813720177],[89.8251657419246,26.5123193787275],[89.8255497891668,26.510313382284],[89.8260648374793,26.5082503882707],[89.826320872628,26.5067603903436],[89.8267079157282,26.5049263942894],[89.8270909450765,26.5036663992722],[89.8280819915732,26.5016344145497],[89.8287220686785,26.4983574205942],[89.8292470863457,26.4975714292501],[89.8351910729942,26.4975785445727],[89.8385120693073,26.4974256087013],[89.841983059044,26.4975336762506],[89.8418720423954,26.4982386754742],[89.8419949954166,26.5001876816676],[89.8422302198011,26.500400306647]]]},"properties":{"compartment":"S Bholka BL 5"},"id":"comptt.1"},
{"type":"Feature","geometry":{"type":"Polygon","coordinates":[[[89.8600604020618,26.5232690775705],[89.8584394016206,26.5234360464185],[89.8563724006521,26.5236660067287],[89.8554944026103,26.5236649896761],[89.8541744055435,26.5236639640401],[89.8515254114578,26.5236609125921],[89.8483594199359,26.5235988509902],[89.8444814299973,26.5235367755642],[89.8407334383914,26.5235327027782],[89.8389804423484,26.5235296687335],[89.8384683557234,26.5221859661685],[89.8376879367294,26.5205488778222],[89.837116896765,26.5193496243966],[89.8365458558857,26.518188431046],[89.8355941168517,26.516151588599],[89.8349811996219,26.5148419141487],[89.8345624417789,26.5139567542953],[89.8343911413318,26.5131572494124],[89.8343245281412,26.5124624367656],[89.8343531054232,26.5117390859108],[89.8345053985506,26.5111775277723],[89.8347814300336,26.5106730921466],[89.8350955254986,26.5104161177418],[89.8355333481792,26.5102638359423],[89.8359711683495,26.5102162543467],[89.8363423686676,26.5101686714583],[89.8365232107769,26.5100639847639],[89.8365707943229,26.5099116953905],[89.8365517826214,26.5091502635367],[89.8365232657721,26.507770180292],[89.8365708753295,26.5065328588031],[89.8367898028694,26.5057809515851],[89.8372657287373,26.5046578486299],[89.8378939254073,26.5034871685358],[89.8383888700525,26.5028304468582],[89.8389123637219,26.5022117958085],[89.8392740525025,26.5018120520462],[89.8399974175174,26.5015360455428],[89.8407112634662,26.5012219687802],[89.8414441402858,26.5008698223123],[89.8422302198011,26.500400306647],[89.8422549892099,26.5004226871713],[89.8437779529618,26.5017947194032],[89.8461959118361,26.5032877692421],[89.8481068993254,26.5036338070026],[89.8495058494697,26.5055848379715],[89.8501407985848,26.5076488543376],[89.8514117462685,26.5097138830521],[89.8533217255137,26.5104039214783],[89.8542126767868,26.5123539425978],[89.8552316470336,26.5135009646291],[89.8553545944973,26.515679971292],[89.8554795392397,26.5179719782156],[89.8566234954074,26.5196940038075],[89.8587884438302,26.5216450496785],[89.8600604020618,26.5232690775705]]]},"properties":{"compartment":"S Bholka BL6"},"id":"comptt.2"},
{"type":"Feature","geometry":{"type":"Polygon","coordinates":[[[89.8554944026103,26.5236649896761],[89.8537873910863,26.5243019577757],[89.8519123841109,26.5247649222707],[89.8509413821022,26.5249379037528],[89.8503593750596,26.52528489313],[89.8499073635064,26.5258078853762],[89.8499053454152,26.5265618868138],[89.8503563234909,26.5274338972804],[89.8512602922126,26.5286539172275],[89.8519062712479,26.5294679313695],[89.8520332500598,26.530338935543],[89.8520322277609,26.531267937344],[89.8517722060328,26.5321969341138],[89.8518361780183,26.5333579376318],[89.8526101553734,26.5342299543763],[89.8537731346546,26.5349859784515],[89.8550641192243,26.5355100045597],[89.8566790988782,26.5362090373072],[89.8575810843309,26.5367320558582],[89.8580350735566,26.537139065478],[89.8579690555709,26.537894065678],[89.857386037355,26.5387060559444],[89.8568690343161,26.5388800462407],[89.8557700409665,26.5387040245417],[89.8544130537589,26.5382959973756],[89.8526050745123,26.5375979608797],[89.851183079094,26.5375379331348],[89.8496970824261,26.5375359042605],[89.8484680781797,26.537825880951],[89.8480150568967,26.5387538739659],[89.8476900311269,26.5398568698096],[89.847688007427,26.5408438717018],[89.8477285340446,26.5409809727575],[89.8436501240399,26.5409407834361],[89.8430963853296,26.5409381726722],[89.843133790636,26.5407137729604],[89.843319431882,26.5389791431777],[89.8433551763118,26.5367091294363],[89.8431934346315,26.5338785207631],[89.8427746916611,26.532374689691],[89.8421846300337,26.5304139943996],[89.8410996705135,26.5275776477885],[89.8400146799708,26.5256169528904],[89.8393294298103,26.5244367272802],[89.8389567823991,26.5235296405142],[89.8389804423484,26.5235296687335],[89.8407334383914,26.5235327027782],[89.8444814299973,26.5235367755642],[89.8483594199359,26.5235988509902],[89.8515254114578,26.5236609125921],[89.8541744055435,26.5236639640401],[89.8554944026103,26.5236649896761]]]},"properties":{"compartment":"S Bholka BL3A"},"id":"comptt.4"},
{"type":"Feature","geometry":{"type":"Polygon","coordinates":[[[89.8600604020618,26.5232690775705],[89.8603153936777,26.5235950831632],[89.8622253481515,26.5253171236426],[89.8623503010973,26.5272661299028],[89.8637502457147,26.5294451613821],[89.8648952156392,26.5305931858829],[89.8643841782283,26.5321981791144],[89.8659101445747,26.5334602112442],[89.8675660830911,26.5358692481618],[89.8671820426516,26.5375882440862],[89.8638649949407,26.5398781841402],[89.8632189727747,26.5408601735186],[89.8630535470905,26.5411119607994],[89.862041169786,26.5410924710881],[89.8551026774781,26.5409923960645],[89.8518190354145,26.5409637822041],[89.8477285340446,26.5409809727575],[89.847688007427,26.5408438717018],[89.8476900311269,26.5398568698096],[89.8480150568967,26.5387538739659],[89.8484680781797,26.537825880951],[89.8496970824261,26.5375359042605],[89.851183079094,26.5375379331348],[89.8526050745123,26.5375979608797],[89.8544130537589,26.5382959973756],[89.8557700409665,26.5387040245417],[89.8568690343161,26.5388800462407],[89.857386037355,26.5387060559444],[89.8579690555709,26.537894065678],[89.8580350735566,26.537139065478],[89.8575810843309,26.5367320558582],[89.8566790988782,26.5362090373072],[89.8550641192243,26.5355100045597],[89.8537731346546,26.5349859784515],[89.8526101553734,26.5342299543763],[89.8518361780183,26.5333579376318],[89.8517722060328,26.5321969341138],[89.8520322277609,26.531267937344],[89.8520332500598,26.530338935543],[89.8519062712479,26.5294679313695],[89.8512602922126,26.5286539172275],[89.8503563234909,26.5274338972804],[89.8499053454152,26.5265618868138],[89.8499073635064,26.5258078853762],[89.8503593750596,26.52528489313],[89.8509413821022,26.5249379037528],[89.8519123841109,26.5247649222707],[89.8537873910863,26.5243019577757],[89.8554944026103,26.5236649896761],[89.8563724006521,26.5236660067287],[89.8584394016206,26.5234360464185],[89.8600604020618,26.5232690775705]]]},"properties":{"compartment":"S Bholka BL3B"},"id":"comptt.5"},
{"type":"Feature","geometry":{"type":"Polygon","coordinates":[[[89.8430963853296,26.5409381726722],[89.83959553349,26.5409216646212],[89.8353125084328,26.5411119417788],[89.8254710817242,26.5410546404712],[89.8216870562165,26.5412193672796],[89.8216480775786,26.5403333648038],[89.8245391559983,26.5367984141026],[89.8248052365448,26.5334184127072],[89.8266432474727,26.5327924471886],[89.8279572766125,26.5314564701122],[89.8275233134368,26.5299624587802],[89.8263013501661,26.5285454322966],[89.8260403865994,26.5270514243264],[89.826110389467,26.5269254254409],[89.8256194042147,26.5263564148018],[89.8249814313107,26.5252864003359],[89.8247334350547,26.5251533952625],[89.8241894475203,26.5246843837896],[89.823967455501,26.5243723788736],[89.8237444608207,26.5241713741538],[89.8236084631153,26.5240883713522],[89.8231074715981,26.5237813610293],[89.8227874871623,26.5231623536154],[89.8250954819448,26.5231653984308],[89.8290364688982,26.5233434752929],[89.8331074625092,26.5232325541196],[89.8371784463929,26.5235276337398],[89.8389567823991,26.5235296405142],[89.8393294298103,26.5244367272802],[89.8400146799708,26.5256169528904],[89.8410996705135,26.5275776477885],[89.8421846300337,26.5304139943996],[89.8427746916611,26.532374689691],[89.8431934346315,26.5338785207631],[89.8433551763118,26.5367091294363],[89.843319431882,26.5389791431777],[89.843133790636,26.5407137729604],[89.8430963853296,26.5409381726722]]]},"properties":{"compartment":"S Bholka BL4"},"id":"comptt.6"},
{"type":"Feature","geometry":{"type":"Polygon","coordinates":[[[89.8430963853296,26.5409381726722],[89.8430195544311,26.5413990520798],[89.8427839570631,26.5429766305843],[89.8425412124515,26.5444399987263],[89.8422913375102,26.5459176467571],[89.8421985123361,26.5469741270168],[89.8419771995038,26.5479449446121],[89.8417201900607,26.5491941620569],[89.8414845998305,26.5500578991649],[89.8411990385611,26.5513856362074],[89.8410276775509,26.5526919554272],[89.8408848935087,26.5537056046308],[89.8406350217617,26.5546335915854],[89.8402923581612,26.5556472369031],[89.839992535445,26.5562040321617],[89.8395427999736,26.5568893047564],[89.8392585812066,26.5572803299943],[89.8391886321694,26.5572467385689],[89.8287097764326,26.5522145250882],[89.8217218640191,26.5492183834717],[89.8215458719797,26.5489033794409],[89.8218179846719,26.5441863755786],[89.8216870562165,26.5412193672796],[89.8254710817242,26.5410546404712],[89.8353125084328,26.5411119417788],[89.83959553349,26.5409216646212],[89.8430963853296,26.5409381726722]]]},"properties":{"compartment":"S Bholka BL1"},"id":"comptt.9"},
{"type":"Feature","geometry":{"type":"Polygon","coordinates":[[[89.8477285340446,26.5409809727575],[89.8477560017526,26.5410738734731],[89.8479449859389,26.5417148783995],[89.8487199688522,26.5423548947108],[89.8507889516903,26.5428789359405],[89.8533079418726,26.5430559852367],[89.8549229312685,26.5433490171947],[89.855635925491,26.5435240313936],[89.8560869133495,26.5439880410682],[89.8561508950709,26.5447430437933],[89.8561498713614,26.5457300457103],[89.8558248567265,26.5463690406477],[89.8545328582094,26.5464260156497],[89.8536268630213,26.5463089978126],[89.8525278612931,26.5464819767931],[89.8516218535654,26.546886959979],[89.850717843023,26.5474089434325],[89.8499408210516,26.5483949302621],[89.8494228068684,26.5490329214435],[89.8493567916606,26.5496719214115],[89.8494207719834,26.5504849242469],[89.8499997455906,26.5515299375467],[89.8508387269604,26.5522279552216],[89.85167870554,26.5530419731442],[89.8520006838945,26.5539129811098],[89.8519346672884,26.5546099811923],[89.8514166503116,26.5553639725993],[89.8507056379439,26.5559439599132],[89.8498636147131,26.5569879455883],[89.8490865885253,26.5581489327549],[89.8479865714664,26.5589599129557],[89.8470145513115,26.5598878958731],[89.846566531389,26.5607578888641],[89.8462725346615,26.5606488829347],[89.8392585812066,26.5572803299943],[89.8395427999736,26.5568893047564],[89.839992535445,26.5562040321617],[89.8402923581612,26.5556472369031],[89.8406350217617,26.5546335915854],[89.8408848935087,26.5537056046308],[89.8410276775509,26.5526919554272],[89.8411990385611,26.5513856362074],[89.8414845998305,26.5500578991649],[89.8417201900607,26.5491941620569],[89.8419771995038,26.5479449446121],[89.8421985123361,26.5469741270168],[89.8422913375102,26.5459176467571],[89.8425412124515,26.5444399987263],[89.8427839570631,26.5429766305843],[89.8430195544311,26.5413990520798],[89.8430963853296,26.5409381726722],[89.8436501240399,26.5409407834361],[89.8477285340446,26.5409809727575]]]},"properties":{"compartment":"S Bholka BL2B"},"id":"comptt.11"},
{"type":"Feature","geometry":{"type":"Polygon","coordinates":[[[89.8695215046088,26.559764333258],[89.8675084978305,26.5602302950318],[89.8659264980898,26.5603642645326],[89.8632894941834,26.5607682140496],[89.8613284904031,26.5611051765796],[89.8596724924691,26.5611711445078],[89.8587694944859,26.561170126947],[89.8577114821787,26.5617791075695],[89.8562054660047,26.562590079876],[89.8540174448479,26.5636710394484],[89.8510794139564,26.5652259853619],[89.8497214039543,26.5657669600124],[89.8484414052039,26.5658329352499],[89.8477334083127,26.5657689213564],[89.8483544190801,26.5652639324447],[89.848804426908,26.5648969404774],[89.8498554718298,26.5629319570687],[89.8498564945014,26.5619889552422],[89.8470975254514,26.5609558995756],[89.846566531389,26.5607578888641],[89.8470145513115,26.5598878958731],[89.8479865714664,26.5589599129557],[89.8490865885253,26.5581489327549],[89.8498636147131,26.5569879455883],[89.8507056379439,26.5559439599132],[89.8514166503116,26.5553639725993],[89.8519346672884,26.5546099811923],[89.8520006838945,26.5539129811098],[89.85167870554,26.5530419731442],[89.8508387269604,26.5522279552216],[89.8499997455906,26.5515299375467],[89.8494207719834,26.5504849242469],[89.8493567916606,26.5496719214115],[89.8494228068684,26.5490329214435],[89.8499408210516,26.5483949302621],[89.850717843023,26.5474089434325],[89.8516218535654,26.546886959979],[89.8525278612931,26.5464819767931],[89.8536268630213,26.5463089978126],[89.8545328582094,26.5464260156497],[89.8558248567265,26.5463690406477],[89.8561498713614,26.5457300457103],[89.8561508950709,26.5447430437933],[89.8560869133495,26.5439880410682],[89.855635925491,26.5435240313936],[89.8549229312685,26.5433490171947],[89.8533079418726,26.5430559852367],[89.8507889516903,26.5428789359405],[89.8487199688522,26.5423548947108],[89.8479449859389,26.5417148783995],[89.8477560017526,26.5410738734731],[89.8477285340446,26.5409809727575],[89.8518190354145,26.5409637822041],[89.8551026774781,26.5409923960645],[89.862041169786,26.5410924710881],[89.8630535470905,26.5411119607994],[89.8625849509898,26.541825163096],[89.86347692145,26.5429731826881],[89.8648788990514,26.5437772115165],[89.8660228441849,26.545956238039],[89.8674248410792,26.5459572652904],[89.8690828125922,26.5469912995535],[89.8685687724143,26.5487102929495],[89.867865716138,26.5511162840233],[89.8679906648614,26.5532382906331],[89.8688805912475,26.556219313809],[89.8686215325546,26.5586843136293],[89.8695215046088,26.559764333258]]]},"properties":{"compartment":"S Bholka BL2A"},"id":"comptt.16"},
{"type":"Feature","geometry":{"type":"Polygon","coordinates":[[[89.8670381474732,26.5789942828367],[89.8660292505337,26.579374983955],[89.8642208539843,26.5798127696284],[89.8633642390021,26.5800982835219],[89.8625076298967,26.580555127752],[89.8612512593842,26.58110713439],[89.8603185027393,26.5814687969505],[89.8597859946395,26.5818541873457],[89.85978802128,26.5807471852106],[89.8597900603857,26.5791221820582],[89.8597271108459,26.577031176726],[89.85927816634,26.574766163543],[89.8588922160827,26.5727341520442],[89.8582482398796,26.5718041376911],[89.8571502618884,26.5709901147356],[89.8554692712344,26.5707560815793],[89.85391828169,26.5704640508388],[89.8528852937907,26.570056029947],[89.8520463249935,26.5688360112386],[89.851141349366,26.5679059918159],[89.8505603660455,26.5672659792633],[89.8501733710876,26.5670919713964],[89.849461376874,26.5669169572071],[89.8490093722963,26.5671489488708],[89.8479093719692,26.5672639277036],[89.8458593750977,26.5673228879518],[89.8459143766832,26.5672518888827],[89.8477334083127,26.5657689213564],[89.8484414052039,26.5658329352499],[89.8497214039543,26.5657669600124],[89.8510794139564,26.5652259853619],[89.8540174448479,26.5636710394484],[89.8562054660047,26.562590079876],[89.8577114821787,26.5617791075695],[89.8587694944859,26.561170126947],[89.8596724924691,26.5611711445078],[89.8613284904031,26.5611051765796],[89.8632894941834,26.5607682140496],[89.8659264980898,26.5603642645326],[89.8675084978305,26.5602302950318],[89.8695215046088,26.559764333258],[89.8703404791242,26.5607493511256],[89.8694444287431,26.5629263379915],[89.8692523933318,26.5644163371933],[89.8693123435575,26.5664803424271],[89.8685982656754,26.5697833350461],[89.8685422597844,26.5700333344492],[89.8687552419702,26.5707543400129],[89.8693212161126,26.5717773530388],[89.8692572010958,26.572407353035],[89.8695101922623,26.5727513586347],[89.8691281779204,26.5733823524464],[89.8689221762083,26.573472348616],[89.8708321085025,26.5761113909766],[89.8718552591121,26.5772391431081],[89.8702361683772,26.5778331627757],[89.8685039075303,26.5784422802701],[89.8670381474732,26.5789942828367]]]},"properties":{"compartment":"N Bholka BL4"},"id":"comptt.29"},
{"type":"Feature","geometry":{"type":"Polygon","coordinates":[[[89.8597859946395,26.5818541873457],[89.8591389905817,26.5820821752034],[89.855582962198,26.5835881089617],[89.8533829419639,26.5846310681953],[89.8515699320449,26.5852100340488],[89.8486599232155,26.5858449786635],[89.845558910605,26.5866549199023],[89.8375181648346,26.5768347442889],[89.8361221944824,26.5757317149847],[89.8375081970238,26.5754977414883],[89.8394312078263,26.5748707776707],[89.8415352503688,26.572907814765],[89.8432873031709,26.5705508442387],[89.8458593750977,26.5673228879518],[89.8479093719692,26.5672639277036],[89.8490093722963,26.5671489488708],[89.849461376874,26.5669169572071],[89.8501733710876,26.5670919713964],[89.8505603660455,26.5672659792633],[89.851141349366,26.5679059918159],[89.8520463249935,26.5688360112386],[89.8528852937907,26.570056029947],[89.85391828169,26.5704640508388],[89.8554692712344,26.5707560815793],[89.8571502618884,26.5709901147356],[89.8582482398796,26.5718041376911],[89.8588922160827,26.5727341520442],[89.85927816634,26.574766163543],[89.8597271108459,26.577031176726],[89.8597900603857,26.5791221820582],[89.85978802128,26.5807471852106],[89.8597859946395,26.5818541873457]]]},"properties":{"compartment":"N Bholka BL5"},"id":"comptt.33"},
{"type":"Feature","geometry":{"type":"Polygon","coordinates":[[[89.8718552591121,26.5772391431081],[89.8719770756128,26.5773734157432],[89.8721680717993,26.5775144197377],[89.8733790476683,26.578406445061],[89.8750360026031,26.5801274807012],[89.8769479845624,26.5807025190445],[89.8789889855471,26.5804755583152],[89.8808999537443,26.5816225977734],[89.882557916935,26.5830006327681],[89.8848509008371,26.5834606783078],[89.8852348834312,26.5841486871445],[89.8853578362323,26.5860976933989],[89.8854837917916,26.5879316994841],[89.8863757511363,26.5895387200323],[89.8871397080606,26.5912577383122],[89.8867546868154,26.5921747326337],[89.8853496402215,26.5942367093629],[89.884556600089,26.5959746973638],[89.884503617402,26.5960910465626],[89.8828563734527,26.5955747134659],[89.8811812435485,26.595308180322],[89.8796964577254,26.5952700813368],[89.8781926428631,26.5951939019063],[89.8773550806651,26.5949464251097],[89.8767459438382,26.5948702730994],[89.871568255232,26.5948701722921],[89.8651722743815,26.5946606473584],[89.8655340076845,26.5924144399804],[89.8657815321505,26.5901301603032],[89.8657815587374,26.5890260881307],[89.8659909886113,26.58735094891],[89.8662765518977,26.5859423116952],[89.8666001946398,26.5845527052583],[89.8668096167147,26.583201176673],[89.8670000161611,26.5815450671174],[89.8670381474732,26.5789942828367],[89.8685039075303,26.5784422802701],[89.8702361683772,26.5778331627757],[89.8718552591121,26.5772391431081]]]},"properties":{"compartment":"N Bholka BL3"},"id":"comptt.48"},
{"type":"Feature","geometry":{"type":"Polygon","coordinates":[[[89.8651722743815,26.5946606473584],[89.864810576293,26.5958598926762],[89.8646582692043,26.5965832511341],[89.8644869294059,26.5974208194458],[89.8642774976777,26.599172098813],[89.8642203612034,26.6002761698721],[89.864008550019,26.6020048491477],[89.8634731045457,26.6047709641604],[89.8627204611134,26.608301736444],[89.8609204079875,26.6061072570737],[89.8574185107848,26.6021631811352],[89.857272509494,26.6022301784238],[89.8562904970688,26.6028361604909],[89.8549794920001,26.6031671356119],[89.8535225098102,26.6025621060556],[89.8531575512662,26.6008750956434],[89.8526995723995,26.6000400850903],[89.8525726021201,26.598818080224],[89.8535356197609,26.597997097364],[89.8507907451248,26.5930450342289],[89.845558910605,26.5866549199023],[89.8486599232155,26.5858449786635],[89.8515699320449,26.5852100340488],[89.8533829419639,26.5846310681953],[89.855582962198,26.5835881089617],[89.8591389905817,26.5820821752034],[89.8597859946395,26.5818541873457],[89.8603185027393,26.5814687969505],[89.8612512593842,26.58110713439],[89.8625076298967,26.580555127752],[89.8633642390021,26.5800982835219],[89.8642208539843,26.5798127696284],[89.8660292505337,26.579374983955],[89.8670381474732,26.5789942828367],[89.8670000161611,26.5815450671174],[89.8668096167147,26.583201176673],[89.8666001946398,26.5845527052583],[89.8662765518977,26.5859423116952],[89.8659909886113,26.58735094891],[89.8657815587374,26.5890260881307],[89.8657815321505,26.5901301603032],[89.8655340076845,26.5924144399804],[89.8651722743815,26.5946606473584]]]},"properties":{"compartment":"N Bholka BL1"},"id":"comptt.56"},
{"type":"Feature","geometry":{"type":"Polygon","coordinates":[[[89.884503617402,26.5960910465626],[89.8841995819831,26.5967586919645],[89.8850915413565,26.5983637125121],[89.8862364890873,26.6004287389001],[89.8858534540195,26.6019187343925],[89.8840644110186,26.6038657034044],[89.884828376153,26.6052427210113],[89.8857193078604,26.6079947438167],[89.8863552622265,26.6098297598408],[89.8869902083199,26.6120077765267],[89.8877531458309,26.6145297963901],[89.8857090839927,26.6172797620103],[89.8834131139482,26.6162467152267],[89.880992146954,26.6150986657841],[89.8783141722565,26.6142936120165],[89.8757631806942,26.6141765620851],[89.8735931661853,26.6149765213863],[89.8728271595792,26.6153205071409],[89.8707861669032,26.6152034671463],[89.868107178413,26.6149714144965],[89.8677261930712,26.6143984059459],[89.863166337025,26.6088453061969],[89.8627204611134,26.608301736444],[89.8634731045457,26.6047709641604],[89.864008550019,26.6020048491477],[89.8642203612034,26.6002761698721],[89.8642774976777,26.599172098813],[89.8644869294059,26.5974208194458],[89.8646582692043,26.5965832511341],[89.864810576293,26.5958598926762],[89.8651722743815,26.5946606473584],[89.871568255232,26.5948701722921],[89.8767459438382,26.5948702730994],[89.8773550806651,26.5949464251097],[89.8781926428631,26.5951939019063],[89.8796964577254,26.5952700813368],[89.8811812435485,26.595308180322],[89.8828563734527,26.5955747134659],[89.884503617402,26.5960910465626]]]},"properties":{"compartment":"N Bholka BL2"},"id":"comptt.69"}
]}