{"type":"FeatureCollection", "features": [
{"type":"Feature","geometry":{"type":"Polygon","coordinates":[[[89.6018213576207,26.5749572995205],[89.6013301516978,26.5752691611351],[89.6003188681491,26.5759353926939],[89.5998667618165,26.5762447144699],[89.5994979424248,26.5766730080761],[89.5991647995174,26.5772440726309],[89.5984985337032,26.5779698009939],[89.5977965799762,26.5786122385141],[89.5966425279185,26.5792308772121],[89.595762121198,26.5795996807758],[89.594857927108,26.5798614036858],[89.593870443221,26.5801231249781],[89.5930019410461,26.5803015684319],[89.5923713817224,26.5803372462509],[89.5914671933502,26.5803610287351],[89.5902298755041,26.5803966947717],[89.5894446562724,26.5804442696089],[89.5890797160439,26.5804907726054],[89.5882286945972,26.5789719033685],[89.5869547355986,26.577393875816],[89.5855957852812,26.5754628459867],[89.5844858319998,26.5736298211697],[89.5833278903313,26.5713177945703],[89.5815779559809,26.5687607560478],[89.5808929926239,26.5673037401588],[89.5797290299051,26.5658687150142],[89.5798578894644,26.5658769664091],[89.5811820241284,26.5659617433789],[89.58318702188,26.5658517820958],[89.5845470197901,26.5658008083998],[89.5877150158688,26.5656428696036],[89.5893510117927,26.5656469013632],[89.5916660123089,26.5653909458374],[89.5914210562249,26.5635859378568],[89.5911171014557,26.5617319286441],[89.590735132715,26.5604679189727],[89.5898261813761,26.5585318978755],[89.5891051969961,26.5579538828531],[89.5884752071646,26.5575938699862],[89.5876772266183,26.5568638531997],[89.587584230323,26.5567188511364],[89.5875612396389,26.5563328500014],[89.587308260117,26.5555048436152],[89.5873092678148,26.5551838430618],[89.5871582825267,26.5545858390651],[89.5871982998917,26.5538578385422],[89.5889163071566,26.5533808710211],[89.5905113128039,26.5529839012559],[89.5921673072718,26.553046933496],[89.5937623142906,26.5525929636285],[89.5949092976923,26.553168986912],[89.596372274787,26.5539760167411],[89.5977072563426,26.5546100437786],[89.5987892371443,26.5553010660107],[89.599870216557,26.5560500883284],[89.6015901999172,26.5565701226362],[89.6028631857522,26.5570321481674],[89.6034991800388,26.5572061608214],[89.6037321770759,26.5573061655223],[89.6041249420754,26.5574749934473],[89.6035283912256,26.5579873027907],[89.6031286278047,26.5585869261095],[89.6029287452705,26.5591294332045],[89.6028287938644,26.5596148421361],[89.6028858838554,26.5604429047304],[89.6029715138409,26.5616849786219],[89.60301431941,26.5626986312723],[89.6031999069681,26.5631983257714],[89.6033426580561,26.5635552491828],[89.6035568055445,26.5640549442365],[89.6038137736144,26.5645260800702],[89.6041564014769,26.5649972175667],[89.604713169225,26.5658681199382],[89.6049273177404,26.5663249749157],[89.6051842851235,26.5668246708015],[89.6054269725408,26.5673243664103],[89.605698218518,26.5678811626763],[89.6058552410006,26.5685950070071],[89.6059694439289,26.5692945704813],[89.6061407504891,26.5698370947819],[89.6065404813544,26.5705937739024],[89.6071258134844,26.5712790664983],[89.6075683811015,26.5717502059379],[89.6077967947211,26.5719929208091],[89.6081333473436,26.572266277835],[89.6078380345117,26.5724139323668],[89.607124191953,26.5725923688276],[89.6063984585658,26.5728065151218],[89.6058273745193,26.5730325544398],[89.6052800989871,26.5733180743268],[89.6045900458006,26.5735203112919],[89.6036977479614,26.5739367047146],[89.6027816404662,26.5743411976531],[89.6020796913099,26.5747932848349],[89.6018213576207,26.5749572995205]]]},"properties":{"compartment":"Gadadhar BL2"},"id":"comptt.28"}
]}