{"type":"FeatureCollection", "features": [
{"type":"Feature","geometry":{"type":"Polygon","coordinates":[[[89.6214955517472,26.5749048620553],[89.6213560347012,26.5756285306536],[89.6209848277626,26.5763709147861],[89.6205279489723,26.5771989574092],[89.6200139723766,26.5779413487681],[89.6192001699866,26.5789549847932],[89.6184577649699,26.579654531637],[89.6178438558173,26.5800971005122],[89.6171896283767,26.5804724584828],[89.61653397571,26.5798167745656],[89.6156631101042,26.5788887659782],[89.6148208054575,26.5779179278695],[89.6140070607411,26.5769470903165],[89.6131647519777,26.5761475725187],[89.6123081629055,26.5753623344702],[89.6118941514489,26.5750482358652],[89.6114944082436,26.5748055176658],[89.6109804490856,26.5744057569661],[89.6105949896173,26.5740059987619],[89.6103237415869,26.573534862647],[89.6098240693084,26.5732635924567],[89.6093243914869,26.5728067319326],[89.6087676103751,26.572492630557],[89.6084392445972,26.5723498539246],[89.6081333473436,26.572266277835],[89.6083139290751,26.5721759911788],[89.6087898236385,26.5719380499907],[89.6098011074783,26.5712599284053],[89.610622037208,26.5707721534662],[89.6114548574807,26.5702605787145],[89.6122162939267,26.5699155728765],[89.6123828560954,26.5698085059174],[89.6126326977777,26.5697133305966],[89.6129539292878,26.5696181566618],[89.6131918789993,26.5696062612601],[89.6133584343125,26.5697847248154],[89.6135130873689,26.570058368311],[89.613762928196,26.5704152938049],[89.6139889696518,26.570748418794],[89.6142388039068,26.5709625740307],[89.6145838190747,26.5711291510298],[89.6148931469004,26.571188637143],[89.61578544332,26.5712481445753],[89.6162732310012,26.5712957441322],[89.6167491169972,26.5714147235869],[89.6171774113936,26.5716050922464],[89.6176889918755,26.5719501228023],[89.6181291813864,26.5723427420582],[89.6185455700975,26.5727710509166],[89.6188905921231,26.5730684981531],[89.6192712914914,26.573473016276],[89.6195449219747,26.5738418322555],[89.6196638839731,26.5741630651457],[89.6196757782294,26.5744010158064],[89.6197114592855,26.5747698271653],[89.6198304249984,26.5749363897764],[89.6203063124234,26.5749958891253],[89.6208298003058,26.5750315893556],[89.6212581004177,26.5749840075871],[89.6214955517472,26.5749048620553]]]},"properties":{"compartment":"Gadadhar BL5"},"id":"comptt.26"},
{"type":"Feature","geometry":{"type":"Polygon","coordinates":[[[89.6272233712945,26.588500677909],[89.626891371468,26.5885266715055],[89.6246873732615,26.5886726289477],[89.6236873713664,26.5888516098422],[89.6234493209072,26.5888945552948],[89.6223158754432,26.5871551501291],[89.6216448876466,26.5862985355454],[89.6211023898827,26.5854276434328],[89.6206455488241,26.5846852332169],[89.6199460059481,26.5840427684674],[89.6194320646829,26.5833146371691],[89.6186325892509,26.5823723599386],[89.6178616768364,26.581301583032],[89.6172763460841,26.5805591803236],[89.6171896283767,26.5804724584828],[89.6178438558173,26.5800971005122],[89.6184577649699,26.579654531637],[89.6192001699866,26.5789549847932],[89.6200139723766,26.5779413487681],[89.6205279489723,26.5771989574092],[89.6209848277626,26.5763709147861],[89.6213560347012,26.5756285306536],[89.6214955517472,26.5749048620553],[89.621650712616,26.574853144975],[89.6220314259861,26.5746746920457],[89.6225787055263,26.5746390126092],[89.623934995407,26.5745081687112],[89.6247083258334,26.5744130035568],[89.6253269840603,26.5744249155926],[89.6257433827736,26.5744368237005],[89.6261359826858,26.5748175420139],[89.6265047903687,26.5752934400379],[89.6271115337646,26.575924012963],[89.6276944917899,26.5763642250821],[89.6277739489991,26.5764147888938],[89.6277948228111,26.5767279676894],[89.6279661334825,26.577099171689],[89.6282516538797,26.5774703679068],[89.6284657927331,26.5779129528677],[89.628751313183,26.578698179836],[89.6289654438035,26.5794834154179],[89.6291081939088,26.5802971896652],[89.6291795589872,26.5809110921639],[89.6291224079582,26.5826243141583],[89.6290224631034,26.583252483355],[89.6287797372185,26.5839377698814],[89.6284656287599,26.5847372652278],[89.6280373140064,26.5853939880963],[89.627651824346,26.5862505821586],[89.627394819915,26.5872927890528],[89.6272233712945,26.588500677909]]]},"properties":{"compartment":"Gadadhar BL5"},"id":"comptt.34"}
]}