{"type":"FeatureCollection", "features": [
{"type":"Feature","geometry":{"type":"Polygon","coordinates":[[[89.6234493209072,26.5888945552948],[89.6231053702441,26.5889565987243],[89.6215083726971,26.5890145678011],[89.620454374396,26.5890495473863],[89.618162377952,26.5891315030039],[89.6164843769298,26.5893424707837],[89.6102043923455,26.5893323487585],[89.6098989020069,26.5893771829043],[89.6093236951487,26.58888828085],[89.6088478063651,26.5884694908518],[89.6084861427302,26.588241053415],[89.6082386792763,26.5879935881627],[89.607991225365,26.5877651529449],[89.6077247301273,26.5875938274599],[89.6072488440243,26.58747959801],[89.6068110259994,26.5874415194366],[89.606411277425,26.5874224716371],[89.6059924911839,26.5873082532967],[89.6056308138897,26.5872321061341],[89.6051929986101,26.5870798073559],[89.6050597516775,26.5869655945623],[89.6049265074896,26.5867371615638],[89.6047932655889,26.5864135483944],[89.6047552025423,26.5861280171422],[89.6047171413255,26.5857663357534],[89.6047171481867,26.5854807952407],[89.6047171527605,26.5852904448989],[89.6048884787489,26.5850239477481],[89.6051169104826,26.5849287720142],[89.605250163819,26.5847764843289],[89.6052692092613,26.5845480642886],[89.6051740345232,26.5843386620638],[89.6050217480938,26.5842054088665],[89.604736223359,26.5840150529788],[89.6044697272062,26.5838817975633],[89.6043364816454,26.5837104746677],[89.6041841997895,26.5833868611289],[89.6041651794399,26.5829871100416],[89.6041080787249,26.582606398249],[89.6040890465457,26.5822827872983],[89.6040319544586,26.5819591756085],[89.6039558128746,26.5816165335144],[89.6037845033506,26.5811977394355],[89.6037749927481,26.5808075085501],[89.6037559696534,26.5805219776681],[89.6037369367875,26.5802269167688],[89.6036798442422,26.5799223451132],[89.6036132205766,26.579665363358],[89.603537088763,26.5793322412815],[89.6034609474065,26.5789800791706],[89.603318195983,26.5786374257834],[89.6031373651083,26.5782757516225],[89.6029470142569,26.5779140672769],[89.6027471518279,26.5776190128663],[89.602518730154,26.57729539785],[89.6021475383688,26.5769908200955],[89.6019857421899,26.5768480466976],[89.6018715254384,26.5767243142577],[89.6018049122291,26.576448292469],[89.6018144388351,26.5761722721588],[89.6018144436353,26.5759724018002],[89.6018144527787,26.5755916811174],[89.6018213576207,26.5749572995205],[89.6020796913099,26.5747932848349],[89.6027816404662,26.5743411976531],[89.6036977479614,26.5739367047146],[89.6045900458006,26.5735203112919],[89.6052800989871,26.5733180743268],[89.6058273745193,26.5730325544398],[89.6063984585658,26.5728065151218],[89.607124191953,26.5725923688276],[89.6078380345117,26.5724139323668],[89.6081333473436,26.572266277835],[89.6084392445972,26.5723498539246],[89.6087676103751,26.572492630557],[89.6093243914869,26.5728067319326],[89.6098240693084,26.5732635924567],[89.6103237415869,26.573534862647],[89.6105949896173,26.5740059987619],[89.6109804490856,26.5744057569661],[89.6114944082436,26.5748055176658],[89.6118941514489,26.5750482358652],[89.6123081629055,26.5753623344702],[89.6131647519777,26.5761475725187],[89.6140070607411,26.5769470903165],[89.6148208054575,26.5779179278695],[89.6156631101042,26.5788887659782],[89.61653397571,26.5798167745656],[89.6171896283767,26.5804724584828],[89.6172763460841,26.5805591803236],[89.6178616768364,26.581301583032],[89.6186325892509,26.5823723599386],[89.6194320646829,26.5833146371691],[89.6199460059481,26.5840427684674],[89.6206455488241,26.5846852332169],[89.6211023898827,26.5854276434328],[89.6216448876466,26.5862985355454],[89.6223158754432,26.5871551501291],[89.6234493209072,26.5888945552948]]]},"properties":{"compartment":"Gadadhar BL3"},"id":"comptt.37"}
]}