{"type":"FeatureCollection", "features": [
{"type":"Feature","geometry":{"type":"Polygon","coordinates":[[[89.6489503276083,26.5881530994505],[89.6455933224512,26.5887010352157],[89.6421493277529,26.5888229685142],[89.6374773331219,26.5890648781702],[89.6330483528299,26.588686791425],[89.629110369883,26.5883707143369],[89.6286643706425,26.588383705695],[89.6272233712945,26.588500677909],[89.627394819915,26.5872927890528],[89.627651824346,26.5862505821586],[89.6280373140064,26.5853939880963],[89.6284656287599,26.5847372652278],[89.6287797372185,26.5839377698814],[89.6290224631034,26.583252483355],[89.6291224079582,26.5826243141583],[89.6291795589872,26.5809110921639],[89.6291081939088,26.5802971896652],[89.6289654438035,26.5794834154179],[89.628751313183,26.578698179836],[89.6284657927331,26.5779129528677],[89.6282516538797,26.5774703679068],[89.6279661334825,26.577099171689],[89.6277948228111,26.5767279676894],[89.6277739489991,26.5764147888938],[89.6283488302152,26.5767806485447],[89.6287652346425,26.576971006977],[89.6292649208703,26.5770780968759],[89.6298478800425,26.5770543081551],[89.6301810141014,26.5768520642587],[89.6304308580748,26.5766617087661],[89.6307996797618,26.5765546457353],[89.6314302282488,26.5765546579818],[89.6320346865055,26.5765668797439],[89.6325056293076,26.5772357601042],[89.6326936285924,26.5772467637757],[89.6334616242044,26.5773527788847],[89.6344796148211,26.577641799182],[89.6348605973789,26.5783298078312],[89.6355585791045,26.5790208226438],[89.6360065821395,26.5788498310354],[89.6365795669757,26.5794238432082],[89.6377255558936,26.5797708660998],[89.6385535524696,26.5798308822929],[89.639319554721,26.5796608968635],[89.6404035548185,26.5795489177169],[89.6411025407239,26.580065932236],[89.6407815263294,26.5806969271483],[89.6410355078197,26.5814419334381],[89.6415414817854,26.5824749451479],[89.6421144693603,26.5829349571172],[89.642880464717,26.5830519722119],[89.6440264550322,26.583340995003],[89.645107427574,26.5843760178911],[89.6452944009527,26.5854650235088],[89.646950370701,26.5865590576798],[89.6484753352809,26.587881089724],[89.6489503276083,26.5881530994505]]]},"properties":{"compartment":"Gadadhar BL6"},"id":"comptt.35"}
]}