{"type":"FeatureCollection", "features": [
{"type":"Feature","geometry":{"type":"Polygon","coordinates":[[[89.6098989020069,26.5893771829043],[89.6095843916584,26.5894233368773],[89.6068663886003,26.5898242847946],[89.6043013926763,26.589913235124],[89.6014773971218,26.5900131804422],[89.5994503967545,26.590233141459],[89.5953803985931,26.5905680629939],[89.5951843989255,26.5905740591971],[89.5937644012499,26.5906210316964],[89.5916294010148,26.5908469906262],[89.5905244018793,26.5909229692967],[89.5903864019751,26.5909329666338],[89.5896054488408,26.5890619481219],[89.5894284774828,26.5878879425879],[89.5893165147105,26.5863499376668],[89.5889075678904,26.584177925846],[89.5891076311352,26.5815249249941],[89.5891776443443,26.580967925359],[89.5892086502018,26.5807209255201],[89.5891666521056,26.5806459245706],[89.5890797160439,26.5804907726054],[89.5894446562724,26.5804442696089],[89.5902298755041,26.5803966947717],[89.5914671933502,26.5803610287351],[89.5923713817224,26.5803372462509],[89.5930019410461,26.5803015684319],[89.593870443221,26.5801231249781],[89.594857927108,26.5798614036858],[89.595762121198,26.5795996807758],[89.5966425279185,26.5792308772121],[89.5977965799762,26.5786122385141],[89.5984985337032,26.5779698009939],[89.5991647995174,26.5772440726309],[89.5994979424248,26.5766730080761],[89.5998667618165,26.5762447144699],[89.6003188681491,26.5759353926939],[89.6013301516978,26.5752691611351],[89.6018213576207,26.5749572995205],[89.6018144527787,26.5755916811174],[89.6018144436353,26.5759724018002],[89.6018144388351,26.5761722721588],[89.6018049122291,26.576448292469],[89.6018715254384,26.5767243142577],[89.6019857421899,26.5768480466976],[89.6021475383688,26.5769908200955],[89.602518730154,26.57729539785],[89.6027471518279,26.5776190128663],[89.6029470142569,26.5779140672769],[89.6031373651083,26.5782757516225],[89.603318195983,26.5786374257834],[89.6034609474065,26.5789800791706],[89.603537088763,26.5793322412815],[89.6036132205766,26.579665363358],[89.6036798442422,26.5799223451132],[89.6037369367875,26.5802269167688],[89.6037559696534,26.5805219776681],[89.6037749927481,26.5808075085501],[89.6037845033506,26.5811977394355],[89.6039558128746,26.5816165335144],[89.6040319544586,26.5819591756085],[89.6040890465457,26.5822827872983],[89.6041080787249,26.582606398249],[89.6041651794399,26.5829871100416],[89.6041841997895,26.5833868611289],[89.6043364816454,26.5837104746677],[89.6044697272062,26.5838817975633],[89.604736223359,26.5840150529788],[89.6050217480938,26.5842054088665],[89.6051740345232,26.5843386620638],[89.6052692092613,26.5845480642886],[89.605250163819,26.5847764843289],[89.6051169104826,26.5849287720142],[89.6048884787489,26.5850239477481],[89.6047171527605,26.5852904448989],[89.6047171481867,26.5854807952407],[89.6047171413255,26.5857663357534],[89.6047552025423,26.5861280171422],[89.6047932655889,26.5864135483944],[89.6049265074896,26.5867371615638],[89.6050597516775,26.5869655945623],[89.6051929986101,26.5870798073559],[89.6056308138897,26.5872321061341],[89.6059924911839,26.5873082532967],[89.606411277425,26.5874224716371],[89.6068110259994,26.5874415194366],[89.6072488440243,26.58747959801],[89.6077247301273,26.5875938274599],[89.607991225365,26.5877651529449],[89.6082386792763,26.5879935881627],[89.6084861427302,26.588241053415],[89.6088478063651,26.5884694908518],[89.6093236951487,26.58888828085],[89.6098989020069,26.5893771829043]]]},"properties":{"compartment":"Gadadhar BL1"},"id":"comptt.39"}
]}