{"type":"FeatureCollection", "features": [
{"type":"Feature","geometry":{"type":"Polygon","coordinates":[[[89.8719423961609,26.6586234452731],[89.8720301163019,26.6586095769573],[89.8739261193323,26.6583106133613],[89.8753280774164,26.6599166438847],[89.8755310637946,26.6604616489211],[89.8749850307269,26.6618796410642],[89.8750349711968,26.6643376468886],[89.8765139077727,26.6668256806624],[89.8771138544826,26.6689746966148],[89.8773857900615,26.6716137071334],[89.8768777382415,26.6738027015374],[89.8754656784752,26.6764026791016],[89.8754636302411,26.6783966829961],[89.8750925938283,26.6799356787879],[89.8750775922162,26.6800036786291],[89.8749310336543,26.680370966492],[89.8742404864796,26.6803174129028],[89.8729270210026,26.6802507671249],[89.8723464462045,26.6800889554699],[89.8720133192461,26.6799937687779],[89.871575505053,26.6797938798355],[89.8711757635387,26.6794797814117],[89.8709187905564,26.6792132758692],[89.8706237529543,26.6787278591524],[89.8704809986982,26.6780901651091],[89.8703667909247,26.6775952319045],[89.8702811426269,26.677119339295],[89.8701479166368,26.676138994763],[89.8700527659566,26.6753490113494],[89.8699766262552,26.6749302190382],[89.8698624294002,26.6743972257592],[89.8697482197827,26.6739784327048],[89.8696720928429,26.6734454301691],[89.869672104813,26.6729504991946],[89.8696663800607,26.6726753885706],[89.8700276145034,26.6721037344665],[89.8702417715094,26.6717944080375],[89.8703845486735,26.6714850802151],[89.8705273264128,26.6711519623458],[89.8706344125051,26.6708902239204],[89.8708247689882,26.6706046870735],[89.8710151348957,26.6703429502734],[89.8712173916399,26.6700455236353],[89.8714553503189,26.6696648075297],[89.8716576116658,26.6691770305161],[89.8717647040868,26.6686535415747],[89.8718123083649,26.6680586813315],[89.8718123233236,26.6674400201125],[89.8717171622322,26.666666686731],[89.8714911325804,26.665845770702],[89.8712413124052,26.6650486442557],[89.8710628622921,26.6646560299996],[89.8708249223106,26.6642634145826],[89.8705631912312,26.6639183887952],[89.8703847373789,26.663680434844],[89.870230081748,26.6635138714979],[89.8701230077374,26.6632759189396],[89.8700397333862,26.6630498668693],[89.8700635419612,26.6626929466308],[89.8701706166128,26.6624906983219],[89.8703490842695,26.6621575811482],[89.870598932631,26.661788765297],[89.8710629445439,26.6612533932963],[89.8713841850473,26.6607894086503],[89.8715626529915,26.6604443814526],[89.8717292229746,26.6600160838587],[89.8718125114167,26.6596591647803],[89.8718958030216,26.6591713754441],[89.8719315001309,26.6588739455543],[89.8719423961609,26.6586234452731]]]},"properties":{"compartment":"Sankosh BL3B"},"id":"comptt.126"}
]}