{"type":"FeatureCollection","features":[{"type":"Feature","geometry":{"type":"Polygon","coordinates":[[[89.6004045819907,26.789434623329],[89.5980417982514,26.7862679851445],[89.5962609903959,26.7849545208044],[89.5947247139796,26.7827849451813],[89.59335429147,26.7806825721445],[89.5923103683838,26.7793816183375],[89.5901787704829,26.7763757882935],[89.5896305108149,26.774969975147],[89.5884120003783,26.7725911706576],[89.5880949019891,26.7719720734652],[89.5878882806913,26.7699439889969],[89.5892652966818,26.7680078233224],[89.5901237778157,26.7662438535404],[89.5900901302375,26.7657919028482],[89.5884494341949,26.765526637292],[89.5861328041319,26.7651848943874],[89.583115764367,26.7645988417985],[89.5806216071581,26.7639620462094],[89.5772262333081,26.763055789653],[89.5752618508678,26.7626259033105],[89.5731511932291,26.7623549725274],[89.5721639991561,26.7621637478815],[89.5703558518153,26.7616666320869],[89.5684426927941,26.7610161192472],[89.5661128926413,26.7595100830439],[89.5647059378132,26.7586345168557],[89.5646081532258,26.7585732753066],[89.564043826889,26.7582222153463],[89.563700258166,26.7580085875434],[89.5621564681505,26.7554230295013],[89.5626695022984,26.7540394987981],[89.5655617524762,26.7529579227607],[89.5682066229875,26.7521139385936],[89.5711781806884,26.7499766826928],[89.5750346813988,26.7477192617506],[89.5769621335267,26.7464516363625],[89.578101890947,26.7461422697747],[89.5814480442555,26.745234673124],[89.5850715962553,26.744802450722],[89.588164402181,26.7444697156492],[89.590450764606,26.744011460463],[89.5934437386917,26.7441371385524],[89.5955871552026,26.7450520622324],[89.5957680268205,26.7450441017169],[89.5958335540091,26.7450114970521],[89.5985140084339,26.7432373672649],[89.5997944023866,26.7421859899862],[89.6007415489164,26.7415698303315],[89.6019130199627,26.7408081527819],[89.6040086164119,26.7402322730465],[89.6049644684847,26.7399696160206],[89.6065162136239,26.7397092174083],[89.6091664081021,26.7393627217553],[89.6106519800575,26.7393012762898],[89.6119830488104,26.7388563626576],[89.6130263579389,26.7387925944049],[89.613785347929,26.7387749228753],[89.6147202204901,26.7388082577567],[89.6158935986303,26.7389327708502],[89.6166662360488,26.7386143169158],[89.6171871340605,26.7383906657495],[89.6178668333823,26.7380992107432],[89.618971462211,26.737685583615],[89.6231015375941,26.7359026042248],[89.6234338050542,26.7365222951291],[89.6251673398623,26.7390826995843],[89.6270581065562,26.7412171473081],[89.628738756503,26.7430553479353],[89.6307851687205,26.7436936429604],[89.6334311154069,26.7446944095096],[89.6359993347044,26.74569461315],[89.6380106934122,26.746325309846],[89.6399098103034,26.7466984040224],[89.6409765212299,26.7471978692486],[89.6415079739904,26.7476426216299],[89.6421402879134,26.747999629009],[89.643484317064,26.7482155530007],[89.6441124092152,26.7491399774491],[89.6447417869197,26.7504904804574],[89.6448188942254,26.7515555313251],[89.6447338001079,26.7531173702775],[89.6448868288624,26.7548924513519],[89.645117410151,26.7567388214218],[89.6456665102478,26.7588696875131],[89.6467665318131,26.7608601931282],[89.6474722625112,26.7627788578763],[89.6487342607594,26.7644149645767],[89.6503884371194,26.7661226241187],[89.6515709690469,26.7674742496785],[89.652516960487,26.7688963055458],[89.6529071787512,26.7704593588944],[89.65290339821,26.7717368407201],[89.6526640267861,26.7727302853727],[89.6523420032858,26.7745044110927],[89.6516273254599,26.7755676990877],[89.6501209661051,26.7765578771943],[89.6486155709837,26.7771929968639],[89.6471108519143,26.7776151867302],[89.6459260028189,26.7778255272571],[89.6444978243495,26.7786740226612],[89.6436255610254,26.779452597477],[89.6424352219599,26.780657008027],[89.6406916446022,26.7818593672241],[89.6399062737539,26.7821710556807],[89.6385544206989,26.7827058758176],[89.6375251735341,26.7829876647255],[89.6354680794491,26.7831245443141],[89.6334899692936,26.7829065767832],[89.6313571615687,26.7823330760491],[89.6295390284807,26.7816188674103],[89.6270908908068,26.7806186057702],[89.6248792478506,26.7795479046805],[89.6236134070948,26.7791188572685],[89.6225851297895,26.7791159915291],[89.6218726959489,26.7793979808566],[89.6217410817606,26.7796352395854],[89.6213946603242,26.7802491710105],[89.6209180445505,26.7814545321593],[89.6201185886498,26.7837952454727],[89.6182935203114,26.7852103337504],[89.6167087983937,26.7862002202949],[89.6149672196214,26.7866927452011],[89.6127506008438,26.7871128354741],[89.6100585936119,26.787602599862],[89.6075244742599,26.7882343384267],[89.6045968133099,26.7885109501817],[89.6019855667359,26.7888586477064],[89.6004045819907,26.789434623329]]]},"properties":{"fill-opacity":0,"stroke-opacity":1,"stroke":"#ff0000","SID":"028","DID":"003","RID":"002","BID":"001","State":"West_Bengal","Division":"BuxaTR_EAST","Range":"Buxaduar","Beat":"Buxaduar","Beat_Ar":29.801}},{"type":"Feature","geometry":{"type":"Polygon","coordinates":[[[89.583099640244,26.7136477380072],[89.5808515455088,26.7148208723856],[89.5798738722534,26.7148574394631],[89.5788200635293,26.7151241168874],[89.5785603509407,26.7153562793111],[89.5774166303081,26.7161527045622],[89.5767233792033,26.7167802646088],[89.5761144035737,26.7170278713701],[89.5759452378047,26.7179378041712],[89.575781351438,26.7187752031617],[89.5750826239487,26.7194857257221],[89.5748340538092,26.7200942324609],[89.5739625480808,26.7206574906179],[89.5729075379654,26.7212179872033],[89.5708746426573,26.7212112158335],[89.5697248673587,26.7215637754145],[89.5676029140362,26.7218548943468],[89.5669852088853,26.7217215725382],[89.5642935114363,26.7218150544677],[89.5628356464849,26.7218658322423],[89.5586856088335,26.722160002681],[89.5550536180119,26.7223651749532],[89.553205169615,26.7227323209894],[89.5502040545769,26.7229101467841],[89.5497838867029,26.7230142922622],[89.549675714161,26.7230411382046],[89.5469614994833,26.7230987245511],[89.5459008730142,26.7231280700296],[89.5453203476364,26.7224793051955],[89.5444432827535,26.7212037701884],[89.5438548779563,26.7181239113455],[89.5432086980087,26.7156707307417],[89.5413875906961,26.7123329880891],[89.5411149396606,26.7120071344369],[89.5358008198253,26.7056570730057],[89.5318559719002,26.7025331089668],[89.5311706238586,26.7018058854277],[89.5311054693786,26.7017369334564],[89.5303699828329,26.7009589219205],[89.5288890164633,26.699393123748],[89.5275375439288,26.6980780281618],[89.5258856088871,26.6947334380942],[89.5257836175589,26.6913983774292],[89.5281763210175,26.6911678666077],[89.5321275393391,26.6907163069027],[89.535168221346,26.6904939031344],[89.5367233297285,26.6904987692413],[89.5389880940419,26.690215600951],[89.5416422981191,26.689875991263],[89.5443622750451,26.6894778045839],[89.5471469430876,26.6891967393123],[89.5492177241992,26.6890288929571],[89.5503106723286,26.6889746448592],[89.5513539774936,26.688803052905],[89.5539454496275,26.6884624919197],[89.5567934919713,26.6880071107671],[89.5597720017165,26.6876094592314],[89.5631396300092,26.6872717537983],[89.5663674945536,26.6866822724881],[89.5668954937823,26.6865856328719],[89.5706504337935,26.6861326424389],[89.5736886435278,26.6858581230105],[89.5726450610749,26.6881745265983],[89.5717952440849,26.6903790753243],[89.5714666893454,26.6915975939174],[89.571397213962,26.6933975539791],[89.5713253693471,26.6951394469736],[89.5717729097041,26.6964178881873],[89.5723639830361,26.6969307853294],[89.5734509570261,26.6978750008169],[89.5755113030044,26.7005523048948],[89.577833520154,26.703114140378],[89.5803488629833,26.7051540477232],[89.5813789595516,26.7065508824327],[89.5821199186828,26.7080135415925],[89.5832236512904,26.7078300390635],[89.5846491865611,26.7076017576132],[89.5852172519252,26.7075232116493],[89.5856709535786,26.7085513947508],[89.585908445316,26.7095828418482],[89.5856101891632,26.7114829308166],[89.5841894151943,26.7124768081023],[89.583099640244,26.7136477380072]]]},"properties":{"fill-opacity":0,"stroke-opacity":1,"stroke":"#ff0000","SID":"028","DID":"003","RID":"002","BID":"002","State":"West_Bengal","Division":"BuxaTR_EAST","Range":"Buxaduar","Beat":"Buxaroad","Beat_Ar":14.9547}},{"type":"Feature","geometry":{"type":"Polygon","coordinates":[[[89.51336980323,26.8091589070114],[89.5140499564612,26.808272612617],[89.515553209842,26.8066251022388],[89.5168616235423,26.8052334724255],[89.518787218797,26.803579422718],[89.5213895471601,26.8006183066675],[89.5219681809094,26.7981081579808],[89.5231673852282,26.795721326766],[89.5243597460616,26.7925102600453],[89.5253900851378,26.7908059916385],[89.526164383417,26.7902392671427],[89.526787228328,26.7897824638099],[89.5268551796404,26.7897749619817],[89.529622424788,26.7894520518795],[89.5324449319589,26.7891375134847],[89.5343961110274,26.7891375051432],[89.5364270786248,26.7905892053654],[89.5376723874849,26.7910728415297],[89.5396133866456,26.790480381295],[89.5419980155472,26.7902457145919],[89.5436218796307,26.7890779874909],[89.5440934926152,26.7887395105989],[89.5450337122805,26.7868226164329],[89.5465604833892,26.7828282708295],[89.5467737508829,26.7816141699634],[89.5470540991413,26.7800169383466],[89.548777074408,26.7772417815696],[89.5489463671822,26.7770024809998],[89.5498082194338,26.7758520553149],[89.5517033267071,26.7733789794333],[89.5516888194593,26.7725446906371],[89.5516661523649,26.7712612598095],[89.5514504830433,26.7691556490918],[89.5513486944514,26.7675425769194],[89.5513248969605,26.7671911793717],[89.5510329578499,26.7653105955563],[89.5515153241694,26.7621234594549],[89.5520392996665,26.7618436059639],[89.552629140894,26.7607703155389],[89.554034499335,26.7600817469912],[89.5557182144448,26.7595508473313],[89.5575842816914,26.7593151528736],[89.5590715231781,26.7589073558876],[89.5604703329649,26.7585941437719],[89.5624746491766,26.7584048018564],[89.564043826889,26.7582222153463],[89.5646081532258,26.7585732753066],[89.5647059378132,26.7586345168557],[89.5661128926413,26.7595100830439],[89.5684426927941,26.7610161192472],[89.5703558518153,26.7616666320869],[89.5721639991561,26.7621637478815],[89.5731511932291,26.7623549725274],[89.5752618508678,26.7626259033105],[89.5772262333081,26.763055789653],[89.5806216071581,26.7639620462094],[89.583115764367,26.7645988417985],[89.5861328041319,26.7651848943874],[89.5884494341949,26.765526637292],[89.5900901302375,26.7657919028482],[89.5901237778157,26.7662438535404],[89.5892652966818,26.7680078233224],[89.5878882806913,26.7699439889969],[89.5880949019891,26.7719720734652],[89.5884120003783,26.7725911706576],[89.5896305108149,26.774969975147],[89.5901787704829,26.7763757882935],[89.5923103683838,26.7793816183375],[89.59335429147,26.7806825721445],[89.5947247139796,26.7827849451813],[89.5962609903959,26.7849545208044],[89.5980417982514,26.7862679851445],[89.6004045819907,26.789434623329],[89.6002433638933,26.7894928474456],[89.5984186417681,26.7907658406542],[89.5965174305027,26.7915411007987],[89.5944587158731,26.7921035108527],[89.5921642216987,26.7924519710578],[89.5901069072521,26.792588484027],[89.5882849055708,26.7930091180891],[89.5863841342959,26.7936429587205],[89.5838474895471,26.7949136044186],[89.5811551358314,26.7961126276652],[89.5781441567943,26.7970980179745],[89.5755314244326,26.7978005739955],[89.5725207464613,26.7986437159006],[89.5707522890677,26.798810015118],[89.5695927232741,26.7989187736418],[89.5694311088966,26.7997708006967],[89.5692641109567,26.8021129800847],[89.568387421422,26.803885214851],[89.5667970167004,26.8062234372679],[89.5649663609195,26.8089156767482],[89.5635362134619,26.8106861149622],[89.5619520856961,26.8113203671613],[89.5602879904354,26.8117414460828],[89.5585474894234,26.8118071806938],[89.5561741361863,26.8115868640675],[89.5539604004447,26.811083032657],[89.5519057251047,26.8104381105388],[89.5500099426849,26.8096509782711],[89.5487452587649,26.8095760114971],[89.5474768996003,26.8097853319811],[89.5453381805221,26.8107015525601],[89.5435154388062,26.8111929793471],[89.5411383042396,26.8119662284754],[89.5389193023247,26.812811037529],[89.5373354488665,26.8133031690463],[89.5353559615368,26.8133678353519],[89.5334583102011,26.8130782359088],[89.5315617091318,26.812504057808],[89.5294282495168,26.8120711629982],[89.5276884770304,26.8119233162929],[89.5256307355525,26.812058910973],[89.5242846390386,26.8121966720578],[89.5225434908056,26.8124035381428],[89.5207212382911,26.812752539972],[89.518585960502,26.8127456090651],[89.5171623075918,26.812173202687],[89.5158186888127,26.8117428994921],[89.5141653559883,26.8101751919798],[89.51336980323,26.8091589070114]]]},"properties":{"fill-opacity":0,"stroke-opacity":1,"stroke":"#ff0000","SID":"028","DID":"003","RID":"002","BID":"003","State":"West_Bengal","Division":"BuxaTR_EAST","Range":"Buxaduar","Beat":"Chunabhati","Beat_Ar":25.6758}},{"type":"Feature","geometry":{"type":"Polygon","coordinates":[[[89.5520392996665,26.7618436059639],[89.5501063580108,26.7617756794625],[89.548173887632,26.762898906371],[89.5460385690748,26.7625195502875],[89.5422884562812,26.7604547451155],[89.5413121659073,26.7600420929439],[89.5409654884399,26.7599908774662],[89.538827461497,26.7596726346738],[89.5353738517967,26.7589569112537],[89.5327642363018,26.7571586510409],[89.5291283439027,26.7561511777093],[89.5283219616459,26.7560298833671],[89.5254913945343,26.7560460397793],[89.5229817101845,26.7538666521379],[89.5222632466117,26.7531386267638],[89.5221733397508,26.7529827981491],[89.5220412598729,26.7527160304463],[89.5241786666556,26.75190848785],[89.5270091189478,26.7500378899223],[89.5272241221106,26.7496918048325],[89.5290492682135,26.7477479737252],[89.5292416238295,26.7474359711654],[89.5306861674789,26.7451152414441],[89.5320590786391,26.7424949369699],[89.5321855466177,26.7397817980215],[89.5320701012121,26.7372799605116],[89.5336975116835,26.7338280715925],[89.534726772977,26.7322066651931],[89.5365539174334,26.7303352000771],[89.5403084169505,26.727175148222],[89.5441537141356,26.7245532075991],[89.5459008730142,26.7231280700296],[89.5469614994833,26.7230987245511],[89.549675714161,26.7230411382046],[89.5497838867029,26.7230142922622],[89.5502040545769,26.7229101467841],[89.553205169615,26.7227323209894],[89.5550536180119,26.7223651749532],[89.5586856088335,26.722160002681],[89.5628356464849,26.7218658322423],[89.5642935114363,26.7218150544677],[89.5669852088853,26.7217215725382],[89.5676029140362,26.7218548943468],[89.5697248673587,26.7215637754145],[89.5708746426573,26.7212112158335],[89.5729075379654,26.7212179872033],[89.5739625480808,26.7206574906179],[89.5748340538092,26.7200942324609],[89.5750826239487,26.7194857257221],[89.575781351438,26.7187752031617],[89.5759452378047,26.7179378041712],[89.5761144035737,26.7170278713701],[89.5767233792033,26.7167802646088],[89.5774166303081,26.7161527045622],[89.5785603509407,26.7153562793111],[89.5788200635293,26.7151241168874],[89.5798738722534,26.7148574394631],[89.5808515455088,26.7148208723856],[89.583099640244,26.7136477380072],[89.5836972648101,26.7158911606724],[89.5840432027858,26.7168257988137],[89.5839737389517,26.71938180227],[89.5845714769529,26.7222859487477],[89.5847272317158,26.7251104352775],[89.5865053298693,26.7254269603701],[89.5889174072386,26.7262631326192],[89.5908451853604,26.7290333131127],[89.5924457363541,26.7319977760234],[89.5933675010984,26.7343257646491],[89.5932846198666,26.7357477019937],[89.5928605133249,26.7369882028381],[89.593909719587,26.7402594550042],[89.5944905007362,26.7416527694192],[89.5949462468036,26.7428664446677],[89.5955310983495,26.7445487584979],[89.5957680268205,26.7450441017169],[89.5955871552026,26.7450520622324],[89.5934437386917,26.7441371385524],[89.590450764606,26.744011460463],[89.588164402181,26.7444697156492],[89.5850715962553,26.744802450722],[89.5814480442555,26.745234673124],[89.578101890947,26.7461422697747],[89.5769621335267,26.7464516363625],[89.5750346813988,26.7477192617506],[89.5711781806884,26.7499766826928],[89.5682066229875,26.7521139385936],[89.5655617524762,26.7529579227607],[89.5626695022984,26.7540394987981],[89.5621564681505,26.7554230295013],[89.563700258166,26.7580085875434],[89.564043826889,26.7582222153463],[89.5624746491766,26.7584048018564],[89.5604703329649,26.7585941437719],[89.5590715231781,26.7589073558876],[89.5575842816914,26.7593151528736],[89.5557182144448,26.7595508473313],[89.554034499335,26.7600817469912],[89.552629140894,26.7607703155389],[89.5520392996665,26.7618436059639]]]},"properties":{"fill-opacity":0,"stroke-opacity":1,"stroke":"#ff0000","SID":"028","DID":"003","RID":"002","BID":"004","State":"West_Bengal","Division":"BuxaTR_EAST","Range":"Buxaduar","Beat":"Santrabari","Beat_Ar":20.5607}}]}