{"type":"FeatureCollection","features":[{"type":"Feature","geometry":{"type":"MultiPolygon","coordinates":[[[[89.691958157677,26.6590110063585],[89.6921519299445,26.6598535551519],[89.6919867070302,26.6605497985354],[89.6916637246667,26.6611303302521],[89.6910475629802,26.6614188238134],[89.6904649547099,26.6614175874377],[89.6900763527572,26.6611269664982],[89.68972352201,26.6606325994689],[89.6895618376594,26.660080402622],[89.6895965780209,26.6592963223573],[89.6897286288237,26.6587448580753],[89.6901168036908,26.6582521008247],[89.6903758965485,26.6581077350912],[89.6908306263978,26.6580507129117],[89.6914426669075,26.6583132897293],[89.691958157677,26.6590110063585]]],[[[89.6771958555167,26.6632179506558],[89.6773584966846,26.6634213218938],[89.6773878254049,26.6637407596142],[89.6773563262341,26.6642052987507],[89.6771588509421,26.6647854445029],[89.6766718127263,26.6655971474261],[89.6758603397157,26.6665539616489],[89.675243429272,26.6670747632472],[89.6746302671803,26.6672190521717],[89.674435442175,26.6668118919406],[89.6744041991976,26.6663182019199],[89.6745369694834,26.6655637030298],[89.6748300079944,26.6649257510995],[89.6755434738068,26.6639982996992],[89.6766786806038,26.6631293116287],[89.677002631498,26.6631880867385],[89.6771958555167,26.6632179506558]]],[[[89.6809202149047,26.6879810780426],[89.6812296228676,26.6878146986504],[89.6816810949556,26.6862679573565],[89.6820027020796,26.6853513233739],[89.6825788172502,26.6840918647022],[89.683604880443,26.682775176203],[89.6841171539045,26.6819166215363],[89.6849488435631,26.680944292711],[89.6861640955227,26.6802587014777],[89.6869955954693,26.6792860817691],[89.6877638892818,26.6785426259364],[89.6889777091868,26.6783158353408],[89.689813036966,26.6778493361573],[89.6899991219867,26.6777447549428],[89.690958023408,26.6780333699631],[89.6903798997107,26.6790639031126],[89.6892930615182,26.6796921647689],[89.688463710025,26.6798624951454],[89.6878223025309,26.6810649432677],[89.6874357710219,26.6818661792369],[89.6863472947948,26.6830677357319],[89.6860259871075,26.683927411737],[89.6864092327868,26.684329210372],[89.6873015861675,26.6841589872794],[89.6882616176856,26.683989081033],[89.6891532776449,26.684048680744],[89.6900474462624,26.6841079629366],[89.690558346478,26.6837648898759],[89.6912635794321,26.6830782839504],[89.691644527737,26.6833661694197],[89.6920243071595,26.6841692722968],[89.691383172227,26.6853147691529],[89.6915741805571,26.6862323580608],[89.6919545036135,26.6868061923092],[89.6904848197283,26.6877774257779],[89.689331878382,26.6886346118217],[89.6884433491197,26.6892892705111],[89.6874463153686,26.689168036891],[89.6855050307053,26.6888733159333],[89.683112237871,26.688403450726],[89.6809202149047,26.6879810780426]]],[[[89.6808547685498,26.6880154112813],[89.6817048870966,26.6885904730416],[89.682367160694,26.6889167821131],[89.6826679363858,26.6891881589735],[89.6826673549161,26.6894047383844],[89.6824861617128,26.6895126366539],[89.6821234913727,26.6898372861573],[89.6820624622,26.6901078797861],[89.6821823407667,26.6903791473251],[89.6826034205472,26.690704931998],[89.6828440536846,26.6909225967854],[89.6827828805234,26.6912473354679],[89.682480499432,26.691571552461],[89.6820567887538,26.6921665138272],[89.6816927976028,26.6929784662123],[89.6816304668969,26.6937372091102],[89.6816748757219,26.6940446213549],[89.6806373928359,26.6939728881905],[89.6793431141094,26.6941438854271],[89.6759139264824,26.6940781480306],[89.6713184456029,26.6941839984633],[89.6654914769581,26.6944612442257],[89.6612202587213,26.6945674713125],[89.6582436069381,26.6943905373577],[89.6571432612302,26.6943252893722],[89.6553312453385,26.6945534432441],[89.654877432465,26.6942617974629],[89.654300464756,26.6930990861327],[89.653982427839,26.69106620824],[89.6536670333244,26.6881619241322],[89.653336624887,26.6844132282839],[89.6523096902131,26.6850532070685],[89.6491922363311,26.6858737332763],[89.6461923966673,26.6867847588006],[89.6438063220747,26.6874226839529],[89.6412818116154,26.6881651019727],[89.6397453769223,26.6885965702723],[89.6362253037046,26.6895723431594],[89.6340800722621,26.6902702150723],[89.6326051730392,26.691110926286],[89.6315228429712,26.6902029374127],[89.6304346931566,26.6895242724593],[89.6305636943821,26.6884509073064],[89.6310238047764,26.6867682799179],[89.6327153456637,26.6841013986695],[89.6349216141418,26.6815515181666],[89.637130532902,26.6788862374631],[89.6381705783786,26.6772628824976],[89.6396009645581,26.6752920975462],[89.6410967760779,26.673321388506],[89.6418111619299,26.6721622817726],[89.6422681581871,26.6705949962731],[89.6425962939984,26.6692607231513],[89.6425571809695,26.6680889034701],[89.6425364247128,26.667517812423],[89.642864550647,26.666183538683],[89.6429338139188,26.6649058418735],[89.6434560936558,26.6633394887019],[89.6444939509371,26.662354846912],[89.6460485061289,26.6616039048422],[89.6484480931761,26.6604483330371],[89.6510378021311,26.6595254157465],[89.6539529604701,26.6581392834543],[89.6553796452255,26.6572710117435],[89.6566126634256,26.6556481021111],[89.6576003014577,26.653722361918],[89.6576534230742,26.6536182478988],[89.6590194347751,26.6511246453629],[89.660061099937,26.6496175905598],[89.6609699688345,26.6479933612146],[89.6619468888228,26.6463116481807],[89.6624682288195,26.6449195197015],[89.6625351222327,26.6435259441459],[89.6623454907352,26.6422481717976],[89.6622215123742,26.6408540106309],[89.6615780339037,26.6393429779253],[89.6608719336648,26.6378309819468],[89.6606105448255,26.6370689753342],[89.6625543399745,26.6369641672438],[89.6648202624279,26.6366795889203],[89.6668902775783,26.6363938908206],[89.6691556606411,26.6362245879314],[89.6703214720089,26.6359948682558],[89.6707432866756,26.6360432034785],[89.6706543600987,26.6363708039248],[89.6691602836759,26.6415957578724],[89.6684621802298,26.6442194982808],[89.6676305989023,26.6451917294718],[89.6668620629347,26.6461070982396],[89.6671159594746,26.646910632051],[89.6673046592153,26.6476562753418],[89.6683234735861,26.6478876696864],[89.6694734234813,26.6480047151431],[89.669920334666,26.6480056623589],[89.670491092253,26.6486951998736],[89.670936953407,26.649097439207],[89.6711245801864,26.6501871262546],[89.6716322975636,26.6509335180989],[89.6722724097485,26.6510494931428],[89.6726534579422,26.6512799074273],[89.6727208221947,26.6514641040605],[89.6732242448565,26.6528286788844],[89.6743067532215,26.6527741778274],[89.6746272113912,26.6531759096136],[89.6748164393773,26.6537495156054],[89.6743671124596,26.6545511777823],[89.6735350428431,26.6556954673043],[89.6730186226751,26.6571278990814],[89.6729521667725,26.6584458924922],[89.6732683089359,26.6594215421607],[89.6739667202874,26.6602251756432],[89.6741429094844,26.6609799777453],[89.6742198700644,26.6613152104397],[89.673642195366,26.6622311838825],[89.6738344149451,26.6626327366019],[89.6737661347601,26.6636642416696],[89.6735104479539,26.6644089099935],[89.6731885597989,26.6653827762626],[89.6732055047129,26.665618326047],[89.6733096808501,26.6669881673996],[89.672734226357,26.6679616389735],[89.6715172318024,26.6692771168566],[89.6699827537341,26.6700763197166],[89.669150067076,26.6713928944096],[89.6681909290871,26.6721356771846],[89.6673607511815,26.6725924028185],[89.6669089170429,26.6742538834002],[89.6662659822722,26.6759147876217],[89.6651158603948,26.6766572565791],[89.6650483405252,26.677422826183],[89.6649832599667,26.6782050049237],[89.6652368895059,26.6782626569151],[89.6654290052566,26.6787217489444],[89.6656161661134,26.679983463085],[89.6652968830445,26.6800971911507],[89.6642087718626,26.6810687537934],[89.6635018348017,26.6823285515482],[89.6637560090994,26.6830167454999],[89.6652884137661,26.6830204739739],[89.6665644456412,26.6830807782377],[89.6665631234675,26.683539603002],[89.6669437876359,26.6839414869446],[89.6677081233521,26.6845740439322],[89.6677062239316,26.6852621387294],[89.6674499289213,26.6861212950628],[89.6678295531587,26.6869247518107],[89.6688482532369,26.6873284302984],[89.6689131040025,26.6875005310807],[89.6697401772058,26.6881901465656],[89.6707632371855,26.6880204603547],[89.6720383355548,26.6883672327256],[89.6722925681804,26.6881958829537],[89.6731247809228,26.6879686471497],[89.6735066809375,26.6879694986494],[89.67465474013,26.687972301124],[89.6758677559042,26.6880893810845],[89.6768896764672,26.6874036118599],[89.6779119065351,26.6875209564546],[89.6779721320541,26.6875267297464],[89.679124920832,26.6876380086813],[89.6805906982015,26.6881575649532],[89.6808547685498,26.6880154112813]]]]},"properties":{"fill-opacity":0,"stroke-opacity":1,"stroke":"#ff0000","SID":"028","DID":"003","RID":"003","BID":"002","State":"West_Bengal","Division":"BuxaTR_EAST","Range":"Hatipota","Beat":"Chuniajhora","Beat_Ar":14.3574}},{"type":"Feature","geometry":{"type":"MultiPolygon","coordinates":[[[[89.732432844664,26.6707924546328],[89.7329588574549,26.6757823577959],[89.7336940272584,26.6782825346436],[89.7359109890136,26.677729226814],[89.7361430038619,26.6773327277809],[89.7383884154269,26.6763286945503],[89.740885346341,26.6752129744355],[89.7404997792407,26.6768882189084],[89.7402558304175,26.6769842687038],[89.7405597844328,26.6769622102405],[89.743156574289,26.6773000146358],[89.7435225102178,26.6788002187178],[89.7435176740085,26.6809656824849],[89.7433302933765,26.6816315089234],[89.7381363773347,26.6822891228022],[89.736410426824,26.6823412815133],[89.7273990797963,26.6835885865614],[89.726901826181,26.6824675206379],[89.726779260921,26.6822431374017],[89.7270077935255,26.6822685541683],[89.7264544144866,26.6804347299772],[89.7244178522981,26.6790977634003],[89.7234925521825,26.6784299716968],[89.7251636956868,26.6780997481452],[89.7272035171817,26.6781036890887],[89.7277644180374,26.6777638260306],[89.7274488931766,26.6752520183761],[89.727454248133,26.6729339784854],[89.7276446516409,26.6710174975173],[89.7300061590598,26.6709041245656],[89.7315611384727,26.6707909702567],[89.732432844664,26.6707924546328]]],[[[89.7069850041988,26.7267471482654],[89.7071468289627,26.7343742054026],[89.7053565845891,26.7357169026807],[89.7032184841131,26.7374168161613],[89.7012371890643,26.738690417774],[89.6997329694383,26.7391844815539],[89.6978356927217,26.7391093881347],[89.696175395884,26.7386800685845],[89.6943606857326,26.7377534495073],[89.6921486568516,26.7368969759791],[89.6900943480202,26.7363245257661],[89.688433654346,26.7361077406826],[89.6874053551082,26.7362477384996],[89.685585816192,26.7371667081198],[89.6837639944307,26.737943557692],[89.6819414686435,26.7390046427159],[89.6799636936759,26.7398521038248],[89.6776672982145,26.7404861778646],[89.6750577906715,26.7406930323424],[89.6728438534857,26.7405466217451],[89.6711056387849,26.7401872974158],[89.669763016728,26.7394744600681],[89.6692122630442,26.7386924952303],[89.6688216817222,26.7372718960761],[89.6687468330195,26.7353549302446],[89.6681997277033,26.7332946333477],[89.6674933614864,26.7315892661109],[89.6663126415752,26.7296698006702],[89.663947421132,26.727179382774],[89.6626075844222,26.7255437464646],[89.6603997480183,26.7234084224506],[89.6602141776091,26.7232851088983],[89.6582704851174,26.7219836179364],[89.6566592621481,26.721238538686],[89.6573920199671,26.7198763854818],[89.6574614747724,26.7184825100246],[89.657010621494,26.7171463252299],[89.6561730064252,26.7157503640756],[89.6561786738289,26.7138341294222],[89.6562532070678,26.7106988626801],[89.656327279714,26.7077375923569],[89.6566566572683,26.7059963587725],[89.6575657187333,26.7044302347763],[89.6580911713577,26.7026314337095],[89.6582249688501,26.7007153901134],[89.6582349399803,26.6972895712852],[89.6583708902756,26.695489684266],[89.6582436069381,26.6943905373577],[89.6612202587213,26.6945674713125],[89.6654914769581,26.6944612442257],[89.6713184456029,26.6941839984633],[89.6759139264824,26.6940781480306],[89.6793431141094,26.6941438854271],[89.6806373928359,26.6939728881905],[89.6816748757219,26.6940446213549],[89.6816304668969,26.6937372091102],[89.6816927976028,26.6929784662123],[89.6820567887538,26.6921665138272],[89.682480499432,26.691571552461],[89.6827828805234,26.6912473354679],[89.6828440536846,26.6909225967854],[89.6826034205472,26.690704931998],[89.6821823407667,26.6903791473251],[89.6820624622,26.6901078797861],[89.6821234913727,26.6898372861573],[89.6824861617128,26.6895126366539],[89.6826673549161,26.6894047383844],[89.6826679363858,26.6891881589735],[89.682367160694,26.6889167821131],[89.6817048870966,26.6885904730416],[89.6808547685498,26.6880154112813],[89.6809202149047,26.6879810780426],[89.683112237871,26.688403450726],[89.6855050307053,26.6888733159333],[89.6874463153686,26.689168036891],[89.6884433491197,26.6892892705111],[89.6886894579198,26.690238636747],[89.6887527584073,26.6909840413469],[89.6893243923153,26.6914439337017],[89.6895176007337,26.6915011326393],[89.6897709621824,26.691654620678],[89.6900895893067,26.6918465276034],[89.6906628001063,26.6925929019448],[89.6918086168692,26.6935126370768],[89.6925135608205,26.6929410811255],[89.6933428112198,26.6928852151782],[89.69346905795,26.6935737476612],[89.6937872834422,26.6939179275682],[89.6928915702069,26.6943747399551],[89.6916764574798,26.695002580855],[89.6917396910204,26.6958055105518],[89.6918004052639,26.6966079061801],[89.692437252957,26.6970678520295],[89.693202162502,26.6975854842366],[89.6929437798439,26.6983877415391],[89.692750279877,26.699361522188],[89.6937082620297,26.6990771100773],[89.6946033280349,26.6988498425373],[89.6949225356607,26.6987930117638],[89.6957518270806,26.6987371298396],[89.6959430202511,26.6986468606973],[89.6959733117781,26.6986033532555],[89.6969320428933,26.6980318411419],[89.6979534629439,26.6984355526701],[89.6985273532668,26.6990104313347],[89.6996132795308,26.6997590816682],[89.7006999695002,26.6993021917476],[89.7014059711708,26.6983276110158],[89.7026804490674,26.6990189858716],[89.7033197901453,26.6995369414235],[89.7043411662643,26.6999984147855],[89.7058733788665,26.7001734334588],[89.7067037977572,26.7006343669527],[89.707467485129,26.7017263530996],[89.7082935207428,26.7029329181642],[89.7087363939623,26.7046553495045],[89.7106543667578,26.7043146930425],[89.713212143662,26.7043196163233],[89.7155765901677,26.704324295502],[89.7176848875747,26.7042138847861],[89.7201774055672,26.7041611011666],[89.7219664030936,26.7041644780862],[89.7231168313759,26.7042819067446],[89.7230557633042,26.7025024373469],[89.7230636927761,26.6991742774158],[89.7232651716625,26.6957884934865],[89.7232038107939,26.6941243603254],[89.7230991840084,26.6926838079802],[89.7230393486689,26.692495882565],[89.7266506923445,26.6941940975061],[89.7303913463556,26.694312616481],[89.7348790513901,26.6951051617017],[89.7358744836919,26.6960032441834],[89.7367716085856,26.6970139094537],[89.7366680487731,26.6983839592807],[89.7362960526413,26.6995441119217],[89.7362723455384,26.7011055007058],[89.736111526913,26.7011052142487],[89.7348653515393,26.7022210779212],[89.7345703307237,26.7026809484108],[89.7331416398888,26.7044495830569],[89.7321725190339,26.7063476628551],[89.7304715092691,26.7073965765704],[89.7291072234482,26.7084577190786],[89.7272139316584,26.7100788446275],[89.7254007068026,26.7117739814134],[89.7223003292793,26.7127309824838],[89.7193047942666,26.7139054710352],[89.7169619861374,26.7163147283154],[89.7146882971618,26.7182287820973],[89.7123232043056,26.718409656875],[89.7099226919323,26.7196661554194],[89.7085324286636,26.719926284699],[89.7073579133597,26.7203188753391],[89.7067523869266,26.7203177106169],[89.7067546018408,26.720402845592],[89.7067929696005,26.7221290216591],[89.7068141074914,26.7237321743122],[89.7068568811386,26.7257106793526],[89.7069850041988,26.7267471482654]]]]},"properties":{"fill-opacity":0,"stroke-opacity":1,"stroke":"#ff0000","SID":"028","DID":"003","RID":"003","BID":"001","State":"West_Bengal","Division":"BuxaTR_EAST","Range":"Hatipota","Beat":"Hatipota","Beat_Ar":27.0031}}]}