{"type":"FeatureCollection", "features": [
{"type":"Feature","geometry":{"type":"Polygon","coordinates":[[[89.7919934779825,26.6096159217982],[89.7920834760193,26.6096889236903],[89.7932064898276,26.609009944249],[89.7944075019179,26.6083949664481],[89.7952915027068,26.608278983434],[89.7960904676951,26.6096570016359],[89.7969133982177,26.6124630230508],[89.7971783430822,26.6147260325599],[89.7960102788751,26.6175000151469],[89.7960582173959,26.6200460209729],[89.797193174874,26.6217030462616],[89.7991370786486,26.6255110914468],[89.7994990463582,26.6268161010081],[89.7998359931161,26.6289921117585],[89.7999964324428,26.6298341765043],[89.7973829797301,26.6297779154818],[89.7946585050588,26.6298135524741],[89.7922671519313,26.6297540257743],[89.7902803078876,26.6296944969554],[89.7885552035377,26.6296230832131],[89.7867944086978,26.6295754588217],[89.785164483275,26.629539737003],[89.7821068836957,26.6293969071701],[89.7787994438344,26.6292897625408],[89.7788589402968,26.629016133177],[89.779441913309,26.6284212733957],[89.7805364983485,26.6272791525332],[89.7814407066511,26.6264344585297],[89.7821069763573,26.6255540698231],[89.7839510977569,26.6236624321203],[89.784795830784,26.6226273765906],[89.7862235462483,26.6210212713194],[89.7867827284536,26.6204621011379],[89.7872943110165,26.6203074508041],[89.7876869329905,26.6201884782218],[89.7882223100881,26.6198434679864],[89.7887220089877,26.6194270769193],[89.7889480667895,26.61908206066],[89.7892574084167,26.6185704757029],[89.7896262465034,26.6177852613797],[89.7898880085609,26.6168453746745],[89.7901616688699,26.6159768783375],[89.7903758350125,26.6152868411841],[89.7906375953474,26.6144183346149],[89.790756584859,26.613597425357],[89.7909112768689,26.6126694365886],[89.7911492352484,26.6118842197149],[89.7913515119885,26.6111703822834],[89.7917917344937,26.6101948089816],[89.7919934779825,26.6096159217982]]]},"properties":{"compartment":"C Rydak BL6"},"id":"comptt.81"}
]}