{"type":"FeatureCollection","features":[{"type":"Feature","geometry":{"type":"Polygon","coordinates":[[[89.6489507724634,26.5881493563241],[89.6455932015333,26.5886978377854],[89.6421490189376,26.588820007799],[89.6374769826515,26.5890614299067],[89.6330479301638,26.5886834491466],[89.6291106930639,26.5883673754896],[89.6286639083006,26.5883809547746],[89.627222803486,26.5884972864976],[89.626891359839,26.5885239221841],[89.6246870888248,26.5886698282181],[89.623687412281,26.5888490418964],[89.6231047967202,26.5889541144834],[89.6215081584782,26.5890118156096],[89.6204538792351,26.5890466794051],[89.6181617810154,26.5891291891332],[89.6164844524242,26.589339753115],[89.61020430061,26.5893292452705],[89.609583981885,26.5894205898461],[89.6068666127897,26.5898221690469],[89.6043011189385,26.5899109307782],[89.6014769056802,26.5900107395583],[89.599450427111,26.5902306776213],[89.5953804557062,26.5905654705791],[89.5951845872957,26.590571898836],[89.5937638043525,26.5906191384424],[89.5916292811189,26.590844689542],[89.5905245643095,26.5909210704138],[89.5903864770462,26.5909307936518],[89.5896051392274,26.5890596752311],[89.5894285491526,26.5878856806304],[89.5893161098848,26.5863474612194],[89.5889073476308,26.5841760631758],[89.5891076850479,26.5815223920901],[89.5891773262261,26.5809657773652],[89.5892084249198,26.5807189553976],[89.5891659740285,26.5806441339212],[89.5882283775809,26.5789693338974],[89.5869540886821,26.5773916289383],[89.5855957409238,26.5754606466276],[89.584485548308,26.5736278434921],[89.5833269117808,26.5713161556403],[89.5815770303592,26.5687591986469],[89.5808923614412,26.5673017767548],[89.5797281887534,26.5658665975648],[89.5811808769106,26.5659598754356],[89.5831863551629,26.5658495807568],[89.58454670402,26.5657983357538],[89.5877143076468,26.5656406217074],[89.5893505407461,26.56564434486],[89.5916653636339,26.565389188621],[89.5914207649563,26.5635834100514],[89.5911163723528,26.5617292298301],[89.5907343723139,26.560466158563],[89.5898254686545,26.558529617647],[89.5891047605755,26.5579513748588],[89.5884738128168,26.5575915283565],[89.5876758978902,26.5568618553735],[89.587583552322,26.5567168055701],[89.5875598714135,26.556330718433],[89.5873069059447,26.5555030263187],[89.5873081148545,26.5551815232858],[89.5871571364682,26.5545836577135],[89.5871974395118,26.5538559083983],[89.5889156300208,26.553378467782],[89.5905103979364,26.5529821949204],[89.5921662380004,26.553044330333],[89.5937612908486,26.5525904888172],[89.5949085668013,26.5531667480918],[89.5963710158384,26.5539738103473],[89.5977062334865,26.5546077229164],[89.5987878658891,26.5552991816023],[89.5998692022019,26.5560473183775],[89.6015888844691,26.5565680144097],[89.6028620073771,26.557029987178],[89.6034987174629,26.557203861073],[89.6037317665703,26.5573033208189],[89.604536040562,26.557649299301],[89.6059193915207,26.5581855784964],[89.608400769213,26.5590523543885],[89.6085931375211,26.5592817067666],[89.6098005003052,26.5599158188119],[89.6112670896351,26.5603216614246],[89.6128585992358,26.5608992241017],[89.6144514070558,26.5611324244854],[89.6161725007677,26.5612521932137],[89.616350691913,26.5612527068049],[89.6178938612067,26.5612568797143],[89.6189140586677,26.5608580801536],[89.6204901496437,26.5608057314169],[89.6219781085722,26.5601209862381],[89.6218480302605,26.5607513410256],[89.6222929472328,26.5612688239167],[89.6227353471526,26.5617854879429],[89.6234376518425,26.5619018394756],[89.6243940013464,26.5618474939339],[89.6244887537343,26.5620260491881],[89.6252169533441,26.5633970181143],[89.6256620531687,26.5639144873505],[89.6259166655,26.564316254375],[89.6264864232131,26.5650629757454],[89.6266189486239,26.5651835684374],[89.6274396246526,26.5659257240607],[89.6283321653319,26.566214716589],[89.6290338036606,26.5665030697168],[89.6289650071368,26.5675923948213],[89.629473009128,26.5680521654619],[89.6301091472621,26.5684549108341],[89.6308100105916,26.5690300617071],[89.6304245014525,26.5694876620987],[89.6306771100697,26.5705200037103],[89.6306760347972,26.5708643431551],[89.6304159465628,26.572124499513],[89.6296521253208,26.572409617804],[89.6292004374297,26.573898698953],[89.6301538889366,26.5747611400394],[89.6312363140155,26.5753369888125],[89.6316156555266,26.5759685559794],[89.6325050384679,26.577232442372],[89.632693288117,26.5772435353461],[89.633460967609,26.5773494949239],[89.6344789599938,26.577638695885],[89.6348607065349,26.5783271904236],[89.6355587454999,26.5790174042004],[89.6360060761123,26.5788464403609],[89.6365790162369,26.5794210565667],[89.6377249290761,26.5797679817211],[89.6385529900991,26.5798272511204],[89.6393191143862,26.5796576791782],[89.6404037301852,26.579545342104],[89.6411023294525,26.5800632169274],[89.6407815699361,26.5806932470834],[89.6410352288416,26.5814390376939],[89.6415414957771,26.5824720925274],[89.6421147284291,26.5829321881136],[89.6428799374707,26.5830485578744],[89.6440260239436,26.5833378997331],[89.6451071719203,26.584372470081],[89.6452945696264,26.5854622151133],[89.646950175485,26.586555827625],[89.6484747970773,26.5878779501284],[89.6489507724634,26.5881493563241]]]},"properties":{"fill-opacity":0,"stroke-opacity":1,"stroke":"#ff0000","SID":"028","DID":"014","RID":"004","BID":"001","State":"West_Bengal","Division":"BuxaTR_WEST","Range":"EastRajabhatkhawa","Beat":"Gadadhar","Beat_Ar":15.5838}},{"type":"Feature","geometry":{"type":"Polygon","coordinates":[[[89.6689164183245,26.6268861922438],[89.666696489825,26.6261319686147],[89.6660661232747,26.6261689742534],[89.6634267348224,26.6263239901349],[89.6588375655809,26.6269394068512],[89.654439359657,26.6274794148106],[89.6519209196216,26.627481093699],[89.64783573649,26.6274839948449],[89.6463319486555,26.6273883523816],[89.6447470641031,26.6275908621277],[89.6417529862932,26.6279252720585],[89.6383994863883,26.6283472389449],[89.6368405366047,26.6282794868256],[89.6354772532143,26.6282196164685],[89.6319513444902,26.6284172522399],[89.6279798215676,26.6289326505976],[89.6260382009227,26.6291497588989],[89.6207414802603,26.629494566554],[89.619332352047,26.6296448751898],[89.6176544518536,26.6298230481747],[89.6125721272902,26.6298597013128],[89.6094360934758,26.6298075750437],[89.6071433095294,26.6298882506942],[89.6054257425049,26.6299138828949],[89.6036423510203,26.630103236245],[89.60232870857,26.6302150745555],[89.5979314448425,26.6303872962264],[89.594347736883,26.6305226138678],[89.5888259609778,26.6305723776493],[89.5888062209323,26.6304843307889],[89.5882717698036,26.6275695774033],[89.5879142797281,26.6257470240195],[89.5873716948449,26.6230345531612],[89.5871370737565,26.6205512925109],[89.58725956528,26.6179041428319],[89.5897870102914,26.6174362308144],[89.590953355681,26.6170328763552],[89.5919010903023,26.6166858257262],[89.5920544174829,26.6166299622731],[89.5934778263071,26.6166921177533],[89.5965806083801,26.6168171752596],[89.5988450304553,26.6168816661235],[89.6007203874609,26.6168867724617],[89.6024026915209,26.6168334008639],[89.6049244768426,26.6165499997755],[89.6075134747725,26.6163828257182],[89.6102935804237,26.6161581658036],[89.6127526877895,26.6158166807828],[89.6154052157557,26.6154267058298],[89.6158598368524,26.6153603406841],[89.6187705962111,26.6150781937029],[89.6217468927615,26.6147374288618],[89.6237538510426,26.6144522412595],[89.6261471993739,26.6142260541702],[89.6302863442186,26.6137144398553],[89.6353970014726,26.6132053448398],[89.6361905368617,26.6131265537631],[89.6365572221056,26.6130904641264],[89.6394101394558,26.6128088470082],[89.6405527844105,26.6127164149494],[89.6421447979526,26.6125871964393],[89.6413573372082,26.6115325850682],[89.6391663434352,26.6089141100141],[89.6367187585311,26.6057136795982],[89.6350031417227,26.6036480204655],[89.6375645647567,26.6033965916073],[89.6406680146455,26.6031721366857],[89.6428675598068,26.6030615615386],[89.6461015494784,26.6028377357334],[89.6499802744668,26.6027890898153],[89.6532138723924,26.6026810102211],[89.6556087015897,26.6026866895462],[89.6571607409156,26.6025163199564],[89.6592956432127,26.602114657139],[89.6615538401816,26.6016573773367],[89.6625564594206,26.6021758127583],[89.6630914815633,26.6037651103729],[89.6633136275539,26.6059059938276],[89.6632280903282,26.6093581119313],[89.6670649163667,26.6108170537643],[89.667150989649,26.6114705649781],[89.6675021637626,26.6141361335681],[89.667400381509,26.6146370311799],[89.6672052771453,26.6160699040438],[89.6672640394321,26.6174459355199],[89.6672595407436,26.618993318739],[89.6677021175907,26.6204846938352],[89.668142314215,26.622836474138],[89.6686455181414,26.6250733019543],[89.6688322633095,26.6265064825539],[89.6689164183245,26.6268861922438]]]},"properties":{"fill-opacity":0,"stroke-opacity":1,"stroke":"#ff0000","SID":"028","DID":"014","RID":"004","BID":"003","State":"West_Bengal","Division":"BuxaTR_WEST","Range":"EastRajabhatkhawa","Beat":"Panbari-North","Beat_Ar":14.8932}},{"type":"Feature","geometry":{"type":"Polygon","coordinates":[[[89.6615538401816,26.6016573773367],[89.6592956432127,26.602114657139],[89.6571607409156,26.6025163199564],[89.6556087015897,26.6026866895462],[89.6532138723924,26.6026810102211],[89.6499802744668,26.6027890898153],[89.6461015494784,26.6028377357334],[89.6428675598068,26.6030615615386],[89.6406680146455,26.6031721366857],[89.6375645647567,26.6033965916073],[89.6350031417227,26.6036480204655],[89.6367187585311,26.6057136795982],[89.6391663434352,26.6089141100141],[89.6413573372082,26.6115325850682],[89.6421447979526,26.6125871964393],[89.6405527844105,26.6127164149494],[89.6394101394558,26.6128088470082],[89.6365572221056,26.6130904641264],[89.6361905368617,26.6131265537631],[89.6353970014726,26.6132053448398],[89.6302863442186,26.6137144398553],[89.6261471993739,26.6142260541702],[89.6237538510426,26.6144522412595],[89.6217468927615,26.6147374288618],[89.6187705962111,26.6150781937029],[89.6158598368524,26.6153603406841],[89.6154052157557,26.6154267058298],[89.6127526877895,26.6158166807828],[89.6102935804237,26.6161581658036],[89.6075134747725,26.6163828257182],[89.6049244768426,26.6165499997755],[89.6024026915209,26.6168334008639],[89.6007203874609,26.6168867724617],[89.5988450304553,26.6168816661235],[89.5965806083801,26.6168171752596],[89.5934778263071,26.6166921177533],[89.5920544174829,26.6166299622731],[89.5919010903023,26.6166858257262],[89.590953355681,26.6170328763552],[89.5897870102914,26.6174362308144],[89.58725956528,26.6179041428319],[89.5872731418662,26.6176264971056],[89.5870374503554,26.6154500688545],[89.5869357163926,26.614414550433],[89.5869614559722,26.6107622809436],[89.5871849340339,26.6086543246043],[89.5873107528578,26.6078923476062],[89.5872640540301,26.6075905583599],[89.5877156905466,26.6048827620083],[89.5885289948296,26.6028107944047],[89.5887846375991,26.6022129025881],[89.5892090808663,26.6014656332985],[89.5899456157051,26.5998017343337],[89.5912276911023,26.5957730221558],[89.5910274596556,26.5921026909],[89.5905633853923,26.5913337760008],[89.5903864770462,26.5909307936518],[89.5905245643095,26.5909210704138],[89.5916292811189,26.590844689542],[89.5937638043525,26.5906191384424],[89.5951845872957,26.590571898836],[89.5953804557062,26.5905654705791],[89.599450427111,26.5902306776213],[89.6014769056802,26.5900107395583],[89.6043011189385,26.5899109307782],[89.6068666127897,26.5898221690469],[89.609583981885,26.5894205898461],[89.61020430061,26.5893292452705],[89.6164844524242,26.589339753115],[89.6181617810154,26.5891291891332],[89.6204538792351,26.5890466794051],[89.6215081584782,26.5890118156096],[89.6231047967202,26.5889541144834],[89.623687412281,26.5888490418964],[89.6246870888248,26.5886698282181],[89.626891359839,26.5885239221841],[89.627222803486,26.5884972864976],[89.6286639083006,26.5883809547746],[89.6291106930639,26.5883673754896],[89.6330479301638,26.5886834491466],[89.6374769826515,26.5890614299067],[89.6421490189376,26.588820007799],[89.6455932015333,26.5886978377854],[89.6489507724634,26.5881493563241],[89.6496849181441,26.588568636362],[89.6505148581378,26.5880550661529],[89.6510270743864,26.5879986403451],[89.6515381997133,26.5874845364657],[89.6524961390595,26.5869705962727],[89.6529447197435,26.5863410298934],[89.6543471922785,26.5865740072648],[89.6557478869851,26.587379736291],[89.6545332788872,26.5881217224018],[89.6548500407091,26.5887533850284],[89.6554215034205,26.5890411414842],[89.6559938293217,26.5898455119529],[89.65637563769,26.5905914694039],[89.6570103960331,26.5915679744037],[89.6571343736557,26.5920267551638],[89.6577679874025,26.5933467467473],[89.6588507307333,26.5939223697102],[89.6598719399138,26.5940393231923],[89.6604460776153,26.5934677702257],[89.6610233172536,26.5926663482057],[89.6616620596903,26.5922666202647],[89.6622361880927,26.5924976347371],[89.6631878193944,26.5941049054869],[89.6630579930519,26.5947065216334],[89.663023075229,26.595480457646],[89.6620962680887,26.5965098839559],[89.6618683098848,26.598028584406],[89.6615156835683,26.5984576817849],[89.6611629410171,26.5997463174064],[89.6603008292817,26.6000883056556],[89.659874966245,26.6006510771057],[89.6614836502144,26.6016212558572],[89.6615538401816,26.6016573773367]]]},"properties":{"fill-opacity":0,"stroke-opacity":1,"stroke":"#ff0000","SID":"028","DID":"014","RID":"004","BID":"002","State":"West_Bengal","Division":"BuxaTR_WEST","Range":"EastRajabhatkhawa","Beat":"Panbari-South","Beat_Ar":17.0622}}]}