{"type":"FeatureCollection","features":[{"type":"Feature","geometry":{"type":"Polygon","coordinates":[[[89.4552773979068,26.645874405718],[89.4550010202283,26.6459144656932],[89.4544873469481,26.6441032689751],[89.4540455085058,26.6419526326437],[89.453858971335,26.6405001882556],[89.4539320395692,26.6388741825597],[89.4544594722124,26.6367277144569],[89.4553098706366,26.6348145450659],[89.45583556657,26.6330163795721],[89.4561000757223,26.6317976140133],[89.4562000686351,26.6313543873525],[89.4564283378584,26.6303472228407],[89.4569538436344,26.629129444209],[89.4578624264867,26.6281457522702],[89.4587757544974,26.626697525892],[89.4596903764197,26.6249582403482],[89.4600199006444,26.6232173521751],[89.4600285648114,26.621359059627],[89.4605537329195,26.6196770737651],[89.4612736199056,26.6182280020299],[89.4620188319444,26.6172527352147],[89.4644354042154,26.6169875597508],[89.4685066300011,26.6166643519286],[89.4732551672298,26.6164789598985],[89.4765729963958,26.6162197387324],[89.479288199132,26.615958822176],[89.4801645086338,26.6159621009619],[89.4802674555564,26.6159624381251],[89.4808126912086,26.615847050751],[89.4821521397108,26.6155631912493],[89.4876593704096,26.6147024379575],[89.4933907867315,26.6136386053983],[89.4950518628102,26.6133061221384],[89.4956546838368,26.6132405530483],[89.4957750478676,26.6132770754273],[89.4957041025047,26.6139978031902],[89.4954467391313,26.6176796615236],[89.4966471446264,26.6187671509678],[89.4992879886164,26.6211592511261],[89.4992766292265,26.6237589667689],[89.5004715513674,26.626146274751],[89.5001176388436,26.6272484538418],[89.4994940562199,26.6291755474246],[89.5006890451057,26.6315628492692],[89.5033275086455,26.6346049218739],[89.5037119738616,26.6362745923052],[89.5037414490886,26.6364037236521],[89.5035610578206,26.6363399255602],[89.5007841243744,26.6356713298402],[89.4967815104691,26.6356571860257],[89.494773483109,26.6360432685464],[89.4926974994265,26.6364427283059],[89.4896565576192,26.6364320880287],[89.4871323888022,26.6365487982104],[89.4856505436013,26.6366173330761],[89.4817960713136,26.6366034742174],[89.4788273172444,26.6367258056558],[89.4771215838719,26.6368865466811],[89.4764533160255,26.6369504659121],[89.474488324505,26.6372481107773],[89.4737826680763,26.6372486706831],[89.4723346401185,26.6376049350798],[89.4693272361902,26.6384733991789],[89.4672845618235,26.6392776846042],[89.4656185834137,26.6411268657098],[89.464308491642,26.6425792282934],[89.4643053877281,26.6426802216641],[89.463150905037,26.6446927425195],[89.462414394751,26.6448373931883],[89.4610021924249,26.6450344022409],[89.4580694104788,26.6454732046244],[89.4552773979068,26.645874405718]]]},"properties":{"fill-opacity":0,"stroke-opacity":1,"stroke":"#ff0000","SID":"028","DID":"014","RID":"007","BID":"002","State":"West_Bengal","Division":"BuxaTR_WEST","Range":"Nimati","Beat":"Nimati-East","Beat_Ar":10.2598}},{"type":"Feature","geometry":{"type":"Polygon","coordinates":[[[89.4552773979068,26.645874405718],[89.4528237526277,26.6480301743674],[89.4517067405829,26.6489567469341],[89.4491388800881,26.6513135728859],[89.4494418012185,26.6525756012965],[89.4502106272657,26.6551383173044],[89.4508952905392,26.6579565479122],[89.4521550365397,26.6618642342169],[89.452905937549,26.6650819510872],[89.4499676609827,26.6649560637579],[89.4472851777245,26.664945670156],[89.4425582563907,26.6649272677964],[89.4407673723887,26.6649203711391],[89.4382111822525,26.6652776823647],[89.4380829921784,26.6652959031103],[89.4375654324453,26.6653366837564],[89.4375409407194,26.665224125543],[89.4373221758381,26.6642181348692],[89.4372508823743,26.6639165359535],[89.436494481925,26.6583484533012],[89.4368282783417,26.6548130984026],[89.4358419017645,26.6505750668896],[89.4353521003298,26.6490557215048],[89.4354660653503,26.6483548847646],[89.4357457119013,26.6466464173144],[89.4355026917552,26.6444643723044],[89.4352653580716,26.6426976796888],[89.4345643604899,26.641744216833],[89.4336234973103,26.6400345466071],[89.4324939940254,26.6378972603011],[89.4310732558308,26.6372948195793],[89.4302291107005,26.6353292040423],[89.429193096284,26.6336190481179],[89.4292564995444,26.6334929117802],[89.4294822969664,26.6330233344789],[89.4300585216189,26.6317461940553],[89.4308237376964,26.6303845155321],[89.4315870781949,26.6293640937525],[89.4324508868215,26.6278319201419],[89.4335005034952,26.6263009679671],[89.4335996627657,26.6255334422302],[89.4338913614451,26.6244255506153],[89.4345685368624,26.6215283089398],[89.4346680331126,26.6206756094906],[89.4350598922865,26.618117977],[89.4357305628057,26.6170121738634],[89.4368800160951,26.6145427617217],[89.4375891847427,26.6138071326542],[89.4399444476218,26.615809570977],[89.4423474566046,26.6177835626442],[89.4436216485808,26.6190757920686],[89.44384698982,26.6192122536505],[89.4456581412671,26.6190161565812],[89.4501069293626,26.6185590534467],[89.4566683473045,26.6178387523326],[89.4620188319444,26.6172527352147],[89.4612736199056,26.6182280020299],[89.4605537329195,26.6196770737651],[89.4600285648114,26.621359059627],[89.4600199006444,26.6232173521751],[89.4596903764197,26.6249582403482],[89.4587757544974,26.626697525892],[89.4578624264867,26.6281457522702],[89.4569538436344,26.629129444209],[89.4564283378584,26.6303472228407],[89.4562000686351,26.6313543873525],[89.4561000757223,26.6317976140133],[89.45583556657,26.6330163795721],[89.4553098706366,26.6348145450659],[89.4544594722124,26.6367277144569],[89.4539320395692,26.6388741825597],[89.453858971335,26.6405001882556],[89.4540455085058,26.6419526326437],[89.4544873469481,26.6441032689751],[89.4550010202283,26.6459144656932],[89.4552773979068,26.645874405718]]]},"properties":{"fill-opacity":0,"stroke-opacity":1,"stroke":"#ff0000","SID":"028","DID":"014","RID":"007","BID":"001","State":"West_Bengal","Division":"BuxaTR_WEST","Range":"Nimati","Beat":"Nimati-West","Beat_Ar":10.21}},{"type":"Feature","geometry":{"type":"Polygon","coordinates":[[[89.4423474566046,26.6177835626442],[89.4399444476219,26.615809570977],[89.4375891847427,26.6138071326543],[89.43859852664,26.6127582403851],[89.4396516368178,26.6104595582277],[89.4400361342879,26.6098637048947],[89.4408971900246,26.608331793915],[89.4421353231596,26.6072275378995],[89.4430895753076,26.6061227715924],[89.4435727831909,26.6043332529457],[89.4440643644853,26.6028860173543],[89.4441508881539,26.6026296296124],[89.444348708991,26.6011805845627],[89.4447165995242,26.6003790152714],[89.445211312985,26.5993073920243],[89.4458781010331,26.5984570924437],[89.4465475429306,26.5976064809128],[89.4473108718762,26.5965002479902],[89.4485549873227,26.5946287906765],[89.4487146718725,26.5943152509928],[89.448623841142,26.5938934321471],[89.4484581668045,26.5928493984479],[89.4483849980479,26.5923972233567],[89.4478098620808,26.5908942874919],[89.4477013214338,26.588942981752],[89.4474128002775,26.5852709406474],[89.4469194721319,26.5819391216797],[89.4462971335809,26.5782634204416],[89.445930701665,26.5751618395772],[89.4449181804023,26.5733209615729],[89.4433932305058,26.5715932911531],[89.443369167264,26.5713509989815],[89.4432707253643,26.5704447426416],[89.4427758114475,26.5674575409787],[89.4422796187877,26.5642410667863],[89.441915606011,26.5606808768018],[89.4414243943831,26.5564304600503],[89.4413088207977,26.5539044510394],[89.4413122616039,26.5532154414602],[89.4409397977982,26.5513776241394],[89.4443911213857,26.5501279643703],[89.4468213227517,26.5493342023635],[89.4491220395068,26.5488838085217],[89.4500190688794,26.5480833221242],[89.4505373151602,26.5462485789181],[89.4505433497239,26.5449859159246],[89.452969153554,26.5451097891752],[89.4565404261348,26.5454683843403],[89.4565928579664,26.5455095864173],[89.4575578039014,26.546275539024],[89.4592161113139,26.5468561392607],[89.4589552188248,26.5478881834885],[89.4586933199235,26.5491503649013],[89.4589684855554,26.5502161418954],[89.4590607381409,26.5507458119593],[89.4592617319511,26.5518988223404],[89.4592523972769,26.5538721537379],[89.4595053687215,26.5550351604947],[89.4602153543386,26.5555601751494],[89.461637346442,26.5557392030172],[89.4627983419876,26.5558022256288],[89.4635093290022,26.5562702402622],[89.4635683121371,26.5569662425351],[89.4626612945915,26.557776226415],[89.4611712906177,26.5581191980436],[89.4604592808913,26.5586391834128],[89.4597392470193,26.5600881736206],[89.4595392127437,26.5615391722098],[89.459660162307,26.56363017811],[89.4602961174349,26.5654331934787],[89.4613880797795,26.5668892171599],[89.4618380549181,26.5678782275663],[89.4618310201145,26.5693302299044],[89.4616461514538,26.570296055502],[89.4613755125013,26.5717518484135],[89.4605217567045,26.5742101962747],[89.459964241146,26.576109211473],[89.4583672077169,26.5801095056739],[89.4575647028251,26.5824383992436],[89.4571688182597,26.5844697644525],[89.456380076789,26.5867303743883],[89.4547329037794,26.5893015590319],[89.4539006315256,26.591597164772],[89.4548495609871,26.591543952401],[89.4590684088853,26.5917016129463],[89.4621088322551,26.5919073021914],[89.4619674003799,26.5942320947639],[89.4617607631733,26.5960180956122],[89.46126227629,26.598145185494],[89.460802960039,26.6018769492868],[89.461915993229,26.6017663460712],[89.4685112742358,26.6016770572629],[89.4691972267434,26.6016034278293],[89.4689151061299,26.6022282510735],[89.4686535480118,26.6028660552611],[89.4687127927635,26.6036209638057],[89.4691628000474,26.6045520400003],[89.4694826084128,26.6054241098372],[89.4694138238107,26.6061792138381],[89.4690215042252,26.6068744922202],[89.4681765000917,26.6077425303855],[89.4669427622764,26.6090734187223],[89.4653860632455,26.6101710177067],[89.4643429387986,26.611503020463],[89.4635571671383,26.6136488010505],[89.4631624340863,26.6153895228313],[89.462380168098,26.6167800223311],[89.4620188319444,26.6172527352147],[89.4566683473045,26.6178387523325],[89.4501069293626,26.6185590534467],[89.4456581412671,26.6190161565812],[89.44384698982,26.6192122536505],[89.4436216485808,26.6190757920686],[89.4423474566046,26.6177835626442]]]},"properties":{"fill-opacity":0,"stroke-opacity":1,"stroke":"#ff0000","SID":"028","DID":"014","RID":"007","BID":"003","State":"West_Bengal","Division":"BuxaTR_WEST","Range":"Nimati","Beat":"Poro-West","Beat_Ar":27.0001}}]}