{"type":"FeatureCollection","features":[{"type":"Feature","geometry":{"type":"Polygon","coordinates":[[[89.4860768036164,26.8014654728563],[89.4860140791604,26.7997078156969],[89.4857439060701,26.7982645208969],[89.4855337502335,26.7968549993651],[89.4849736605137,26.7933197124799],[89.483919586039,26.7905874065877],[89.4828857920394,26.786693285854],[89.483435539894,26.7834734717319],[89.4841809583854,26.7809684670148],[89.4854241593669,26.7789791008202],[89.4860974561048,26.7768411730616],[89.4866015295187,26.775416810022],[89.4868943218416,26.7745888580436],[89.4868805760688,26.7731386333896],[89.4870647450847,26.7707071946256],[89.4879568395436,26.7679301829158],[89.48830059356,26.7658089649256],[89.4881518758068,26.7641912357894],[89.4875016668568,26.7611447643893],[89.4880671416507,26.7611557392119],[89.4902248239545,26.7609799008065],[89.4936039884795,26.762003777544],[89.4963498606108,26.7624310552141],[89.4984767493912,26.7623620155551],[89.5013056056463,26.7621924352771],[89.5029017419598,26.7628162122835],[89.5054912147432,26.7633775157689],[89.5065510905318,26.763607350969],[89.5080521548666,26.7635499053947],[89.5108280780076,26.7633922611203],[89.511009830814,26.7632349345112],[89.5132839243611,26.7616488781351],[89.5143131769153,26.7601770721962],[89.5151715503057,26.7581095166919],[89.5169166477347,26.7561587938569],[89.5194454964598,26.7543350020641],[89.5211072205848,26.7530689916555],[89.5220412598729,26.7527160304463],[89.5221733397508,26.7529827981491],[89.5222632466117,26.7531386267638],[89.5229817101845,26.7538666521379],[89.5254913945343,26.7560460397793],[89.5283219616459,26.7560298833671],[89.5291283439027,26.7561511777093],[89.5327642363018,26.7571586510409],[89.5353738517967,26.7589569112537],[89.538827461497,26.7596726346738],[89.5409654884399,26.7599908774662],[89.5413121659073,26.7600420929439],[89.5422884562812,26.7604547451155],[89.5460385690748,26.7625195502875],[89.548173887632,26.762898906371],[89.5501063580108,26.7617756794625],[89.5520392996665,26.7618436059639],[89.5515153241694,26.7621234594549],[89.5510329578499,26.7653105955563],[89.5513248969605,26.7671911793717],[89.5513486944514,26.7675425769194],[89.5514504830433,26.7691556490918],[89.5516661523649,26.7712612598095],[89.5516888194593,26.7725446906371],[89.5517033267071,26.7733789794333],[89.5498082194338,26.7758520553149],[89.5489463671822,26.7770024809998],[89.548777074408,26.7772417815696],[89.5470540991413,26.7800169383466],[89.5467737508829,26.7816141699634],[89.5465604833892,26.7828282708295],[89.5450337122805,26.7868226164329],[89.5440934926152,26.7887395105989],[89.5436218796307,26.7890779874909],[89.5419980155472,26.7902457145919],[89.5396133866456,26.790480381295],[89.5376723874849,26.7910728415297],[89.5364270786248,26.7905892053654],[89.5343961110274,26.7891375051432],[89.5324449319589,26.7891375134847],[89.529622424788,26.7894520518795],[89.5268551796404,26.7897749619817],[89.526787228328,26.7897824638099],[89.526164383417,26.7902392671427],[89.5253900851378,26.7908059916385],[89.5243597460616,26.7925102600453],[89.5231673852282,26.795721326766],[89.5219681809094,26.7981081579808],[89.5213895471601,26.8006183066675],[89.518787218797,26.803579422718],[89.5168616235423,26.8052334724255],[89.515553209842,26.8066251022388],[89.5140499564612,26.808272612617],[89.51336980323,26.8091589070114],[89.511881388314,26.8072566379196],[89.5104650741888,26.8055481643963],[89.5083323131029,26.8044048471909],[89.5063592915275,26.8035463120025],[89.5043031102549,26.803326530862],[89.501614587812,26.8028204342615],[89.4992594507163,26.8025394573284],[89.4984444577691,26.801977882314],[89.4957632437094,26.8009352185386],[89.4926909391775,26.801383655351],[89.4879985759685,26.8013527571181],[89.4878274327722,26.801366684938],[89.4860768036164,26.8014654728563]]]},"properties":{"fill-opacity":0,"stroke-opacity":1,"stroke":"#ff0000","SID":"028","DID":"014","RID":"002","BID":"002","State":"West_Bengal","Division":"BuxaTR_WEST","Range":"Pana","Beat":"Adma","Beat_Ar":25.4654}},{"type":"Feature","geometry":{"type":"Polygon","coordinates":[[[89.5411149396606,26.7120071344369],[89.5408435104603,26.7120278528363],[89.5393855547679,26.712168065211],[89.537703623241,26.7123659669698],[89.5348857083887,26.7126472253707],[89.533266829586,26.7128164732703],[89.5320375436244,26.7129575200997],[89.5312608494303,26.7130130116101],[89.5299312012406,26.7130956214555],[89.5286370602764,26.7131205883238],[89.5276014366354,26.7132042339718],[89.5265332271449,26.7132588944264],[89.5256256816125,26.7133718845546],[89.525617918695,26.7152597267852],[89.525605314414,26.7183368460743],[89.5257939841928,26.7201376872375],[89.5259131728712,26.7223450844773],[89.5261642005864,26.7242622850188],[89.5263537133178,26.7258307405419],[89.5263610862761,26.7258887545455],[89.525056504633,26.7259425706321],[89.5222083965649,26.7261658201705],[89.5202652542596,26.7262755232071],[89.5186468239038,26.7262700433687],[89.5170280530581,26.7263807359305],[89.5151507512931,26.7263746047315],[89.5129488816933,26.72648330942],[89.5113299415414,26.7265936570578],[89.5088028316258,26.7269336307587],[89.5067311330797,26.7271590142813],[89.5049838251291,26.7273273393824],[89.5032341764558,26.7274375741547],[89.5019392545739,26.727606699768],[89.5002539195719,26.7279497194419],[89.4990868427054,26.7281780969267],[89.4978572643082,26.728348186096],[89.4972737931804,26.7284618015688],[89.4966901712375,26.7285759802899],[89.4966347432015,26.728613509286],[89.493897587242,26.7286816086777],[89.4914691598765,26.7288752827015],[89.488681403875,26.7290267255871],[89.4859393437149,26.7290569341375],[89.4837386564222,26.7288876775629],[89.4826616668839,26.72864176397],[89.4826038623294,26.728641805131],[89.4835131389,26.7213984329013],[89.4841265807343,26.7196652559095],[89.4822538886447,26.7175249442548],[89.4848378737753,26.7117127145096],[89.4939425333752,26.7109421520403],[89.4952525473076,26.7101638035251],[89.4972911438608,26.7093878983739],[89.498252223825,26.7085314272594],[89.4987516322698,26.7080873382698],[89.5000694767978,26.7054822864426],[89.5010984378608,26.7028754895038],[89.5015408992267,26.7004906384167],[89.5017106022591,26.699566103743],[89.502621209479,26.6981638871183],[89.5029070471433,26.6977243050214],[89.5037193707295,26.695168011261],[89.5046014618965,26.6927728463741],[89.503949023295,26.6920225730706],[89.5030131778767,26.6894106500889],[89.5036175344129,26.689073725303],[89.5045256839028,26.6881963449419],[89.5052855740417,26.6873177132597],[89.5060442498127,26.6861689249828],[89.5063480240716,26.6856279044695],[89.5065775689753,26.6848160963943],[89.5063584546077,26.6831895337321],[89.5060622588118,26.6819687557106],[89.5059918252384,26.6808172096989],[89.5063007266731,26.6790570041693],[89.5064590398205,26.6772961415879],[89.5063912546166,26.6755348603204],[89.5066999323384,26.6738423382644],[89.5077583074994,26.6730330006341],[89.5094961158247,26.6725644266246],[89.5107174110281,26.6724315684939],[89.5113054803644,26.6723674911962],[89.5128895634866,26.6725759286094],[89.5142433649444,26.6731903632753],[89.5157456677974,26.6743469124183],[89.5171749519818,26.6755713440129],[89.5177738258846,26.6765217944686],[89.5182186337629,26.6782846687254],[89.5190356979245,26.6811323914508],[89.5198558744317,26.6838447093851],[89.5215034444692,26.6863566595243],[89.523070962094,26.6900203248775],[89.5246454428837,26.692667534767],[89.5258856088871,26.6947334380942],[89.5275375439288,26.6980780281618],[89.5288890164633,26.699393123748],[89.5303699828329,26.7009589219205],[89.5311054693786,26.7017369334564],[89.5311706238586,26.7018058854277],[89.5318559719002,26.7025331089668],[89.5358008198253,26.7056570730057],[89.5411149396606,26.7120071344369]]]},"properties":{"fill-opacity":0,"stroke-opacity":1,"stroke":"#ff0000","SID":"028","DID":"014","RID":"002","BID":"004","State":"West_Bengal","Division":"BuxaTR_WEST","Range":"Pana","Beat":"Gangutia","Beat_Ar":16.6897}},{"type":"Feature","geometry":{"type":"Polygon","coordinates":[[[89.4590920094479,26.7980367704386],[89.45861345242,26.7971079753367],[89.4584024772207,26.7965278020747],[89.4576914613469,26.7953033169259],[89.4569048805678,26.7946571625939],[89.4559753921435,26.7939456390786],[89.4556908047199,26.7934945336177],[89.4551202432854,26.7929135444704],[89.4543362085629,26.7922673485292],[89.4530483887537,26.7918118893473],[89.4517621397359,26.7910351921382],[89.4511189627819,26.7903895049017],[89.4502628793393,26.7895497191705],[89.4499790418875,26.7889697144163],[89.4499079610526,26.7885838067769],[89.4491232666964,26.788066183485],[89.4484798332021,26.7874842201295],[89.4470521840156,26.7863211607403],[89.4466466177501,26.7859547483065],[89.4456251244692,26.7850289188058],[89.4451247857063,26.7845125945905],[89.4445546094786,26.7838672567408],[89.4438400983918,26.7834143118002],[89.4431998033417,26.7827036932903],[89.4428449690426,26.7817377590406],[89.4424943571097,26.7803851427775],[89.4419266609115,26.7792253785338],[89.4410014330603,26.7776778226518],[89.4395788863908,26.7754850031556],[89.4388850303443,26.7739122327591],[89.4404272161115,26.7731672527079],[89.4432629111268,26.7721837364408],[89.4452504828095,26.7718684580575],[89.4469549009212,26.7713814837938],[89.4484697747779,26.7710780458357],[89.4496023680755,26.770802480972],[89.4499521690202,26.7707419295304],[89.4539925656254,26.7695927171988],[89.4555633179462,26.7691524190152],[89.4627275558095,26.7671459041397],[89.4740021639183,26.7633872913658],[89.4797651307957,26.7614655921367],[89.4797782219021,26.7613484213311],[89.4824057074113,26.7612320854762],[89.4848322209213,26.7610670485601],[89.4865564712908,26.7611253687245],[89.4875016668568,26.7611447643893],[89.4881518758068,26.7641912357894],[89.48830059356,26.7658089649256],[89.4879568395436,26.7679301829158],[89.4870647450847,26.7707071946256],[89.4868805760688,26.7731386333896],[89.4868943218416,26.7745888580436],[89.4866015295187,26.775416810022],[89.4860974561048,26.7768411730616],[89.4854241593669,26.7789791008202],[89.4841809583854,26.7809684670148],[89.483435539894,26.7834734717319],[89.4828857920394,26.786693285854],[89.483919586039,26.7905874065877],[89.4849736605137,26.7933197124799],[89.4855337502335,26.7968549993651],[89.4857439060701,26.7982645208969],[89.4860140791604,26.7997078156969],[89.4860768036164,26.8014654728563],[89.4859082764564,26.8014751407546],[89.4834780215956,26.8016960985168],[89.4811740513341,26.8018023244664],[89.4787429234607,26.8016791608892],[89.4759201352808,26.8013761762231],[89.4754199235259,26.8013224586675],[89.473115960598,26.8014291174934],[89.4696597242543,26.8016461455047],[89.4669730650108,26.8018661028276],[89.4646742559564,26.8008239485154],[89.4643831271536,26.8007113412096],[89.4619933857098,26.7997811954912],[89.4603345963632,26.7985118154006],[89.4590920094479,26.7980367704386]]]},"properties":{"fill-opacity":0,"stroke-opacity":1,"stroke":"#ff0000","SID":"028","DID":"014","RID":"002","BID":"001","State":"West_Bengal","Division":"BuxaTR_WEST","Range":"Pana","Beat":"Pana","Beat_Ar":14.0011}},{"type":"Feature","geometry":{"type":"Polygon","coordinates":[[[89.4875016668568,26.7611447643893],[89.4865564712908,26.7611253687245],[89.4848322209213,26.7610670485601],[89.4824057074113,26.7612320854762],[89.4797782219021,26.7613484213311],[89.4799167818375,26.76016084063],[89.4802929796449,26.7575392938794],[89.4805160303088,26.7559864721673],[89.4817212523822,26.7467247888785],[89.4823312717119,26.7401360098735],[89.4824835371252,26.7387006767052],[89.4823744998907,26.7304778375799],[89.4826038623294,26.728641805131],[89.4826616668839,26.72864176397],[89.4837386564222,26.7288876775629],[89.4859393437149,26.7290569341375],[89.488681403875,26.7290267255871],[89.4914691598765,26.7288752827015],[89.493897587242,26.7286816086777],[89.4966347432015,26.728613509286],[89.4966901712375,26.7285759802899],[89.4972737931804,26.7284618015688],[89.4978572643082,26.728348186096],[89.4990868427054,26.7281780969267],[89.5002539195719,26.7279497194419],[89.5019392545739,26.727606699768],[89.5032341764558,26.7274375741547],[89.5049838251291,26.7273273393824],[89.5067311330797,26.7271590142813],[89.5088028316258,26.7269336307587],[89.5113299415414,26.7265936570578],[89.5129488816933,26.72648330942],[89.5151507512931,26.7263746047315],[89.5170280530581,26.7263807359305],[89.5186468239038,26.7262700433687],[89.5202652542596,26.7262755232071],[89.5222083965649,26.7261658201705],[89.525056504633,26.7259425706321],[89.5263610862761,26.7258887545455],[89.5263537133178,26.7258307405419],[89.5261642005864,26.7242622850188],[89.5259131728712,26.7223450844773],[89.5257939841928,26.7201376872375],[89.525605314414,26.7183368460743],[89.525617918695,26.7152597267852],[89.5256256816125,26.7133718845546],[89.5265332271449,26.7132588944264],[89.5276014366354,26.7132042339718],[89.5286370602764,26.7131205883238],[89.5299312012406,26.7130956214555],[89.5312608494303,26.7130130116101],[89.5320375436244,26.7129575200997],[89.533266829586,26.7128164732703],[89.5348857083887,26.7126472253707],[89.537703623241,26.7123659669698],[89.5393855547679,26.712168065211],[89.5408435104603,26.7120278528363],[89.5411149396606,26.7120071344369],[89.5413875906961,26.7123329880891],[89.5432086980087,26.7156707307417],[89.5438548779563,26.7181239113455],[89.5444432827535,26.7212037701884],[89.5453203476364,26.7224793051955],[89.5459008730142,26.7231280700296],[89.5441537141356,26.7245532075991],[89.5403084169505,26.727175148222],[89.5365539174334,26.7303352000771],[89.534726772977,26.7322066651931],[89.5336975116835,26.7338280715925],[89.5320701012121,26.7372799605116],[89.5321855466177,26.7397817980215],[89.5320590786391,26.7424949369699],[89.5306861674789,26.7451152414441],[89.5292416238295,26.7474359711654],[89.5290492682135,26.7477479737252],[89.5272241221106,26.7496918048325],[89.5270091189478,26.7500378899223],[89.5241786666556,26.75190848785],[89.5220412598729,26.7527160304463],[89.5211072205848,26.7530689916555],[89.5194454964598,26.7543350020641],[89.5169166477347,26.7561587938569],[89.5151715503057,26.7581095166919],[89.5143131769153,26.7601770721962],[89.5132839243611,26.7616488781351],[89.511009830814,26.7632349345112],[89.5108280780076,26.7633922611203],[89.5080521548666,26.7635499053947],[89.5065510905318,26.763607350969],[89.5054912147432,26.7633775157689],[89.5029017419598,26.7628162122835],[89.5013056056463,26.7621924352771],[89.4984767493912,26.7623620155551],[89.4963498606108,26.7624310552141],[89.4936039884795,26.762003777544],[89.4902248239545,26.7609799008065],[89.4880671416507,26.7611557392119],[89.4875016668568,26.7611447643893]]]},"properties":{"fill-opacity":0,"stroke-opacity":1,"stroke":"#ff0000","SID":"028","DID":"014","RID":"002","BID":"003","State":"West_Bengal","Division":"BuxaTR_WEST","Range":"Pana","Beat":"Raimatong","Beat_Ar":19.7066}}]}