{"type":"FeatureCollection", "features": [
{"type":"Feature","geometry":{"type":"Polygon","coordinates":[[[89.6666901589493,26.7198194259176],[89.6664688690476,26.7198372616303],[89.6662975479892,26.7198979383972],[89.6661226561618,26.7199907351532],[89.6658763839008,26.7201085105616],[89.66534099784,26.7204118806662],[89.6647841919168,26.7207116903461],[89.6642845053388,26.7210329011801],[89.6638561896264,26.7213112933287],[89.6633350824951,26.7216574937899],[89.6627854248273,26.7220286837394],[89.6624713305694,26.7222356879867],[89.6621144054639,26.7224819514697],[89.6617467717666,26.7226711146389],[89.6613148985693,26.7228459965278],[89.6608366250513,26.7230387275434],[89.6602511397579,26.7233154366195],[89.6602110405047,26.7232885657874],[89.6582670766713,26.7219875254555],[89.6566560985783,26.7212424926442],[89.6573891297851,26.7198805044631],[89.6574581633604,26.7184865032613],[89.6570071967792,26.7171504920157],[89.6561702325755,26.7157544731274],[89.6561752789527,26.7138374697216],[89.6562503546261,26.7107024654556],[89.6563244260806,26.7077414614877],[89.6566534674035,26.7060004647247],[89.6575625030979,26.7044344795968],[89.6580885453445,26.7026354865688],[89.6582225913573,26.7007194856785],[89.6582326741725,26.6972934796069],[89.6583687173636,26.695493478967],[89.6582407442383,26.6943944744601],[89.6612177328239,26.6945715328476],[89.665488725162,26.6944656159574],[89.6713157179582,26.6941877291037],[89.6759117095581,26.6940818185576],[89.6793406997947,26.6941478855665],[89.6806347008493,26.693976910493],[89.6816726966391,26.6940489308739],[89.6817098555351,26.6945045424394],[89.6818169278588,26.6948114950945],[89.6819454099589,26.6951255881805],[89.6822309275429,26.6956110046461],[89.6825307275092,26.6959964812061],[89.6829233239747,26.696517599827],[89.6831446027464,26.6969601849609],[89.6833301919481,26.6973884893723],[89.6835014961773,26.6980238038874],[89.6835871419906,26.6986020166259],[89.6836799227799,26.6993872498859],[89.6837512946554,26.7001296426491],[89.6837726933824,26.7005936339235],[89.6836656098248,26.7011647028884],[89.6834585782311,26.7016643897714],[89.6832087317464,26.7019570554366],[89.683065957942,26.7021283829671],[89.6827661477919,26.7021640671828],[89.6825591407018,26.7020641229592],[89.6823949564449,26.7018428293471],[89.6820594606965,26.7017000525374],[89.6816454311637,26.7017214644984],[89.6812242669864,26.7019356066757],[89.6807388477825,26.7023638979941],[89.6804318884988,26.7027779227682],[89.6799036343894,26.7034132236321],[89.6795395604068,26.7040271176597],[89.6793253957213,26.7046552946387],[89.6791183689462,26.7053691319146],[89.6789327545372,26.7059830294241],[89.6788592131073,26.7064627288731],[89.678794961517,26.7069481385139],[89.6787235609796,26.7073907179362],[89.6785879232719,26.7077226559009],[89.678298811267,26.7082473212255],[89.6779882836308,26.7085935258032],[89.6775135731044,26.7090753574264],[89.6770388638736,26.7095036489508],[89.6767604584923,26.7097534939774],[89.6763535573725,26.7102531669562],[89.675982357117,26.7107135905592],[89.6756718272351,26.7111525953068],[89.6755004917712,26.7113952924095],[89.6751649795303,26.7119342368532],[89.6749508223546,26.712251893258],[89.6746581420841,26.7127051783796],[89.6745332048678,26.7130156965125],[89.6744213494234,26.7140781262842],[89.6743648243699,26.7147057063356],[89.6742785555059,26.7150804653412],[89.6740227532311,26.7156128713275],[89.6738145462416,26.7159221978324],[89.6734665360587,26.7163772618762],[89.6729222235371,26.7169483223012],[89.6727050890886,26.7171535484399],[89.6722708311994,26.717522360641],[89.6717176035949,26.7178911605194],[89.6707241643075,26.7183729820117],[89.6700727793861,26.7186406597875],[89.6695314545616,26.7188934696844],[89.6682364155228,26.719394915324],[89.6671133115309,26.7196709139057],[89.6666901589493,26.7198194259176]]]},"properties":{"compartment":"Hatipota BL3"},"id":"comptt.167"}
]}