{"type":"FeatureCollection", "features": [
{"type":"Feature","geometry":{"type":"Polygon","coordinates":[[[89.7067490014856,26.72032246899],[89.7059440217214,26.7203912633985],[89.7048375705339,26.7205482820839],[89.7036597393431,26.7207124493889],[89.7020250483707,26.7209122878386],[89.7005616797604,26.7209979194216],[89.6992696314374,26.7210550042973],[89.6962358279365,26.7210834951087],[89.6944869313936,26.7211120110112],[89.6927808568256,26.7210548775917],[89.6916530026151,26.7209263653309],[89.6906679080663,26.7207978558581],[89.689939801525,26.720726451509],[89.6892473735163,26.7207121679625],[89.6881837569095,26.7206764471288],[89.6875198874513,26.7207192642456],[89.687020206393,26.7208120546606],[89.6864705440712,26.7209619542053],[89.6859779921322,26.7210904348255],[89.6854426109867,26.7211903645565],[89.6851428001451,26.7212545988212],[89.6844289611531,26.721283144936],[89.68287993467,26.721290244704],[89.6811096288891,26.7212902101389],[89.6788396244755,26.7212830358046],[89.677404809801,26.7212044776459],[89.6766195944407,26.7210902521049],[89.6759307487644,26.7209795884522],[89.6753953724625,26.7208796478157],[89.6740533550641,26.7209046016605],[89.6735037056863,26.7209331509819],[89.6726613762312,26.7209938046482],[89.6717655064726,26.7210723073023],[89.671051667748,26.7210901433986],[89.6702843008802,26.7210365883187],[89.6696668351228,26.720922366054],[89.6691849986092,26.7208259864702],[89.6686746024233,26.7207188963093],[89.6683712254825,26.7206225302096],[89.6677751823533,26.7203976581606],[89.6672469500122,26.7201335273635],[89.6669471353961,26.7199407811569],[89.6666901589493,26.7198194259176],[89.6671133115309,26.7196709139057],[89.6682364155228,26.719394915324],[89.6695314545616,26.7188934696844],[89.6700727793861,26.7186406597875],[89.6707241643075,26.7183729820117],[89.6717176035949,26.7178911605194],[89.6722708311994,26.717522360641],[89.6727050890886,26.7171535484399],[89.6729222235371,26.7169483223012],[89.6734665360587,26.7163772618762],[89.6738145462416,26.7159221978324],[89.6740227532311,26.7156128713275],[89.6742785555059,26.7150804653412],[89.6743648243699,26.7147057063356],[89.6744213494234,26.7140781262842],[89.6745332048678,26.7130156965125],[89.6746581420841,26.7127051783796],[89.6749508223546,26.712251893258],[89.6751649795303,26.7119342368532],[89.6755004917712,26.7113952924095],[89.6756718272351,26.7111525953068],[89.675982357117,26.7107135905592],[89.6763535573725,26.7102531669562],[89.6767604584923,26.7097534939774],[89.6770388638736,26.7095036489508],[89.6775135731044,26.7090753574264],[89.6779882836308,26.7085935258032],[89.678298811267,26.7082473212255],[89.6785879232719,26.7077226559009],[89.6787235609796,26.7073907179362],[89.678794961517,26.7069481385139],[89.6788592131073,26.7064627288731],[89.6789327545372,26.7059830294241],[89.6791183689462,26.7053691319146],[89.6793253957213,26.7046552946387],[89.6795395604068,26.7040271176597],[89.6799036343894,26.7034132236321],[89.6804318884988,26.7027779227682],[89.6807388477825,26.7023638979941],[89.6812242669864,26.7019356066757],[89.6816454311637,26.7017214644984],[89.6820594606965,26.7017000525374],[89.6823949564449,26.7018428293471],[89.6825591407018,26.7020641229592],[89.6827661477919,26.7021640671828],[89.683065957942,26.7021283829671],[89.6832087317464,26.7019570554366],[89.6834585782311,26.7016643897714],[89.6836656098248,26.7011647028884],[89.6837726933824,26.7005936339235],[89.6837512946554,26.7001296426491],[89.6836799227799,26.6993872498859],[89.6835871419906,26.6986020166259],[89.6835014961773,26.6980238038874],[89.6833301919481,26.6973884893723],[89.6831446027464,26.6969601849609],[89.6829233239747,26.696517599827],[89.6825307275092,26.6959964812061],[89.6822309275429,26.6956110046461],[89.6819454099589,26.6951255881805],[89.6818169278588,26.6948114950945],[89.6817098555351,26.6945045424394],[89.6816726966391,26.6940489308739],[89.6816277041928,26.6937409294279],[89.681690722369,26.6929829292585],[89.6820547411341,26.6921709348608],[89.6824777545124,26.6915759420138],[89.6827807616247,26.691251947326],[89.6828417693362,26.690926947916],[89.682600775179,26.690708942813],[89.6821797840604,26.6903829340001],[89.6820597908966,26.6901119311595],[89.6821207972782,26.6898419318511],[89.6824838042712,26.6895169383314],[89.6826648064516,26.6894089416623],[89.6826658116945,26.6891919412814],[89.6823648189604,26.6889209349107],[89.681702828414,26.6885949213979],[89.6808518443355,26.6880199037402],[89.6809178450245,26.6879849049629],[89.6831098295895,26.6884079484941],[89.6855028125447,26.6888779960345],[89.6874438008308,26.6891720344357],[89.6884407955163,26.6892940541074],[89.6886867719921,26.6902430606606],[89.6887497538326,26.6909880632673],[89.6893217413551,26.6914480752757],[89.6895147395194,26.6915050791458],[89.6897687351939,26.6916590843854],[89.690086729798,26.6918510909437],[89.6902074557182,26.6920080035891],[89.6897462625536,26.6930113464493],[89.6894607082045,26.6940464127941],[89.6892465243755,26.6950529204779],[89.6890251901931,26.6969017595803],[89.6889823109217,26.6989433425204],[89.6890393760697,26.700792187054],[89.6890964429402,26.7025696514558],[89.6892106198598,26.7039259461929],[89.6892677062382,26.7048967691029],[89.689488969635,26.7059746754152],[89.6896459876736,26.7068669701305],[89.6897744700968,26.7075808139588],[89.6899814647512,26.7081947191348],[89.6903526372878,26.7088800176474],[89.6905881956738,26.7093368730906],[89.6909593846009,26.7097580511152],[89.6912591866342,26.710057867522],[89.6916375098628,26.7103005853558],[89.6921015051342,26.7104504946902],[89.6925083922686,26.7105290227778],[89.6930294896502,26.7105861430552],[89.6944785731041,26.7107146615789],[89.6956992281376,26.7108003455649],[89.6970055512416,26.7109574213558],[89.6975766174704,26.7110573626887],[89.6981262620223,26.711228703736],[89.6988115429708,26.711535667683],[89.6992469771026,26.7117355465542],[89.699675272979,26.7118640451536],[89.7000107797661,26.7119639918887],[89.7008316786667,26.7123423386167],[89.7014669909435,26.7125993414967],[89.7019452523827,26.7129063014038],[89.7022664757484,26.7131490081259],[89.7027304565303,26.7134845178076],[89.703123057135,26.7138343161225],[89.7033086484021,26.7141769603829],[89.7034299896481,26.7145267434022],[89.7034514018214,26.7148479744175],[89.7034870849979,26.7151263656317],[89.7035941466227,26.7154618783459],[89.7038106763758,26.7158640133212],[89.7040842962242,26.7162566293936],[89.7043817271683,26.7166016558426],[89.7046910515407,26.7168039122584],[89.7051312467558,26.7169585911411],[89.7054762639242,26.7170418780327],[89.7059402482191,26.7172322474465],[89.7062971595988,26.7175534750134],[89.7065945819829,26.7178390213523],[89.7067849326036,26.7182078357556],[89.7068087236173,26.7185766569067],[89.706784913015,26.7190168572611],[89.7067492035098,26.7198258780696],[89.7067490014856,26.72032246899]]]},"properties":{"compartment":"Hatipota BL2A"},"id":"comptt.164"}
]}