{"type":"FeatureCollection", "features": [
{"type":"Feature","geometry":{"type":"Polygon","coordinates":[[[89.8430963853296,26.5409381726722],[89.8430195544311,26.5413990520798],[89.8427839570631,26.5429766305843],[89.8425412124515,26.5444399987263],[89.8422913375102,26.5459176467571],[89.8421985123361,26.5469741270168],[89.8419771995038,26.5479449446121],[89.8417201900607,26.5491941620569],[89.8414845998305,26.5500578991649],[89.8411990385611,26.5513856362074],[89.8410276775509,26.5526919554272],[89.8408848935087,26.5537056046308],[89.8406350217617,26.5546335915854],[89.8402923581612,26.5556472369031],[89.839992535445,26.5562040321617],[89.8395427999736,26.5568893047564],[89.8392585812066,26.5572803299943],[89.8391886321694,26.5572467385689],[89.8287097764326,26.5522145250882],[89.8217218640191,26.5492183834717],[89.8215458719797,26.5489033794409],[89.8218179846719,26.5441863755786],[89.8216870562165,26.5412193672796],[89.8254710817242,26.5410546404712],[89.8353125084328,26.5411119417788],[89.83959553349,26.5409216646212],[89.8430963853296,26.5409381726722]]]},"properties":{"compartment":"S Bholka BL1"},"id":"comptt.9"}
]}