{"type":"FeatureCollection", "features": [
{"type":"Feature","geometry":{"type":"Polygon","coordinates":[[[89.6582407442383,26.6943944744601],[89.6583687173636,26.695493478967],[89.6582326741725,26.6972934796069],[89.6582225913573,26.7007194856785],[89.6580885453445,26.7026354865688],[89.6575625030979,26.7044344795968],[89.6566534674035,26.7060004647247],[89.6563244260806,26.7077414614877],[89.6562503546261,26.7107024654556],[89.6561752789527,26.7138374697216],[89.6561702325755,26.7157544731274],[89.6570071967792,26.7171504920157],[89.6574581633604,26.7184865032613],[89.6573891297851,26.7198805044631],[89.6566560985783,26.7212424926442],[89.6550301207402,26.7204884595255],[89.6532959923368,26.7201817251145],[89.6532325649954,26.719665052933],[89.6532087696602,26.7194746921209],[89.6531730843536,26.7192843310768],[89.6531374048059,26.7188560295982],[89.6530779235877,26.7184991077855],[89.6529470619651,26.718165984623],[89.6527091249194,26.7176543890447],[89.6523760181022,26.7171428016092],[89.6519715234722,26.7165479226285],[89.6515194392441,26.7159411526977],[89.6511149405826,26.7155128440215],[89.6503178471848,26.7149060673581],[89.6496635022916,26.7143468735681],[89.6493184908956,26.7140256362491],[89.6486165626622,26.7136092217916],[89.6482834503738,26.7133236747704],[89.6477956678823,26.7130619247744],[89.6471651206283,26.7125979216242],[89.6463561215764,26.7118126844068],[89.6456304082936,26.711194009119],[89.6449879622196,26.7106824056515],[89.6442979353966,26.710206501321],[89.6438696436251,26.7099090624229],[89.6435008328612,26.7095640345988],[89.6428108025849,26.7092308905291],[89.6424419895186,26.7089810428787],[89.6419780004234,26.70857652309],[89.640847787325,26.7075771292219],[89.6404313826472,26.7073986607734],[89.6402291339992,26.7073629567627],[89.6398246301559,26.7071487984818],[89.6395391086147,26.7068275723277],[89.6391583967283,26.7065301243599],[89.6386349306537,26.7060066331967],[89.6382899175297,26.7057567860121],[89.6380162839457,26.7055188302418],[89.6375998895559,26.7053284617731],[89.6369455351659,26.7051618887055],[89.636374476329,26.7047573668312],[89.6358866923996,26.7045551069488],[89.6355416778374,26.7043647398732],[89.6351014849439,26.704114890833],[89.6346375023957,26.7038531413073],[89.6341616181503,26.7036627716793],[89.6336024426682,26.7035318905344],[89.6331265589983,26.7033177308636],[89.6325792857891,26.7030916697787],[89.632246171486,26.7028894129144],[89.6316751074717,26.7026990414306],[89.6313062915293,26.7025681639996],[89.6307828179752,26.7023540034012],[89.6303307242483,26.7021398441952],[89.6299143289968,26.7019851657935],[89.6293551538038,26.7018423846285],[89.6287246165502,26.7013783814903],[89.6281654511373,26.7008310895939],[89.6275825043435,26.7003432873417],[89.6270828241836,26.6999863669507],[89.6267497041954,26.6996056397652],[89.6263333236121,26.6988442002676],[89.626024013056,26.6980708728369],[89.6258693552221,26.6975830789388],[89.6255661801937,26.6961681005083],[89.6264287961762,26.6954188559341],[89.6277678148756,26.6945108804018],[89.6284738296475,26.6938288929343],[89.6293548417721,26.6932389090449],[89.6303418521664,26.6927099273324],[89.6316818748049,26.6916389515201],[89.6326028852636,26.6911139685264],[89.6340779020192,26.6902729957609],[89.636222913678,26.6895760363184],[89.6397429287642,26.6886001031766],[89.6412799354958,26.6881681323585],[89.6438039473417,26.6874261802196],[89.646189957012,26.6867882255779],[89.6491899718072,26.6858772824084],[89.6523069841542,26.685056341682],[89.6533339971272,26.6844173605383],[89.6536649057703,26.6881653738368],[89.6539798348329,26.6910693852831],[89.6542977849313,26.6931023951979],[89.6548747554335,26.6942654085756],[89.655328747285,26.6945574179637],[89.6571407484481,26.6943294528873],[89.6582407442383,26.6943944744601]]]},"properties":{"compartment":"Phaskhawa BL2"},"id":"comptt.163"}
]}