{"type":"FeatureCollection", "features": [
{"type":"Feature","geometry":{"type":"Polygon","coordinates":[[[89.5575381882678,26.7828529570481],[89.5562770814188,26.7828529323969],[89.5548018153952,26.7828410035389],[89.5532432678497,26.7829004631788],[89.5522439012161,26.7828647535817],[89.5512564265747,26.7827457540709],[89.5505901905521,26.7826505608811],[89.5495194404504,26.7823531094296],[89.548746123357,26.7819009935204],[89.5471757057662,26.7811395414896],[89.5468877099446,26.7809403552692],[89.5470499432801,26.7800184570639],[89.5487730062819,26.7772434858656],[89.5489420116562,26.7770044887485],[89.5498040374171,26.7758535035721],[89.5516990926566,26.7733805362564],[89.5516851129182,26.7725465345167],[89.5516621440899,26.771263531812],[89.5514461956985,26.7691575238897],[89.5513442350635,26.7675445190617],[89.5513278989909,26.7672943784451],[89.5513212436554,26.7671925179936],[89.5510292899642,26.7653125089849],[89.5515113660149,26.7621255127982],[89.5520353714922,26.7618455225411],[89.5526253960256,26.7607725321783],[89.554030409216,26.7600835584086],[89.5557144178824,26.7595525903654],[89.5575804189474,26.759316626396],[89.5590674251044,26.7589096547224],[89.5604664292285,26.7585956814937],[89.5624704288186,26.7584067203019],[89.5640404293463,26.7582237506441],[89.5646044194118,26.758575762282],[89.5647024176896,26.758636764304],[89.5661093929822,26.7595117933328],[89.5684383506881,26.7610178414903],[89.5703523301523,26.7616688800321],[89.572160313615,26.7621659162326],[89.5722798426705,26.7621890490579],[89.5703163365176,26.7634724625228],[89.5684484360642,26.7645074878624],[89.5671516085196,26.7653640740416],[89.5666162303319,26.7657566742761],[89.5655692459169,26.7664585950615],[89.5651409397711,26.7667560172191],[89.5648197042238,26.7670177614054],[89.5646293471971,26.7673270882328],[89.5645103594158,26.7676602064966],[89.5643437891563,26.7681004040198],[89.5641653171953,26.7686119814365],[89.5639511553227,26.7691235681557],[89.5635347250097,26.770003961574],[89.5630112223657,26.7709914330886],[89.5621545881437,26.772490478996],[89.5614883152767,26.773501737761],[89.5608220435634,26.7744654064412],[89.5602390548163,26.7752982065173],[89.5596798697612,26.7759763467854],[89.5591563746171,26.7766544777503],[89.5585257974307,26.7774277967899],[89.5580974866664,26.7779155792788],[89.5578119395865,26.7782367942641],[89.5575382936313,26.7785104293981],[89.5573479277566,26.7787721661387],[89.5572646427692,26.7789863148882],[89.5572646294914,26.7795335958522],[89.5572884031641,26.7806162582245],[89.5573835546364,26.7817821921387],[89.5575381882678,26.7828529570481]]]},"properties":{"compartment":"Chunabhati BL3"},"id":"comptt.198"}
]}
