{"type":"FeatureCollection", "features": [
{"type":"Feature","geometry":{"type":"Polygon","coordinates":[[[89.6003995821245,26.7894375167966],[89.6002385811127,26.7894955137516],[89.5984135546988,26.7907684803353],[89.5965125405675,26.7915434445398],[89.5944535319773,26.7921064052741],[89.5921595291925,26.7924543610275],[89.5901025309501,26.7925913210398],[89.5882805252575,26.7930112861527],[89.5863795145664,26.7936452501011],[89.5838424899845,26.7949162027422],[89.5811504675401,26.7961151522202],[89.578139451091,26.7971000950755],[89.5755264405091,26.7978030452131],[89.5725154275229,26.7986459878124],[89.5709159678566,26.7987961367931],[89.5708984669838,26.7980104050595],[89.5707081406861,26.7966422089144],[89.5706129782585,26.7959283757893],[89.5702679880087,26.7947386369359],[89.5694471052977,26.7932871383131],[89.5687095011108,26.7922996521414],[89.5673770370702,26.7909552237073],[89.5658423064917,26.7903127425617],[89.5654140188236,26.7898487333672],[89.5645931109786,26.7894323165804],[89.5639625758361,26.7888850232851],[89.5630702985661,26.7880402943476],[89.5620114660425,26.78701711184],[89.5609526338071,26.7859820193129],[89.5600008718811,26.7849231388386],[89.5591205009306,26.7838166696774],[89.5587398022749,26.7833883614804],[89.5583828898066,26.7831147140212],[89.5575381882678,26.7828529570481],[89.5573835546364,26.7817821921387],[89.5572884031641,26.7806162582245],[89.5572646294914,26.7795335958522],[89.5572646427692,26.7789863148882],[89.5573479277566,26.7787721661387],[89.5575382936313,26.7785104293981],[89.5578119395865,26.7782367942641],[89.5580974866664,26.7779155792788],[89.5585257974307,26.7774277967899],[89.5591563746171,26.7766544777503],[89.5596798697612,26.7759763467854],[89.5602390548163,26.7752982065173],[89.5608220435634,26.7744654064412],[89.5614883152767,26.773501737761],[89.5621545881437,26.772490478996],[89.5630112223657,26.7709914330886],[89.5635347250097,26.770003961574],[89.5639511553227,26.7691235681557],[89.5641653171953,26.7686119814365],[89.5643437891563,26.7681004040198],[89.5645103594158,26.7676602064966],[89.5646293471971,26.7673270882328],[89.5648197042238,26.7670177614054],[89.5651409397711,26.7667560172191],[89.5655692459169,26.7664585950615],[89.5666162303319,26.7657566742761],[89.5671516085196,26.7653640740416],[89.5684484360642,26.7645074878624],[89.5703163365176,26.7634724625228],[89.5722798426705,26.7621890490579],[89.5731473065351,26.7623569358529],[89.5752582947288,26.7626279775746],[89.5772222794354,26.763058016708],[89.5806172490604,26.7639640846475],[89.5831112274438,26.7646011345094],[89.5861292057731,26.7651871945224],[89.588445191759,26.7655292403866],[89.5900861812819,26.7657942729252],[89.5901191702391,26.7662462743761],[89.5892611295762,26.7680102607546],[89.5878840860208,26.7699462372947],[89.5880910363171,26.7719742449539],[89.588408020518,26.7725932522527],[89.5896259597941,26.7749722803002],[89.5901739243271,26.7763782935191],[89.59230584612,26.7793843405599],[89.5933498119695,26.7806853632928],[89.5947197575712,26.7827873938325],[89.5962567011052,26.7849574277632],[89.5980376648389,26.7862704649378],[89.6003995821245,26.7894375167966]]]},"properties":{"compartment":"Chunabhati BL2"},"id":"comptt.205"}
]}
