{"type":"FeatureCollection", "features": [
{"type":"Feature","geometry":{"type":"Polygon","coordinates":[[[89.8554944026103,26.5236649896761],[89.8537873910863,26.5243019577757],[89.8519123841109,26.5247649222707],[89.8509413821022,26.5249379037528],[89.8503593750596,26.52528489313],[89.8499073635064,26.5258078853762],[89.8499053454152,26.5265618868138],[89.8503563234909,26.5274338972804],[89.8512602922126,26.5286539172275],[89.8519062712479,26.5294679313695],[89.8520332500598,26.530338935543],[89.8520322277609,26.531267937344],[89.8517722060328,26.5321969341138],[89.8518361780183,26.5333579376318],[89.8526101553734,26.5342299543763],[89.8537731346546,26.5349859784515],[89.8550641192243,26.5355100045597],[89.8566790988782,26.5362090373072],[89.8575810843309,26.5367320558582],[89.8580350735566,26.537139065478],[89.8579690555709,26.537894065678],[89.857386037355,26.5387060559444],[89.8568690343161,26.5388800462407],[89.8557700409665,26.5387040245417],[89.8544130537589,26.5382959973756],[89.8526050745123,26.5375979608797],[89.851183079094,26.5375379331348],[89.8496970824261,26.5375359042605],[89.8484680781797,26.537825880951],[89.8480150568967,26.5387538739659],[89.8476900311269,26.5398568698096],[89.847688007427,26.5408438717018],[89.8477285340446,26.5409809727575],[89.8436501240399,26.5409407834361],[89.8430963853296,26.5409381726722],[89.843133790636,26.5407137729604],[89.843319431882,26.5389791431777],[89.8433551763118,26.5367091294363],[89.8431934346315,26.5338785207631],[89.8427746916611,26.532374689691],[89.8421846300337,26.5304139943996],[89.8410996705135,26.5275776477885],[89.8400146799708,26.5256169528904],[89.8393294298103,26.5244367272802],[89.8389567823991,26.5235296405142],[89.8389804423484,26.5235296687335],[89.8407334383914,26.5235327027782],[89.8444814299973,26.5235367755642],[89.8483594199359,26.5235988509902],[89.8515254114578,26.5236609125921],[89.8541744055435,26.5236639640401],[89.8554944026103,26.5236649896761]]]},"properties":{"compartment":"S Bholka BL3A"},"id":"comptt.4"}
]}