{"type":"FeatureCollection", "features": [
{"type":"Feature","geometry":{"type":"Polygon","coordinates":[[[89.8477285340446,26.5409809727575],[89.8477560017526,26.5410738734731],[89.8479449859389,26.5417148783995],[89.8487199688522,26.5423548947108],[89.8507889516903,26.5428789359405],[89.8533079418726,26.5430559852367],[89.8549229312685,26.5433490171947],[89.855635925491,26.5435240313936],[89.8560869133495,26.5439880410682],[89.8561508950709,26.5447430437933],[89.8561498713614,26.5457300457103],[89.8558248567265,26.5463690406477],[89.8545328582094,26.5464260156497],[89.8536268630213,26.5463089978126],[89.8525278612931,26.5464819767931],[89.8516218535654,26.546886959979],[89.850717843023,26.5474089434325],[89.8499408210516,26.5483949302621],[89.8494228068684,26.5490329214435],[89.8493567916606,26.5496719214115],[89.8494207719834,26.5504849242469],[89.8499997455906,26.5515299375467],[89.8508387269604,26.5522279552216],[89.85167870554,26.5530419731442],[89.8520006838945,26.5539129811098],[89.8519346672884,26.5546099811923],[89.8514166503116,26.5553639725993],[89.8507056379439,26.5559439599132],[89.8498636147131,26.5569879455883],[89.8490865885253,26.5581489327549],[89.8479865714664,26.5589599129557],[89.8470145513115,26.5598878958731],[89.846566531389,26.5607578888641],[89.8462725346615,26.5606488829347],[89.8392585812066,26.5572803299943],[89.8395427999736,26.5568893047564],[89.839992535445,26.5562040321617],[89.8402923581612,26.5556472369031],[89.8406350217617,26.5546335915854],[89.8408848935087,26.5537056046308],[89.8410276775509,26.5526919554272],[89.8411990385611,26.5513856362074],[89.8414845998305,26.5500578991649],[89.8417201900607,26.5491941620569],[89.8419771995038,26.5479449446121],[89.8421985123361,26.5469741270168],[89.8422913375102,26.5459176467571],[89.8425412124515,26.5444399987263],[89.8427839570631,26.5429766305843],[89.8430195544311,26.5413990520798],[89.8430963853296,26.5409381726722],[89.8436501240399,26.5409407834361],[89.8477285340446,26.5409809727575]]]},"properties":{"compartment":"S Bholka BL2B"},"id":"comptt.11"}
]}