{"type":"FeatureCollection", "features": [
{"type":"Feature","geometry":{"type":"Polygon","coordinates":[[[89.860953477936,26.6988286498198],[89.8590801585836,26.6993874043188],[89.8544751217204,26.7013343181691],[89.8520450799544,26.7032832745088],[89.8470590634424,26.7044261793279],[89.8456440620392,26.7046151520511],[89.8442320606551,26.7048031248308],[89.8434125416102,26.7003414399162],[89.8442872170862,26.6999902565127],[89.8452104544637,26.6996000437858],[89.8461907987177,26.6993335624157],[89.8471996915261,26.6991241817146],[89.8485417147409,26.698867227428],[89.8502454069168,26.6986198002248],[89.8522727113675,26.6982486391009],[89.8532340231349,26.698086857563],[89.8544808574912,26.6977918313415],[89.8554992735118,26.6974492005644],[89.856508175406,26.697277899937],[89.8577169373158,26.6970875731765],[89.8586116178538,26.6969828904484],[89.8593825577467,26.6969162753777],[89.8602296433219,26.6970209921308],[89.8607055260381,26.6972779819316],[89.8609815368953,26.6976301480149],[89.8610576672762,26.6980203802683],[89.8610195888335,26.6983725402159],[89.860953477936,26.6988286498198]]]},"properties":{"compartment":"Sankosh BL1B"},"id":"comptt.152"}
]}