{"type":"FeatureCollection", "features": [
{"type":"Feature","geometry":{"type":"Polygon","coordinates":[[[89.8693296077596,26.68897905407],[89.8682683601177,26.6889790333429],[89.8672975388199,26.689121784663],[89.8658127434825,26.689478676366],[89.86434223088,26.6897213481229],[89.8626290195109,26.6899354650836],[89.8612584477261,26.6901353187082],[89.8600877530785,26.6904351064325],[89.8585886908923,26.6906635076033],[89.8557618961647,26.6907062824791],[89.8533919618049,26.6906919561665],[89.8504509487274,26.6906776187019],[89.8478954154847,26.6906347387109],[89.8447117022736,26.690648956565],[89.8430345463759,26.6906348537854],[89.8430344070244,26.6906080737305],[89.8430194906941,26.6871520666945],[89.8428225647166,26.6841110569148],[89.842814645464,26.6807740502479],[89.8425247068031,26.6782650396916],[89.8459526990504,26.6782681066127],[89.8487617037698,26.6778131605567],[89.8502957169324,26.6771271891595],[89.8505643160593,26.6767250236157],[89.8510741747014,26.6771475143951],[89.8513121149611,26.677528239785],[89.8514834226072,26.6780231640977],[89.8518165387401,26.6785656916625],[89.8521306172175,26.6790130386696],[89.8524066187729,26.6793366546913],[89.8527397395099,26.6796888218841],[89.8530157449795,26.6798506275892],[89.8533869404663,26.6800029251342],[89.8538723477709,26.6800695547412],[89.8542816170875,26.6800600427127],[89.8548051002938,26.6798792125782],[89.8552429246123,26.6796603106967],[89.855728340897,26.6793557495764],[89.8561661686695,26.678994077415],[89.8567277275474,26.6785753075569],[89.8572797803607,26.6779947271955],[89.857888931435,26.6774807780792],[89.8583077274084,26.6771952456947],[89.8588502458688,26.6767955055011],[89.8592214540202,26.6764243220192],[89.8601637405687,26.6756533889003],[89.8608395117254,26.6751299210641],[89.8613630032212,26.674606450255],[89.8618103507429,26.6742542982956],[89.8621530078071,26.6739306943486],[89.8624766162946,26.6735499899175],[89.8627336035494,26.673226384298],[89.8630001117036,26.6728647087894],[89.8632856614266,26.6724364135215],[89.8636854211257,26.671998600464],[89.8640756583142,26.6716654774261],[89.8644183014654,26.671503683796],[89.8648275714766,26.6714656217095],[89.865198770882,26.6714561089362],[89.8653700930331,26.6713514220743],[89.8655414174861,26.6711515450253],[89.8656651522747,26.6709421570285],[89.8660173181671,26.6706661433594],[89.8665693549966,26.6703330334788],[89.8669120081487,26.6701712298485],[89.8674164530127,26.6699237792074],[89.8678352464561,26.6697429470255],[89.8682349971802,26.6696763246967],[89.868672815288,26.669714413317],[89.8690630402797,26.6698857412708],[89.8692438720533,26.6702093454376],[89.8693390444769,26.670513927895],[89.8694627656864,26.6708660910034],[89.869548418131,26.6711706632751],[89.8695769613929,26.6714466743758],[89.8696245367861,26.6720463064854],[89.869662595883,26.6724936481093],[89.8696663800607,26.6726753885706],[89.869672104813,26.6729504991946],[89.8696720928429,26.6734454301691],[89.8697482197827,26.6739784327048],[89.8698624294002,26.6743972257592],[89.8699766262552,26.6749302190382],[89.8700527659566,26.6753490113494],[89.8701479166368,26.676138994763],[89.8702811426269,26.677119339295],[89.8703667909247,26.6775952319045],[89.8704809986982,26.6780901651091],[89.8706237529543,26.6787278591524],[89.8709187905564,26.6792132758692],[89.8711757635387,26.6794797814117],[89.871575505053,26.6797938798355],[89.8720133192461,26.6799937687779],[89.8723464462045,26.6800889554699],[89.8729270210026,26.6802507671249],[89.8742404864796,26.6803174129028],[89.8749310336543,26.680370966492],[89.8737955173126,26.6832166599316],[89.8727724918241,26.6843636422154],[89.8711094455627,26.6864276138054],[89.8696193971966,26.6885625889097],[89.8693296077596,26.68897905407]]]},"properties":{"compartment":"Sankosh BL2"},"id":"comptt.135"}
]}