{"type":"FeatureCollection", "features": [
{"type":"Feature","geometry":{"type":"Polygon","coordinates":[[[89.5736861560872,26.6858598107096],[89.5706481569451,26.6861347519997],[89.5668931552853,26.6865876796341],[89.5663651542487,26.6866846695175],[89.5658601998787,26.6848466564271],[89.5652882756544,26.6817666398366],[89.5647823456307,26.6789196249459],[89.5647243962431,26.6768286201196],[89.5648654472026,26.6747026191075],[89.5664204410667,26.6747976495626],[89.5693974334969,26.6748067075634],[89.57179143162,26.6746397538977],[89.5744454360818,26.674183804784],[89.5749534359644,26.6741368145956],[89.5746733598968,26.6735381786413],[89.5762402872416,26.6735382085982],[89.5796381450888,26.6736953150619],[89.5817337011945,26.6736426352357],[89.5819652373071,26.6741950512802],[89.5825791147791,26.6750659447884],[89.5831929939734,26.6758654581703],[89.5837497777872,26.67647937011],[89.5843922048424,26.677364544202],[89.5854629274034,26.6788065176311],[89.5867763373021,26.6807481866816],[89.5874187760767,26.6815619806503],[89.5888749594113,26.6833466122081],[89.5893746206029,26.684074733244],[89.5904168032224,26.685102685388],[89.5894031505375,26.6853168160164],[89.5878469819435,26.6854167258686],[89.5857340247196,26.6855166148706],[89.5829357771157,26.6857021606711],[89.5808085364878,26.6859448296495],[89.578866895062,26.68620177227],[89.5763113620477,26.6861731724207],[89.5750407389728,26.6860160973822],[89.5736861560872,26.6858598107096]]]},"properties":{"compartment":"N RVBK BL12"},"id":"comptt.129"}
]}