{"type":"FeatureCollection", "features": [
{"type":"Feature","geometry":{"type":"Polygon","coordinates":[[[89.5904168032224,26.685102685388],[89.5917730692088,26.6859593133486],[89.5923869577042,26.686373356052],[89.5931578965045,26.6867588417655],[89.5936290174189,26.6870872215342],[89.594043037094,26.6874727002923],[89.5944570460791,26.6878867391015],[89.5949424479931,26.6881722790726],[89.5955991639696,26.6886862627915],[89.5968983214741,26.6898998102848],[89.5979976080892,26.6907564432453],[89.5990683437395,26.6916558957275],[89.5996393992349,26.692198427831],[89.6010670453874,26.6934548179128],[89.6018094159788,26.6941829436903],[89.602494684299,26.6945969877923],[89.6031942329294,26.6949967521475],[89.6038794998645,26.6958819270955],[89.6060209542587,26.6979663725893],[89.6065317617158,26.6988474741314],[89.6064767620676,26.6988384730427],[89.6041937762009,26.6984844278917],[89.6002468015624,26.6978343497681],[89.5982843843569,26.6974835435986],[89.5979138173512,26.6974173035345],[89.5969468239005,26.6972442843716],[89.5932608472173,26.6966532114522],[89.5907368619886,26.6962981616117],[89.5892498657363,26.6962941326155],[89.586724870732,26.6963440834805],[89.5841368758637,26.6963950331198],[89.5812248818232,26.6964449764422],[89.5786988854128,26.6965539273948],[89.5766908849031,26.6967798886533],[89.5752038886682,26.6967758596598],[89.5723618918914,26.696932804539],[89.571770905746,26.6964197921097],[89.571322937729,26.6951417811125],[89.5713949796341,26.6933997794292],[89.571464022944,26.6915997775843],[89.5717930515751,26.6903807818359],[89.5726431027071,26.6881767944938],[89.5736861560872,26.6858598107096],[89.5750407389728,26.6860160973822],[89.5763113620477,26.6861731724207],[89.578866895062,26.68620177227],[89.5808085364878,26.6859448296495],[89.5829357771157,26.6857021606711],[89.5857340247196,26.6855166148706],[89.5878469819435,26.6854167258686],[89.5894031505375,26.6853168160164],[89.5904168032224,26.685102685388]]]},"properties":{"compartment":"N RVBK BL7"},"id":"comptt.146"}
]}