{"type":"FeatureCollection", "features": [
{"type":"Feature","geometry":{"type":"Polygon","coordinates":[[[89.5709159678566,26.7987961367931],[89.5707474278919,26.7988119535246],[89.5695874281334,26.7989209310282],[89.5694264078405,26.7997729293865],[89.5692593513678,26.8021149302631],[89.5683823105061,26.8038869162413],[89.5667922576439,26.8062258892707],[89.5649611968022,26.8089178582036],[89.5635311573609,26.8106878333494],[89.5619471458873,26.8113228034765],[89.5602831398165,26.8117437716599],[89.5585421425923,26.811808737709],[89.5561691538795,26.8115886908907],[89.5539551716739,26.8110846466854],[89.5519001924992,26.8104396053452],[89.5500052163759,26.8096525668883],[89.548740221373,26.8095775420085],[89.5474722194541,26.8097875175704],[89.5453332025709,26.8107034773301],[89.5435101952234,26.8111944425257],[89.5411331823963,26.8119683973775],[89.5389141674748,26.8128123554413],[89.5373301595104,26.8133043253115],[89.5353511629205,26.8133692867074],[89.5334531747314,26.8130802490704],[89.531556193492,26.8125052109556],[89.5294232094007,26.8120721684733],[89.5276832173702,26.8119251341789],[89.525625219295,26.8120600941554],[89.5242792193481,26.8121980680653],[89.5225382187267,26.8124050343682],[89.520716214863,26.8127539993334],[89.5185812204454,26.8127469575575],[89.5171572379788,26.8121739287084],[89.515813251836,26.8117439016735],[89.5141602941243,26.8101758666239],[89.5133653208232,26.8091598493147],[89.5140453406176,26.8082738610791],[89.5155483768309,26.8066258876175],[89.5168564072966,26.8052349107852],[89.5187824425825,26.8035809455795],[89.5213845078946,26.800619991318],[89.5219635673964,26.7981089982756],[89.5231626222885,26.79572301757],[89.5243546972181,26.7925120352887],[89.525385735995,26.7908070524764],[89.5260565155192,26.7903165541897],[89.5261597477766,26.790241066621],[89.5267827572944,26.7897840780035],[89.5268507573168,26.7897760793188],[89.5296177581727,26.7894531328439],[89.5324407586756,26.7891391874793],[89.5343917537604,26.7891392256173],[89.5364227134303,26.7905902678555],[89.5376676985493,26.7910742930408],[89.5396087080365,26.7904823299514],[89.5419937077462,26.7902473761663],[89.5433411584556,26.789278311606],[89.5436177320169,26.7890794058688],[89.544088739038,26.7887414144842],[89.5450287832039,26.7868244294994],[89.5465558762932,26.7828304523426],[89.5467689052389,26.781615454374],[89.5468877099446,26.7809403552692],[89.5471757057662,26.7811395414896],[89.548746123357,26.7819009935204],[89.5495194404504,26.7823531094296],[89.5505901905521,26.7826505608811],[89.5512564265747,26.7827457540709],[89.5522439012161,26.7828647535817],[89.5532432678497,26.7829004631788],[89.5548018153952,26.7828410035389],[89.5562770814188,26.7828529323969],[89.5575381882678,26.7828529570481],[89.5583828898066,26.7831147140212],[89.5587398022749,26.7833883614804],[89.5591205009306,26.7838166696774],[89.5600008718811,26.7849231388386],[89.5609526338071,26.7859820193129],[89.5620114660425,26.78701711184],[89.5630702985661,26.7880402943476],[89.5639625758361,26.7888850232851],[89.5645931109786,26.7894323165804],[89.5654140188236,26.7898487333672],[89.5658423064917,26.7903127425617],[89.5673770370702,26.7909552237073],[89.5687095011108,26.7922996521414],[89.5694471052977,26.7932871383131],[89.5702679880087,26.7947386369359],[89.5706129782585,26.7959283757893],[89.5707081406861,26.7966422089144],[89.5708984669838,26.7980104050595],[89.5709159678566,26.7987961367931]]]},"properties":{"compartment":"Chunabhati BL1"},"id":"comptt.214"}
]}