{"type":"FeatureCollection", "features": [
{"type":"Feature","geometry":{"type":"Polygon","coordinates":[[[88.79371591080515,26.76902456455107],[88.79405945122333,26.76817451772257],[88.79465433970117,26.76745308592432],[88.79493577710451,26.76683607593317],[88.79518718828162,26.766014183865],[88.79518343903668,26.76547577243293],[88.79377523038869,26.76427846735733],[88.78995593011871,26.76142797163343],[88.78728433255891,26.75928881754459],[88.78592002961905,26.75820400704952],[88.78834300439806,26.75807604248798],[88.7956745344176,26.75771862631713],[88.8037812019787,26.75729297831231],[88.80730422695234,26.75709724495019],[88.80784396719945,26.75793919025468],[88.80833114619658,26.75870133098708],[88.80859382860598,26.75916577831987],[88.80878361276028,26.75979676794671],[88.80945706081033,26.76069096876185],[88.8104699689545,26.76241498828293],[88.81095892020969,26.76341036323049],[88.81152046048263,26.76420534802281],[88.81285532071806,26.76689239374282],[88.81326813758372,26.76760530122875],[88.81346913946213,26.76807375880101],[88.81280814666472,26.76809024298952],[88.80752554350495,26.76822253932317],[88.7983597752781,26.76859092195437],[88.79371591080515,26.76902456455107]]]},"properties":{"id":null,"Name":null,"description":null,"timestamp":null,"begin":null,"end":null,"altitudeMode":null,"tessellate":-1,"extrude":0,"visibility":-1,"drawOrder":null,"icon":null,"AREA":2286130,"PERIMETER":7116.11,"division":"Gorumara","beat":"BICHABHANGA","BLOCK":"CENTRAL","compartment":"CENTRAL-1","range":"Gorumara South"}},
{"type":"Feature","geometry":{"type":"Polygon","coordinates":[[[88.80730422695234,26.75709724495019],[88.80723448651568,26.75698848895077],[88.80287787590854,26.74916434874946],[88.79963411725824,26.7452762840581],[88.80267338614907,26.74514601330206],[88.81113396899453,26.74503469787511],[88.8112073418163,26.74502497057811],[88.81493801468216,26.74453791911135],[88.81845341431386,26.74476052042078],[88.81988445388878,26.74602880976714],[88.82061182008067,26.74912601513329],[88.82111450703,26.75038922340368],[88.822039812577,26.75158651911819],[88.82219113292804,26.75300970660704],[88.8222752588647,26.75490825343891],[88.82320892362372,26.75617938822446],[88.82119208197867,26.75627541641823],[88.81386185161688,26.7567923713409],[88.810688651334,26.75681055083095],[88.80758778055564,26.75708152763071],[88.80730422695234,26.75709724495019]]]},"properties":{"id":null,"Name":null,"description":null,"timestamp":null,"begin":null,"end":null,"altitudeMode":null,"tessellate":-1,"extrude":0,"visibility":-1,"drawOrder":null,"icon":null,"AREA":2280070,"PERIMETER":6382.67,"division":"Gorumara","beat":"BICHABHANGA","BLOCK":"MEDLAJHORA","compartment":"MEDLAJHORA-2","range":"Gorumara South"}},
{"type":"Feature","geometry":{"type":"Polygon","coordinates":[[[88.81346913946213,26.76807375880101],[88.81326813758372,26.76760530122875],[88.81285532071806,26.76689239374282],[88.81152046048263,26.76420534802281],[88.81095892020969,26.76341036323049],[88.8104699689545,26.76241498828293],[88.80945706081033,26.76069096876185],[88.80878361276028,26.75979676794671],[88.80859382860598,26.75916577831987],[88.80833114619658,26.75870133098708],[88.80784396719945,26.75793919025468],[88.80730422695234,26.75709724495019],[88.80758778055564,26.75708152763071],[88.810688651334,26.75681055083095],[88.81386185161688,26.7567923713409],[88.82119208197867,26.75627541641823],[88.82320892362372,26.75617938822446],[88.82422335137323,26.75613118744678],[88.82859255623693,26.75572608370943],[88.83303609733524,26.75548992014962],[88.83397992139429,26.75955573720299],[88.83578498239146,26.76530508975534],[88.83618402623102,26.76703648387452],[88.8344589722313,26.76721192987472],[88.82486887829602,26.76739470291441],[88.81788984862288,26.76781478262694],[88.8140832377383,26.76805838702478],[88.81346913946213,26.76807375880101]]]},"properties":{"id":null,"Name":null,"description":null,"timestamp":null,"begin":null,"end":null,"altitudeMode":null,"tessellate":-1,"extrude":0,"visibility":-1,"drawOrder":null,"icon":null,"AREA":3035280,"PERIMETER":7513.14,"division":"Gorumara","beat":"BICHABHANGA","BLOCK":"MEDLAJHORA","compartment":"MEDLAJHORA-1","range":"Gorumara South"}},
{"type":"Feature","geometry":{"type":"Polygon","coordinates":[[[88.79963411725824,26.7452762840581],[88.79925128719782,26.74481729009073],[88.79775588395637,26.7427210507258],[88.796438294247,26.74082941050093],[88.79391643492585,26.7381217606954],[88.79114683651765,26.73525721441433],[88.78904887651494,26.73264187649542],[88.78436268457067,26.72784140104307],[88.7830850877846,26.72658232894443],[88.78270003444209,26.72634160714926],[88.78520190147233,26.72685550254971],[88.78830775778937,26.72740802468871],[88.78978904333289,26.72752642815504],[88.79148583856333,26.72821307526399],[88.79303853837227,26.7284576870801],[88.79459388216821,26.72908190753599],[88.79565229335402,26.72920261693049],[88.79785137694009,26.72920013952668],[88.79967998585087,26.73050927795066],[88.80095389878345,26.73119847483553],[88.8035654663676,26.73162680846459],[88.8056090777705,26.73148857816591],[88.80715790996997,26.73116331442983],[88.80849292433473,26.73052279211395],[88.80890986534834,26.73045413373043],[88.80899844367895,26.73222885291258],[88.80914352443753,26.73279776692607],[88.80964376522635,26.73374429372154],[88.80972496923329,26.73526295205037],[88.80973124473618,26.73614911747118],[88.80973752052903,26.7370352827808],[88.81066798048624,26.73899218968476],[88.80997458567961,26.74064191184704],[88.80998041693604,26.7414648999453],[88.81041025200261,26.74241182420911],[88.81041653476471,26.74329798859361],[88.81042236787529,26.74412069425778],[88.8112073418163,26.74502497057811],[88.81113396899453,26.74503469787511],[88.80267338614907,26.74514601330206],[88.79963411725824,26.7452762840581]]]},"properties":{"id":null,"Name":null,"description":null,"timestamp":null,"begin":null,"end":null,"altitudeMode":null,"tessellate":-1,"extrude":0,"visibility":-1,"drawOrder":null,"icon":null,"AREA":2916800,"PERIMETER":8297.73,"division":"Gorumara","beat":"BICHABHANGA","BLOCK":"BARAHATI","compartment":"BARAHATI-1","range":"Gorumara South"}}
]}
