{
"type": "FeatureCollection",
"name": "Gorumara_North_Chapramari",
"crs": { "type": "name", "properties": { "name": "urn:ogc:def:crs:OGC:1.3:CRS84" } },
"features": [
{ "type": "Feature", "properties": { "id": null, "compartment": "Pangjhora-2A", "description": "description: <br>AREA: 1252920.00000000000<br>PERIMETER: 4816.65000000000<br>GORU_CHAPR: 48<br>GORU_CHA_1: 99<br>DIVISION: WL-II<br>BLOCK: PANGJHORA<br>COMP_NO: 2A<br>STATUS: WLS<br>AOI: x<br>Longitude: 88.846<br>Latitude: 26.889", "timestamp": null, "begin": null, "end": null, "altitudeMode": null, "tessellate": -1, "extrude": 0, "visibility": -1, "drawOrder": null, "icon": null, "description2": null, "AREA": "1252920.00000000000", "PERIMETER": "4816.65000000000", "GORU_CHAPR": "48", "GORU_CHA_1": "99", "DIVISION": "WL-II", "BLOCK": "PANGJHORA", "COMP_NO": "2A", "STATUS": "WLS", "AOI": "x", "Longitude": "88.846", "Latitude": "26.889" }, "geometry": { "type": "Polygon", "coordinates": [ [ [ 88.85090748193366, 26.89656779647154, 0.0 ], [ 88.848895355852747, 26.896077929821779, 0.0 ], [ 88.846238450048006, 26.895586821956059, 0.0 ], [ 88.843690204457403, 26.89436744275066, 0.0 ], [ 88.84188052241025, 26.893645607066151, 0.0 ], [ 88.840472103765777, 26.893123406032441, 0.0 ], [ 88.838083338824916, 26.892489263323, 0.0 ], [ 88.836728686165003, 26.89208207833607, 0.0 ], [ 88.834522, 26.8907755, 0.0 ], [ 88.834712, 26.8901115, 0.0 ], [ 88.835551, 26.8882965, 0.0 ], [ 88.83645414300922, 26.885262457379881, 0.0 ], [ 88.837261849159816, 26.88535806651722, 0.0 ], [ 88.839167555196951, 26.88549034604825, 0.0 ], [ 88.841977199956929, 26.885759723592891, 0.0 ], [ 88.846439812110631, 26.886126253302638, 0.0 ], [ 88.847811349900851, 26.88627429624324, 0.0 ], [ 88.850633493979075, 26.88654476509948, 0.0 ], [ 88.850792887952977, 26.886573415396651, 0.0 ], [ 88.8509409, 26.8883045, 0.0 ], [ 88.8511319, 26.8898725, 0.0 ], [ 88.8510179, 26.8925885, 0.0 ], [ 88.85090748193366, 26.89656779647154, 0.0 ] ] ] } },
{ "type": "Feature", "properties": { "id": null, "compartment": "Pangjhora-1A", "description": "description: <br>AREA: 445728.00000000000<br>PERIMETER: 2695.90000000000<br>GORU_CHAPR: 50<br>GORU_CHA_1: 100<br>DIVISION: WL-II<br>BLOCK: PANGJHORA<br>COMP_NO: 1A<br>STATUS: WLS<br>AOI: x<br>Longitude: 88.835<br>Latitude: 26.888", "timestamp": null, "begin": null, "end": null, "altitudeMode": null, "tessellate": -1, "extrude": 0, "visibility": -1, "drawOrder": null, "icon": null, "description2": null, "AREA": "445728.00000000000", "PERIMETER": "2695.90000000000", "GORU_CHAPR": "50", "GORU_CHA_1": "100", "DIVISION": "WL-II", "BLOCK": "PANGJHORA", "COMP_NO": "1A", "STATUS": "WLS", "AOI": "x", "Longitude": "88.835", "Latitude": "26.888" }, "geometry": { "type": "Polygon", "coordinates": [ [ [ 88.8345192, 26.8907803, 0.0 ], [ 88.8340262, 26.8906523, 0.0 ], [ 88.8307562, 26.8894133, 0.0 ], [ 88.830139119643178, 26.889235647545259, 0.0 ], [ 88.828481557137764, 26.888779822270699, 0.0 ], [ 88.826459494933189, 26.888472303508511, 0.0 ], [ 88.827252347352484, 26.88739436675478, 0.0 ], [ 88.828746542921124, 26.885976661795311, 0.0 ], [ 88.829945698576253, 26.886374190754179, 0.0 ], [ 88.831186536638413, 26.886506459153871, 0.0 ], [ 88.834317792436707, 26.885833984440641, 0.0 ], [ 88.836300479017297, 26.885705836485709, 0.0 ], [ 88.8355482, 26.8883013, 0.0 ], [ 88.8347092, 26.8901163, 0.0 ], [ 88.8345192, 26.8907803, 0.0 ] ] ] } },
{ "type": "Feature", "properties": { "id": null, "compartment": "Pangjhora - 4a", "description": "description: <br>AREA: 1218200.00000000000<br>PERIMETER: 4438.27000000000<br>GORU_CHAPR: 47<br>GORU_CHA_1: 98<br>DIVISION: WL-II<br>BLOCK: PANGJHORA<br>COMP_NO: 4A<br>STATUS: WLS<br>AOI: x<br>Longitude: 88.859<br>Latitude: 26.891", "timestamp": null, "begin": null, "end": null, "altitudeMode": null, "tessellate": -1, "extrude": 0, "visibility": -1, "drawOrder": null, "icon": null, "description2": null, "AREA": "1218200.00000000000", "PERIMETER": "4438.27000000000", "GORU_CHAPR": "47", "GORU_CHA_1": "98", "DIVISION": "WL-II", "BLOCK": "PANGJHORA", "COMP_NO": "4A", "STATUS": "WLS", "AOI": "x", "Longitude": "88.859", "Latitude": "26.891" }, "geometry": { "type": "Polygon", "coordinates": [ [ [ 88.860128753697751, 26.897585113551148, 0.0 ], [ 88.85973940703866, 26.898101948135679, 0.0 ], [ 88.858470110549163, 26.897989659447539, 0.0 ], [ 88.857800077185104, 26.89783161183685, 0.0 ], [ 88.855689281071434, 26.897420024333869, 0.0 ], [ 88.854320355449076, 26.89715341660871, 0.0 ], [ 88.853178665627226, 26.89680038307813, 0.0 ], [ 88.852712716797626, 26.89664145386546, 0.0 ], [ 88.850971390985407, 26.89655532333181, 0.0 ], [ 88.8510206, 26.8925981, 0.0 ], [ 88.8511346, 26.8898821, 0.0 ], [ 88.8509436, 26.8883141, 0.0 ], [ 88.850799849592377, 26.88657405718584, 0.0 ], [ 88.851651008822955, 26.88666236078377, 0.0 ], [ 88.854610950018525, 26.8869620086585, 0.0 ], [ 88.860168954097404, 26.887594379974669, 0.0 ], [ 88.8621766557862, 26.887888989125539, 0.0 ], [ 88.865244654611743, 26.88895195791104, 0.0 ], [ 88.86421542353672, 26.89028208539867, 0.0 ], [ 88.862219804451314, 26.89306396278657, 0.0 ], [ 88.860128753697751, 26.897585113551148, 0.0 ] ] ] } },
{ "type": "Feature", "properties": { "id": null, "compartment": "Chapramari - 3", "description": "description: <br>AREA: 3483460.00000000000<br>PERIMETER: 8948.54000000000<br>GORU_CHAPR: 42<br>GORU_CHA_1: 93<br>DIVISION: WL-II<br>BLOCK: CHAPRAMARI<br>COMP_NO: 3<br>STATUS: WLS<br>AOI: x<br>Longitude: 88.851<br>Latitude: 26.901", "timestamp": null, "begin": null, "end": null, "altitudeMode": null, "tessellate": -1, "extrude": 0, "visibility": -1, "drawOrder": null, "icon": null, "description2": null, "AREA": "3483460.00000000000", "PERIMETER": "8948.54000000000", "GORU_CHAPR": "42", "GORU_CHA_1": "93", "DIVISION": "WL-II", "BLOCK": "CHAPRAMARI", "COMP_NO": "3", "STATUS": "WLS", "AOI": "x", "Longitude": "88.851", "Latitude": "26.901" }, "geometry": { "type": "Polygon", "coordinates": [ [ [ 88.853128888922228, 26.91524645972456, 0.0 ], [ 88.849818, 26.9110292, 0.0 ], [ 88.848553, 26.9098302, 0.0 ], [ 88.847467, 26.9086302, 0.0 ], [ 88.846421, 26.9068662, 0.0 ], [ 88.844382, 26.9042642, 0.0 ], [ 88.84203, 26.9017032, 0.0 ], [ 88.8412151, 26.9007832, 0.0 ], [ 88.8400431, 26.9000662, 0.0 ], [ 88.8394551, 26.8993652, 0.0 ], [ 88.8383221, 26.8978842, 0.0 ], [ 88.8372821, 26.8968042, 0.0 ], [ 88.8364211, 26.8956422, 0.0 ], [ 88.8348861, 26.8943642, 0.0 ], [ 88.8328601, 26.8934912, 0.0 ], [ 88.8318621, 26.8920092, 0.0 ], [ 88.8307271, 26.8902052, 0.0 ], [ 88.8301441, 26.8892452, 0.0 ], [ 88.8307671, 26.8894182, 0.0 ], [ 88.8340371, 26.8906572, 0.0 ], [ 88.8345301, 26.8907852, 0.0 ], [ 88.836727581984604, 26.892086680213382, 0.0 ], [ 88.838473513672611, 26.89260490586997, 0.0 ], [ 88.840565055533403, 26.893157011762099, 0.0 ], [ 88.842338294943943, 26.893813096515871, 0.0 ], [ 88.843921423022962, 26.89449416009834, 0.0 ], [ 88.846238168471459, 26.895547513473979, 0.0 ], [ 88.848852535729762, 26.896062427372811, 0.0 ], [ 88.85043807514532, 26.89651609872762, 0.0 ], [ 88.852689977842232, 26.896643031778272, 0.0 ], [ 88.853413175582872, 26.896903216018998, 0.0 ], [ 88.854638968694587, 26.89724189990481, 0.0 ], [ 88.85632679916057, 26.89753644302488, 0.0 ], [ 88.858492876743654, 26.897991909799501, 0.0 ], [ 88.859738047555808, 26.898103423962208, 0.0 ], [ 88.859478158885963, 26.898599872655211, 0.0 ], [ 88.858914963453088, 26.898919793900991, 0.0 ], [ 88.858671064311878, 26.900823713397578, 0.0 ], [ 88.857934690047102, 26.904085458684609, 0.0 ], [ 88.857596398579588, 26.907152986151129, 0.0 ], [ 88.857486843139611, 26.907992094830231, 0.0 ], [ 88.857189213691456, 26.911511188787369, 0.0 ], [ 88.8572210310125, 26.915105599114661, 0.0 ], [ 88.855796073848069, 26.91526104330789, 0.0 ], [ 88.853632105857798, 26.915299230741621, 0.0 ], [ 88.853128888922228, 26.91524645972456, 0.0 ] ] ] } },
{ "type": "Feature", "properties": { "id": null, "compartment": "Chapramari - 2", "description": "description: <br>AREA: 3190010.00000000000<br>PERIMETER: 8992.02000000000<br>GORU_CHAPR: 43<br>GORU_CHA_1: 94<br>DIVISION: WL-II<br>BLOCK: CHAPRAMARI<br>COMP_NO: 2<br>STATUS: WLS<br>AOI: x<br>Longitude: 88.838<br>Latitude: 26.903", "timestamp": null, "begin": null, "end": null, "altitudeMode": null, "tessellate": -1, "extrude": 0, "visibility": -1, "drawOrder": null, "icon": null, "description2": null, "AREA": "3190010.00000000000", "PERIMETER": "8992.02000000000", "GORU_CHAPR": "43", "GORU_CHA_1": "94", "DIVISION": "WL-II", "BLOCK": "CHAPRAMARI", "COMP_NO": "2", "STATUS": "WLS", "AOI": "x", "Longitude": "88.838", "Latitude": "26.903" }, "geometry": { "type": "Polygon", "coordinates": [ [ [ 88.836837124084084, 26.915684574786621, 0.0 ], [ 88.83533263575832, 26.915703904714729, 0.0 ], [ 88.834299756015184, 26.915645317495201, 0.0 ], [ 88.833335492471647, 26.915606603698219, 0.0 ], [ 88.832940404820278, 26.914705218699439, 0.0 ], [ 88.832621116481974, 26.91382450116205, 0.0 ], [ 88.831731514797994, 26.912804190771269, 0.0 ], [ 88.831423333357662, 26.912378126486889, 0.0 ], [ 88.831449502270942, 26.91177131675364, 0.0 ], [ 88.831092805673762, 26.911180781445619, 0.0 ], [ 88.830626220568263, 26.908837149332449, 0.0 ], [ 88.829608085303477, 26.906925851788522, 0.0 ], [ 88.828370767988773, 26.905298706993801, 0.0 ], [ 88.828221362163973, 26.903350428574509, 0.0 ], [ 88.827550894276584, 26.901853007234379, 0.0 ], [ 88.826661617830609, 26.9012849340969, 0.0 ], [ 88.825346518427054, 26.900456272567379, 0.0 ], [ 88.824467123297453, 26.898864143842211, 0.0 ], [ 88.824121073098283, 26.896843817243241, 0.0 ], [ 88.824223228223772, 26.895933674256021, 0.0 ], [ 88.824659986292531, 26.89442800397206, 0.0 ], [ 88.82547307376619, 26.893710226019468, 0.0 ], [ 88.825459853527292, 26.892339019015839, 0.0 ], [ 88.825341365163695, 26.890523917334889, 0.0 ], [ 88.825579635102059, 26.889537763540901, 0.0 ], [ 88.825712398647482, 26.888344813182709, 0.0 ], [ 88.8284759, 26.8887747, 0.0 ], [ 88.8286989, 26.8888367, 0.0 ], [ 88.8301279, 26.8892357, 0.0 ], [ 88.8307109, 26.8901957, 0.0 ], [ 88.8318459, 26.8919997, 0.0 ], [ 88.8328439, 26.8934817, 0.0 ], [ 88.8348699, 26.8943547, 0.0 ], [ 88.8364049, 26.8956327, 0.0 ], [ 88.8372659, 26.8967947, 0.0 ], [ 88.8383059, 26.8978747, 0.0 ], [ 88.8394389, 26.8993557, 0.0 ], [ 88.8400269, 26.9000567, 0.0 ], [ 88.8411989, 26.9007737, 0.0 ], [ 88.8420138, 26.9016937, 0.0 ], [ 88.8443658, 26.9042547, 0.0 ], [ 88.8464048, 26.9068567, 0.0 ], [ 88.8474508, 26.9086207, 0.0 ], [ 88.8485368, 26.9098207, 0.0 ], [ 88.8498018, 26.9110197, 0.0 ], [ 88.853099221303751, 26.91529813728047, 0.0 ], [ 88.848338971628095, 26.915379776472399, 0.0 ], [ 88.845541944117727, 26.915500244670969, 0.0 ], [ 88.843550084638139, 26.915472024095681, 0.0 ], [ 88.840203404292424, 26.91562702756498, 0.0 ], [ 88.837978864614797, 26.915668875276211, 0.0 ], [ 88.836837124084084, 26.915684574786621, 0.0 ] ] ] } }
]
}
