{"type":"FeatureCollection", "features": [
{"type":"Feature","geometry":{"type":"Polygon","coordinates":[[[88.85562426423698,26.80051104585312],[88.85572930918327,26.80119888438806],[88.85624081743264,26.80420070510981],[88.8567508731966,26.80700538141461],[88.85823298584354,26.81552911490887],[88.85833810174594,26.81649335308617],[88.85839227531757,26.81719503417749],[88.8585049392342,26.81744988356331],[88.8579834708072,26.81740114881245],[88.84990707043322,26.81760640324821],[88.84447113779369,26.81750468164508],[88.83553121633653,26.81778195611218],[88.83543593690088,26.81617147274681],[88.83512525851917,26.8146076691005],[88.83507056194576,26.81348234637563],[88.83700508590212,26.81347092255966],[88.83762807212945,26.81296378618145],[88.84053144075315,26.81060023997192],[88.84450261107783,26.80654279099031],[88.84863858644339,26.80250257880984],[88.85084406534015,26.79956565881432],[88.8515983901705,26.79855365745101],[88.8517501265225,26.79867853744077],[88.85224135089778,26.79898244822546],[88.85336880292768,26.79937052339077],[88.85454645523295,26.79993371892746],[88.85562426423698,26.80051104585312]]]},"properties":{"id":null,"Name":null,"description":null,"timestamp":null,"begin":null,"end":null,"altitudeMode":null,"tessellate":-1,"extrude":0,"visibility":-1,"drawOrder":null,"icon":null,"AREA":2910660,"PERIMETER":7520.48,"division":"Gorumara","beat":"DHUPJHORA","BLOCK":"BHOGOLMARDI","compartment":"BHOGOLMARDI-3","range":"Gorumara South"}},
{"type":"Feature","geometry":{"type":"Polygon","coordinates":[[[88.83507056194576,26.81348234637563],[88.83473639185318,26.81348431705135],[88.83202634266802,26.81364213887368],[88.829788361653,26.81377232280922],[88.82525489371413,26.81372351516106],[88.82599730624244,26.81281353473692],[88.82631648714128,26.81250057505579],[88.82876936741653,26.81009617722276],[88.82925310918253,26.80886559701603],[88.82858797981633,26.80773989485994],[88.82600075412827,26.8057414802756],[88.82587740807003,26.80563840655217],[88.8273737390086,26.80505260422507],[88.8282356052054,26.80445526805332],[88.8286863970714,26.80404563751508],[88.82901521928686,26.80389563843694],[88.82942474938463,26.80348624714917],[88.83007796371825,26.80255702490217],[88.83060901828995,26.80185076897065],[88.83147165623677,26.80136481742781],[88.83208620833449,26.80080585825499],[88.83257633746473,26.8001370657259],[88.83335346492103,26.79924404832774],[88.83487491195078,26.79860612398709],[88.83680954628426,26.79807658716637],[88.83788463480406,26.79713270865349],[88.83794404884534,26.79786060112339],[88.83780239678664,26.79893490783585],[88.83805921833978,26.79996229357628],[88.83860928661427,26.80018270024413],[88.83920786210126,26.80022399995099],[88.83976287558234,26.80111536081006],[88.84046868159777,26.80218464166849],[88.84047264025877,26.80272163406519],[88.8400804194159,26.80361861170911],[88.83948808532129,26.80442736610285],[88.83804819756384,26.80524113658867],[88.83706219195405,26.80676776146929],[88.83687266987823,26.80811085714762],[88.8370330625918,26.80958613817322],[88.83714429299981,26.81115139995472],[88.8371534936351,26.81240391158893],[88.83762807212945,26.81296378618145],[88.83700508590212,26.81347092255966],[88.83507056194576,26.81348234637563]]]},"properties":{"id":null,"Name":null,"description":null,"timestamp":null,"begin":null,"end":null,"altitudeMode":null,"tessellate":-1,"extrude":0,"visibility":-1,"drawOrder":null,"icon":null,"AREA":1531240,"PERIMETER":6026.54,"division":"Gorumara","beat":"DHUPJHORA","BLOCK":"DHUPJHORA","compartment":"DHUPJHORA-1B","range":"Gorumara South"}},
{"type":"Feature","geometry":{"type":"Polygon","coordinates":[[[88.82587740807003,26.80563840655217],[88.82203574293905,26.80242483629125],[88.82016765696896,26.8014532977919],[88.81573687193968,26.8018472425014],[88.81059291157948,26.80202428986638],[88.80943510353815,26.80085223569156],[88.80805317001567,26.79894474193183],[88.80623100493199,26.79669592374069],[88.80457937722015,26.7953300499482],[88.80282831435105,26.79455702053807],[88.80321399343762,26.79367569021518],[88.80374868893979,26.79323407246217],[88.80443031360238,26.79283533584797],[88.80462395727231,26.79257108517993],[88.80603955118704,26.79225588678929],[88.80823853118723,26.79211164054045],[88.80847512548328,26.79211029038854],[88.80970516428721,26.79210326466781],[88.8109746598485,26.79187656917951],[88.81272992736062,26.79120849187646],[88.81677290854223,26.78914546964269],[88.81906428630249,26.78825478989644],[88.820283586387,26.78785286851117],[88.82267708548913,26.78757583923248],[88.83220377196183,26.78670846579312],[88.8365532197248,26.78650741665821],[88.83953567636463,26.78631829003125],[88.84036465837497,26.78626570931068],[88.84119596338932,26.78630449310849],[88.8414912154375,26.7865658893397],[88.84227858920508,26.78726322462538],[88.84360084202503,26.78815113724131],[88.8437033439094,26.78821991028516],[88.8463565321132,26.79000269438656],[88.84674432291463,26.79034221718866],[88.8457128113643,26.7917507136635],[88.84411812836547,26.79361073162676],[88.84300993848089,26.79433880592577],[88.84111364803869,26.79446120540674],[88.83930495647176,26.79528620246523],[88.83799800756572,26.7970333216515],[88.83788463480406,26.79713270865349],[88.83680954628426,26.79807658716637],[88.83487491195078,26.79860612398709],[88.83335346492103,26.79924404832774],[88.83257633746473,26.8001370657259],[88.83208620833449,26.80080585825499],[88.83147165623677,26.80136481742781],[88.83060901828995,26.80185076897065],[88.83007796371825,26.80255702490217],[88.82942474938463,26.80348624714917],[88.82901521928686,26.80389563843694],[88.8286863970714,26.80404563751508],[88.8282356052054,26.80445526805332],[88.8273737390086,26.80505260422507],[88.82587740807003,26.80563840655217]]]},"properties":{"id":null,"Name":null,"description":null,"timestamp":null,"begin":null,"end":null,"altitudeMode":null,"tessellate":-1,"extrude":0,"visibility":-1,"drawOrder":null,"icon":null,"AREA":5230230,"PERIMETER":10393.9,"division":"Gorumara","beat":"DHUPJHORA","BLOCK":"SOUTH INDONG","compartment":"SOUTH INDONG-1","range":"Gorumara South"}},
{"type":"Feature","geometry":{"type":"Polygon","coordinates":[[[88.85562426423698,26.80051104585312],[88.85454645523295,26.79993371892746],[88.85336880292768,26.79937052339077],[88.85224135089778,26.79898244822546],[88.8517501265225,26.79867853744077],[88.8515983901705,26.79855365745101],[88.85215195182002,26.79796649306074],[88.85268533970661,26.79759323874766],[88.8548935973536,26.79506351468684],[88.85538190008567,26.79417212235392],[88.85562045969796,26.79298665307128],[88.85561462885012,26.79220936983979],[88.85523034118049,26.79173362265171],[88.85583604663859,26.79039475902281],[88.85621632941368,26.78924848261588],[88.86027702738785,26.79094943768194],[88.86247824563783,26.79196495522045],[88.86417923758775,26.79275982828324],[88.86623201036852,26.79391016311041],[88.86718394815821,26.79453076105598],[88.86847809837754,26.79615954040609],[88.86755230849143,26.79707819427612],[88.86605669844343,26.79708734732698],[88.86306521895375,26.79706104447397],[88.86075263255087,26.79775428294001],[88.86062780725557,26.79779142535377],[88.86003531186743,26.79855570102346],[88.85874888856941,26.79986063404891],[88.85815300367386,26.80017759848237],[88.85730717831628,26.8004063832011],[88.85562426423698,26.80051104585312]]]},"properties":{"id":null,"Name":null,"description":null,"timestamp":null,"begin":null,"end":null,"altitudeMode":null,"tessellate":-1,"extrude":0,"visibility":-1,"drawOrder":null,"icon":null,"AREA":1016830,"PERIMETER":4574.17,"division":"Gorumara","beat":"DHUPJHORA","BLOCK":"TONDU","compartment":"TONDU-4A","range":"Gorumara South"}},
{"type":"Feature","geometry":{"type":"Polygon","coordinates":[[[88.86847809837754,26.79615954040609],[88.86718394815821,26.79453076105598],[88.86623201036852,26.79391016311041],[88.86417923758775,26.79275982828324],[88.86247824563783,26.79196495522045],[88.86027702738785,26.79094943768194],[88.85621632941368,26.78924848261588],[88.85671347647866,26.78775006914325],[88.86072631330843,26.78441537282199],[88.8648382060574,26.78103539770835],[88.86858857459326,26.77753934527983],[88.8688200493565,26.77732357140396],[88.86903165582744,26.77752196235193],[88.86909393640303,26.77758052798314],[88.86925141024257,26.77812983355049],[88.86932136981513,26.7795162236156],[88.8691080278757,26.78190702383244],[88.86910231064813,26.78197136531946],[88.87001099896334,26.78420635904264],[88.87020033813876,26.78564532075514],[88.87039693079251,26.78804460194136],[88.87052354750982,26.78905749505399],[88.870579298642,26.78907294699593],[88.87165541814892,26.78937037463622],[88.87308332140054,26.78952178328463],[88.87316573710851,26.78955089007488],[88.87229297186938,26.79114418145377],[88.87182134533481,26.7917825326793],[88.87056603101495,26.79348111406227],[88.86864087081888,26.79599805855237],[88.86847809837754,26.79615954040609]]]},"properties":{"id":null,"Name":null,"description":null,"timestamp":null,"begin":null,"end":null,"altitudeMode":null,"tessellate":-1,"extrude":0,"visibility":-1,"drawOrder":null,"icon":null,"AREA":1577020,"PERIMETER":5775.75,"division":"Gorumara","beat":"DHUPJHORA","BLOCK":"TONDU","compartment":"TONDU-4B","range":"Gorumara South"}}
]}