{"type":"FeatureCollection", "features": [
{"type":"Feature","geometry":{"type":"Polygon","coordinates":[[[88.83762807212945,26.81296378618145],[88.8371534936351,26.81240391158893],[88.83714429299981,26.81115139995472],[88.8370330625918,26.80958613817322],[88.83687266987823,26.80811085714762],[88.83706219195405,26.80676776146929],[88.83804819756384,26.80524113658867],[88.83948808532129,26.80442736610285],[88.8400804194159,26.80361861170911],[88.84047264025877,26.80272163406519],[88.84046868159777,26.80218464166849],[88.83976287558234,26.80111536081006],[88.83920786210126,26.80022399995099],[88.83860928661427,26.80018270024413],[88.83805921833978,26.79996229357628],[88.83780239678664,26.79893490783585],[88.83794404884534,26.79786060112339],[88.83788463480406,26.79713270865349],[88.83799800756572,26.7970333216515],[88.83930495647176,26.79528620246523],[88.84111364803869,26.79446120540674],[88.84300993848089,26.79433880592577],[88.84411812836547,26.79361073162676],[88.8457128113643,26.7917507136635],[88.84674432291463,26.79034221718866],[88.84855822385161,26.79186174629693],[88.84969538970884,26.79300596005821],[88.84975287405415,26.79383426668782],[88.84955174259468,26.79438771939023],[88.8495568876868,26.79507841934482],[88.84935583183848,26.79563187127672],[88.84941194384834,26.796276009953],[88.85065445621719,26.79778765247824],[88.8515983901705,26.79855365745101],[88.85084406534015,26.79956565881432],[88.84863858644339,26.80250257880984],[88.84450261107783,26.80654279099031],[88.84053144075315,26.81060023997192],[88.83762807212945,26.81296378618145]]]},"properties":{"id":null,"Name":null,"description":null,"timestamp":null,"begin":null,"end":null,"altitudeMode":null,"tessellate":-1,"extrude":0,"visibility":-1,"drawOrder":null,"icon":null,"AREA":1789420,"PERIMETER":6497.07,"division":"Gorumara","beat":"GORUMARA","BLOCK":"DHUPJHORA","compartment":"DHUPJHORA-1A","range":"Gorumara South"}},
{"type":"Feature","geometry":{"type":"Polygon","coordinates":[[[88.85523034118049,26.79173362265171],[88.85561462885012,26.79220936983979],[88.85562045969796,26.79298665307128],[88.85538190008567,26.79417212235392],[88.8548935973536,26.79506351468684],[88.85268533970661,26.79759323874766],[88.85215195182002,26.79796649306074],[88.8515983901705,26.79855365745101],[88.85065445621719,26.79778765247824],[88.84941194384834,26.796276009953],[88.84935583183848,26.79563187127672],[88.8495568876868,26.79507841934482],[88.84955174259468,26.79438771939023],[88.84975287405415,26.79383426668782],[88.84969538970884,26.79300596005821],[88.84855822385161,26.79186174629693],[88.84674432291463,26.79034221718866],[88.84718266868646,26.78974363244936],[88.84791569008925,26.78848075603308],[88.84828294255426,26.78796043826189],[88.84832061586816,26.78747904153562],[88.84848039059378,26.78677494302693],[88.84847819031631,26.78647908950428],[88.84826918600653,26.78611029612652],[88.84818428738602,26.78577770754961],[88.84818043581191,26.78525961122234],[88.8482180304293,26.78477821482454],[88.84829750466189,26.78437074588482],[88.84861999313927,26.78336952382812],[88.84960258028298,26.78240129252021],[88.85021832468443,26.7820275539905],[88.85112584268569,26.78205905357771],[88.85228437048114,26.78257020891063],[88.85418931691581,26.78363192368748],[88.85476831873734,26.78385068426746],[88.85555162801938,26.78380900839836],[88.85600688209001,26.78402822899778],[88.85659116588769,26.78494980910807],[88.85659588987934,26.78557902544579],[88.85635679896599,26.78669060425672],[88.85517943114344,26.78917746520667],[88.85485531981406,26.78995645820449],[88.8548193369115,26.79065981603053],[88.85499017154524,26.79143610374509],[88.85523034118049,26.79173362265171]]]},"properties":{"id":null,"Name":null,"description":null,"timestamp":null,"begin":null,"end":null,"altitudeMode":null,"tessellate":-1,"extrude":0,"visibility":-1,"drawOrder":null,"icon":null,"AREA":1097850,"PERIMETER":4613.69,"division":"Gorumara","beat":"GORUMARA","BLOCK":"DHUPJHORA","compartment":"DHUPJHORA-1C","range":"Gorumara South"}},
{"type":"Feature","geometry":{"type":"Polygon","coordinates":[[[88.80282831435105,26.79455702053807],[88.80271259607258,26.79450577953246],[88.80107035719689,26.79446600040509],[88.7977594175759,26.79464714660818],[88.7982343734679,26.79099927840837],[88.79842914156598,26.78859258978193],[88.79848943461982,26.78713659768708],[88.7986221339547,26.78593319473185],[88.79868427353873,26.7847301892819],[88.79810624779849,26.78277123401221],[88.79760233612245,26.78131813593618],[88.79709269167297,26.77904233124541],[88.79587300363531,26.77607413417115],[88.79395023781751,26.77342632410802],[88.79302636197218,26.77241865785039],[88.79309023796914,26.77146892237029],[88.7933631187815,26.77013809645256],[88.79363995376097,26.76937698755384],[88.79371591080515,26.76902456455107],[88.7983597752781,26.76859092195437],[88.80752554350495,26.76822253932317],[88.81280814666472,26.76809024298952],[88.8123350534011,26.77015726917786],[88.81206329245471,26.77161447926463],[88.81151120589956,26.77332685572025],[88.81110695199413,26.77598775893497],[88.81070312975007,26.77871183670263],[88.8103028848965,26.78194216876467],[88.80968429104763,26.78422465463896],[88.8094174079833,26.7863782068866],[88.80907726402322,26.78815253993205],[88.80880550564093,26.78961002363078],[88.80847512548328,26.79211029038854],[88.80823853118723,26.79211164054045],[88.80603955118704,26.79225588678929],[88.80462395727231,26.79257108517993],[88.80443031360238,26.79283533584797],[88.80374868893979,26.79323407246217],[88.80321399343762,26.79367569021518],[88.80282831435105,26.79455702053807]]]},"properties":{"id":null,"Name":null,"description":null,"timestamp":null,"begin":null,"end":null,"altitudeMode":null,"tessellate":-1,"extrude":0,"visibility":-1,"drawOrder":null,"icon":null,"AREA":3782040,"PERIMETER":8771.33,"division":"Gorumara","beat":"GORUMARA","BLOCK":"SOUTH INDONG","compartment":"SOUTH INDONG-2","range":"Gorumara South"}},
{"type":"Feature","geometry":{"type":"Polygon","coordinates":[[[88.83953567636463,26.78631829003125],[88.8365532197248,26.78650741665821],[88.83220377196183,26.78670846579312],[88.82267708548913,26.78757583923248],[88.820283586387,26.78785286851117],[88.81906428630249,26.78825478989644],[88.81677290854223,26.78914546964269],[88.81272992736062,26.79120849187646],[88.8109746598485,26.79187656917951],[88.80970516428721,26.79210326466781],[88.80847512548328,26.79211029038854],[88.80880550564093,26.78961002363078],[88.80907726402322,26.78815253993205],[88.8094174079833,26.7863782068866],[88.80968429104763,26.78422465463896],[88.8103028848965,26.78194216876467],[88.81070312975007,26.77871183670263],[88.81110695199413,26.77598775893497],[88.81151120589956,26.77332685572025],[88.81206329245471,26.77161447926463],[88.8123350534011,26.77015726917786],[88.81280814666472,26.76809024298952],[88.81346913946213,26.76807375880101],[88.81358849376015,26.76835173780172],[88.81383524788819,26.76916544165088],[88.81432323098458,26.77002768174325],[88.81436422682795,26.77057631260508],[88.81470124182168,26.77105667867172],[88.81516635466983,26.77159666550693],[88.81913257441795,26.77391592613962],[88.82189905413946,26.77611539612533],[88.82657269993973,26.7786833338974],[88.83195340990713,26.78146865243008],[88.83457234599135,26.78271936086772],[88.83641359329614,26.78372105254176],[88.83811383951009,26.78472383580222],[88.83882475925756,26.78547918085992],[88.83953567636463,26.78631829003125]]]},"properties":{"id":null,"Name":null,"description":null,"timestamp":null,"begin":null,"end":null,"altitudeMode":null,"tessellate":-1,"extrude":0,"visibility":-1,"drawOrder":null,"icon":null,"AREA":3428960,"PERIMETER":9339.77,"division":"Gorumara","beat":"GORUMARA","BLOCK":"SOUTH INDONG","compartment":"SOUTH INDONG-3","range":"Gorumara South"}},
{"type":"Feature","geometry":{"type":"Polygon","coordinates":[[[88.85523034118049,26.79173362265171],[88.85499017154524,26.79143610374509],[88.8548193369115,26.79065981603053],[88.85485531981406,26.78995645820449],[88.85517943114344,26.78917746520667],[88.85635679896599,26.78669060425672],[88.85659588987934,26.78557902544579],[88.85659116588769,26.78494980910807],[88.85600688209001,26.78402822899778],[88.85555162801938,26.78380900839836],[88.85476831873734,26.78385068426746],[88.85418931691581,26.78363192368748],[88.85228437048114,26.78257020891063],[88.85112584268569,26.78205905357771],[88.85021832468443,26.7820275539905],[88.84960258028298,26.78240129252021],[88.84861999313927,26.78336952382812],[88.84829750466189,26.78437074588482],[88.8482180304293,26.78477821482454],[88.84818043581191,26.78525961122234],[88.84818428738602,26.78577770754961],[88.84826918600653,26.78611029612652],[88.84847819031631,26.78647908950428],[88.84848039059378,26.78677494302693],[88.84832061586816,26.78747904153562],[88.84828294255426,26.78796043826189],[88.84791569008925,26.78848075603308],[88.84718266868646,26.78974363244936],[88.84674432291463,26.79034221718866],[88.8463565321132,26.79000269438656],[88.8437033439094,26.78821991028516],[88.84360084202503,26.78815113724131],[88.84419602367521,26.78690320232021],[88.84457534806988,26.78572988398657],[88.84467759202002,26.78525458995862],[88.8449193079297,26.78455677548774],[88.84505315711317,26.78357501888111],[88.84518645564698,26.78252980482796],[88.84545593723722,26.78081899379162],[88.84587160352892,26.77980396505656],[88.84681484602672,26.77859568371882],[88.84779467657415,26.77757699486481],[88.84800151300124,26.77692676755742],[88.84817405314519,26.77641946090582],[88.84820650807852,26.77603963160645],[88.84834541585928,26.7757539328029],[88.84887015867044,26.77518105591841],[88.84914796827235,26.77460965693938],[88.84928121209589,26.77421794155008],[88.84932057868545,26.77410234846174],[88.84948886741442,26.77302504889492],[88.84954766046125,26.77228940016175],[88.84965741274857,26.77228874223041],[88.86858857459326,26.77753934527983],[88.8648382060574,26.78103539770835],[88.86072631330843,26.78441537282199],[88.85671347647866,26.78775006914325],[88.85621632941368,26.78924848261588],[88.85583604663859,26.79039475902281],[88.85523034118049,26.79173362265171]]]},"properties":{"id":null,"Name":null,"description":null,"timestamp":null,"begin":null,"end":null,"altitudeMode":null,"tessellate":-1,"extrude":0,"visibility":-1,"drawOrder":null,"icon":null,"AREA":2251780,"PERIMETER":8962.35,"division":"Gorumara","beat":"GORUMARA","BLOCK":"JALDHAKA","compartment":"JALDHAKA-1B","range":"Gorumara South"}},
{"type":"Feature","geometry":{"type":"Polygon","coordinates":[[[88.84360084202503,26.78815113724131],[88.84227858920508,26.78726322462538],[88.8414912154375,26.7865658893397],[88.83687763869153,26.77004606928421],[88.83618402623102,26.76703648387452],[88.83578498239146,26.76530508975534],[88.83397992139429,26.75955573720299],[88.83303609733524,26.75548992014962],[88.83394988440773,26.75544139506653],[88.83832320693725,26.75560542333923],[88.84114421932162,26.75565217660107],[88.84652785613467,26.75613402699048],[88.84820950144652,26.75743719029576],[88.84933067224638,26.75830595380317],[88.84964782115374,26.75880440571969],[88.85031370798761,26.75934758551265],[88.85060167958883,26.75930270479854],[88.85101272365443,26.75983415369646],[88.85193842187387,26.76103124359226],[88.85201368765073,26.76166398733612],[88.8522081493563,26.76409970610108],[88.85196840505638,26.7650505178149],[88.85178364616135,26.7658111809824],[88.8516604736826,26.76631847763788],[88.85085941669092,26.76765257624313],[88.8502671149955,26.76862129554398],[88.8497843562918,26.77008011749874],[88.8496178780406,26.77141040300166],[88.84954766046125,26.77228940016175],[88.84948886741442,26.77302504889492],[88.84932057868545,26.77410234846174],[88.84928121209589,26.77421794155008],[88.84914796827235,26.77460965693938],[88.84887015867044,26.77518105591841],[88.84834541585928,26.7757539328029],[88.84820650807852,26.77603963160645],[88.84817405314519,26.77641946090582],[88.84800151300124,26.77692676755742],[88.84779467657415,26.77757699486481],[88.84681484602672,26.77859568371882],[88.84587160352892,26.77980396505656],[88.84545593723722,26.78081899379162],[88.84518645564698,26.78252980482796],[88.84505315711317,26.78357501888111],[88.8449193079297,26.78455677548774],[88.84467759202002,26.78525458995862],[88.84457534806988,26.78572988398657],[88.84419602367521,26.78690320232021],[88.84360084202503,26.78815113724131]]]},"properties":{"id":null,"Name":null,"description":null,"timestamp":null,"begin":null,"end":null,"altitudeMode":null,"tessellate":-1,"extrude":0,"visibility":-1,"drawOrder":null,"icon":null,"AREA":3942340,"PERIMETER":9139.09,"division":"Gorumara","beat":"GORUMARA","BLOCK":"GORUMARA","compartment":"GORUMARA-2","range":"Gorumara South"}},
{"type":"Feature","geometry":{"type":"Polygon","coordinates":[[[88.8414912154375,26.7865658893397],[88.84119596338932,26.78630449310849],[88.84036465837497,26.78626570931068],[88.83953567636463,26.78631829003125],[88.83882475925756,26.78547918085992],[88.83811383951009,26.78472383580222],[88.83641359329614,26.78372105254176],[88.83457234599135,26.78271936086772],[88.83195340990713,26.78146865243008],[88.82657269993973,26.7786833338974],[88.82189905413946,26.77611539612533],[88.81913257441795,26.77391592613962],[88.81516635466983,26.77159666550693],[88.81470124182168,26.77105667867172],[88.81436422682795,26.77057631260508],[88.81432323098458,26.77002768174325],[88.81383524788819,26.76916544165088],[88.81358849376015,26.76835173780172],[88.81346913946213,26.76807375880101],[88.8140832377383,26.76805838702478],[88.81788984862288,26.76781478262694],[88.82486887829602,26.76739470291441],[88.8344589722313,26.76721192987472],[88.83618402623102,26.76703648387452],[88.83687763869153,26.77004606928421],[88.8414912154375,26.7865658893397]]]},"properties":{"id":null,"Name":null,"description":null,"timestamp":null,"begin":null,"end":null,"altitudeMode":null,"tessellate":-1,"extrude":0,"visibility":-1,"drawOrder":null,"icon":null,"AREA":2943890,"PERIMETER":8068.44,"division":"Gorumara","beat":"GORUMARA","BLOCK":"GORUMARA","compartment":"GORUMARA-1","range":"Gorumara South"}},
{"type":"Feature","geometry":{"type":"Polygon","coordinates":[[[88.86858857459326,26.77753934527983],[88.84965741274857,26.77228874223041],[88.84954766046125,26.77228940016175],[88.8496178780406,26.77141040300166],[88.8497843562918,26.77008011749874],[88.8502671149955,26.76862129554398],[88.85085941669092,26.76765257624313],[88.8516604736826,26.76631847763788],[88.85178364616135,26.7658111809824],[88.85196840505638,26.7650505178149],[88.8522081493563,26.76409970610108],[88.85201368765073,26.76166398733612],[88.85193842187387,26.76103124359226],[88.85101272365443,26.75983415369646],[88.85060167958883,26.75930270479854],[88.85094002582056,26.75924990587858],[88.85131878475894,26.75865364025718],[88.85148874144149,26.75808965303785],[88.85151538328374,26.75699514905858],[88.85164820862188,26.75611887599368],[88.85199254413162,26.7555854298667],[88.85243932765906,26.75476988365566],[88.85292222433687,26.7541416804129],[88.85358027295054,26.75363736831861],[88.8542724917589,26.75303920762021],[88.85461890939504,26.75278694405503],[88.85437088257154,26.7522254719324],[88.85387764381697,26.7514781965163],[88.85342208854958,26.75110581569856],[88.85154148153184,26.75114814664542],[88.8515575593623,26.75330543232876],[88.85051261161769,26.75331170396927],[88.8501854730108,26.75146907405444],[88.85048417106152,26.75011345380726],[88.8507360646047,26.74900293107205],[88.8510522600603,26.74780458711553],[88.85101148200583,26.74669553769214],[88.85067954175042,26.74577833510505],[88.84991139736425,26.74303945969115],[88.84950631017392,26.74102806309826],[88.84975833318519,26.73994659109258],[88.8505326928966,26.73915390740305],[88.85506559671083,26.73667509369914],[88.85558040611271,26.73595699782401],[88.8557131222753,26.73555568906001],[88.86233633180721,26.73705443520297],[88.86778603005872,26.73841649053808],[88.87194967319697,26.74094884381321],[88.87481832958296,26.7434890640444],[88.87612055359972,26.74441121642749],[88.87847911378444,26.74492490068102],[88.87853835291241,26.74524352854769],[88.87851211814603,26.74606106231185],[88.87838840636157,26.74687891771925],[88.87793951548842,26.74769906846163],[88.87722920466861,26.7483454021454],[88.87684130514656,26.74863971934773],[88.87619132021838,26.74867278758366],[88.87561054362854,26.74926021135088],[88.87548740178507,26.75016577729807],[88.87558526292959,26.7514453826319],[88.87511764920576,26.75246166259878],[88.87423239620821,26.75326728938656],[88.87411967221881,26.75406815042815],[88.87365134651591,26.75500461085034],[88.87270831012368,26.75602409365412],[88.87152340849386,26.75651142519764],[88.86950695576228,26.75705715590017],[88.86632362671554,26.76046402364765],[88.86260816063388,26.7642742851094],[88.860903994534,26.76684506491922],[88.85920136010523,26.76962932471476],[88.85920457139166,26.77005604175731],[88.8599261882758,26.771171954277],[88.86088554847287,26.77228613673023],[88.86255982156177,26.77360975393326],[88.86411122620225,26.77440046825145],[88.86638132870092,26.77590683676412],[88.86781351616987,26.77664493139477],[88.8688200493565,26.77732357140396],[88.86858857459326,26.77753934527983]]]},"properties":{"id":null,"Name":null,"description":null,"timestamp":null,"begin":null,"end":null,"altitudeMode":null,"tessellate":-1,"extrude":0,"visibility":-1,"drawOrder":null,"icon":null,"AREA":7402600,"PERIMETER":14876.7,"division":"Gorumara","beat":"GORUMARA","BLOCK":"JALDHAKA","compartment":"JALDHAKA-1A","range":"Gorumara South"}}
]}
