{"type":"FeatureCollection", "features": [
{"type":"Feature","geometry":{"type":"Polygon","coordinates":[[[88.87142038828902,26.85345477149471],[88.87236063100296,26.85219332053588],[88.87329699378446,26.85146353818481],[88.87414580553306,26.85101576961734],[88.87458813015323,26.85020836711993],[88.87498842251316,26.84976336626458],[88.8761013614259,26.84867033041664],[88.87636426669464,26.84786431570608],[88.8766268577077,26.84701797030581],[88.87750221141347,26.84419662691331],[88.87811239619995,26.84189983160321],[88.87864218055026,26.84081039479958],[88.8795347678199,26.84024160880063],[88.8796570677105,26.83865181816694],[88.8794163282775,26.83652135102101],[88.87859452143526,26.83463563875329],[88.8770125290044,26.83303639548138],[88.87579211113308,26.83179675788799],[88.87488906221881,26.83099795573613],[88.87439111402779,26.83039746011098],[88.87398100577137,26.82955527282791],[88.8738215604489,26.82915152478569],[88.87478577827245,26.82922848871369],[88.87717578961329,26.83094346762441],[88.87883905883365,26.83145605641109],[88.88046158439725,26.8324920690705],[88.88236629707417,26.83521574114348],[88.88229001266829,26.83694598663195],[88.88221902523898,26.8393598706835],[88.88208881136606,26.83992392221686],[88.88015436674199,26.84496451187602],[88.87887080357473,26.84718483572719],[88.8783400639611,26.84815384662391],[88.87781179608272,26.84944436891116],[88.87701464360885,26.85077688880178],[88.87652720930176,26.85154396396947],[88.87572414430765,26.85211217773186],[88.8750326737368,26.85285907581922],[88.87142038828902,26.85345477149471]]]},"properties":{"id":null,"Name":null,"description":null,"timestamp":null,"begin":null,"end":null,"altitudeMode":null,"tessellate":-1,"extrude":0,"visibility":-1,"drawOrder":null,"icon":null,"AREA":752541,"PERIMETER":6781.79,"division":"Gorumara","beat":"KHUNIA","BLOCK":"SHELKAPARA","compartment":"SHELKAPARA-2A","range":"Gorumara North"}},
{"type":"Feature","geometry":{"type":"Polygon","coordinates":[[[88.86712807133418,26.85417610709385],[88.86654260446275,26.85364437781302],[88.8661435586941,26.85263795409485],[88.86534764564014,26.85088795342591],[88.86499192962782,26.84913553821501],[88.86399598013102,26.84681645966164],[88.8626990430669,26.84349033858284],[88.85922359193714,26.8366459775609],[88.85832541114965,26.83428254052797],[88.85757765703312,26.83240076257067],[88.85678053667182,26.83071388923849],[88.85837835578951,26.83060718315377],[88.86299839269681,26.83050518859142],[88.87058562880783,26.82997754938184],[88.87363287192584,26.82921868794569],[88.8738215604489,26.82915152478569],[88.87398100577137,26.82955527282791],[88.87439111402779,26.83039746011098],[88.87488906221881,26.83099795573613],[88.87579211113308,26.83179675788799],[88.8770125290044,26.83303639548138],[88.87859452143526,26.83463563875329],[88.8794163282775,26.83652135102101],[88.8796570677105,26.83865181816694],[88.8795347678199,26.84024160880063],[88.87864218055026,26.84081039479958],[88.87811239619995,26.84189983160321],[88.87750221141347,26.84419662691331],[88.8766268577077,26.84701797030581],[88.87636426669464,26.84786431570608],[88.8761013614259,26.84867033041664],[88.87498842251316,26.84976336626458],[88.87458813015323,26.85020836711993],[88.87414580553306,26.85101576961734],[88.87329699378446,26.85146353818481],[88.87236063100296,26.85219332053588],[88.87142038828902,26.85345477149471],[88.86712807133418,26.85417610709385]]]},"properties":{"id":null,"Name":null,"description":null,"timestamp":null,"begin":null,"end":null,"altitudeMode":null,"tessellate":-1,"extrude":0,"visibility":-1,"drawOrder":null,"icon":null,"AREA":3921150,"PERIMETER":8101.29,"division":"Gorumara","beat":"KHUNIA","BLOCK":"SHELKAPARA","compartment":"SHELKAPARA-1","range":"Gorumara North"}},
{"type":"Feature","geometry":{"type":"Polygon","coordinates":[[[88.8750326737368,26.85285907581922],[88.87572414430765,26.85211217773186],[88.87652720930176,26.85154396396947],[88.87701464360885,26.85077688880178],[88.87781179608272,26.84944436891116],[88.8783400639611,26.84815384662391],[88.87887080357473,26.84718483572719],[88.88015436674199,26.84496451187602],[88.88208881136606,26.83992392221686],[88.88221902523898,26.8393598706835],[88.88229001266829,26.83694598663195],[88.88236629707417,26.83521574114348],[88.88046158439725,26.8324920690705],[88.87883905883365,26.83145605641109],[88.87717578961329,26.83094346762441],[88.87478577827245,26.82922848871369],[88.8738215604489,26.82915152478569],[88.87511399599215,26.82869142276302],[88.87816630947074,26.8285983381056],[88.87981704265133,26.82866226283737],[88.88063811675264,26.82813904227746],[88.88220631118098,26.82820317077584],[88.88393669796376,26.82789622818259],[88.8846735038759,26.82764878509376],[88.88640566543376,26.82706680938114],[88.88953691069838,26.82652905030418],[88.89106582883764,26.82642776858514],[88.89126971870154,26.82698916048031],[88.89139573806195,26.8278951348529],[88.89116582124151,26.8289099629655],[88.89028344075041,26.83014240324229],[88.88951747006926,26.83105426986147],[88.88875239586645,26.83207245698153],[88.88947554575984,26.83329479965078],[88.88966919376152,26.83524080542506],[88.88957143997239,26.8379617215101],[88.88982523117485,26.83998716551996],[88.8905484454704,26.84120949984014],[88.89115399156954,26.84259277129332],[88.89104883393387,26.84435365984953],[88.89010899294405,26.84585327259464],[88.88994347263188,26.84750792776103],[88.89044162940874,26.84898861665958],[88.89055238712838,26.84931790867583],[88.89079724640632,26.85019633818283],[88.89095474760364,26.85059105119486],[88.88966479077389,26.85091900657281],[88.88782657025865,26.85103124606964],[88.88518282658622,26.85136962643183],[88.88195900076093,26.85211376851091],[88.87917725883742,26.85236377236602],[88.87666978447174,26.85258917651997],[88.8750326737368,26.85285907581922]]]},"properties":{"id":null,"Name":null,"description":null,"timestamp":null,"begin":null,"end":null,"altitudeMode":null,"tessellate":-1,"extrude":0,"visibility":-1,"drawOrder":null,"icon":null,"AREA":2772730,"PERIMETER":9489.57,"division":"Gorumara","beat":"KHUNIA","BLOCK":"SHELKAPARA","compartment":"SHELKAPARA-2B","range":"Gorumara North"}},
{"type":"Feature","geometry":{"type":"Polygon","coordinates":[[[88.8738215604489,26.82915152478569],[88.87359757993592,26.82633952140593],[88.87336045631343,26.82465126030327],[88.87303389322538,26.82300416430466],[88.87225802056008,26.82123883960115],[88.87076260395219,26.81919645773546],[88.86935906508737,26.81743497456174],[88.86894912217295,26.8165927686752],[88.86831641436298,26.81595302558394],[88.86730825635189,26.81310294077839],[88.86489351299949,26.80806911142577],[88.86402554405815,26.80594243265972],[88.86292723803292,26.80301247635885],[88.86224026585592,26.80110580436047],[88.86123665600111,26.79881888243979],[88.86075263255087,26.79775428294001],[88.86306521895375,26.79706104447397],[88.86605669844343,26.79708734732698],[88.86755230849143,26.79707819427612],[88.86847809837754,26.79615954040609],[88.87016126398512,26.79916652775059],[88.87044498947952,26.80109594593138],[88.87113471070482,26.80334439703619],[88.87174433169376,26.80684053813518],[88.87352833467861,26.81145563698821],[88.87580078988091,26.8154240622654],[88.87848575786087,26.8205366767285],[88.87952982583072,26.82217930281017],[88.88057361720084,26.82378215385097],[88.88170338047507,26.82490132030722],[88.88310377451191,26.8262201677523],[88.88355561960427,26.82665987365431],[88.8846735038759,26.82764878509376],[88.88393669796376,26.82789622818259],[88.88220631118098,26.82820317077584],[88.88063811675264,26.82813904227746],[88.87981704265133,26.82866226283737],[88.87816630947074,26.8285983381056],[88.87511399599215,26.82869142276302],[88.8738215604489,26.82915152478569]]]},"properties":{"id":null,"Name":null,"description":null,"timestamp":null,"begin":null,"end":null,"altitudeMode":null,"tessellate":-1,"extrude":0,"visibility":-1,"drawOrder":null,"icon":null,"AREA":2700890,"PERIMETER":9606.2,"division":"Gorumara","beat":"KHUNIA","BLOCK":"TONDU","compartment":"TONDU-2A","range":"Gorumara North"}},
{"type":"Feature","geometry":{"type":"Polygon","coordinates":[[[88.86847809837754,26.79615954040609],[88.86864087081888,26.79599805855237],[88.87056603101495,26.79348111406227],[88.87182134533481,26.7917825326793],[88.87239396541737,26.79213297399774],[88.87280022630547,26.79249261735653],[88.87334278343391,26.79309284981569],[88.87429377319366,26.79433390431393],[88.87511280729247,26.79589786244133],[88.87602468920315,26.79788346188238],[88.87707036132792,26.79976753591563],[88.87722462341237,26.80234136561507],[88.87750383009687,26.80366693728831],[88.87769129165503,26.80471187842979],[88.87815046495099,26.80611699729353],[88.87861554160168,26.80828641752737],[88.87952914198098,26.81047307492602],[88.88044208157054,26.81255932158029],[88.8815371231682,26.81500628963965],[88.88163738043289,26.81637357790128],[88.88173950678086,26.81798200155013],[88.88210630748908,26.81902553442352],[88.88220657658924,26.82039282126715],[88.88285185767349,26.822641479994],[88.88340210110246,26.82420677256913],[88.88394830434586,26.82524946130396],[88.8846735038759,26.82764878509376],[88.88355561960427,26.82665987365431],[88.88310377451191,26.8262201677523],[88.88170338047507,26.82490132030722],[88.88057361720084,26.82378215385097],[88.87952982583072,26.82217930281017],[88.87848575786087,26.8205366767285],[88.87580078988091,26.8154240622654],[88.87352833467861,26.81145563698821],[88.87174433169376,26.80684053813518],[88.87113471070482,26.80334439703619],[88.87044498947952,26.80109594593138],[88.87016126398512,26.79916652775059],[88.86847809837754,26.79615954040609]]]},"properties":{"id":null,"Name":null,"description":null,"timestamp":null,"begin":null,"end":null,"altitudeMode":null,"tessellate":-1,"extrude":0,"visibility":-1,"drawOrder":null,"icon":null,"AREA":1983830,"PERIMETER":8740.54,"division":"Gorumara","beat":"KHUNIA","BLOCK":"TONDU","compartment":"TONDU-2B","range":"Gorumara North"}},
{"type":"Feature","geometry":{"type":"Polygon","coordinates":[[[88.8846735038759,26.82764878509376],[88.88394830434586,26.82524946130396],[88.88340210110246,26.82420677256913],[88.88285185767349,26.822641479994],[88.88220657658924,26.82039282126715],[88.88210630748908,26.81902553442352],[88.88173950678086,26.81798200155013],[88.88163738043289,26.81637357790128],[88.8815371231682,26.81500628963965],[88.88044208157054,26.81255932158029],[88.87952914198098,26.81047307492602],[88.87861554160168,26.80828641752737],[88.87815046495099,26.80611699729353],[88.87769129165503,26.80471187842979],[88.87750383009687,26.80366693728831],[88.87722462341237,26.80234136561507],[88.87707036132792,26.79976753591563],[88.87602468920315,26.79788346188238],[88.87511280729247,26.79589786244133],[88.87429377319366,26.79433390431393],[88.87334278343391,26.79309284981569],[88.87280022630547,26.79249261735653],[88.87239396541737,26.79213297399774],[88.87182134533481,26.7917825326793],[88.87229297186938,26.79114418145377],[88.87316573710851,26.78955089007488],[88.87308332140054,26.78952178328463],[88.87165541814892,26.78937037463622],[88.870579298642,26.78907294699593],[88.87052354750982,26.78905749505399],[88.87039693079251,26.78804460194136],[88.87020033813876,26.78564532075514],[88.87001099896334,26.78420635904264],[88.86910231064813,26.78197136531946],[88.8691080278757,26.78190702383244],[88.86932136981513,26.7795162236156],[88.86925141024257,26.77812983355049],[88.86909393640303,26.77758052798314],[88.87227250144409,26.78056337419896],[88.87541232945942,26.78397481110392],[88.87675148236364,26.78526422084009],[88.87987615983788,26.79158691301794],[88.88155052896771,26.79285670411603],[88.88257266405081,26.79434404772479],[88.88323939522931,26.79599351907043],[88.88396017709702,26.79694910195888],[88.88473797519556,26.79758448635299],[88.88599176346172,26.79826991379877],[88.88671017487077,26.79890565836602],[88.88725138026221,26.79970242839513],[88.8873794073154,26.80087521205238],[88.88739144743515,26.80242214856039],[88.8875178963526,26.80338143412872],[88.88823876267132,26.80433699223019],[88.88866035366533,26.80502789324616],[88.88878445131627,26.80569386620618],[88.88903348500958,26.80713270088447],[88.88945800337565,26.80819672451225],[88.89005626763075,26.80867328563037],[88.89095308337171,26.80930760252771],[88.89191308088525,26.81042183573002],[88.89233596986969,26.81127263489869],[88.8924674076783,26.81287212114595],[88.89223627451533,26.81372704139279],[88.89141343373504,26.8149591136335],[88.89058565242962,26.81555125578025],[88.89041600168072,26.81667259936371],[88.89072416111809,26.81805746794046],[88.89103420793371,26.81968262441824],[88.89128539128419,26.82138796856678],[88.89130616309261,26.82155142280936],[88.89147541361632,26.82288019032847],[88.89112784043584,26.82405596034591],[88.89084435054095,26.82581825766727],[88.89106582883764,26.82642776858514],[88.88953691069838,26.82652905030418],[88.88640566543376,26.82706680938114],[88.8846735038759,26.82764878509376]]]},"properties":{"id":null,"Name":null,"description":null,"timestamp":null,"begin":null,"end":null,"altitudeMode":null,"tessellate":-1,"extrude":0,"visibility":-1,"drawOrder":null,"icon":null,"AREA":4525130,"PERIMETER":13041.7,"division":"Gorumara","beat":"KHUNIA","BLOCK":"TONDU","compartment":"TONDU-3","range":"Gorumara North"}}
]}