{"type":"FeatureCollection", "features": [
{"type":"Feature","geometry":{"type":"Polygon","coordinates":[[[88.86712807133418,26.85417610709385],[88.86541916369644,26.85364392350877],[88.86397106735433,26.85196333832888],[88.8625302548136,26.8512481270761],[88.85929603141422,26.85062390788606],[88.85552477024359,26.85016419233172],[88.85431407939441,26.8500358470253],[88.85193362225525,26.84978367343171],[88.84995711164682,26.84939308763765],[88.84910582978948,26.84895200689945],[88.84877854760909,26.84773074624088],[88.84872795764932,26.84696671037197],[88.8484982725599,26.84624408107383],[88.84857717145438,26.84479531111121],[88.8486181602013,26.84427215531813],[88.84852516402495,26.84383018579747],[88.84806918717138,26.84282715024708],[88.84770531240889,26.84214565571732],[88.84756503868594,26.84138215602623],[88.8476421500724,26.83969196616661],[88.84839289005409,26.83811873533544],[88.84883444987095,26.83719069913363],[88.84900393188242,26.8358620989274],[88.84922219666024,26.83505639818658],[88.85006827883834,26.83424664479993],[88.85163140597425,26.8333724973299],[88.8521665230649,26.83296679830294],[88.85283771535904,26.83276165700313],[88.85314947408982,26.8324782973797],[88.85354858277475,26.83187231547478],[88.85376922139714,26.83138840640453],[88.85401685328966,26.8308984111583],[88.85678053667182,26.83071388923849],[88.85757765703312,26.83240076257067],[88.85832541114965,26.83428254052797],[88.85922359193714,26.8366459775609],[88.8626990430669,26.84349033858284],[88.86399598013102,26.84681645966164],[88.86499192962782,26.84913553821501],[88.86534764564014,26.85088795342591],[88.8661435586941,26.85263795409485],[88.86654260446275,26.85364437781302],[88.86712807133418,26.85417610709385]]]},"properties":{"id":null,"Name":null,"description":null,"timestamp":null,"begin":null,"end":null,"altitudeMode":null,"tessellate":-1,"extrude":0,"visibility":-1,"drawOrder":null,"icon":null,"AREA":2628890,"PERIMETER":7307.38,"division":"Gorumara","beat":"MURTI","BLOCK":"KAKURJHORA","compartment":"KAKURJHORA-2","range":"Gorumara North"}},
{"type":"Feature","geometry":{"type":"Polygon","coordinates":[[[88.84910582978948,26.84895200689945],[88.8458145670003,26.84724561568395],[88.84239877216181,26.84630056115259],[88.83880245389983,26.84519572816689],[88.83736247794829,26.84456063337677],[88.83690631723728,26.84411826626356],[88.83546517580736,26.84272135552669],[88.83105465604683,26.84065540548058],[88.8302604894788,26.84036251067758],[88.82959756316181,26.83764691954332],[88.82967318096811,26.83571531197955],[88.83011166023404,26.83434510234555],[88.8302839982004,26.83337864987163],[88.83010386933957,26.83237083017995],[88.83454261638092,26.83208213802759],[88.83720431601476,26.83192849559191],[88.84740946517059,26.83133948154766],[88.85401685328966,26.8308984111583],[88.85376922139714,26.83138840640453],[88.85354858277475,26.83187231547478],[88.85314947408982,26.8324782973797],[88.85283771535904,26.83276165700313],[88.8521665230649,26.83296679830294],[88.85163140597425,26.8333724973299],[88.85006827883834,26.83424664479993],[88.84922219666024,26.83505639818658],[88.84900393188242,26.8358620989274],[88.84883444987095,26.83719069913363],[88.84839289005409,26.83811873533544],[88.8476421500724,26.83969196616661],[88.84756503868594,26.84138215602623],[88.84770531240889,26.84214565571732],[88.84806918717138,26.84282715024708],[88.84852516402495,26.84383018579747],[88.8486181602013,26.84427215531813],[88.84857717145438,26.84479531111121],[88.8484982725599,26.84624408107383],[88.84872795764932,26.84696671037197],[88.84877854760909,26.84773074624088],[88.84910582978948,26.84895200689945]]]},"properties":{"id":null,"Name":null,"description":null,"timestamp":null,"begin":null,"end":null,"altitudeMode":null,"tessellate":-1,"extrude":0,"visibility":-1,"drawOrder":null,"icon":null,"AREA":2764830,"PERIMETER":7691.72,"division":"Gorumara","beat":"MURTI","BLOCK":"KAKURJHORA","compartment":"KAKURJHORA-1A","range":"Gorumara North"}},
{"type":"Feature","geometry":{"type":"Polygon","coordinates":[[[88.8302604894788,26.84036251067758],[88.82781432381458,26.83946019770908],[88.82427532128992,26.83815440059347],[88.82392739867025,26.83693968277868],[88.8240837883583,26.83585825551058],[88.82397144568496,26.83546602027191],[88.82330912533212,26.83473317242082],[88.82363193544434,26.83394551460964],[88.823001466552,26.83283256399041],[88.83010386933957,26.83237083017995],[88.8302839982004,26.83337864987163],[88.83011166023404,26.83434510234555],[88.82967318096811,26.83571531197955],[88.82959756316181,26.83764691954332],[88.8302604894788,26.84036251067758]]]},"properties":{"id":null,"Name":null,"description":null,"timestamp":null,"begin":null,"end":null,"altitudeMode":null,"tessellate":-1,"extrude":0,"visibility":-1,"drawOrder":null,"icon":null,"AREA":442668,"PERIMETER":2893.06,"division":"Gorumara","beat":"MURTI","BLOCK":"KAKURJHORA","compartment":"KAKURJHORA-1B","range":"Gorumara North"}},
{"type":"Feature","geometry":{"type":"Polygon","coordinates":[[[88.823001466552,26.83283256399041],[88.82291101385482,26.83267288805933],[88.8228388354084,26.83026661105168],[88.82293448825595,26.82835068133671],[88.82237763133732,26.82705255827042],[88.82252842892731,26.82518538348199],[88.82251672625021,26.82356481472109],[88.8227779889207,26.8218442250389],[88.82198536790827,26.81821466400808],[88.82317601214848,26.81631690672053],[88.82474929924393,26.8143432968722],[88.82525489371413,26.81372351516106],[88.829788361653,26.81377232280922],[88.83202634266802,26.81364213887368],[88.83128212088938,26.81409355374649],[88.8304918349547,26.81512709613647],[88.82935510789677,26.81652058074522],[88.82916450507645,26.81772941856929],[88.82942129599448,26.81875681812307],[88.8296790695037,26.81991846509999],[88.82918892192737,26.82108421258738],[88.82849993690698,26.8223408129592],[88.82756552483325,26.82413586059086],[88.82707850831311,26.82574890717546],[88.82708760407553,26.82700141945691],[88.82774533146346,26.82829498450331],[88.82855265459453,26.82958767023539],[88.83010386933957,26.83237083017995],[88.823001466552,26.83283256399041]]]},"properties":{"id":null,"Name":null,"description":null,"timestamp":null,"begin":null,"end":null,"altitudeMode":null,"tessellate":-1,"extrude":0,"visibility":-1,"drawOrder":null,"icon":null,"AREA":1248860,"PERIMETER":5924.75,"division":"Gorumara","beat":"MURTI","BLOCK":"BHOGALMARDI","compartment":"BHOGALMARDI-1B","range":"Gorumara North"}},
{"type":"Feature","geometry":{"type":"Polygon","coordinates":[[[88.83010386933957,26.83237083017995],[88.82855265459453,26.82958767023539],[88.82774533146346,26.82829498450331],[88.82708760407553,26.82700141945691],[88.82707850831311,26.82574890717546],[88.82756552483325,26.82413586059086],[88.82849993690698,26.8223408129592],[88.82918892192737,26.82108421258738],[88.8296790695037,26.81991846509999],[88.82942129599448,26.81875681812307],[88.82916450507645,26.81772941856929],[88.82935510789677,26.81652058074522],[88.8304918349547,26.81512709613647],[88.83128212088938,26.81409355374649],[88.83202634266802,26.81364213887368],[88.83473639185318,26.81348431705135],[88.83507056194576,26.81348234637563],[88.83512525851917,26.8146076691005],[88.83543593690088,26.81617147274681],[88.83553121633653,26.81778195611218],[88.83554977706409,26.81809435327754],[88.83576032893457,26.81961418296176],[88.83623078094963,26.82256385811884],[88.83650407308902,26.82582776594971],[88.83720431601476,26.83192849559191],[88.83454261638092,26.83208213802759],[88.83010386933957,26.83237083017995]]]},"properties":{"id":null,"Name":null,"description":null,"timestamp":null,"begin":null,"end":null,"altitudeMode":null,"tessellate":-1,"extrude":0,"visibility":-1,"drawOrder":null,"icon":null,"AREA":1500770,"PERIMETER":5372.59,"division":"Gorumara","beat":"MURTI","BLOCK":"BHOGALMARDI","compartment":"BHOGALMARDI-1A","range":"Gorumara North"}},
{"type":"Feature","geometry":{"type":"Polygon","coordinates":[[[88.83720431601476,26.83192849559191],[88.83650407308902,26.82582776594971],[88.83623078094963,26.82256385811884],[88.83576032893457,26.81961418296176],[88.83554977706409,26.81809435327754],[88.83553121633653,26.81778195611218],[88.84447113779369,26.81750468164508],[88.84990707043322,26.81760640324821],[88.8579834708072,26.81740114881245],[88.8585049392342,26.81744988356331],[88.8587405030069,26.81798264758954],[88.85816131692754,26.81899503404635],[88.85797230170807,26.81987362098665],[88.85744239633071,26.82092970479328],[88.85700819788825,26.82172205950115],[88.85652320387199,26.82225129054477],[88.85628363404135,26.82291075031651],[88.85599945913147,26.82414077373963],[88.85590621983627,26.82475563083172],[88.85581800236712,26.8260284675026],[88.8557770242076,26.82708158764235],[88.85573340714268,26.82778357817158],[88.85579037397633,26.82885810527738],[88.85623376286905,26.82929400247385],[88.85628471272328,26.82955712370011],[88.85678053667182,26.83071388923849],[88.85401685328966,26.8308984111583],[88.84740946517059,26.83133948154766],[88.83720431601476,26.83192849559191]]]},"properties":{"id":null,"Name":null,"description":null,"timestamp":null,"begin":null,"end":null,"altitudeMode":null,"tessellate":-1,"extrude":0,"visibility":-1,"drawOrder":null,"icon":null,"AREA":3082790,"PERIMETER":7374.93,"division":"Gorumara","beat":"MURTI","BLOCK":"BHOGALMARDI","compartment":"BHOGALMARDI-2","range":"Gorumara North"}},
{"type":"Feature","geometry":{"type":"Polygon","coordinates":[[[88.85678053667182,26.83071388923849],[88.85628471272328,26.82955712370011],[88.85623376286905,26.82929400247385],[88.85579037397633,26.82885810527738],[88.85573340714268,26.82778357817158],[88.8557770242076,26.82708158764235],[88.85581800236712,26.8260284675026],[88.85590621983627,26.82475563083172],[88.85599945913147,26.82414077373963],[88.85628363404135,26.82291075031651],[88.85652320387199,26.82225129054477],[88.85700819788825,26.82172205950115],[88.85744239633071,26.82092970479328],[88.85797230170807,26.81987362098665],[88.85816131692754,26.81899503404635],[88.8587405030069,26.81798264758954],[88.8585049392342,26.81744988356331],[88.85839227531757,26.81719503417749],[88.85833810174594,26.81649335308617],[88.85823298584354,26.81552911490887],[88.8567508731966,26.80700538141461],[88.85624081743264,26.80420070510981],[88.85572930918327,26.80119888438806],[88.85562426423698,26.80051104585312],[88.85730717831628,26.8004063832011],[88.85815300367386,26.80017759848237],[88.85874888856941,26.79986063404891],[88.86003531186743,26.79855570102346],[88.86062780725557,26.79779142535377],[88.86075263255087,26.79775428294001],[88.86123665600111,26.79881888243979],[88.86224026585592,26.80110580436047],[88.86292723803292,26.80301247635885],[88.86402554405815,26.80594243265972],[88.86489351299949,26.80806911142577],[88.86730825635189,26.81310294077839],[88.86831641436298,26.81595302558394],[88.86894912217295,26.8165927686752],[88.86935906508737,26.81743497456174],[88.87076260395219,26.81919645773546],[88.87225802056008,26.82123883960115],[88.87303389322538,26.82300416430466],[88.87336045631343,26.82465126030327],[88.87359757993592,26.82633952140593],[88.8738215604489,26.82915152478569],[88.87363287192584,26.82921868794569],[88.87058562880783,26.82997754938184],[88.86299839269681,26.83050518859142],[88.85837835578951,26.83060718315377],[88.85678053667182,26.83071388923849]]]},"properties":{"id":null,"Name":null,"description":null,"timestamp":null,"begin":null,"end":null,"altitudeMode":null,"tessellate":-1,"extrude":0,"visibility":-1,"drawOrder":null,"icon":null,"AREA":3867620,"PERIMETER":9563.39,"division":"Gorumara","beat":"MURTI","BLOCK":"TONDU","compartment":"TONDU-1","range":"Gorumara North"}}
]}
