{"type":"FeatureCollection", "features": [
{"type":"Feature","geometry":{"type":"Polygon","coordinates":[[[88.82320892362372,26.75617938822446],[88.8222752588647,26.75490825343891],[88.82219113292804,26.75300970660704],[88.822039812577,26.75158651911819],[88.82111450703,26.75038922340368],[88.82061182008067,26.74912601513329],[88.81988445388878,26.74602880976714],[88.81845341431386,26.74476052042078],[88.8186062572087,26.74477007412968],[88.82283634085681,26.74468241630405],[88.82445795949171,26.74467299882671],[88.8296238210213,26.74470069475315],[88.83009912939163,26.74470327252403],[88.83531903697892,26.7449890831981],[88.84455589843708,26.74496596873083],[88.84747404466995,26.74488481857213],[88.84690865424976,26.74585928747557],[88.84613422535055,26.74665195231409],[88.84536029626916,26.74750299399901],[88.84520809205021,26.74853647914137],[88.84576944073797,26.75006888363818],[88.84439662506921,26.75055005930445],[88.84541638834762,26.75185719846308],[88.84633286168932,26.75332120067177],[88.8468987482698,26.75447478182904],[88.84652785613467,26.75613402699048],[88.84114421932162,26.75565217660107],[88.83832320693725,26.75560542333923],[88.83394988440773,26.75544139506653],[88.83303609733524,26.75548992014962],[88.82859255623693,26.75572608370943],[88.82422335137323,26.75613118744678],[88.82320892362372,26.75617938822446]]]},"properties":{"id":null,"Name":null,"description":null,"timestamp":null,"begin":null,"end":null,"altitudeMode":null,"tessellate":-1,"extrude":0,"visibility":-1,"drawOrder":null,"icon":null,"AREA":2984480,"PERIMETER":8103.01,"division":"Gorumara","beat":"RAMSAI","BLOCK":"MEDLAJHORA","compartment":"NULLMEDLAJHORA-1","range":"Gorumara South"}},
{"type":"Feature","geometry":{"type":"Polygon","coordinates":[[[88.8296238210213,26.74470069475315],[88.82924914969367,26.7441700955914],[88.82910211779699,26.74334821850259],[88.82902332224094,26.74220920130775],[88.82857506171653,26.73873048905485],[88.82855854882534,26.73645191020296],[88.82790433171166,26.73373395410841],[88.82767633933194,26.73145632522909],[88.82728026577924,26.7276227615325],[88.8277903606514,26.7277213243585],[88.83032736941185,26.72757986026292],[88.83229943299236,26.72731502573225],[88.8337057065637,26.72680049119733],[88.83454749286241,26.72622580296601],[88.83615273397224,26.72400085513698],[88.83776185432177,26.72231401688462],[88.83863832915974,26.72202199567856],[88.83864012985325,26.72226765001303],[88.83899959575407,26.72252811312074],[88.83893971137286,26.72322907762384],[88.8385252742837,26.72434054494927],[88.8386260173283,26.72477769003165],[88.8411361525531,26.73017676396262],[88.84387390902813,26.73612922104341],[88.84420868461035,26.73685688874403],[88.84513296817136,26.73874844303739],[88.84638884658891,26.74151348983095],[88.84734607717326,26.74346321454473],[88.84747404466995,26.74488481857213],[88.84455589843708,26.74496596873083],[88.83531903697892,26.7449890831981],[88.83009912939163,26.74470327252403],[88.8296238210213,26.74470069475315]]]},"properties":{"id":null,"Name":null,"description":null,"timestamp":null,"begin":null,"end":null,"altitudeMode":null,"tessellate":-1,"extrude":0,"visibility":-1,"drawOrder":null,"icon":null,"AREA":3201400,"PERIMETER":7818.81,"division":"Gorumara","beat":"RAMSAI","BLOCK":"BARAHATI","compartment":"BARAHATI-3","range":"Gorumara South"}},
{"type":"Feature","geometry":{"type":"Polygon","coordinates":[[[88.81845341431386,26.74476052042078],[88.81493801468216,26.74453791911135],[88.8112073418163,26.74502497057811],[88.81042236787529,26.74412069425778],[88.81041653476471,26.74329798859361],[88.81041025200261,26.74241182420911],[88.80998041693604,26.7414648999453],[88.80997458567961,26.74064191184704],[88.81066798048624,26.73899218968476],[88.80973752052903,26.7370352827808],[88.80973124473618,26.73614911747118],[88.80972496923329,26.73526295205037],[88.80964376522635,26.73374429372154],[88.80914352443753,26.73279776692607],[88.80899844367895,26.73222885291258],[88.80890986534834,26.73045413373043],[88.8096900904146,26.73032586309651],[88.81194134512346,26.72964848723715],[88.81320624159157,26.72907150166729],[88.81496831380468,26.72899821211823],[88.81609402657448,26.72867499941757],[88.81799335834745,26.72809460315422],[88.81982449364519,26.72783075377503],[88.82172568858327,26.7275032960087],[88.82440457778617,26.72748775635294],[88.82651952699942,26.72747545227246],[88.82728026577924,26.7276227615325],[88.82767633933194,26.73145632522909],[88.82790433171166,26.73373395410841],[88.82855854882534,26.73645191020296],[88.82857506171653,26.73873048905485],[88.82902332224094,26.74220920130775],[88.82910211779699,26.74334821850259],[88.82924914969367,26.7441700955914],[88.8296238210213,26.74470069475315],[88.82445795949171,26.74467299882671],[88.82283634085681,26.74468241630405],[88.8186062572087,26.74477007412968],[88.81845341431386,26.74476052042078]]]},"properties":{"id":null,"Name":null,"description":null,"timestamp":null,"begin":null,"end":null,"altitudeMode":null,"tessellate":-1,"extrude":0,"visibility":-1,"drawOrder":null,"icon":null,"AREA":3334520,"PERIMETER":7328.15,"division":"Gorumara","beat":"RAMSAI","BLOCK":"BARAHATI","compartment":"BARAHATI-2","range":"Gorumara South"}}
]}