{"type":"FeatureCollection", "features": [
{"type":"Feature","geometry":{"type":"Polygon","coordinates":[[[89.32000760647217,26.563287877993417],[89.31755570568204,26.563044407128082],[89.31365647313888,26.562810412525277],[89.31031787432431,26.5624584403425],[89.30909585104396,26.562052143811503],[89.30712783659594,26.562928157901037],[89.30573646824634,26.562634893963992],[89.30420955812995,26.562558410611718],[89.30258740270664,26.562274004475654],[89.30161997554664,26.560583802481556],[89.30135838828893,26.55916310105261],[89.30222382005473,26.557836387919213],[89.30329431110324,26.556279100109396],[89.30262152406526,26.554270222151903],[89.30090869306484,26.55330881331625],[89.2992764017962,26.55267234989988],[89.29839706046295,26.55136725453015],[89.29870948180313,26.549805753508508],[89.2998589173289,26.548542521133804],[89.30209648559452,26.548761100270283],[89.30347279353066,26.548719802524616],[89.30384640448884,26.54687733164253],[89.30489225854286,26.541180146724212],[89.30547430400243,26.537695654533426],[89.30628123032534,26.535264399110662],[89.30790583346793,26.534355016630055],[89.30978725531061,26.534183866490483],[89.31108162872279,26.534589173358373],[89.31314125793877,26.53671031859827],[89.31462236980633,26.538842133063405],[89.31689553867653,26.542181079110254],[89.3204316867524,26.547239502308166],[89.32372206753188,26.552122140853022],[89.32411162593021,26.553647190810807],[89.32336009079752,26.555392221809353],[89.32185341950597,26.559018883136513],[89.32000760647217,26.563287877993417]]]},"properties":{"id":"172","beat":"Salkumar Beat","range":"Jaldapar South","division":"Jaldapara"}}
]}