{"type":"FeatureCollection", "features": [
{"type":"Feature","geometry":{"type":"Polygon","coordinates":[[[89.34776122883815,26.553101504654723],[89.34645957343353,26.553980112975577],[89.34465019504374,26.55444106237183],[89.34315880060372,26.554637235117166],[89.34129722113313,26.554747161993834],[89.33955864500314,26.554567109091735],[89.3378515551994,26.553979755125916],[89.3371849689184,26.552526351097054],[89.33622078086952,26.551599655003237],[89.33472623226793,26.550862572150706],[89.33309350612956,26.549677781664187],[89.33213066953527,26.548742355363323],[89.33182550205599,26.547148857210782],[89.33300169930004,26.545742705669532],[89.3319978722343,26.543932957852416],[89.33030771961066,26.543057268006624],[89.32853271095958,26.54147581594514],[89.32668856940482,26.540003868354482],[89.32543146789226,26.538582778682144],[89.32417263476367,26.537088221129228],[89.3227431122649,26.53579725210377],[89.32172893546884,26.534746031975313],[89.32097676077413,26.533557534160927],[89.3206589728038,26.53185034864131],[89.32050211456327,26.529959612454494],[89.32110903097053,26.528406223545435],[89.32183183225015,26.526875622792982],[89.32245571729565,26.52565168930509],[89.32376277386574,26.525171035116994],[89.32451187193607,26.524005581097214],[89.32441383264792,26.522493031313303],[89.32446287120442,26.520895866874287],[89.32535487670073,26.518670603234533],[89.32801172489391,26.518477891328367],[89.32971601454527,26.519833385190854],[89.33044495937821,26.520985484530517],[89.33171626618551,26.523000391267974],[89.33274592790441,26.5243946757101],[89.33258891327982,26.52593478008311],[89.33202579571685,26.52747326840909],[89.33189690285087,26.529421224297238],[89.33197469988244,26.531215027001124],[89.33265357115009,26.532933509906258],[89.33358733255535,26.534248018888277],[89.33462620450639,26.535783058692612],[89.33576640616339,26.536934712935604],[89.33764419476027,26.537816543370855],[89.33876406596262,26.538993665823433],[89.34081994803769,26.539347415321128],[89.34234188401538,26.5401197876625],[89.34247719757263,26.542142307879583],[89.34370430334882,26.5447482474709],[89.34484736397985,26.545871868290487],[89.3459104187463,26.546914433448958],[89.34768434305836,26.548497514146423],[89.34797985622679,26.550271796088058],[89.34751029664241,26.551671759693278],[89.34776122883815,26.553101504654723]]]},"properties":{"id":"52","beat":"Dhoidhoi Ghat","range":"Jaldapara East","division":"Jaldapara"}},
{"type":"Feature","geometry":{"type":"Polygon","coordinates":[[[89.33885566122218,26.638191364201973],[89.33699334690955,26.63824142915229],[89.335669,26.638101500000026],[89.32985565460088,26.638166335882556],[89.32644919132764,26.63822103542665],[89.323488,26.63827],[89.32309284420218,26.63616259418448],[89.322752,26.634361],[89.32345575000004,26.63215],[89.323082,26.630459],[89.3215725,26.628621],[89.32099750000003,26.6272185],[89.32030716055718,26.62613109518394],[89.32251392187388,26.624849419443024],[89.32369037791962,26.623457377013874],[89.32422227952593,26.622271202271712],[89.32319097581505,26.61847709325799],[89.32350482129479,26.61693037625196],[89.32598162739208,26.616774461685548],[89.32756629568387,26.61613491453804],[89.32884435452742,26.616096177637775],[89.3306581098506,26.616219437614134],[89.33273362533363,26.614764693572994],[89.33407899639654,26.613087167668585],[89.33475850882998,26.611220057687827],[89.33635612217009,26.608396253743198],[89.337917,26.608882],[89.34208540000002,26.608441],[89.34246450000003,26.610098],[89.342696,26.611835],[89.34257524962825,26.613669685315504],[89.342113,26.615025],[89.3426248576702,26.616775602459956],[89.342516,26.61934],[89.34277063192465,26.62074707312793],[89.34319598691792,26.62221987955399],[89.3432866666667,26.623899166666646],[89.34329542857141,26.625696571428563],[89.34217,26.627665],[89.341733,26.629064],[89.34142143808941,26.631216478547685],[89.34145711782752,26.633108779935803],[89.33994392726328,26.63487494891185],[89.33948682790181,26.636215035497283],[89.33885566122218,26.638191364201973]]]},"properties":{"id":"67","beat":"Malangi","range":"Jaldapara East","division":"Jaldapara"}},
{"type":"Feature","geometry":{"type":"Polygon","coordinates":[[[89.32636695342094,26.67053911120511],[89.32441896531128,26.671632244139147],[89.32313200592822,26.67244806632744],[89.32171918813506,26.67250432398455],[89.32031106462074,26.672765881663267],[89.31835804314011,26.672576649955808],[89.31660548696091,26.67264235760322],[89.31307470311783,26.672855600932525],[89.31140221949086,26.672977976521032],[89.31001168411406,26.672507332413257],[89.31044511514149,26.669949757429993],[89.31113356101007,26.668122618242755],[89.31069210608536,26.666440556783925],[89.31027604564744,26.66482920646888],[89.30981313921603,26.66318544022123],[89.30878654646176,26.661372928330344],[89.30896485576072,26.659920506989724],[89.30840894114657,26.657950193026807],[89.30738702335368,26.65612486259458],[89.30561259125136,26.650084033553505],[89.30435574715226,26.646698741017786],[89.30348404503839,26.64408996560778],[89.30309872914738,26.642410127629372],[89.30251050523752,26.639584135820098],[89.30167140888352,26.635455726753314],[89.30119608456434,26.63421490291879],[89.30272791906908,26.633657096804335],[89.30571993224568,26.63316585100243],[89.30766971272666,26.632768758462603],[89.30939819366921,26.632331525158996],[89.30884045657449,26.629716241061],[89.31080065477798,26.629114301200378],[89.31200359753831,26.629663856148415],[89.31381612559262,26.628985653002772],[89.31575086516536,26.628194042569035],[89.3185216950444,26.626983825399268],[89.32030716055718,26.62613109518394],[89.32099750000003,26.6272185],[89.3215725,26.628621],[89.323082,26.630459],[89.32345575000004,26.63215],[89.322752,26.634361],[89.32309284420218,26.63616259418448],[89.323488,26.63827],[89.32644919132764,26.63822103542665],[89.32985565460088,26.638166335882556],[89.335669,26.638101500000026],[89.33699334690955,26.63824142915229],[89.33885566122218,26.638191364201973],[89.33827302388967,26.640480166712692],[89.33805560328051,26.641896926775647],[89.33745850559276,26.64407880338783],[89.3370550821487,26.645691842722023],[89.33670062214041,26.647972979469607],[89.33656502836571,26.650311425744537],[89.33539300686151,26.65141685067515],[89.33407718766658,26.653185877711564],[89.33349662602764,26.65474862355274],[89.33395463166559,26.65771013176829],[89.33352224935723,26.660752433319505],[89.332653,26.662955],[89.33071436787107,26.66488095608183],[89.32911011945882,26.666352123100616],[89.32763164638658,26.66943650318076],[89.32636695342094,26.67053911120511]]]},"properties":{"id":"82","beat":"JP Beat","range":"Jaldapara East","division":"Jaldapara"}},
{"type":"Feature","geometry":{"type":"Polygon","coordinates":[[[89.34208540000002,26.608441],[89.337917,26.608882],[89.33635612217009,26.608396253743198],[89.33475850882998,26.611220057687827],[89.33407899639654,26.613087167668585],[89.33273362533363,26.614764693572994],[89.3306581098506,26.616219437614134],[89.32884435452742,26.616096177637775],[89.32756629568387,26.61613491453804],[89.32598162739208,26.616774461685548],[89.32350482129479,26.61693037625196],[89.3225687340731,26.61545938339706],[89.32203391784135,26.61364324230843],[89.32127228873925,26.612446539845084],[89.32180606219474,26.611209616848612],[89.32368030935861,26.610292810511897],[89.32482853339694,26.608650566117646],[89.32513864375008,26.606904527639045],[89.32568071949295,26.60530685637327],[89.32686370007791,26.604066793744867],[89.32652539672874,26.602324798290937],[89.32517232737237,26.60175408200302],[89.3242896413369,26.60045783302242],[89.32441746450353,26.598820335608313],[89.32589434739809,26.597199368697126],[89.32768731771138,26.596955572934615],[89.32899992389565,26.596832290338927],[89.33071780738436,26.59586042619199],[89.33256426824724,26.595093328964918],[89.33522039123234,26.594014879772214],[89.33581729047359,26.592271945338812],[89.33788715925378,26.591349884094033],[89.33925410093948,26.590626483374884],[89.33963401940524,26.58845491556167],[89.3398454053864,26.587144870536232],[89.3405050030533,26.58501831532724],[89.34048464215552,26.58319345322892],[89.34025278404405,26.581837370453425],[89.33994086043249,26.58000240673201],[89.33961079501545,26.578298585357178],[89.33920838910251,26.57588762794462],[89.33896032144142,26.57459080662709],[89.33863558181316,26.57264363076645],[89.3382917977365,26.570963158720843],[89.33764160110103,26.56900202934737],[89.33671500294531,26.567647711996216],[89.33699271642509,26.566304759989638],[89.33721467321715,26.56436460171178],[89.33678909820928,26.562295571877296],[89.3374543077426,26.560610268415356],[89.33839214157418,26.55895107354728],[89.33809213435343,26.557152103853625],[89.33793050310113,26.555625928609842],[89.3378515551994,26.553979755125916],[89.33955864500314,26.554567109091735],[89.34129722113313,26.554747161993834],[89.34315880060372,26.554637235117166],[89.34465019504374,26.55444106237183],[89.34645957343353,26.553980112975577],[89.34776122883815,26.553101504654723],[89.3512200957807,26.55185746515957],[89.35159758020167,26.553342672548467],[89.35199573156883,26.554903360260777],[89.35270297749696,26.55657329446272],[89.35365173429524,26.55793140950821],[89.35431480626342,26.55952361152262],[89.35325462667433,26.56065037362038],[89.35267455634424,26.5625787614768],[89.35384769999997,26.564089533333394],[89.35405899897891,26.56661896609415],[89.35341466194815,26.568739938535828],[89.35310492699651,26.57010143789415],[89.35375134713615,26.57122266381337],[89.35385002212166,26.572714867802897],[89.35429465202239,26.57439431810528],[89.35411873232394,26.576300731471118],[89.35326416970761,26.57869895794657],[89.35310915461868,26.58063994728507],[89.3531975383606,26.58216420709322],[89.35297158098575,26.583955977594435],[89.35336617796919,26.585547558615634],[89.35313092587477,26.586957027359396],[89.35290066354565,26.58912391569323],[89.35266431885738,26.591239648847235],[89.35081905246126,26.592726522669345],[89.3504542431163,26.594265303590074],[89.35001037837579,26.595511251658703],[89.34992573257173,26.597105226808797],[89.350172,26.598489],[89.35085065133401,26.599780032941027],[89.349533,26.6023],[89.348507336366,26.603096617148562],[89.34715,26.603695],[89.346056,26.604371],[89.344736,26.605095],[89.343717,26.605872],[89.34264971705898,26.607218376588985],[89.34208540000002,26.608441]]]},"properties":{"id":"97","beat":"Sisamara","range":"Jaldapara East","division":"Jaldapara"}}
]}