{"type":"FeatureCollection", "features": [
{"type":"Feature","geometry":{"type":"Polygon","coordinates":[[[89.3092727080419,26.70319040044448],[89.307631,26.704003],[89.30705187308695,26.70520268490221],[89.30666,26.706973],[89.307153,26.708406],[89.307721,26.7095535],[89.30826379732196,26.71137918654897],[89.30850924999996,26.712689],[89.30372194438652,26.713042903705457],[89.300709037796,26.713042505054833],[89.298622,26.712675],[89.295923,26.713071],[89.294135,26.713776500000012],[89.29231549999999,26.71373],[89.289026,26.714503500000035],[89.28656662847442,26.71412945511759],[89.28589312487405,26.710378021589502],[89.28620134336789,26.707955333738457],[89.28622429870606,26.706089385639135],[89.28570674579291,26.704818994233197],[89.285655,26.704104],[89.285767,26.703588],[89.28613650898976,26.70268347376891],[89.285627,26.700854],[89.28505422579639,26.698406477776608],[89.28405255817447,26.69741480561764],[89.28414882678685,26.696118049715693],[89.28310743135597,26.694471733288154],[89.28169214172115,26.692244789084622],[89.28052502645414,26.690714116409257],[89.27961921515467,26.689796595560892],[89.27897773151663,26.68869507375246],[89.27808344663448,26.687076525010227],[89.27614931293915,26.68574222149828],[89.27452682321214,26.68453548557163],[89.27370966310332,26.683163452341756],[89.2736056118437,26.681449386455373],[89.27548371695185,26.68134963406698],[89.27707057807764,26.681163992988115],[89.27915162646813,26.680120898739094],[89.28038285327851,26.679512759302774],[89.28295102583739,26.678839109518552],[89.28684091194297,26.677937693419988],[89.28909667023788,26.677409024058278],[89.29251200332445,26.676598250815513],[89.29422996902836,26.676511954205033],[89.29932198611706,26.67559888541086],[89.30262807544496,26.67490299054584],[89.30412921797826,26.674731505188813],[89.30433120000004,26.676060399999983],[89.304144,26.678159],[89.30466950000005,26.680224],[89.305544,26.68200350000002],[89.304797,26.68419975000002],[89.305116,26.686289],[89.30590533333331,26.68809],[89.30607475000006,26.689809333333418],[89.30707558955245,26.691613565339704],[89.30813766666671,26.693274],[89.30853350000001,26.69461174999998],[89.308532,26.69633925],[89.30841156842851,26.698247456646033],[89.308623,26.69986250000002],[89.3091250138969,26.70158121835912],[89.3092727080419,26.70319040044448]]]},"properties":{"id":"112","beat":"NWC Beat","range":"jaldapara North","division":"Jaldapara"}},
{"type":"Feature","geometry":{"type":"Polygon","coordinates":[[[89.3293285033624,26.699512697601683],[89.32796183363222,26.700008470453255],[89.32580696717903,26.700926640452664],[89.3247253144782,26.702161734661527],[89.3212021152874,26.702685001110986],[89.31976792801748,26.702847032731817],[89.31818602312366,26.703039238445562],[89.3151175735406,26.70230960140571],[89.31321184022528,26.70213011359363],[89.31144163884886,26.70284476730859],[89.3092727080419,26.70319040044448],[89.3091250138969,26.70158121835912],[89.308623,26.69986250000002],[89.30841156842851,26.698247456646033],[89.308532,26.69633925],[89.30853350000001,26.69461174999998],[89.30813766666671,26.693274],[89.30707558955245,26.691613565339704],[89.30607475000006,26.689809333333418],[89.30590533333331,26.68809],[89.305116,26.686289],[89.304797,26.68419975000002],[89.305544,26.68200350000002],[89.30466950000005,26.680224],[89.304144,26.678159],[89.30433120000004,26.676060399999983],[89.30412921797826,26.674731505188813],[89.3072934492755,26.673570412407603],[89.30854221513387,26.673306786853328],[89.31001168411406,26.672507332413257],[89.31140221949086,26.672977976521032],[89.31307470311783,26.672855600932525],[89.31660548696091,26.67264235760322],[89.31835804314011,26.672576649955808],[89.32031106462074,26.672765881663267],[89.32171918813506,26.67250432398455],[89.32313200592822,26.67244806632744],[89.32441896531128,26.671632244139147],[89.32636695342094,26.67053911120511],[89.32723748799532,26.67260039701142],[89.32736134646014,26.674158779205463],[89.32702049936354,26.675504739661886],[89.32621915475173,26.677275317407904],[89.32614439565023,26.681269549592816],[89.32607689272592,26.685003614397733],[89.32601100578371,26.687606444567884],[89.32626452703623,26.691114267512177],[89.32688914927692,26.692636779412553],[89.32765917803607,26.69433460244938],[89.32830189174055,26.695953922611164],[89.3289989181464,26.69759459982152],[89.3293285033624,26.699512697601683]]]},"properties":{"id":"127","beat":"Siltorsa Beat","range":"jaldapara North","division":"Jaldapara"}},
{"type":"Feature","geometry":{"type":"Polygon","coordinates":[[[89.30738702335368,26.65612486259458],[89.30840894114657,26.657950193026807],[89.30896485576072,26.659920506989724],[89.30878654646176,26.661372928330344],[89.30981313921603,26.66318544022123],[89.31027604564744,26.66482920646888],[89.31069210608536,26.666440556783925],[89.31113356101007,26.668122618242755],[89.31044511514149,26.669949757429993],[89.31001168411406,26.672507332413257],[89.30854221513387,26.673306786853328],[89.3072934492755,26.673570412407603],[89.30412921797826,26.674731505188813],[89.30262807544496,26.67490299054584],[89.29932198611706,26.67559888541086],[89.29422996902836,26.676511954205033],[89.29251200332445,26.676598250815513],[89.28909667023788,26.677409024058278],[89.28684091194297,26.677937693419988],[89.28295102583739,26.678839109518552],[89.28038285327851,26.679512759302774],[89.27915162646813,26.680120898739094],[89.27707057807764,26.681163992988115],[89.27548371695185,26.68134963406698],[89.2736056118437,26.681449386455373],[89.2736364575608,26.678222818419332],[89.27483672778312,26.676576777735487],[89.2752456221414,26.674362102242537],[89.27714733865731,26.673769403806073],[89.27874524050868,26.672853820312252],[89.27931821408802,26.671263188329057],[89.28045624593722,26.669896022835353],[89.27997093416974,26.66773722732562],[89.27972789496799,26.66563591285324],[89.27910144260912,26.664238823726187],[89.27786575866675,26.662327022888014],[89.2764478385402,26.659610013360872],[89.2803271672453,26.65918508531763],[89.28578449999998,26.658734],[89.29074995992784,26.658639208630223],[89.2952355,26.658548],[89.30033,26.658294],[89.30738702335368,26.65612486259458]]]},"properties":{"id":"142","beat":"50 Feet Beat","range":"jaldapara North","division":"Jaldapara"}},
{"type":"Feature","geometry":{"type":"Polygon","coordinates":[[[89.3293285033624,26.699512697601683],[89.33073498806586,26.702652121288033],[89.33174080066964,26.705545378323496],[89.33257037649874,26.709494069151056],[89.33273770711655,26.710815967798045],[89.33322325580455,26.717650753473958],[89.33230247826403,26.719558774446554],[89.33117170937679,26.72112617409254],[89.32998371749753,26.722534282078662],[89.32963727217204,26.723995744547484],[89.32802973105572,26.726825715632067],[89.32691284054782,26.729598505342437],[89.32745377503258,26.732142177830813],[89.328841033255,26.733315851746646],[89.32896410336672,26.736857504963655],[89.32871268663786,26.738210979701364],[89.32794699834251,26.739502385425233],[89.32408963146406,26.741381462621742],[89.32060569911683,26.742973613744685],[89.31920865760092,26.7435952307057],[89.31793736952355,26.74403483528626],[89.3148219973395,26.745342034207457],[89.31156061796386,26.745479344294846],[89.30844415375832,26.7455915185069],[89.30517246343113,26.74562424753936],[89.30325849678462,26.745145726869783],[89.30194795721647,26.7445739093258],[89.29379365,26.74378754999997],[89.29044160000002,26.742859],[89.28408713870873,26.742379538055154],[89.27700877194508,26.741694549738597],[89.27566698789134,26.74026019638446],[89.27418090854145,26.739173965468048],[89.26983101066205,26.736878833683424],[89.27109565768559,26.73574227629007],[89.27182979755236,26.734014712136204],[89.27267622613896,26.73261733413285],[89.27707404761084,26.733409936379974],[89.27901287966041,26.73312019223068],[89.28243645027426,26.73390700671571],[89.29272531479577,26.735955353522016],[89.29487068142173,26.73617954754243],[89.29514312098722,26.734545168251504],[89.29487933604052,26.732367213776246],[89.29470170018747,26.72965037864418],[89.29471779976168,26.727122513567807],[89.29430626618993,26.725811798059677],[89.2921749576497,26.722972298955742],[89.2913588861388,26.7215900402256],[89.29022185752025,26.72000110086276],[89.28939680230472,26.718620618598347],[89.28759339883257,26.715969761371554],[89.28656662847442,26.71412945511759],[89.289026,26.714503500000035],[89.29231549999999,26.71373],[89.294135,26.713776500000012],[89.295923,26.713071],[89.298622,26.712675],[89.300709037796,26.713042505054833],[89.30372194438652,26.713042903705457],[89.30850924999996,26.712689],[89.30826379732196,26.71137918654897],[89.307721,26.7095535],[89.307153,26.708406],[89.30666,26.706973],[89.30705187308695,26.70520268490221],[89.307631,26.704003],[89.3092727080419,26.70319040044448],[89.31144163884886,26.70284476730859],[89.31321184022528,26.70213011359363],[89.3151175735406,26.70230960140571],[89.31818602312366,26.703039238445562],[89.31976792801748,26.702847032731817],[89.3212021152874,26.702685001110986],[89.3247253144782,26.702161734661527],[89.32580696717903,26.700926640452664],[89.32796183363222,26.700008470453255],[89.3293285033624,26.699512697601683]]]},"properties":{"id":"157","beat":"Hasimara Beat","range":"jaldapara North","division":"Jaldapara"}}
]}