{"type":"FeatureCollection", "features": [
{"type":"Feature","geometry":{"type":"Polygon","coordinates":[[[89.2725191036681,26.792123488269752],[89.2735291,26.793083899999985],[89.27455912789684,26.794654416109058],[89.27595688642478,26.79677846429484],[89.277532,26.799162],[89.27771924932014,26.800914285056436],[89.27797490949077,26.803294316656416],[89.27824969999996,26.805992899999957],[89.27830591042436,26.812299485094197],[89.27815472791048,26.816295610491185],[89.27792094589869,26.81950034726181],[89.27738097221629,26.822827428486377],[89.27579807179481,26.827034527104214],[89.27504823230386,26.829188580362555],[89.27337316167375,26.827669570232874],[89.27165143237062,26.825785964089015],[89.26977982302462,26.823792664071615],[89.26871437300974,26.822461589045236],[89.26703358088595,26.820332225808656],[89.26549812868244,26.818320392592636],[89.26458894881993,26.817346944313584],[89.26348772039157,26.816332628074495],[89.26246208426443,26.81546088959949],[89.26009648085359,26.815452461012683],[89.25823273852193,26.8154533005493],[89.25490241859143,26.81568981645696],[89.25370474437793,26.81612864994837],[89.25090173905018,26.81726715518539],[89.24946428846397,26.817585725626174],[89.24717694511875,26.818002266076395],[89.24380427295658,26.818934411047117],[89.24234087804786,26.81924044250267],[89.24065626281148,26.81963614198403],[89.23937629603066,26.82004685547045],[89.23656663329095,26.82038882168713],[89.23459309348239,26.820328989261714],[89.2322789970076,26.819514663198245],[89.23074550348805,26.818331095533303],[89.23002982109061,26.81707507818584],[89.22881821232406,26.816175342932784],[89.22755784789602,26.815090471347418],[89.22705489150154,26.81391464263551],[89.22826807827205,26.81275095455166],[89.22952358766041,26.811970061505168],[89.23046268521765,26.810938104797437],[89.23172801815119,26.809981703474143],[89.23308583306395,26.809686819123694],[89.23441273255575,26.809730561142324],[89.23585153392074,26.80986505596738],[89.23792383464544,26.810122428477083],[89.2397051724904,26.81007292088972],[89.24158010673507,26.809782367563166],[89.24333022756288,26.809047932249623],[89.24384208843657,26.807859392368975],[89.24380933802894,26.806284934094375],[89.24416434105423,26.80469978201278],[89.24533467456273,26.8035488562738],[89.24572042759011,26.802220629830035],[89.24697598879162,26.802502081192607],[89.24794671957982,26.801675319989197],[89.24909532023041,26.800376832516097],[89.2496199220666,26.798677662604835],[89.2504434294472,26.797508089874704],[89.25127818938037,26.796311948964206],[89.25150462459212,26.794911325460273],[89.25181344798119,26.793052136224908],[89.25371572217296,26.791974877810258],[89.25386833434972,26.789428731571967],[89.25396481516373,26.78793554173601],[89.25357064499167,26.786211580984702],[89.25341167641861,26.78329529862821],[89.25333281677695,26.781542097482884],[89.25200700521685,26.781532773994325],[89.24914552864685,26.78146480195424],[89.25036839327312,26.779787060304276],[89.25143737471578,26.778720109240687],[89.25294593406397,26.778194901469725],[89.25433226786151,26.77709867024908],[89.2576075,26.776763500000015],[89.26111962230613,26.777026388573415],[89.26198479999996,26.777989500000025],[89.26318057531944,26.779044925921884],[89.265075,26.780717],[89.26730272154637,26.78383465272222],[89.269147,26.786398],[89.26937309198848,26.790138944433643],[89.2701837946565,26.792031860602698],[89.2725191036681,26.792123488269752]]]},"properties":{"id":"322","beat":"Lankapara Beat","range":"Lankapara","division":"Jaldapara"}},
{"type":"Feature","geometry":{"type":"Polygon","coordinates":[[[89.3171829852786,26.780429874129112],[89.31771918555478,26.782904563302516],[89.31813884536852,26.784434450568188],[89.31896425347475,26.787435213986647],[89.31970154068176,26.790306464614304],[89.31980177145114,26.796980326258872],[89.32003997615244,26.79833287704935],[89.32078516477426,26.79989006262246],[89.32172957765479,26.801818198868947],[89.32234394827921,26.803159131543],[89.32143445911167,26.804159698346012],[89.32143366666664,26.806019866666634],[89.3240833,26.807678299999964],[89.326088,26.808152],[89.3297742984667,26.81103197719307],[89.331998,26.812797],[89.33372001908067,26.819261251812325],[89.33421629371584,26.821369767439666],[89.33497110321545,26.825881339615602],[89.33644344593671,26.8321128705228],[89.33689832228139,26.834007352246562],[89.33788268415829,26.838490354472892],[89.33857885000006,26.84273125],[89.33941264337867,26.843941040064216],[89.34158197959945,26.846385072131522],[89.34329987202315,26.848002539515285],[89.34520364268985,26.849804280121774],[89.33918709872327,26.848382471038327],[89.3359271678129,26.847533711306053],[89.33090845846017,26.846313461798836],[89.32795526742864,26.844989693545422],[89.32772463195303,26.841588734759096],[89.32652223236823,26.83860776629227],[89.32405175136599,26.833663703226655],[89.32371666666667,26.83226666666667],[89.32331666666667,26.83135],[89.32311666666666,26.83101666666667],[89.32303383562348,26.830462131136542],[89.32110627013888,26.825891491366864],[89.31974727418667,26.82285262322565],[89.31951085185099,26.82149487981346],[89.3175820417614,26.821158150456263],[89.31613403648154,26.821149845444562],[89.31376427794893,26.822080346799996],[89.31156149449525,26.823578201161872],[89.3094974405711,26.82507557100377],[89.30694261887487,26.82675621013954],[89.30538540831392,26.826529848649276],[89.30247646269434,26.827287935316406],[89.30080382330166,26.827557396434003],[89.30052844762544,26.829021105723687],[89.29869229625557,26.83042264532353],[89.29747387031667,26.830802986417705],[89.29520977614719,26.831691245850646],[89.2915904461187,26.83331066081322],[89.28989193163888,26.83410072630305],[89.28838314471477,26.83448104453116],[89.28653399593348,26.834534075398945],[89.28452859072208,26.833788949734487],[89.28114582109792,26.831578283718553],[89.27830504333264,26.83003651997006],[89.27636181083604,26.82964312473634],[89.27504823230386,26.829188580362555],[89.27579807179481,26.827034527104214],[89.27738097221629,26.822827428486377],[89.27792094589869,26.81950034726181],[89.27815472791048,26.816295610491185],[89.27830591042436,26.812299485094197],[89.27824969999996,26.805992899999957],[89.27797490949077,26.803294316656416],[89.27771924932014,26.800914285056436],[89.277532,26.799162],[89.27595688642478,26.79677846429484],[89.27455912789684,26.794654416109058],[89.2735291,26.793083899999985],[89.2725191036681,26.792123488269752],[89.2743258498087,26.79206906990527],[89.27910503713903,26.792157999536307],[89.2845218735565,26.79234744341538],[89.28935797479721,26.792555012558143],[89.29156406093622,26.792664497307854],[89.29618922105459,26.792932848574928],[89.29830793035094,26.79300355039435],[89.2988231450328,26.795924871160885],[89.29978509881406,26.797258404013206],[89.30373976702687,26.796169963491316],[89.30793926184099,26.797736947775423],[89.31043194166895,26.799178329856314],[89.31165016184097,26.79985279007208],[89.31300545399255,26.80151354097217],[89.31594233527605,26.8046448133397],[89.31542731828478,26.802085319620865],[89.31310150803239,26.797294109678564],[89.31019457872596,26.79072849065624],[89.3073769350768,26.78537490197525],[89.30439444665045,26.782854376839087],[89.3061850700028,26.782665896813455],[89.30882628354284,26.78181600984261],[89.31455609999998,26.780479900000024],[89.3171829852786,26.780429874129112]]]},"properties":{"id":"337","beat":"Hollapara Beat","range":"Lankapara","division":"Jaldapara"}},
{"type":"Feature","geometry":{"type":"Polygon","coordinates":[[[89.29830793035094,26.79300355039435],[89.29618922105459,26.792932848574928],[89.29156406093622,26.792664497307854],[89.28935797479721,26.792555012558143],[89.2845218735565,26.79234744341538],[89.27910503713903,26.792157999536307],[89.2743258498087,26.79206906990527],[89.2725191036681,26.792123488269752],[89.2701837946565,26.792031860602698],[89.26937309198848,26.790138944433643],[89.269147,26.786398],[89.26730272154637,26.78383465272222],[89.265075,26.780717],[89.26318057531944,26.779044925921884],[89.26198479999996,26.777989500000025],[89.26111962230613,26.777026388573415],[89.2576075,26.776763500000015],[89.25433226786151,26.77709867024908],[89.25485526260209,26.77470726601551],[89.25673023924138,26.770773161846144],[89.2574719001965,26.767796280596016],[89.2577775412726,26.766532706582062],[89.25848789621566,26.763543894075774],[89.25934713576201,26.760315565509522],[89.26040110580489,26.75667671939798],[89.26081194055378,26.755044035312363],[89.26224875130345,26.752085803103746],[89.26604326829936,26.74950022139057],[89.26773250862671,26.74836741457706],[89.26850264546553,26.746438740467486],[89.27074944663465,26.747151990394517],[89.27286471541781,26.74781443220952],[89.27452993492996,26.748323687607993],[89.27681425315492,26.748952806086727],[89.27990380759512,26.74985484364906],[89.28068565778372,26.75123392649405],[89.28197244541829,26.7537425333673],[89.28346166338333,26.756713739090536],[89.28453784572896,26.758856595999607],[89.28573290232949,26.76002630281821],[89.28611699029955,26.76366512293508],[89.287493995129,26.76915642788255],[89.28926828023974,26.772497414415135],[89.29007581873306,26.774146487493137],[89.29144896385307,26.77688742379462],[89.2922117609478,26.778577841984045],[89.29298074968227,26.780449863215765],[89.29513877454676,26.78282531081732],[89.2966564970626,26.784540659645188],[89.2978151272242,26.78932022130755],[89.29825639140353,26.791054898029635],[89.29830793035094,26.79300355039435]]]},"properties":{"id":"352","beat":"Bhagatjote Beat","range":"Lankapara","division":"Jaldapara"}}
]}