{
"type": "FeatureCollection",
"name": "Jaldapara_Beats_New",
"crs": { "type": "name", "properties": { "name": "urn:ogc:def:crs:OGC:1.3:CRS84" } },
"features": [
{ "type": "Feature", "properties": { "id": "7", "beat": "Bania Beat", "range": "Chilapata", "division": "Jaldapara" }, "geometry": { "type": "Polygon", "coordinates": [ [ [ 89.410105031517062, 26.595122400517372 ], [ 89.407052808759673, 26.595170566938712 ], [ 89.405456133025112, 26.595243931892291 ], [ 89.402765699791232, 26.595400910013282 ], [ 89.39890031921081, 26.595590228116787 ], [ 89.395333867094863, 26.595556586394757 ], [ 89.384994016222464, 26.595674170914744 ], [ 89.382906694274297, 26.595652652622352 ], [ 89.37857138131767, 26.595642045824246 ], [ 89.373276009113383, 26.595569442489523 ], [ 89.371031925434238, 26.595467505295638 ], [ 89.3687892810769, 26.594723431090721 ], [ 89.368831149489111, 26.589081421494669 ], [ 89.368899146423942, 26.583828045540596 ], [ 89.368988100272773, 26.577400556235446 ], [ 89.369055444437763, 26.57248881686866 ], [ 89.369019212440804, 26.570152049848154 ], [ 89.371641804585423, 26.569569427271038 ], [ 89.373134784713216, 26.569568946524395 ], [ 89.375221819527241, 26.569535871250764 ], [ 89.376231134733686, 26.56857504181022 ], [ 89.378045826093, 26.568353636668444 ], [ 89.381052564541434, 26.568313707455175 ], [ 89.381611256407808, 26.56682408634347 ], [ 89.381479639130376, 26.563330064537631 ], [ 89.381242923485161, 26.556751932421722 ], [ 89.381088240704798, 26.55249456374839 ], [ 89.380933941867525, 26.548243180878021 ], [ 89.380865056032448, 26.546538796180734 ], [ 89.384835810449104, 26.54608765800636 ], [ 89.393106601692622, 26.549139819774307 ], [ 89.404000802821827, 26.553129818111014 ], [ 89.40558995629776, 26.553549955534976 ], [ 89.406435250679181, 26.551882071880943 ], [ 89.408417622316961, 26.551306409941315 ], [ 89.410186307491983, 26.551344162278216 ], [ 89.409325415039376, 26.549586000282758 ], [ 89.41006608987071, 26.547803570051702 ], [ 89.41164868017556, 26.546139591679012 ], [ 89.414020255807074, 26.545973919072534 ], [ 89.415796675577198, 26.546399390753621 ], [ 89.414813330539985, 26.547409954733229 ], [ 89.414649321660079, 26.548824765889549 ], [ 89.415467630601043, 26.550091014459458 ], [ 89.416281841362348, 26.551119376724312 ], [ 89.417969492484488, 26.551695632844023 ], [ 89.417597107533609, 26.553712344769036 ], [ 89.419523912281463, 26.555270841835458 ], [ 89.418799123033821, 26.556777555353143 ], [ 89.416778565751798, 26.557127663791917 ], [ 89.414906563383653, 26.557068560453516 ], [ 89.413159535755838, 26.557831432300098 ], [ 89.413219336933992, 26.559249323196614 ], [ 89.414010811256688, 26.560290474623375 ], [ 89.414617187281365, 26.562142115720981 ], [ 89.413000468586446, 26.562564473815701 ], [ 89.411438738416194, 26.562407700014205 ], [ 89.411428738859641, 26.564524263750393 ], [ 89.412147203252147, 26.566243417828954 ], [ 89.411037224903723, 26.567700400464293 ], [ 89.410934534655681, 26.569998914555352 ], [ 89.410572844824443, 26.571300010027159 ], [ 89.409180126725104, 26.572807445269301 ], [ 89.409325486418098, 26.574695156308518 ], [ 89.408556050165345, 26.576328535808528 ], [ 89.408060203273621, 26.577780916705677 ], [ 89.409501061157826, 26.57893804798918 ], [ 89.411021391700615, 26.579633456915445 ], [ 89.412182580080554, 26.580992868163815 ], [ 89.413174217396374, 26.58339540180074 ], [ 89.413308499552613, 26.585223595401601 ], [ 89.413543736832665, 26.586585419025603 ], [ 89.41458674964656, 26.587909377695322 ], [ 89.414928784796899, 26.589775247847395 ], [ 89.413569522379788, 26.591169881286529 ], [ 89.412382835560578, 26.592848704686382 ], [ 89.412145471986889, 26.594797980882305 ], [ 89.410105031517062, 26.595122400517372 ] ] ] } },
{ "type": "Feature", "properties": { "id": "22", "beat": "Mendabari Beat", "range": "Chilapata", "division": "Jaldapara" }, "geometry": { "type": "Polygon", "coordinates": [ [ [ 89.410105031517062, 26.595122400517372 ], [ 89.410502581786474, 26.597019013011451 ], [ 89.410199306631441, 26.598913936746531 ], [ 89.409989225899963, 26.600432353848628 ], [ 89.409590527421202, 26.602798761931005 ], [ 89.40903554022988, 26.604213048881846 ], [ 89.407927826492084, 26.605477167750717 ], [ 89.40679982846207, 26.606475611460827 ], [ 89.405758592091971, 26.607230123677976 ], [ 89.403523376626538, 26.608337894514282 ], [ 89.401849046543248, 26.609108848688116 ], [ 89.400810251190492, 26.610372014542964 ], [ 89.400779541067166, 26.612114530600543 ], [ 89.401351588271339, 26.613938455018619 ], [ 89.402355367626001, 26.614837735183887 ], [ 89.403030627128189, 26.61602868123633 ], [ 89.403046777103853, 26.618137702029891 ], [ 89.401788687961215, 26.619912996000565 ], [ 89.40316760937479, 26.622156191337869 ], [ 89.404464190297517, 26.623908762091901 ], [ 89.403941676702004, 26.62594564260549 ], [ 89.403207607374995, 26.628524544240932 ], [ 89.402310776732094, 26.630157061252728 ], [ 89.402192939331186, 26.631710388498046 ], [ 89.401994048966472, 26.633170728379067 ], [ 89.401937089686868, 26.634711298555828 ], [ 89.40141405659395, 26.636604130256451 ], [ 89.399856600681176, 26.638137157807932 ], [ 89.398338670523515, 26.639919308653141 ], [ 89.396669156889956, 26.641536116505542 ], [ 89.394819430436172, 26.643742579935019 ], [ 89.39364925993381, 26.644985874901998 ], [ 89.392319822790512, 26.646334156216593 ], [ 89.391281201043142, 26.647368007767362 ], [ 89.3914545344728, 26.644187391423106 ], [ 89.39054, 26.642746 ], [ 89.390868385962889, 26.639987541411607 ], [ 89.391483733404868, 26.63676646923933 ], [ 89.391194136757946, 26.634225082944944 ], [ 89.389055047245222, 26.633932522865138 ], [ 89.38630586919237, 26.633631420346219 ], [ 89.38040839578062, 26.633274079997797 ], [ 89.38156613457123, 26.631124571436075 ], [ 89.384563981417543, 26.625783182213596 ], [ 89.386045107889331, 26.623055400201594 ], [ 89.385007087521529, 26.619402123491735 ], [ 89.383619404745289, 26.614576761941581 ], [ 89.383147300165774, 26.612841162185401 ], [ 89.381395716761148, 26.612692010524867 ], [ 89.378753411374646, 26.61215636790714 ], [ 89.377727500000049, 26.610167 ], [ 89.377699, 26.608869 ], [ 89.375787632574415, 26.608014866250944 ], [ 89.37737, 26.606720500000051 ], [ 89.375624165990587, 26.60585627826401 ], [ 89.37540971936285, 26.60457186442801 ], [ 89.37524984291565, 26.602622247467604 ], [ 89.373731373642045, 26.601525587292045 ], [ 89.372745671895245, 26.600484516306803 ], [ 89.372385133544157, 26.59870634363805 ], [ 89.371897490913796, 26.596829790319092 ], [ 89.371031925434238, 26.595467505295638 ], [ 89.373276009113383, 26.595569442489523 ], [ 89.37857138131767, 26.595642045824246 ], [ 89.382906694274297, 26.595652652622352 ], [ 89.384994016222464, 26.595674170914744 ], [ 89.395333867094863, 26.595556586394757 ], [ 89.39890031921081, 26.595590228116787 ], [ 89.402765699791232, 26.595400910013282 ], [ 89.405456133025112, 26.595243931892291 ], [ 89.407052808759673, 26.595170566938712 ], [ 89.410105031517062, 26.595122400517372 ] ] ] } },
{ "type": "Feature", "properties": { "id": "37", "beat": "Chilapata Beat", "range": "Chilapata", "division": "Jaldapara" }, "geometry": { "type": "Polygon", "coordinates": [ [ [ 89.380865056032448, 26.546538796180734 ], [ 89.380933941867525, 26.548243180878021 ], [ 89.381088240704798, 26.55249456374839 ], [ 89.381242923485161, 26.556751932421722 ], [ 89.381479639130376, 26.563330064537631 ], [ 89.381611256407808, 26.56682408634347 ], [ 89.381052564541434, 26.568313707455175 ], [ 89.378045826093, 26.568353636668444 ], [ 89.376231134733686, 26.56857504181022 ], [ 89.375221819527241, 26.569535871250764 ], [ 89.373134784713216, 26.569568946524395 ], [ 89.371641804585423, 26.569569427271038 ], [ 89.369019212440804, 26.570152049848154 ], [ 89.369055444437763, 26.57248881686866 ], [ 89.368988100272773, 26.577400556235446 ], [ 89.368899146423942, 26.583828045540596 ], [ 89.368831149489111, 26.589081421494669 ], [ 89.3687892810769, 26.594723431090721 ], [ 89.366915109342827, 26.595350922930276 ], [ 89.364829418829473, 26.595267321973719 ], [ 89.362119321773804, 26.595196647275536 ], [ 89.359949927513753, 26.59518118434238 ], [ 89.357281425672397, 26.595039886437714 ], [ 89.354969721843759, 26.594909640238289 ], [ 89.352498076246064, 26.594830266267692 ], [ 89.350454243116303, 26.594265303590074 ], [ 89.350819052461262, 26.592726522669345 ], [ 89.352664318857379, 26.591239648847235 ], [ 89.352900663545654, 26.589123915693229 ], [ 89.353130925874765, 26.586957027359396 ], [ 89.353366177969193, 26.585547558615634 ], [ 89.352971580985752, 26.583955977594435 ], [ 89.353197538360604, 26.582164207093221 ], [ 89.353109154618679, 26.580639947285071 ], [ 89.353264169707614, 26.578698957946571 ], [ 89.35411873232394, 26.576300731471118 ], [ 89.354294652022389, 26.574394318105281 ], [ 89.353850022121662, 26.572714867802897 ], [ 89.353751347136154, 26.571222663813369 ], [ 89.353104926996508, 26.570101437894149 ], [ 89.35341466194815, 26.568739938535828 ], [ 89.354058998978914, 26.566618966094151 ], [ 89.353847699999974, 26.564089533333394 ], [ 89.35267455634424, 26.5625787614768 ], [ 89.353254626674328, 26.56065037362038 ], [ 89.354314806263417, 26.559523611522621 ], [ 89.353651734295241, 26.55793140950821 ], [ 89.352702977496961, 26.556573294462719 ], [ 89.351995731568834, 26.554903360260777 ], [ 89.35159758020167, 26.553342672548467 ], [ 89.351220095780704, 26.551857465159571 ], [ 89.347761228838152, 26.553101504654723 ], [ 89.347510296642412, 26.551671759693278 ], [ 89.347979856226786, 26.550271796088058 ], [ 89.347684343058361, 26.548497514146423 ], [ 89.3459104187463, 26.546914433448958 ], [ 89.344847363979852, 26.545871868290487 ], [ 89.343704303348815, 26.544748247470899 ], [ 89.342477197572634, 26.542142307879583 ], [ 89.342341884015383, 26.540119787662501 ], [ 89.344784475309581, 26.540896866306422 ], [ 89.346387728483094, 26.541283471486558 ], [ 89.347820664362033, 26.541603959844366 ], [ 89.349411163439896, 26.542039571978197 ], [ 89.352132271583059, 26.542649092726204 ], [ 89.356541240501372, 26.54421792667349 ], [ 89.356601787487733, 26.545889453754416 ], [ 89.357937439555968, 26.545967315070389 ], [ 89.362458535877465, 26.546692997372016 ], [ 89.363897088587834, 26.546056658743115 ], [ 89.365169115606037, 26.54610968770638 ], [ 89.366906311159312, 26.546313136176895 ], [ 89.368314548909197, 26.546386873616783 ], [ 89.369872112881836, 26.546522493639728 ], [ 89.371330584026055, 26.546569881539821 ], [ 89.37783674027358, 26.546304710903261 ], [ 89.380865056032448, 26.546538796180734 ] ] ] } },
{ "type": "Feature", "properties": { "id": "52", "beat": "Dhoidhoi Ghat", "range": "Jaldapara East", "division": "Jaldapara" }, "geometry": { "type": "Polygon", "coordinates": [ [ [ 89.347761228838152, 26.553101504654723 ], [ 89.346459573433535, 26.553980112975577 ], [ 89.344650195043741, 26.554441062371829 ], [ 89.343158800603717, 26.554637235117166 ], [ 89.341297221133132, 26.554747161993834 ], [ 89.339558645003137, 26.554567109091735 ], [ 89.337851555199407, 26.553979755125916 ], [ 89.337184968918393, 26.552526351097054 ], [ 89.336220780869525, 26.551599655003237 ], [ 89.334726232267926, 26.550862572150706 ], [ 89.333093506129558, 26.549677781664187 ], [ 89.332130669535275, 26.548742355363323 ], [ 89.331825502055992, 26.547148857210782 ], [ 89.333001699300041, 26.545742705669532 ], [ 89.331997872234297, 26.543932957852416 ], [ 89.330307719610659, 26.543057268006624 ], [ 89.328532710959578, 26.541475815945141 ], [ 89.326688569404823, 26.540003868354482 ], [ 89.325431467892258, 26.538582778682144 ], [ 89.32417263476367, 26.537088221129228 ], [ 89.322743112264902, 26.535797252103769 ], [ 89.32172893546884, 26.534746031975313 ], [ 89.32097676077413, 26.533557534160927 ], [ 89.320658972803798, 26.53185034864131 ], [ 89.320502114563268, 26.529959612454494 ], [ 89.321109030970533, 26.528406223545435 ], [ 89.321831832250155, 26.526875622792982 ], [ 89.322455717295654, 26.525651689305089 ], [ 89.323762773865738, 26.525171035116994 ], [ 89.324511871936068, 26.524005581097214 ], [ 89.32441383264792, 26.522493031313303 ], [ 89.324462871204418, 26.520895866874287 ], [ 89.325354876700729, 26.518670603234533 ], [ 89.328011724893912, 26.518477891328367 ], [ 89.329716014545269, 26.519833385190854 ], [ 89.330444959378212, 26.520985484530517 ], [ 89.331716266185509, 26.523000391267974 ], [ 89.332745927904412, 26.524394675710099 ], [ 89.332588913279821, 26.525934780083109 ], [ 89.332025795716845, 26.527473268409089 ], [ 89.331896902850872, 26.529421224297238 ], [ 89.331974699882437, 26.531215027001124 ], [ 89.33265357115009, 26.532933509906258 ], [ 89.333587332555354, 26.534248018888277 ], [ 89.334626204506392, 26.535783058692612 ], [ 89.335766406163387, 26.536934712935604 ], [ 89.337644194760273, 26.537816543370855 ], [ 89.338764065962621, 26.538993665823433 ], [ 89.340819948037691, 26.539347415321128 ], [ 89.342341884015383, 26.540119787662501 ], [ 89.342477197572634, 26.542142307879583 ], [ 89.343704303348815, 26.544748247470899 ], [ 89.344847363979852, 26.545871868290487 ], [ 89.3459104187463, 26.546914433448958 ], [ 89.347684343058361, 26.548497514146423 ], [ 89.347979856226786, 26.550271796088058 ], [ 89.347510296642412, 26.551671759693278 ], [ 89.347761228838152, 26.553101504654723 ] ] ] } },
{ "type": "Feature", "properties": { "id": "67", "beat": "Malangi", "range": "Jaldapara East", "division": "Jaldapara" }, "geometry": { "type": "Polygon", "coordinates": [ [ [ 89.338855661222183, 26.638191364201973 ], [ 89.336993346909551, 26.638241429152291 ], [ 89.335669, 26.638101500000026 ], [ 89.329855654600877, 26.638166335882556 ], [ 89.32644919132764, 26.63822103542665 ], [ 89.323488, 26.63827 ], [ 89.323092844202179, 26.63616259418448 ], [ 89.322752, 26.634361 ], [ 89.323455750000036, 26.63215 ], [ 89.323082, 26.630459 ], [ 89.3215725, 26.628621 ], [ 89.320997500000033, 26.6272185 ], [ 89.320307160557178, 26.62613109518394 ], [ 89.322513921873878, 26.624849419443024 ], [ 89.323690377919618, 26.623457377013874 ], [ 89.324222279525927, 26.622271202271712 ], [ 89.323190975815052, 26.61847709325799 ], [ 89.32350482129479, 26.616930376251961 ], [ 89.325981627392082, 26.616774461685548 ], [ 89.327566295683866, 26.616134914538041 ], [ 89.328844354527419, 26.616096177637775 ], [ 89.330658109850603, 26.616219437614134 ], [ 89.332733625333631, 26.614764693572994 ], [ 89.334078996396542, 26.613087167668585 ], [ 89.334758508829978, 26.611220057687827 ], [ 89.336356122170088, 26.608396253743198 ], [ 89.337917, 26.608882 ], [ 89.342085400000016, 26.608441 ], [ 89.342464500000034, 26.610098 ], [ 89.342696, 26.611835 ], [ 89.342575249628254, 26.613669685315504 ], [ 89.342113, 26.615025 ], [ 89.342624857670202, 26.616775602459956 ], [ 89.342516, 26.61934 ], [ 89.342770631924651, 26.62074707312793 ], [ 89.34319598691792, 26.622219879553992 ], [ 89.3432866666667, 26.623899166666646 ], [ 89.343295428571409, 26.625696571428563 ], [ 89.34217, 26.627665 ], [ 89.341733, 26.629064 ], [ 89.341421438089412, 26.631216478547685 ], [ 89.341457117827517, 26.633108779935803 ], [ 89.339943927263278, 26.63487494891185 ], [ 89.339486827901808, 26.636215035497283 ], [ 89.338855661222183, 26.638191364201973 ] ] ] } },
{ "type": "Feature", "properties": { "id": "82", "beat": "JP Beat", "range": "Jaldapara East", "division": "Jaldapara" }, "geometry": { "type": "Polygon", "coordinates": [ [ [ 89.326366953420944, 26.670539111205109 ], [ 89.324418965311281, 26.671632244139147 ], [ 89.323132005928215, 26.672448066327441 ], [ 89.321719188135063, 26.672504323984551 ], [ 89.320311064620739, 26.672765881663267 ], [ 89.318358043140108, 26.672576649955808 ], [ 89.31660548696091, 26.67264235760322 ], [ 89.313074703117834, 26.672855600932525 ], [ 89.311402219490859, 26.672977976521032 ], [ 89.310011684114059, 26.672507332413257 ], [ 89.310445115141491, 26.669949757429993 ], [ 89.311133561010067, 26.668122618242755 ], [ 89.310692106085355, 26.666440556783925 ], [ 89.310276045647441, 26.66482920646888 ], [ 89.309813139216033, 26.66318544022123 ], [ 89.308786546461761, 26.661372928330344 ], [ 89.308964855760721, 26.659920506989724 ], [ 89.308408941146567, 26.657950193026807 ], [ 89.307387023353684, 26.656124862594581 ], [ 89.305612591251361, 26.650084033553505 ], [ 89.304355747152258, 26.646698741017786 ], [ 89.303484045038388, 26.64408996560778 ], [ 89.303098729147379, 26.642410127629372 ], [ 89.302510505237521, 26.639584135820098 ], [ 89.301671408883522, 26.635455726753314 ], [ 89.301196084564339, 26.634214902918789 ], [ 89.302727919069085, 26.633657096804335 ], [ 89.30571993224568, 26.633165851002431 ], [ 89.307669712726664, 26.632768758462603 ], [ 89.30939819366921, 26.632331525158996 ], [ 89.308840456574487, 26.629716241061001 ], [ 89.310800654777978, 26.629114301200378 ], [ 89.312003597538308, 26.629663856148415 ], [ 89.313816125592624, 26.628985653002772 ], [ 89.315750865165356, 26.628194042569035 ], [ 89.318521695044396, 26.626983825399268 ], [ 89.320307160557178, 26.62613109518394 ], [ 89.320997500000033, 26.6272185 ], [ 89.3215725, 26.628621 ], [ 89.323082, 26.630459 ], [ 89.323455750000036, 26.63215 ], [ 89.322752, 26.634361 ], [ 89.323092844202179, 26.63616259418448 ], [ 89.323488, 26.63827 ], [ 89.32644919132764, 26.63822103542665 ], [ 89.329855654600877, 26.638166335882556 ], [ 89.335669, 26.638101500000026 ], [ 89.336993346909551, 26.638241429152291 ], [ 89.338855661222183, 26.638191364201973 ], [ 89.33827302388967, 26.640480166712692 ], [ 89.338055603280509, 26.641896926775647 ], [ 89.337458505592764, 26.644078803387831 ], [ 89.337055082148694, 26.645691842722023 ], [ 89.336700622140413, 26.647972979469607 ], [ 89.336565028365712, 26.650311425744537 ], [ 89.335393006861509, 26.651416850675151 ], [ 89.33407718766658, 26.653185877711564 ], [ 89.333496626027639, 26.654748623552742 ], [ 89.333954631665591, 26.65771013176829 ], [ 89.33352224935723, 26.660752433319505 ], [ 89.332653, 26.662955 ], [ 89.330714367871067, 26.664880956081831 ], [ 89.329110119458818, 26.666352123100616 ], [ 89.327631646386578, 26.669436503180759 ], [ 89.326366953420944, 26.670539111205109 ] ] ] } },
{ "type": "Feature", "properties": { "id": "97", "beat": "Sisamara", "range": "Jaldapara East", "division": "Jaldapara" }, "geometry": { "type": "Polygon", "coordinates": [ [ [ 89.342085400000016, 26.608441 ], [ 89.337917, 26.608882 ], [ 89.336356122170088, 26.608396253743198 ], [ 89.334758508829978, 26.611220057687827 ], [ 89.334078996396542, 26.613087167668585 ], [ 89.332733625333631, 26.614764693572994 ], [ 89.330658109850603, 26.616219437614134 ], [ 89.328844354527419, 26.616096177637775 ], [ 89.327566295683866, 26.616134914538041 ], [ 89.325981627392082, 26.616774461685548 ], [ 89.32350482129479, 26.616930376251961 ], [ 89.322568734073101, 26.615459383397059 ], [ 89.322033917841352, 26.613643242308431 ], [ 89.321272288739252, 26.612446539845084 ], [ 89.321806062194739, 26.611209616848612 ], [ 89.323680309358608, 26.610292810511897 ], [ 89.324828533396939, 26.608650566117646 ], [ 89.32513864375008, 26.606904527639045 ], [ 89.325680719492951, 26.605306856373272 ], [ 89.326863700077908, 26.604066793744867 ], [ 89.326525396728741, 26.602324798290937 ], [ 89.325172327372371, 26.601754082003019 ], [ 89.324289641336904, 26.600457833022421 ], [ 89.324417464503526, 26.598820335608313 ], [ 89.325894347398091, 26.597199368697126 ], [ 89.32768731771138, 26.596955572934615 ], [ 89.328999923895651, 26.596832290338927 ], [ 89.33071780738436, 26.59586042619199 ], [ 89.332564268247239, 26.595093328964918 ], [ 89.33522039123234, 26.594014879772214 ], [ 89.335817290473585, 26.592271945338812 ], [ 89.337887159253782, 26.591349884094033 ], [ 89.339254100939485, 26.590626483374884 ], [ 89.339634019405239, 26.58845491556167 ], [ 89.339845405386399, 26.587144870536232 ], [ 89.340505003053295, 26.58501831532724 ], [ 89.340484642155516, 26.583193453228919 ], [ 89.340252784044054, 26.581837370453425 ], [ 89.339940860432492, 26.58000240673201 ], [ 89.339610795015446, 26.578298585357178 ], [ 89.339208389102509, 26.575887627944621 ], [ 89.338960321441419, 26.574590806627089 ], [ 89.338635581813165, 26.57264363076645 ], [ 89.338291797736503, 26.570963158720843 ], [ 89.337641601101026, 26.56900202934737 ], [ 89.336715002945311, 26.567647711996216 ], [ 89.336992716425087, 26.566304759989638 ], [ 89.337214673217147, 26.56436460171178 ], [ 89.33678909820928, 26.562295571877296 ], [ 89.337454307742604, 26.560610268415356 ], [ 89.338392141574175, 26.558951073547281 ], [ 89.338092134353431, 26.557152103853625 ], [ 89.337930503101134, 26.555625928609842 ], [ 89.337851555199407, 26.553979755125916 ], [ 89.339558645003137, 26.554567109091735 ], [ 89.341297221133132, 26.554747161993834 ], [ 89.343158800603717, 26.554637235117166 ], [ 89.344650195043741, 26.554441062371829 ], [ 89.346459573433535, 26.553980112975577 ], [ 89.347761228838152, 26.553101504654723 ], [ 89.351220095780704, 26.551857465159571 ], [ 89.35159758020167, 26.553342672548467 ], [ 89.351995731568834, 26.554903360260777 ], [ 89.352702977496961, 26.556573294462719 ], [ 89.353651734295241, 26.55793140950821 ], [ 89.354314806263417, 26.559523611522621 ], [ 89.353254626674328, 26.56065037362038 ], [ 89.35267455634424, 26.5625787614768 ], [ 89.353847699999974, 26.564089533333394 ], [ 89.354058998978914, 26.566618966094151 ], [ 89.35341466194815, 26.568739938535828 ], [ 89.353104926996508, 26.570101437894149 ], [ 89.353751347136154, 26.571222663813369 ], [ 89.353850022121662, 26.572714867802897 ], [ 89.354294652022389, 26.574394318105281 ], [ 89.35411873232394, 26.576300731471118 ], [ 89.353264169707614, 26.578698957946571 ], [ 89.353109154618679, 26.580639947285071 ], [ 89.353197538360604, 26.582164207093221 ], [ 89.352971580985752, 26.583955977594435 ], [ 89.353366177969193, 26.585547558615634 ], [ 89.353130925874765, 26.586957027359396 ], [ 89.352900663545654, 26.589123915693229 ], [ 89.352664318857379, 26.591239648847235 ], [ 89.350819052461262, 26.592726522669345 ], [ 89.350454243116303, 26.594265303590074 ], [ 89.350010378375785, 26.595511251658703 ], [ 89.349925732571734, 26.597105226808797 ], [ 89.350172, 26.598489 ], [ 89.350850651334014, 26.599780032941027 ], [ 89.349533, 26.6023 ], [ 89.348507336365998, 26.603096617148562 ], [ 89.34715, 26.603695 ], [ 89.346056, 26.604371 ], [ 89.344736, 26.605095 ], [ 89.343717, 26.605872 ], [ 89.342649717058976, 26.607218376588985 ], [ 89.342085400000016, 26.608441 ] ] ] } },
{ "type": "Feature", "properties": { "id": "112", "beat": "NWC Beat", "range": "jaldapara North", "division": "Jaldapara" }, "geometry": { "type": "Polygon", "coordinates": [ [ [ 89.309272708041902, 26.70319040044448 ], [ 89.307631, 26.704003 ], [ 89.307051873086948, 26.705202684902211 ], [ 89.30666, 26.706973 ], [ 89.307153, 26.708406 ], [ 89.307721, 26.7095535 ], [ 89.308263797321956, 26.711379186548971 ], [ 89.308509249999958, 26.712689 ], [ 89.303721944386524, 26.713042903705457 ], [ 89.300709037795997, 26.713042505054833 ], [ 89.298622, 26.712675 ], [ 89.295923, 26.713071 ], [ 89.294135, 26.713776500000012 ], [ 89.292315499999987, 26.71373 ], [ 89.289026, 26.714503500000035 ], [ 89.286566628474418, 26.71412945511759 ], [ 89.28589312487405, 26.710378021589502 ], [ 89.286201343367892, 26.707955333738457 ], [ 89.28622429870606, 26.706089385639135 ], [ 89.285706745792908, 26.704818994233197 ], [ 89.285655, 26.704104 ], [ 89.285767, 26.703588 ], [ 89.286136508989756, 26.702683473768911 ], [ 89.285627, 26.700854 ], [ 89.285054225796387, 26.698406477776608 ], [ 89.284052558174466, 26.69741480561764 ], [ 89.284148826786847, 26.696118049715693 ], [ 89.283107431355972, 26.694471733288154 ], [ 89.281692141721152, 26.692244789084622 ], [ 89.280525026454143, 26.690714116409257 ], [ 89.279619215154668, 26.689796595560892 ], [ 89.278977731516633, 26.688695073752459 ], [ 89.278083446634483, 26.687076525010227 ], [ 89.276149312939154, 26.68574222149828 ], [ 89.274526823212142, 26.684535485571629 ], [ 89.273709663103318, 26.683163452341756 ], [ 89.273605611843706, 26.681449386455373 ], [ 89.275483716951854, 26.681349634066979 ], [ 89.277070578077641, 26.681163992988115 ], [ 89.279151626468135, 26.680120898739094 ], [ 89.28038285327851, 26.679512759302774 ], [ 89.282951025837392, 26.678839109518552 ], [ 89.286840911942974, 26.677937693419988 ], [ 89.289096670237882, 26.677409024058278 ], [ 89.292512003324447, 26.676598250815513 ], [ 89.294229969028365, 26.676511954205033 ], [ 89.299321986117064, 26.67559888541086 ], [ 89.302628075444957, 26.674902990545839 ], [ 89.304129217978257, 26.674731505188813 ], [ 89.304331200000036, 26.676060399999983 ], [ 89.304144, 26.678159 ], [ 89.304669500000045, 26.680224 ], [ 89.305544, 26.682003500000022 ], [ 89.304797, 26.684199750000019 ], [ 89.305116, 26.686289 ], [ 89.305905333333314, 26.68809 ], [ 89.306074750000064, 26.689809333333418 ], [ 89.307075589552454, 26.691613565339704 ], [ 89.30813766666671, 26.693274 ], [ 89.30853350000001, 26.694611749999979 ], [ 89.308532, 26.69633925 ], [ 89.308411568428511, 26.698247456646033 ], [ 89.308623, 26.69986250000002 ], [ 89.309125013896903, 26.70158121835912 ], [ 89.309272708041902, 26.70319040044448 ] ] ] } },
{ "type": "Feature", "properties": { "id": "127", "beat": "Siltorsa Beat", "range": "jaldapara North", "division": "Jaldapara" }, "geometry": { "type": "Polygon", "coordinates": [ [ [ 89.329328503362404, 26.699512697601683 ], [ 89.327961833632216, 26.700008470453255 ], [ 89.325806967179034, 26.700926640452664 ], [ 89.324725314478201, 26.702161734661527 ], [ 89.321202115287406, 26.702685001110986 ], [ 89.319767928017484, 26.702847032731817 ], [ 89.318186023123658, 26.703039238445562 ], [ 89.315117573540604, 26.702309601405709 ], [ 89.313211840225279, 26.702130113593629 ], [ 89.311441638848862, 26.702844767308591 ], [ 89.309272708041902, 26.70319040044448 ], [ 89.309125013896903, 26.70158121835912 ], [ 89.308623, 26.69986250000002 ], [ 89.308411568428511, 26.698247456646033 ], [ 89.308532, 26.69633925 ], [ 89.30853350000001, 26.694611749999979 ], [ 89.30813766666671, 26.693274 ], [ 89.307075589552454, 26.691613565339704 ], [ 89.306074750000064, 26.689809333333418 ], [ 89.305905333333314, 26.68809 ], [ 89.305116, 26.686289 ], [ 89.304797, 26.684199750000019 ], [ 89.305544, 26.682003500000022 ], [ 89.304669500000045, 26.680224 ], [ 89.304144, 26.678159 ], [ 89.304331200000036, 26.676060399999983 ], [ 89.304129217978257, 26.674731505188813 ], [ 89.307293449275505, 26.673570412407603 ], [ 89.308542215133869, 26.673306786853328 ], [ 89.310011684114059, 26.672507332413257 ], [ 89.311402219490859, 26.672977976521032 ], [ 89.313074703117834, 26.672855600932525 ], [ 89.31660548696091, 26.67264235760322 ], [ 89.318358043140108, 26.672576649955808 ], [ 89.320311064620739, 26.672765881663267 ], [ 89.321719188135063, 26.672504323984551 ], [ 89.323132005928215, 26.672448066327441 ], [ 89.324418965311281, 26.671632244139147 ], [ 89.326366953420944, 26.670539111205109 ], [ 89.327237487995319, 26.672600397011418 ], [ 89.327361346460137, 26.674158779205463 ], [ 89.327020499363542, 26.675504739661886 ], [ 89.326219154751726, 26.677275317407904 ], [ 89.326144395650232, 26.681269549592816 ], [ 89.326076892725922, 26.685003614397733 ], [ 89.326011005783712, 26.687606444567884 ], [ 89.32626452703623, 26.691114267512177 ], [ 89.326889149276923, 26.692636779412553 ], [ 89.327659178036072, 26.694334602449381 ], [ 89.328301891740551, 26.695953922611164 ], [ 89.328998918146397, 26.697594599821521 ], [ 89.329328503362404, 26.699512697601683 ] ] ] } },
{ "type": "Feature", "properties": { "id": "142", "beat": "50 Feet Beat", "range": "jaldapara North", "division": "Jaldapara" }, "geometry": { "type": "Polygon", "coordinates": [ [ [ 89.307387023353684, 26.656124862594581 ], [ 89.308408941146567, 26.657950193026807 ], [ 89.308964855760721, 26.659920506989724 ], [ 89.308786546461761, 26.661372928330344 ], [ 89.309813139216033, 26.66318544022123 ], [ 89.310276045647441, 26.66482920646888 ], [ 89.310692106085355, 26.666440556783925 ], [ 89.311133561010067, 26.668122618242755 ], [ 89.310445115141491, 26.669949757429993 ], [ 89.310011684114059, 26.672507332413257 ], [ 89.308542215133869, 26.673306786853328 ], [ 89.307293449275505, 26.673570412407603 ], [ 89.304129217978257, 26.674731505188813 ], [ 89.302628075444957, 26.674902990545839 ], [ 89.299321986117064, 26.67559888541086 ], [ 89.294229969028365, 26.676511954205033 ], [ 89.292512003324447, 26.676598250815513 ], [ 89.289096670237882, 26.677409024058278 ], [ 89.286840911942974, 26.677937693419988 ], [ 89.282951025837392, 26.678839109518552 ], [ 89.28038285327851, 26.679512759302774 ], [ 89.279151626468135, 26.680120898739094 ], [ 89.277070578077641, 26.681163992988115 ], [ 89.275483716951854, 26.681349634066979 ], [ 89.273605611843706, 26.681449386455373 ], [ 89.273636457560798, 26.678222818419332 ], [ 89.274836727783125, 26.676576777735487 ], [ 89.275245622141398, 26.674362102242537 ], [ 89.277147338657315, 26.673769403806073 ], [ 89.278745240508684, 26.672853820312252 ], [ 89.279318214088022, 26.671263188329057 ], [ 89.280456245937216, 26.669896022835353 ], [ 89.279970934169739, 26.66773722732562 ], [ 89.279727894967991, 26.66563591285324 ], [ 89.279101442609118, 26.664238823726187 ], [ 89.277865758666749, 26.662327022888014 ], [ 89.276447838540193, 26.659610013360872 ], [ 89.280327167245304, 26.659185085317631 ], [ 89.285784499999977, 26.658734 ], [ 89.290749959927837, 26.658639208630223 ], [ 89.2952355, 26.658548 ], [ 89.30033, 26.658294 ], [ 89.307387023353684, 26.656124862594581 ] ] ] } },
{ "type": "Feature", "properties": { "id": "157", "beat": "Hasimara Beat", "range": "jaldapara North", "division": "Jaldapara" }, "geometry": { "type": "Polygon", "coordinates": [ [ [ 89.329328503362404, 26.699512697601683 ], [ 89.330734988065856, 26.702652121288033 ], [ 89.331740800669635, 26.705545378323496 ], [ 89.332570376498737, 26.709494069151056 ], [ 89.33273770711655, 26.710815967798045 ], [ 89.333223255804555, 26.717650753473958 ], [ 89.332302478264026, 26.719558774446554 ], [ 89.33117170937679, 26.721126174092539 ], [ 89.329983717497527, 26.722534282078662 ], [ 89.329637272172036, 26.723995744547484 ], [ 89.328029731055722, 26.726825715632067 ], [ 89.32691284054782, 26.729598505342437 ], [ 89.327453775032581, 26.732142177830813 ], [ 89.328841033255003, 26.733315851746646 ], [ 89.328964103366715, 26.736857504963655 ], [ 89.328712686637857, 26.738210979701364 ], [ 89.327946998342512, 26.739502385425233 ], [ 89.324089631464062, 26.741381462621742 ], [ 89.320605699116825, 26.742973613744685 ], [ 89.319208657600925, 26.743595230705701 ], [ 89.317937369523548, 26.744034835286261 ], [ 89.314821997339493, 26.745342034207457 ], [ 89.311560617963863, 26.745479344294846 ], [ 89.308444153758316, 26.745591518506899 ], [ 89.305172463431134, 26.745624247539361 ], [ 89.303258496784622, 26.745145726869783 ], [ 89.30194795721647, 26.744573909325801 ], [ 89.29379365, 26.743787549999968 ], [ 89.290441600000023, 26.742859 ], [ 89.284087138708728, 26.742379538055154 ], [ 89.277008771945077, 26.741694549738597 ], [ 89.275666987891341, 26.740260196384462 ], [ 89.274180908541453, 26.739173965468048 ], [ 89.269831010662045, 26.736878833683424 ], [ 89.271095657685592, 26.735742276290068 ], [ 89.271829797552357, 26.734014712136204 ], [ 89.272676226138955, 26.732617334132851 ], [ 89.277074047610839, 26.733409936379974 ], [ 89.279012879660414, 26.733120192230679 ], [ 89.282436450274261, 26.733907006715711 ], [ 89.292725314795774, 26.735955353522016 ], [ 89.294870681421727, 26.736179547542431 ], [ 89.29514312098722, 26.734545168251504 ], [ 89.294879336040523, 26.732367213776246 ], [ 89.294701700187474, 26.72965037864418 ], [ 89.294717799761685, 26.727122513567807 ], [ 89.294306266189935, 26.725811798059677 ], [ 89.292174957649706, 26.722972298955742 ], [ 89.291358886138795, 26.7215900402256 ], [ 89.290221857520251, 26.72000110086276 ], [ 89.289396802304722, 26.718620618598347 ], [ 89.28759339883257, 26.715969761371554 ], [ 89.286566628474418, 26.71412945511759 ], [ 89.289026, 26.714503500000035 ], [ 89.292315499999987, 26.71373 ], [ 89.294135, 26.713776500000012 ], [ 89.295923, 26.713071 ], [ 89.298622, 26.712675 ], [ 89.300709037795997, 26.713042505054833 ], [ 89.303721944386524, 26.713042903705457 ], [ 89.308509249999958, 26.712689 ], [ 89.308263797321956, 26.711379186548971 ], [ 89.307721, 26.7095535 ], [ 89.307153, 26.708406 ], [ 89.30666, 26.706973 ], [ 89.307051873086948, 26.705202684902211 ], [ 89.307631, 26.704003 ], [ 89.309272708041902, 26.70319040044448 ], [ 89.311441638848862, 26.702844767308591 ], [ 89.313211840225279, 26.702130113593629 ], [ 89.315117573540604, 26.702309601405709 ], [ 89.318186023123658, 26.703039238445562 ], [ 89.319767928017484, 26.702847032731817 ], [ 89.321202115287406, 26.702685001110986 ], [ 89.324725314478201, 26.702161734661527 ], [ 89.325806967179034, 26.700926640452664 ], [ 89.327961833632216, 26.700008470453255 ], [ 89.329328503362404, 26.699512697601683 ] ] ] } },
{ "type": "Feature", "properties": { "id": "172", "beat": "Salkumar Beat", "range": "Jaldapar South", "division": "Jaldapara" }, "geometry": { "type": "Polygon", "coordinates": [ [ [ 89.320007606472174, 26.563287877993417 ], [ 89.31755570568204, 26.563044407128082 ], [ 89.313656473138877, 26.562810412525277 ], [ 89.310317874324312, 26.5624584403425 ], [ 89.309095851043963, 26.562052143811503 ], [ 89.307127836595939, 26.562928157901037 ], [ 89.305736468246337, 26.562634893963992 ], [ 89.304209558129955, 26.562558410611718 ], [ 89.302587402706635, 26.562274004475654 ], [ 89.301619975546643, 26.560583802481556 ], [ 89.301358388288932, 26.559163101052611 ], [ 89.302223820054735, 26.557836387919213 ], [ 89.303294311103244, 26.556279100109396 ], [ 89.302621524065259, 26.554270222151903 ], [ 89.300908693064841, 26.553308813316249 ], [ 89.299276401796206, 26.552672349899879 ], [ 89.298397060462946, 26.551367254530149 ], [ 89.29870948180313, 26.549805753508508 ], [ 89.299858917328905, 26.548542521133804 ], [ 89.302096485594518, 26.548761100270283 ], [ 89.303472793530659, 26.548719802524616 ], [ 89.303846404488837, 26.546877331642531 ], [ 89.304892258542864, 26.541180146724212 ], [ 89.305474304002431, 26.537695654533426 ], [ 89.306281230325339, 26.535264399110662 ], [ 89.307905833467927, 26.534355016630055 ], [ 89.30978725531061, 26.534183866490483 ], [ 89.311081628722789, 26.534589173358373 ], [ 89.313141257938767, 26.536710318598271 ], [ 89.31462236980633, 26.538842133063405 ], [ 89.316895538676533, 26.542181079110254 ], [ 89.3204316867524, 26.547239502308166 ], [ 89.323722067531875, 26.552122140853022 ], [ 89.324111625930215, 26.553647190810807 ], [ 89.323360090797522, 26.555392221809353 ], [ 89.32185341950597, 26.559018883136513 ], [ 89.320007606472174, 26.563287877993417 ] ] ] } },
{ "type": "Feature", "properties": { "id": "187", "beat": "Kunjanagar", "range": "Jaldapara West", "division": "Jaldapara" }, "geometry": { "type": "Polygon", "coordinates": [ [ [ 89.269897470600483, 26.567665870138672 ], [ 89.267757599999953, 26.56728 ], [ 89.266309, 26.567447 ], [ 89.265208707444444, 26.568203476093625 ], [ 89.263552, 26.569352 ], [ 89.262391310263013, 26.570353223760439 ], [ 89.260749500000074, 26.571807500000048 ], [ 89.259363666666658, 26.572561 ], [ 89.257499, 26.572919 ], [ 89.256201, 26.574523499999973 ], [ 89.25459775, 26.575638749999968 ], [ 89.253413114342081, 26.578581658662063 ], [ 89.252150627357878, 26.577331874910818 ], [ 89.250537499416879, 26.575124670814436 ], [ 89.250708445836565, 26.573007563794963 ], [ 89.250049756626012, 26.570777964571938 ], [ 89.249903333309248, 26.569209153959143 ], [ 89.249511889182003, 26.567878493490575 ], [ 89.24940795965631, 26.566412186163017 ], [ 89.249340238793437, 26.56456638875521 ], [ 89.251188343806987, 26.56313856241858 ], [ 89.251189294953619, 26.561175850352907 ], [ 89.250839722139816, 26.559330074383595 ], [ 89.249710935519374, 26.557503776196338 ], [ 89.249321175290575, 26.555306932719517 ], [ 89.249294466948896, 26.553335732543896 ], [ 89.249350329459958, 26.550775855232793 ], [ 89.249039038288458, 26.548413426203769 ], [ 89.248642922300533, 26.546710124932453 ], [ 89.248131900102024, 26.545529747632017 ], [ 89.24841536220994, 26.543986011906011 ], [ 89.250351366136087, 26.543131839910743 ], [ 89.251958367575114, 26.542396256987193 ], [ 89.253434662135675, 26.541487671523171 ], [ 89.253752920468784, 26.540235866550692 ], [ 89.254029857381823, 26.538587962474029 ], [ 89.254607424911015, 26.536732392972244 ], [ 89.256093981414764, 26.535535099077816 ], [ 89.25765, 26.538194 ], [ 89.257788, 26.539467 ], [ 89.258678787131174, 26.541596229164181 ], [ 89.259749500000027, 26.544372499999984 ], [ 89.260943252575842, 26.546767910820172 ], [ 89.261721, 26.548299 ], [ 89.262423527940697, 26.550308762126289 ], [ 89.264597494845589, 26.552766354267636 ], [ 89.265224, 26.554151 ], [ 89.265086, 26.555595 ], [ 89.265781438681898, 26.556996773507883 ], [ 89.266640490727397, 26.558592534921381 ], [ 89.267666333333366, 26.560008 ], [ 89.268879824239178, 26.561512783334155 ], [ 89.269556, 26.563181 ], [ 89.2706458, 26.564747400000048 ], [ 89.270622750000044, 26.56617225 ], [ 89.269897470600483, 26.567665870138672 ] ] ] } },
{ "type": "Feature", "properties": { "id": "202", "beat": "TEC", "range": "Jaldapara West", "division": "Jaldapara" }, "geometry": { "type": "Polygon", "coordinates": [ [ [ 89.281128230824862, 26.578556218074027 ], [ 89.281935458339646, 26.579865548771846 ], [ 89.282218075663067, 26.581337180629376 ], [ 89.285262834593638, 26.586957171720897 ], [ 89.282614851865006, 26.587789181556857 ], [ 89.284071251505083, 26.592051736996584 ], [ 89.285035913589695, 26.595442267030027 ], [ 89.285940899270855, 26.596703863578057 ], [ 89.28636856214095, 26.598027756711755 ], [ 89.284891303365555, 26.598275890183391 ], [ 89.284051925065441, 26.599738633287277 ], [ 89.285766128376295, 26.601008322147283 ], [ 89.287191446217562, 26.601703157999161 ], [ 89.286921293158258, 26.603005347279744 ], [ 89.287080189912771, 26.605773508390211 ], [ 89.286590029719264, 26.607616643044533 ], [ 89.28613012214484, 26.609884582658065 ], [ 89.28745938903252, 26.611370860422038 ], [ 89.289460268320454, 26.615397308912129 ], [ 89.290510664440404, 26.617368150927938 ], [ 89.292120471213806, 26.619285607644542 ], [ 89.293984023576002, 26.622595054975566 ], [ 89.287745386408247, 26.623473369402266 ], [ 89.284187, 26.62463 ], [ 89.282337259879782, 26.625887146084974 ], [ 89.280104942152761, 26.62742295546358 ], [ 89.27828333333332, 26.628346 ], [ 89.276945666666649, 26.628597666666646 ], [ 89.274913371959542, 26.628895865095796 ], [ 89.274379353908174, 26.627575502191984 ], [ 89.275421145299717, 26.626487982186557 ], [ 89.275959295429601, 26.62461081561646 ], [ 89.275243239222391, 26.622824217890344 ], [ 89.27630775074789, 26.621520995191077 ], [ 89.276495961746591, 26.619657386818389 ], [ 89.275579707856224, 26.61760246192663 ], [ 89.274711412626118, 26.61541016248669 ], [ 89.274221914587926, 26.614076545051184 ], [ 89.27408998607882, 26.612323438627243 ], [ 89.27315221375521, 26.610591411741595 ], [ 89.272457642853169, 26.609095181515478 ], [ 89.27216480698651, 26.606444350127482 ], [ 89.271972302533143, 26.604643911027186 ], [ 89.272197520843108, 26.602301804682941 ], [ 89.271798604101505, 26.601008175073197 ], [ 89.271459387166971, 26.599547529614835 ], [ 89.272590895010651, 26.598370905649197 ], [ 89.271866474845382, 26.597304498987288 ], [ 89.272242932745783, 26.595920029447033 ], [ 89.272113324499699, 26.594499132759523 ], [ 89.271990270321467, 26.592987781339332 ], [ 89.270765823031155, 26.592101829962537 ], [ 89.272322, 26.590729 ], [ 89.273676, 26.590042 ], [ 89.274613559883576, 26.588464336570798 ], [ 89.275585893572256, 26.586533614766854 ], [ 89.276216, 26.583748 ], [ 89.275809150459636, 26.582020793204368 ], [ 89.275096, 26.580569166666727 ], [ 89.27673, 26.579929 ], [ 89.278227625069363, 26.579458793286374 ], [ 89.281128230824862, 26.578556218074027 ] ] ] } },
{ "type": "Feature", "properties": { "id": "217", "beat": "Hollong Beat", "range": "Jaldapara West", "division": "Jaldapara" }, "geometry": { "type": "Polygon", "coordinates": [ [ [ 89.293984023576002, 26.622595054975566 ], [ 89.295984915441352, 26.622418767825 ], [ 89.29702728438869, 26.624636661991989 ], [ 89.300447998697308, 26.624179230833526 ], [ 89.30083492247779, 26.6258466486108 ], [ 89.302727919069085, 26.633657096804335 ], [ 89.301196084564339, 26.634214902918789 ], [ 89.301671408883522, 26.635455726753314 ], [ 89.302510505237521, 26.639584135820098 ], [ 89.303098729147379, 26.642410127629372 ], [ 89.303484045038388, 26.64408996560778 ], [ 89.304355747152258, 26.646698741017786 ], [ 89.305612591251361, 26.650084033553505 ], [ 89.307387023353684, 26.656124862594581 ], [ 89.30033, 26.658294 ], [ 89.2952355, 26.658548 ], [ 89.290749959927837, 26.658639208630223 ], [ 89.285784499999977, 26.658734 ], [ 89.280327167245304, 26.659185085317631 ], [ 89.276447838540193, 26.659610013360872 ], [ 89.275519721044802, 26.658461830647788 ], [ 89.274716636981282, 26.655924301197579 ], [ 89.274736451082305, 26.653690583396898 ], [ 89.274405604624704, 26.651485901112164 ], [ 89.27468609476, 26.648768145264416 ], [ 89.274698650681728, 26.647391466773477 ], [ 89.275805449146063, 26.645413824476353 ], [ 89.277142086647459, 26.643791797027465 ], [ 89.278025969957653, 26.64217437238942 ], [ 89.277432905519561, 26.640174754923766 ], [ 89.277152681898357, 26.63783965978687 ], [ 89.276603550368606, 26.635979142486914 ], [ 89.274950469365407, 26.633905967817022 ], [ 89.274652456226974, 26.631336514279351 ], [ 89.274913371959542, 26.628895865095796 ], [ 89.276945666666649, 26.628597666666646 ], [ 89.27828333333332, 26.628346 ], [ 89.280104942152761, 26.62742295546358 ], [ 89.282337259879782, 26.625887146084974 ], [ 89.284187, 26.62463 ], [ 89.287745386408247, 26.623473369402266 ], [ 89.293984023576002, 26.622595054975566 ] ] ] } },
{ "type": "Feature", "properties": { "id": "232", "beat": "Moiradanga Beat", "range": "Jaldapara West", "division": "Jaldapara" }, "geometry": { "type": "Polygon", "coordinates": [ [ [ 89.270765823031155, 26.592101829962537 ], [ 89.268664115226926, 26.593025642554117 ], [ 89.267055453337449, 26.593265222554933 ], [ 89.265736943509907, 26.591512245644282 ], [ 89.264836994354525, 26.59038822766399 ], [ 89.263542753223817, 26.590327685037344 ], [ 89.262361242936876, 26.588725205405154 ], [ 89.260125137748844, 26.588449255475581 ], [ 89.258833032540679, 26.587457707460775 ], [ 89.257673634981657, 26.586208135127258 ], [ 89.258000840332826, 26.584220636854898 ], [ 89.257440901800749, 26.582144214829466 ], [ 89.255700238902307, 26.579436792735216 ], [ 89.253413114342081, 26.578581658662063 ], [ 89.25459775, 26.575638749999968 ], [ 89.256201, 26.574523499999973 ], [ 89.257499, 26.572919 ], [ 89.259363666666658, 26.572561 ], [ 89.260749500000074, 26.571807500000048 ], [ 89.262391310263013, 26.570353223760439 ], [ 89.263552, 26.569352 ], [ 89.265208707444444, 26.568203476093625 ], [ 89.266309, 26.567447 ], [ 89.267757599999953, 26.56728 ], [ 89.269897470600483, 26.567665870138672 ], [ 89.269519678571442, 26.569263142857206 ], [ 89.269774, 26.570911 ], [ 89.270439, 26.572062 ], [ 89.269995666666702, 26.573616666666659 ], [ 89.26950549999998, 26.575181 ], [ 89.26861661111117, 26.576522944444473 ], [ 89.270207599999978, 26.57771020000003 ], [ 89.271855499999987, 26.5789755 ], [ 89.273084, 26.579879 ], [ 89.275096, 26.580569166666727 ], [ 89.275809150459636, 26.582020793204368 ], [ 89.276216, 26.583748 ], [ 89.275585893572256, 26.586533614766854 ], [ 89.274613559883576, 26.588464336570798 ], [ 89.273676, 26.590042 ], [ 89.272322, 26.590729 ], [ 89.270765823031155, 26.592101829962537 ] ] ] } },
{ "type": "Feature", "properties": { "id": "247", "beat": "Bangdaki", "range": "Jaldapara West", "division": "Jaldapara" }, "geometry": { "type": "Polygon", "coordinates": [ [ [ 89.256093981414764, 26.535535099077816 ], [ 89.257972298738309, 26.534691956785565 ], [ 89.26019990021733, 26.533972672720811 ], [ 89.261714792121595, 26.535114378166995 ], [ 89.263007845320786, 26.535827486248735 ], [ 89.264575220735836, 26.536027489380213 ], [ 89.266812212032747, 26.535812553949871 ], [ 89.268560609626121, 26.534749298382192 ], [ 89.269387849117251, 26.53343153157585 ], [ 89.269848941722685, 26.532244895590111 ], [ 89.269658628125796, 26.53020603228126 ], [ 89.270068206303833, 26.528611061561673 ], [ 89.272121378017815, 26.52843646052591 ], [ 89.274458808270097, 26.528527980584819 ], [ 89.276200868012523, 26.528579272507972 ], [ 89.277874114197417, 26.529275568920767 ], [ 89.277959365836679, 26.53091878995583 ], [ 89.279219471594729, 26.53213834728118 ], [ 89.278577210993575, 26.534034561647239 ], [ 89.278116407885904, 26.535541348460693 ], [ 89.276512065439363, 26.535836606542944 ], [ 89.274697369325196, 26.536837039716847 ], [ 89.27306296418196, 26.538634121634612 ], [ 89.273541353187355, 26.540247283409705 ], [ 89.275123419780996, 26.540402868784511 ], [ 89.274206863085297, 26.541608243773133 ], [ 89.276250885229814, 26.545626694807016 ], [ 89.278784235026421, 26.545334546879388 ], [ 89.280174461661844, 26.546175600908299 ], [ 89.280613149571479, 26.547452684050114 ], [ 89.28152941398595, 26.55023819783117 ], [ 89.282436908491903, 26.552343641486591 ], [ 89.282531272445169, 26.553916019573968 ], [ 89.282925815180278, 26.555441566944264 ], [ 89.284117135652508, 26.558424025821552 ], [ 89.286838536249817, 26.558151928416766 ], [ 89.290027412958821, 26.557679827426554 ], [ 89.291268657903956, 26.55810838311891 ], [ 89.292778443324735, 26.559114420162715 ], [ 89.293339546019439, 26.560907353317724 ], [ 89.29256847746359, 26.562545829780586 ], [ 89.291120464971542, 26.5626318867679 ], [ 89.289696367878321, 26.562280088243011 ], [ 89.289891932053663, 26.560464499035323 ], [ 89.288574847748578, 26.560379931501814 ], [ 89.286933580057493, 26.561105293776681 ], [ 89.285869953533478, 26.562129469378696 ], [ 89.286058131107708, 26.563802567548304 ], [ 89.28405591814348, 26.564047209314527 ], [ 89.284139390664464, 26.565915455665305 ], [ 89.285415585032069, 26.566204686062093 ], [ 89.285751393224885, 26.567912805140274 ], [ 89.283013277189198, 26.570876151430404 ], [ 89.281392795955284, 26.572009552544078 ], [ 89.281691857244979, 26.574873784735058 ], [ 89.283527003905562, 26.575830997385445 ], [ 89.285032487309465, 26.575602906187161 ], [ 89.286042053257901, 26.576818173511178 ], [ 89.285010036215496, 26.577580661749149 ], [ 89.283412387867926, 26.578118377626307 ], [ 89.281128230824862, 26.578556218074027 ], [ 89.278227625069363, 26.579458793286374 ], [ 89.27673, 26.579929 ], [ 89.275096, 26.580569166666727 ], [ 89.273084, 26.579879 ], [ 89.271855499999987, 26.5789755 ], [ 89.270207599999978, 26.57771020000003 ], [ 89.26861661111117, 26.576522944444473 ], [ 89.26950549999998, 26.575181 ], [ 89.269995666666702, 26.573616666666659 ], [ 89.270439, 26.572062 ], [ 89.269774, 26.570911 ], [ 89.269519678571442, 26.569263142857206 ], [ 89.269897470600483, 26.567665870138672 ], [ 89.270622750000044, 26.56617225 ], [ 89.2706458, 26.564747400000048 ], [ 89.269556, 26.563181 ], [ 89.268879824239178, 26.561512783334155 ], [ 89.267666333333366, 26.560008 ], [ 89.266640490727397, 26.558592534921381 ], [ 89.265781438681898, 26.556996773507883 ], [ 89.265086, 26.555595 ], [ 89.265224, 26.554151 ], [ 89.264597494845589, 26.552766354267636 ], [ 89.262423527940697, 26.550308762126289 ], [ 89.261721, 26.548299 ], [ 89.260943252575842, 26.546767910820172 ], [ 89.259749500000027, 26.544372499999984 ], [ 89.258678787131174, 26.541596229164181 ], [ 89.257788, 26.539467 ], [ 89.25765, 26.538194 ], [ 89.256093981414764, 26.535535099077816 ] ] ] } },
{ "type": "Feature", "properties": { "id": "262", "beat": "NEC Beat", "range": "Kodalbasti", "division": "Jaldapara" }, "geometry": { "type": "Polygon", "coordinates": [ [ [ 89.342065850199575, 26.681574280658531 ], [ 89.340470171487922, 26.682075416512944 ], [ 89.338324669185354, 26.680289874170342 ], [ 89.337026583390411, 26.681396286274499 ], [ 89.335141116186975, 26.683439196446816 ], [ 89.333840021535849, 26.685445895145048 ], [ 89.332871929995932, 26.68695410751311 ], [ 89.332198420151954, 26.688390820720269 ], [ 89.332618076998557, 26.689981356792451 ], [ 89.33276612765971, 26.69187833589594 ], [ 89.331533219770947, 26.693227810635982 ], [ 89.330574645032783, 26.694662889762093 ], [ 89.330149928135228, 26.696394649364123 ], [ 89.328998918146397, 26.697594599821521 ], [ 89.328301891740551, 26.695953922611164 ], [ 89.327659178036072, 26.694334602449381 ], [ 89.326889149276923, 26.692636779412553 ], [ 89.32626452703623, 26.691114267512177 ], [ 89.326011005783712, 26.687606444567884 ], [ 89.326076892725922, 26.685003614397733 ], [ 89.326144395650232, 26.681269549592816 ], [ 89.326219154751726, 26.677275317407904 ], [ 89.327020499363542, 26.675504739661886 ], [ 89.327361346460137, 26.674158779205463 ], [ 89.327237487995319, 26.672600397011418 ], [ 89.326366953420944, 26.670539111205109 ], [ 89.327631646386578, 26.669436503180759 ], [ 89.329110119458818, 26.666352123100616 ], [ 89.330714367871067, 26.664880956081831 ], [ 89.332653, 26.662955 ], [ 89.33352224935723, 26.660752433319505 ], [ 89.333954631665591, 26.65771013176829 ], [ 89.333496626027639, 26.654748623552742 ], [ 89.33407718766658, 26.653185877711564 ], [ 89.335393006861509, 26.651416850675151 ], [ 89.336565028365712, 26.650311425744537 ], [ 89.336700622140413, 26.647972979469607 ], [ 89.337055082148694, 26.645691842722023 ], [ 89.337458505592764, 26.644078803387831 ], [ 89.338055603280509, 26.641896926775647 ], [ 89.33827302388967, 26.640480166712692 ], [ 89.338855661222183, 26.638191364201973 ], [ 89.339486827901808, 26.636215035497283 ], [ 89.339943927263278, 26.63487494891185 ], [ 89.341457117827517, 26.633108779935803 ], [ 89.341421438089412, 26.631216478547685 ], [ 89.341733, 26.629064 ], [ 89.34217, 26.627665 ], [ 89.343295428571409, 26.625696571428563 ], [ 89.344413073326379, 26.627310658099194 ], [ 89.34568, 26.627978 ], [ 89.347003, 26.628274 ], [ 89.348424105233434, 26.628963896311035 ], [ 89.348781805423968, 26.631373909024429 ], [ 89.348901479644724, 26.63361688971592 ], [ 89.348452185191434, 26.63507324612419 ], [ 89.347526622417362, 26.636126645350704 ], [ 89.346340495735433, 26.638139194968595 ], [ 89.345953401819301, 26.639393002187798 ], [ 89.345521493805421, 26.640734826534899 ], [ 89.344412051140395, 26.644281658077499 ], [ 89.344028113854606, 26.645537523197842 ], [ 89.343993044169054, 26.647265989182227 ], [ 89.343958721000121, 26.648819342772782 ], [ 89.343833557024496, 26.65151435561021 ], [ 89.343762412346351, 26.653195758522934 ], [ 89.343603915333759, 26.654574630861731 ], [ 89.343494101820369, 26.658217149016121 ], [ 89.343389348478368, 26.660612798854537 ], [ 89.343313556897712, 26.661995208831961 ], [ 89.343158311938424, 26.66453257421643 ], [ 89.342961197923088, 26.669025900354796 ], [ 89.342832623997097, 26.67154279845975 ], [ 89.34264458170469, 26.67488102247199 ], [ 89.342466482455833, 26.677885084692747 ], [ 89.342336037092352, 26.680060058033376 ], [ 89.342065850199575, 26.681574280658531 ] ] ] } },
{ "type": "Feature", "properties": { "id": "277", "beat": "CC Line Beat", "range": "Kodalbasti", "division": "Jaldapara" }, "geometry": { "type": "Polygon", "coordinates": [ [ [ 89.369622926150498, 26.613625971019587 ], [ 89.366481678186091, 26.613220721667378 ], [ 89.365184008477868, 26.613269514256547 ], [ 89.360635979218443, 26.613422112936373 ], [ 89.358156638757151, 26.613611386629714 ], [ 89.355396302949316, 26.613827020148488 ], [ 89.352821418113209, 26.614017999583865 ], [ 89.351328629234217, 26.614388927399173 ], [ 89.350663446241086, 26.616047305248085 ], [ 89.35016924073993, 26.617451149857978 ], [ 89.349842835006825, 26.619712205012195 ], [ 89.349665964741021, 26.621459944287455 ], [ 89.34958332652856, 26.622933026865773 ], [ 89.349368218747117, 26.624727916870754 ], [ 89.348803462766014, 26.626755881917489 ], [ 89.348424105233434, 26.628963896311035 ], [ 89.347003, 26.628274 ], [ 89.34568, 26.627978 ], [ 89.344413073326379, 26.627310658099194 ], [ 89.343295428571409, 26.625696571428563 ], [ 89.3432866666667, 26.623899166666646 ], [ 89.34319598691792, 26.622219879553992 ], [ 89.342770631924651, 26.62074707312793 ], [ 89.342516, 26.61934 ], [ 89.342624857670202, 26.616775602459956 ], [ 89.342113, 26.615025 ], [ 89.342575249628254, 26.613669685315504 ], [ 89.342696, 26.611835 ], [ 89.342464500000034, 26.610098 ], [ 89.342085400000016, 26.608441 ], [ 89.342649717058976, 26.607218376588985 ], [ 89.343717, 26.605872 ], [ 89.344736, 26.605095 ], [ 89.346056, 26.604371 ], [ 89.34715, 26.603695 ], [ 89.348507336365998, 26.603096617148562 ], [ 89.349533, 26.6023 ], [ 89.350850651334014, 26.599780032941027 ], [ 89.350172, 26.598489 ], [ 89.349925732571734, 26.597105226808797 ], [ 89.350010378375785, 26.595511251658703 ], [ 89.350454243116303, 26.594265303590074 ], [ 89.352498076246064, 26.594830266267692 ], [ 89.354969721843759, 26.594909640238289 ], [ 89.357281425672397, 26.595039886437714 ], [ 89.359949927513753, 26.59518118434238 ], [ 89.362119321773804, 26.595196647275536 ], [ 89.364829418829473, 26.595267321973719 ], [ 89.366915109342827, 26.595350922930276 ], [ 89.3687892810769, 26.594723431090721 ], [ 89.371031925434238, 26.595467505295638 ], [ 89.371897490913796, 26.596829790319092 ], [ 89.372385133544157, 26.59870634363805 ], [ 89.372745671895245, 26.600484516306803 ], [ 89.373731373642045, 26.601525587292045 ], [ 89.37524984291565, 26.602622247467604 ], [ 89.37540971936285, 26.60457186442801 ], [ 89.375624165990587, 26.60585627826401 ], [ 89.37737, 26.606720500000051 ], [ 89.375787632574415, 26.608014866250944 ], [ 89.377699, 26.608869 ], [ 89.377727500000049, 26.610167 ], [ 89.378753411374646, 26.61215636790714 ], [ 89.375040937148754, 26.612845557457014 ], [ 89.372131433976932, 26.612974820504213 ], [ 89.369622926150498, 26.613625971019587 ] ] ] } },
{ "type": "Feature", "properties": { "id": "292", "beat": "Kodalbasti Beat", "range": "Kodalbasti", "division": "Jaldapara" }, "geometry": { "type": "Polygon", "coordinates": [ [ [ 89.369622926150498, 26.613625971019587 ], [ 89.368922252457565, 26.615966619144508 ], [ 89.36842774842242, 26.618238291855338 ], [ 89.367835713963188, 26.621319133324121 ], [ 89.366054823730835, 26.630669697358293 ], [ 89.365493607759817, 26.633812743709299 ], [ 89.364853651691845, 26.637306706640278 ], [ 89.364537637078172, 26.639210728084254 ], [ 89.364274585380599, 26.640835586439586 ], [ 89.363743357815551, 26.643723420653036 ], [ 89.36339158666334, 26.645537992197792 ], [ 89.361605350551599, 26.647240057177683 ], [ 89.359779531464483, 26.649126961107854 ], [ 89.35859464093879, 26.650320876369886 ], [ 89.355621246511845, 26.652793646455645 ], [ 89.356300656369996, 26.654623620381106 ], [ 89.357475502054029, 26.656847484282491 ], [ 89.358524231144798, 26.658849093849561 ], [ 89.359222426508808, 26.660094665833515 ], [ 89.359448775966911, 26.661750411645439 ], [ 89.359674021674067, 26.664036580010634 ], [ 89.359619379159113, 26.666477560386152 ], [ 89.360423137232814, 26.66842622780176 ], [ 89.358556548402376, 26.669271945560162 ], [ 89.355637347201252, 26.670535174734049 ], [ 89.353129019124978, 26.671613031381984 ], [ 89.351747665131214, 26.672277273900129 ], [ 89.350281279266213, 26.673606369048379 ], [ 89.349153559421325, 26.674760412992253 ], [ 89.346800749684604, 26.677179760800922 ], [ 89.344219200109691, 26.67963792430265 ], [ 89.342065850199575, 26.681574280658531 ], [ 89.342336037092352, 26.680060058033376 ], [ 89.342466482455833, 26.677885084692747 ], [ 89.34264458170469, 26.67488102247199 ], [ 89.342832623997097, 26.67154279845975 ], [ 89.342961197923088, 26.669025900354796 ], [ 89.343158311938424, 26.66453257421643 ], [ 89.343313556897712, 26.661995208831961 ], [ 89.343389348478368, 26.660612798854537 ], [ 89.343494101820369, 26.658217149016121 ], [ 89.343603915333759, 26.654574630861731 ], [ 89.343762412346351, 26.653195758522934 ], [ 89.343833557024496, 26.65151435561021 ], [ 89.343958721000121, 26.648819342772782 ], [ 89.343993044169054, 26.647265989182227 ], [ 89.344028113854606, 26.645537523197842 ], [ 89.344412051140395, 26.644281658077499 ], [ 89.345521493805421, 26.640734826534899 ], [ 89.345953401819301, 26.639393002187798 ], [ 89.346340495735433, 26.638139194968595 ], [ 89.347526622417362, 26.636126645350704 ], [ 89.348452185191434, 26.63507324612419 ], [ 89.348901479644724, 26.63361688971592 ], [ 89.348781805423968, 26.631373909024429 ], [ 89.348424105233434, 26.628963896311035 ], [ 89.348803462766014, 26.626755881917489 ], [ 89.349368218747117, 26.624727916870754 ], [ 89.34958332652856, 26.622933026865773 ], [ 89.349665964741021, 26.621459944287455 ], [ 89.349842835006825, 26.619712205012195 ], [ 89.35016924073993, 26.617451149857978 ], [ 89.350663446241086, 26.616047305248085 ], [ 89.351328629234217, 26.614388927399173 ], [ 89.352821418113209, 26.614017999583865 ], [ 89.355396302949316, 26.613827020148488 ], [ 89.358156638757151, 26.613611386629714 ], [ 89.360635979218443, 26.613422112936373 ], [ 89.365184008477868, 26.613269514256547 ], [ 89.366481678186091, 26.613220721667378 ], [ 89.369622926150498, 26.613625971019587 ] ] ] } },
{ "type": "Feature", "properties": { "id": "307", "beat": "Manthuram Beat", "range": "Kodalbasti", "division": "Jaldapara" }, "geometry": { "type": "Polygon", "coordinates": [ [ [ 89.378753411374646, 26.61215636790714 ], [ 89.381395716761148, 26.612692010524867 ], [ 89.383147300165774, 26.612841162185401 ], [ 89.383619404745289, 26.614576761941581 ], [ 89.385007087521529, 26.619402123491735 ], [ 89.386045107889331, 26.623055400201594 ], [ 89.384563981417543, 26.625783182213596 ], [ 89.38156613457123, 26.631124571436075 ], [ 89.38040839578062, 26.633274079997797 ], [ 89.38630586919237, 26.633631420346219 ], [ 89.389055047245222, 26.633932522865138 ], [ 89.391194136757946, 26.634225082944944 ], [ 89.391483733404868, 26.63676646923933 ], [ 89.390868385962889, 26.639987541411607 ], [ 89.39054, 26.642746 ], [ 89.3914545344728, 26.644187391423106 ], [ 89.391281201043142, 26.647368007767362 ], [ 89.388274878144074, 26.650299304845497 ], [ 89.383816291756517, 26.653854000484049 ], [ 89.382052192458062, 26.655557052199701 ], [ 89.379240693677517, 26.658023895596365 ], [ 89.377455831557455, 26.658613291014703 ], [ 89.374921356452376, 26.659517290767624 ], [ 89.371213126742333, 26.660788570230924 ], [ 89.369468538470613, 26.662144113428702 ], [ 89.369818630841891, 26.663939678679942 ], [ 89.368282002490929, 26.665514313557807 ], [ 89.367596354705086, 26.66732515959324 ], [ 89.367357908576466, 26.669021092736671 ], [ 89.367203048586219, 26.670811388696418 ], [ 89.365704493490995, 26.67023274404751 ], [ 89.364152095503599, 26.669891024012397 ], [ 89.361803042179474, 26.669125612630744 ], [ 89.360423137232814, 26.66842622780176 ], [ 89.359619379159113, 26.666477560386152 ], [ 89.359674021674067, 26.664036580010634 ], [ 89.359448775966911, 26.661750411645439 ], [ 89.359222426508808, 26.660094665833515 ], [ 89.358524231144798, 26.658849093849561 ], [ 89.357475502054029, 26.656847484282491 ], [ 89.356300656369996, 26.654623620381106 ], [ 89.355621246511845, 26.652793646455645 ], [ 89.35859464093879, 26.650320876369886 ], [ 89.359779531464483, 26.649126961107854 ], [ 89.361605350551599, 26.647240057177683 ], [ 89.36339158666334, 26.645537992197792 ], [ 89.363743357815551, 26.643723420653036 ], [ 89.364274585380599, 26.640835586439586 ], [ 89.364537637078172, 26.639210728084254 ], [ 89.364853651691845, 26.637306706640278 ], [ 89.365493607759817, 26.633812743709299 ], [ 89.366054823730835, 26.630669697358293 ], [ 89.367835713963188, 26.621319133324121 ], [ 89.36842774842242, 26.618238291855338 ], [ 89.368922252457565, 26.615966619144508 ], [ 89.369622926150498, 26.613625971019587 ], [ 89.372131433976932, 26.612974820504213 ], [ 89.375040937148754, 26.612845557457014 ], [ 89.378753411374646, 26.61215636790714 ] ] ] } },
{ "type": "Feature", "properties": { "id": "322", "beat": "Lankapara Beat", "range": "Lankapara", "division": "Jaldapara" }, "geometry": { "type": "Polygon", "coordinates": [ [ [ 89.272519103668103, 26.792123488269752 ], [ 89.2735291, 26.793083899999985 ], [ 89.274559127896836, 26.794654416109058 ], [ 89.27595688642478, 26.796778464294839 ], [ 89.277532, 26.799162 ], [ 89.277719249320143, 26.800914285056436 ], [ 89.277974909490766, 26.803294316656416 ], [ 89.278249699999961, 26.805992899999957 ], [ 89.278305910424365, 26.812299485094197 ], [ 89.278154727910476, 26.816295610491185 ], [ 89.277920945898686, 26.819500347261808 ], [ 89.277380972216292, 26.822827428486377 ], [ 89.27579807179481, 26.827034527104214 ], [ 89.27504823230386, 26.829188580362555 ], [ 89.273373161673746, 26.827669570232874 ], [ 89.271651432370618, 26.825785964089015 ], [ 89.269779823024621, 26.823792664071615 ], [ 89.268714373009743, 26.822461589045236 ], [ 89.267033580885951, 26.820332225808656 ], [ 89.265498128682438, 26.818320392592636 ], [ 89.264588948819934, 26.817346944313584 ], [ 89.263487720391566, 26.816332628074495 ], [ 89.262462084264428, 26.815460889599489 ], [ 89.260096480853591, 26.815452461012683 ], [ 89.258232738521926, 26.815453300549301 ], [ 89.254902418591428, 26.81568981645696 ], [ 89.253704744377927, 26.816128649948372 ], [ 89.250901739050178, 26.817267155185391 ], [ 89.249464288463969, 26.817585725626174 ], [ 89.247176945118753, 26.818002266076395 ], [ 89.243804272956581, 26.818934411047117 ], [ 89.242340878047855, 26.819240442502672 ], [ 89.240656262811484, 26.819636141984031 ], [ 89.239376296030656, 26.820046855470451 ], [ 89.236566633290948, 26.820388821687128 ], [ 89.234593093482388, 26.820328989261714 ], [ 89.232278997007597, 26.819514663198245 ], [ 89.230745503488052, 26.818331095533303 ], [ 89.230029821090611, 26.817075078185841 ], [ 89.228818212324057, 26.816175342932784 ], [ 89.227557847896023, 26.815090471347418 ], [ 89.227054891501538, 26.81391464263551 ], [ 89.228268078272052, 26.81275095455166 ], [ 89.22952358766041, 26.811970061505168 ], [ 89.230462685217645, 26.810938104797437 ], [ 89.231728018151188, 26.809981703474143 ], [ 89.233085833063953, 26.809686819123694 ], [ 89.234412732555754, 26.809730561142324 ], [ 89.235851533920737, 26.809865055967379 ], [ 89.237923834645443, 26.810122428477083 ], [ 89.239705172490403, 26.81007292088972 ], [ 89.241580106735071, 26.809782367563166 ], [ 89.243330227562879, 26.809047932249623 ], [ 89.243842088436566, 26.807859392368975 ], [ 89.243809338028939, 26.806284934094375 ], [ 89.24416434105423, 26.804699782012779 ], [ 89.245334674562727, 26.8035488562738 ], [ 89.245720427590115, 26.802220629830035 ], [ 89.246975988791618, 26.802502081192607 ], [ 89.247946719579815, 26.801675319989197 ], [ 89.24909532023041, 26.800376832516097 ], [ 89.2496199220666, 26.798677662604835 ], [ 89.250443429447202, 26.797508089874704 ], [ 89.251278189380372, 26.796311948964206 ], [ 89.251504624592116, 26.794911325460273 ], [ 89.251813447981192, 26.793052136224908 ], [ 89.253715722172956, 26.791974877810258 ], [ 89.253868334349718, 26.789428731571967 ], [ 89.253964815163727, 26.787935541736012 ], [ 89.253570644991669, 26.786211580984702 ], [ 89.253411676418608, 26.783295298628211 ], [ 89.253332816776947, 26.781542097482884 ], [ 89.252007005216853, 26.781532773994325 ], [ 89.249145528646849, 26.78146480195424 ], [ 89.250368393273121, 26.779787060304276 ], [ 89.251437374715778, 26.778720109240687 ], [ 89.252945934063973, 26.778194901469725 ], [ 89.254332267861514, 26.777098670249082 ], [ 89.2576075, 26.776763500000015 ], [ 89.261119622306126, 26.777026388573415 ], [ 89.261984799999965, 26.777989500000025 ], [ 89.263180575319439, 26.779044925921884 ], [ 89.265075, 26.780717 ], [ 89.267302721546372, 26.78383465272222 ], [ 89.269147, 26.786398 ], [ 89.269373091988484, 26.790138944433643 ], [ 89.270183794656504, 26.792031860602698 ], [ 89.272519103668103, 26.792123488269752 ] ] ] } },
{ "type": "Feature", "properties": { "id": "337", "beat": "Hollapara Beat", "range": "Lankapara", "division": "Jaldapara" }, "geometry": { "type": "Polygon", "coordinates": [ [ [ 89.317182985278606, 26.780429874129112 ], [ 89.317719185554779, 26.782904563302516 ], [ 89.318138845368523, 26.784434450568188 ], [ 89.318964253474746, 26.787435213986647 ], [ 89.319701540681763, 26.790306464614304 ], [ 89.319801771451139, 26.796980326258872 ], [ 89.320039976152444, 26.798332877049351 ], [ 89.320785164774264, 26.79989006262246 ], [ 89.321729577654793, 26.801818198868947 ], [ 89.322343948279212, 26.803159131543001 ], [ 89.321434459111671, 26.804159698346012 ], [ 89.321433666666636, 26.806019866666634 ], [ 89.3240833, 26.807678299999964 ], [ 89.326088, 26.808152 ], [ 89.329774298466702, 26.811031977193071 ], [ 89.331998, 26.812797 ], [ 89.333720019080673, 26.819261251812325 ], [ 89.334216293715841, 26.821369767439666 ], [ 89.334971103215452, 26.825881339615602 ], [ 89.336443445936709, 26.832112870522799 ], [ 89.336898322281385, 26.834007352246562 ], [ 89.337882684158288, 26.838490354472892 ], [ 89.338578850000061, 26.84273125 ], [ 89.339412643378665, 26.843941040064216 ], [ 89.341581979599454, 26.846385072131522 ], [ 89.343299872023152, 26.848002539515285 ], [ 89.345203642689853, 26.849804280121774 ], [ 89.339187098723272, 26.848382471038327 ], [ 89.335927167812898, 26.847533711306053 ], [ 89.330908458460172, 26.846313461798836 ], [ 89.327955267428635, 26.844989693545422 ], [ 89.327724631953032, 26.841588734759096 ], [ 89.326522232368234, 26.83860776629227 ], [ 89.324051751365985, 26.833663703226655 ], [ 89.32371666666667, 26.832266666666669 ], [ 89.32331666666667, 26.83135 ], [ 89.323116666666664, 26.83101666666667 ], [ 89.323033835623477, 26.830462131136542 ], [ 89.321106270138884, 26.825891491366864 ], [ 89.319747274186668, 26.82285262322565 ], [ 89.319510851850993, 26.821494879813461 ], [ 89.317582041761398, 26.821158150456263 ], [ 89.316134036481543, 26.821149845444562 ], [ 89.313764277948934, 26.822080346799996 ], [ 89.311561494495251, 26.823578201161872 ], [ 89.309497440571107, 26.825075571003769 ], [ 89.306942618874871, 26.826756210139539 ], [ 89.305385408313924, 26.826529848649276 ], [ 89.302476462694344, 26.827287935316406 ], [ 89.300803823301663, 26.827557396434003 ], [ 89.300528447625439, 26.829021105723687 ], [ 89.298692296255567, 26.83042264532353 ], [ 89.297473870316665, 26.830802986417705 ], [ 89.295209776147189, 26.831691245850646 ], [ 89.291590446118704, 26.833310660813218 ], [ 89.289891931638877, 26.834100726303049 ], [ 89.288383144714771, 26.834481044531159 ], [ 89.286533995933482, 26.834534075398945 ], [ 89.284528590722076, 26.833788949734487 ], [ 89.281145821097923, 26.831578283718553 ], [ 89.278305043332637, 26.830036519970061 ], [ 89.276361810836036, 26.829643124736339 ], [ 89.27504823230386, 26.829188580362555 ], [ 89.27579807179481, 26.827034527104214 ], [ 89.277380972216292, 26.822827428486377 ], [ 89.277920945898686, 26.819500347261808 ], [ 89.278154727910476, 26.816295610491185 ], [ 89.278305910424365, 26.812299485094197 ], [ 89.278249699999961, 26.805992899999957 ], [ 89.277974909490766, 26.803294316656416 ], [ 89.277719249320143, 26.800914285056436 ], [ 89.277532, 26.799162 ], [ 89.27595688642478, 26.796778464294839 ], [ 89.274559127896836, 26.794654416109058 ], [ 89.2735291, 26.793083899999985 ], [ 89.272519103668103, 26.792123488269752 ], [ 89.274325849808704, 26.792069069905271 ], [ 89.279105037139033, 26.792157999536307 ], [ 89.2845218735565, 26.79234744341538 ], [ 89.289357974797213, 26.792555012558143 ], [ 89.291564060936224, 26.792664497307854 ], [ 89.29618922105459, 26.792932848574928 ], [ 89.298307930350944, 26.793003550394349 ], [ 89.298823145032799, 26.795924871160885 ], [ 89.299785098814056, 26.797258404013206 ], [ 89.303739767026869, 26.796169963491316 ], [ 89.307939261840986, 26.797736947775423 ], [ 89.310431941668952, 26.799178329856314 ], [ 89.311650161840973, 26.79985279007208 ], [ 89.313005453992545, 26.80151354097217 ], [ 89.315942335276048, 26.804644813339699 ], [ 89.315427318284776, 26.802085319620865 ], [ 89.313101508032389, 26.797294109678564 ], [ 89.310194578725955, 26.790728490656239 ], [ 89.307376935076803, 26.785374901975249 ], [ 89.304394446650448, 26.782854376839087 ], [ 89.306185070002797, 26.782665896813455 ], [ 89.308826283542842, 26.781816009842611 ], [ 89.314556099999976, 26.780479900000024 ], [ 89.317182985278606, 26.780429874129112 ] ] ] } },
{ "type": "Feature", "properties": { "id": "352", "beat": "Bhagatjote Beat", "range": "Lankapara", "division": "Jaldapara" }, "geometry": { "type": "Polygon", "coordinates": [ [ [ 89.298307930350944, 26.793003550394349 ], [ 89.29618922105459, 26.792932848574928 ], [ 89.291564060936224, 26.792664497307854 ], [ 89.289357974797213, 26.792555012558143 ], [ 89.2845218735565, 26.79234744341538 ], [ 89.279105037139033, 26.792157999536307 ], [ 89.274325849808704, 26.792069069905271 ], [ 89.272519103668103, 26.792123488269752 ], [ 89.270183794656504, 26.792031860602698 ], [ 89.269373091988484, 26.790138944433643 ], [ 89.269147, 26.786398 ], [ 89.267302721546372, 26.78383465272222 ], [ 89.265075, 26.780717 ], [ 89.263180575319439, 26.779044925921884 ], [ 89.261984799999965, 26.777989500000025 ], [ 89.261119622306126, 26.777026388573415 ], [ 89.2576075, 26.776763500000015 ], [ 89.254332267861514, 26.777098670249082 ], [ 89.254855262602092, 26.774707266015511 ], [ 89.256730239241378, 26.770773161846144 ], [ 89.257471900196506, 26.767796280596016 ], [ 89.257777541272603, 26.766532706582062 ], [ 89.258487896215655, 26.763543894075774 ], [ 89.259347135762013, 26.760315565509522 ], [ 89.260401105804888, 26.75667671939798 ], [ 89.260811940553779, 26.755044035312363 ], [ 89.262248751303446, 26.752085803103746 ], [ 89.266043268299356, 26.749500221390569 ], [ 89.267732508626707, 26.748367414577061 ], [ 89.268502645465531, 26.746438740467486 ], [ 89.270749446634653, 26.747151990394517 ], [ 89.272864715417811, 26.74781443220952 ], [ 89.274529934929959, 26.748323687607993 ], [ 89.276814253154924, 26.748952806086727 ], [ 89.279903807595119, 26.749854843649061 ], [ 89.280685657783721, 26.751233926494049 ], [ 89.28197244541829, 26.753742533367301 ], [ 89.283461663383335, 26.756713739090536 ], [ 89.284537845728963, 26.758856595999607 ], [ 89.285732902329485, 26.760026302818211 ], [ 89.286116990299547, 26.76366512293508 ], [ 89.287493995128997, 26.76915642788255 ], [ 89.289268280239739, 26.772497414415135 ], [ 89.290075818733058, 26.774146487493137 ], [ 89.291448963853071, 26.776887423794619 ], [ 89.292211760947794, 26.778577841984045 ], [ 89.292980749682272, 26.780449863215765 ], [ 89.295138774546757, 26.782825310817319 ], [ 89.2966564970626, 26.784540659645188 ], [ 89.297815127224197, 26.789320221307548 ], [ 89.298256391403527, 26.791054898029635 ], [ 89.298307930350944, 26.793003550394349 ] ] ] } },
{ "type": "Feature", "properties": { "id": "367", "beat": "North Khairbari Beat", "range": "Madarihat", "division": "Jaldapara" }, "geometry": { "type": "Polygon", "coordinates": [ [ [ 89.233477512111648, 26.645590780796972 ], [ 89.234471597179862, 26.64771136941501 ], [ 89.234903138489486, 26.649042733817467 ], [ 89.233811914150593, 26.650449944098302 ], [ 89.234669732461114, 26.652866112170319 ], [ 89.232656433373933, 26.653315931294756 ], [ 89.233739533382362, 26.6546402022846 ], [ 89.233940597732513, 26.655931118882751 ], [ 89.233670315061602, 26.657334804110981 ], [ 89.233002150000019, 26.6586792 ], [ 89.234216102190601, 26.659730188439294 ], [ 89.23562876340705, 26.659851103710157 ], [ 89.237818940358324, 26.659477785165013 ], [ 89.239442682206231, 26.660560377520596 ], [ 89.240403415579621, 26.662211592741418 ], [ 89.241386678929118, 26.664725829633433 ], [ 89.242585177042585, 26.666083396275113 ], [ 89.243817828562371, 26.667419796903406 ], [ 89.244708901256843, 26.668589111224687 ], [ 89.246108211044799, 26.669693236294549 ], [ 89.248243883878942, 26.669544970765806 ], [ 89.248359683569845, 26.671083297180413 ], [ 89.24869531698512, 26.672545786822514 ], [ 89.25072892869872, 26.673993342389661 ], [ 89.252287604580061, 26.675170386706963 ], [ 89.254105460294824, 26.676592516966117 ], [ 89.255964553525914, 26.678657499427587 ], [ 89.2572, 26.681748 ], [ 89.259454, 26.685632 ], [ 89.26304958113559, 26.688691557150605 ], [ 89.263562036447368, 26.691390158572663 ], [ 89.262520126603718, 26.695242554344116 ], [ 89.260253332155045, 26.695737440286297 ], [ 89.257402011606132, 26.696930981889803 ], [ 89.255438, 26.69756 ], [ 89.254252670650914, 26.696818969488493 ], [ 89.252841370377013, 26.695513746403503 ], [ 89.252531386638523, 26.692636808493024 ], [ 89.252011578560428, 26.691441024292299 ], [ 89.250433556486442, 26.690664099606646 ], [ 89.248719219995095, 26.689638209118442 ], [ 89.24654788117914, 26.688819000661638 ], [ 89.244243152219909, 26.688004708405881 ], [ 89.241299613389984, 26.687322485521385 ], [ 89.238938905618767, 26.68556098537999 ], [ 89.239628841398201, 26.684439012995302 ], [ 89.238999561428656, 26.682744593418033 ], [ 89.238607055498321, 26.679898878228851 ], [ 89.240568898303508, 26.678194839162465 ], [ 89.240013922321978, 26.675346206310728 ], [ 89.238667579221243, 26.672334593888884 ], [ 89.238206291120449, 26.670773505209404 ], [ 89.236490360193145, 26.670707218711247 ], [ 89.234292846354521, 26.670017668374506 ], [ 89.232303442312485, 26.669159237054078 ], [ 89.23129553778918, 26.667791041378123 ], [ 89.231233164820068, 26.666026545340131 ], [ 89.229727685398416, 26.663171821800972 ], [ 89.228235895930368, 26.661563621252775 ], [ 89.227429010129526, 26.660306445456065 ], [ 89.226799416404376, 26.659010345388882 ], [ 89.22564770095461, 26.657481610073656 ], [ 89.223517117298613, 26.657023283114782 ], [ 89.22348875435685, 26.655372898523392 ], [ 89.224381059432361, 26.654133350699365 ], [ 89.223988134729993, 26.652662787329533 ], [ 89.222068098492429, 26.65197634617779 ], [ 89.220684013729539, 26.651182154076285 ], [ 89.219185743322598, 26.650642502608861 ], [ 89.217847454331064, 26.649441810962841 ], [ 89.217175227112463, 26.647721185952282 ], [ 89.217273214410028, 26.64589769176499 ], [ 89.215658314768731, 26.645118882406564 ], [ 89.216810518393501, 26.644090639634658 ], [ 89.215961262147815, 26.642323596012478 ], [ 89.214462094290582, 26.642006653224641 ], [ 89.213316459973754, 26.640681549548432 ], [ 89.212640293191185, 26.639205908857459 ], [ 89.211675587053108, 26.637616155035364 ], [ 89.214217043678161, 26.636749344458892 ], [ 89.216066760295988, 26.636281985285752 ], [ 89.218318262860464, 26.635800806291236 ], [ 89.219569628891534, 26.636247253989513 ], [ 89.220875976461656, 26.636830955217931 ], [ 89.222219268186521, 26.637553044062383 ], [ 89.223533285481594, 26.638383139869941 ], [ 89.224649706285746, 26.639300793260016 ], [ 89.225686975118705, 26.640385360248501 ], [ 89.226504506015729, 26.641463794376101 ], [ 89.227395631990788, 26.64272670044187 ], [ 89.228653968697259, 26.644354077246472 ], [ 89.230913371201382, 26.645472134785912 ], [ 89.233477512111648, 26.645590780796972 ] ] ] } },
{ "type": "Feature", "properties": { "id": "382", "beat": "Dhumchi Beat", "range": "Madarihat", "division": "Jaldapara" }, "geometry": { "type": "Polygon", "coordinates": [ [ [ 89.231753138224406, 26.721629887561164 ], [ 89.231452998892621, 26.723536150224973 ], [ 89.23032242870768, 26.724244889115038 ], [ 89.22803646616363, 26.726203681032594 ], [ 89.226733596315526, 26.728174158627731 ], [ 89.225983063029432, 26.731146381472907 ], [ 89.223070786576372, 26.732674308820307 ], [ 89.22127160976261, 26.736261400016208 ], [ 89.220941840496948, 26.739085353551399 ], [ 89.211071680651244, 26.740366147560561 ], [ 89.205167766069579, 26.740987335349235 ], [ 89.194694533400906, 26.742758016056449 ], [ 89.192171897508189, 26.742782730712992 ], [ 89.191984331928765, 26.741317633662646 ], [ 89.192708673406585, 26.739329405866378 ], [ 89.192946112580515, 26.737368391247511 ], [ 89.192299218231042, 26.735703230923839 ], [ 89.191509970585145, 26.734551712512015 ], [ 89.1902733, 26.733499400000042 ], [ 89.190050113013427, 26.731430949840622 ], [ 89.190612175439711, 26.730062478055576 ], [ 89.191264532314193, 26.728840443371819 ], [ 89.191950191362665, 26.72730702144052 ], [ 89.192758964786634, 26.72491234322613 ], [ 89.193552551001588, 26.72261004994451 ], [ 89.193243792459128, 26.720981491041844 ], [ 89.192861530767843, 26.718904042107276 ], [ 89.192511886268534, 26.717405217713612 ], [ 89.19233483057657, 26.715633819141519 ], [ 89.19355513958125, 26.714251835913664 ], [ 89.195242190530237, 26.711982124444404 ], [ 89.195200158722514, 26.70898475054803 ], [ 89.198691294938627, 26.708649575805669 ], [ 89.199938212130803, 26.707699845215409 ], [ 89.201724114851345, 26.705589732752248 ], [ 89.203746178437967, 26.703077912721344 ], [ 89.204625744428768, 26.701903094578753 ], [ 89.205454021575903, 26.700374465238401 ], [ 89.20657967324226, 26.697731158158337 ], [ 89.207803521032758, 26.698455873351438 ], [ 89.208951238863932, 26.699138776771917 ], [ 89.210593708079315, 26.699900521284629 ], [ 89.212043174202535, 26.701181594201799 ], [ 89.213705677860389, 26.702297100772824 ], [ 89.215757970642414, 26.703606539624751 ], [ 89.217030102192382, 26.704782240638718 ], [ 89.217884996353177, 26.705760041738007 ], [ 89.219807995810982, 26.707776616640448 ], [ 89.221046003536287, 26.708524769202217 ], [ 89.222908766197747, 26.709647771404914 ], [ 89.225221170334095, 26.711487095461887 ], [ 89.226229590030727, 26.71279577601701 ], [ 89.226766179818355, 26.715354320344257 ], [ 89.227991533784646, 26.718280160306211 ], [ 89.228273159856357, 26.719635164165638 ], [ 89.230129399354297, 26.720487549106046 ], [ 89.231868148990472, 26.71993151076774 ], [ 89.231753138224406, 26.721629887561164 ] ] ] } },
{ "type": "Feature", "properties": { "id": "397", "beat": "South Khairbari Beat", "range": "Madarihat", "division": "Jaldapara" }, "geometry": { "type": "Polygon", "coordinates": [ [ [ 89.211675587053108, 26.637616155035364 ], [ 89.210524044106677, 26.636863633593137 ], [ 89.208330141991055, 26.635035957683854 ], [ 89.207438959743598, 26.63309894379519 ], [ 89.20823066532158, 26.630877540977142 ], [ 89.206948473499622, 26.62961643379748 ], [ 89.205671868616037, 26.628584735342102 ], [ 89.204488493326281, 26.627026432276494 ], [ 89.204821811686216, 26.624736953057575 ], [ 89.203715791791694, 26.622737565860614 ], [ 89.203161998341486, 26.621135399673783 ], [ 89.204235622462747, 26.620345132502525 ], [ 89.206056608433371, 26.620086729330332 ], [ 89.205364626352676, 26.618934233613249 ], [ 89.204688058264367, 26.616043301408336 ], [ 89.20479854800368, 26.613885012567621 ], [ 89.201546395688766, 26.613977260524894 ], [ 89.198471756354522, 26.613348948134956 ], [ 89.196438215871225, 26.613759290716114 ], [ 89.195005470423439, 26.611174905807903 ], [ 89.193947198736353, 26.607588771757122 ], [ 89.194830915594892, 26.605946338826662 ], [ 89.196724609826006, 26.604261197485084 ], [ 89.194149394208722, 26.60345207813392 ], [ 89.191546453756558, 26.60298723848679 ], [ 89.190309221471495, 26.600448428313321 ], [ 89.19007978202805, 26.598084212776023 ], [ 89.192391498887048, 26.597067391720579 ], [ 89.193787104706402, 26.59633205858886 ], [ 89.195122654171655, 26.59528347724142 ], [ 89.19587672730367, 26.594133608040675 ], [ 89.196519369147509, 26.592988678836608 ], [ 89.19563925267714, 26.59157859053715 ], [ 89.194445813808784, 26.590717628699327 ], [ 89.19313140762506, 26.589531695991646 ], [ 89.192504527962399, 26.587892921912097 ], [ 89.19339394174591, 26.586788906271501 ], [ 89.19468722579083, 26.586837966921532 ], [ 89.196494817181531, 26.586617253258808 ], [ 89.198413939502501, 26.586443996887247 ], [ 89.199350864274763, 26.5874727022453 ], [ 89.199364767456558, 26.588933751145298 ], [ 89.198957075122621, 26.590872973803663 ], [ 89.1991822693752, 26.592331023915687 ], [ 89.200444978168733, 26.593687349684007 ], [ 89.201292042365026, 26.595687728774113 ], [ 89.202878439204341, 26.596701239526769 ], [ 89.204747522391415, 26.597295906675271 ], [ 89.206977230294257, 26.596865425302678 ], [ 89.208173561414384, 26.598591820567023 ], [ 89.209457098276957, 26.600105564298364 ], [ 89.210094541290886, 26.601458001539051 ], [ 89.210586204081011, 26.603180490611493 ], [ 89.21121471580642, 26.60485982748683 ], [ 89.212593833442867, 26.606309488873585 ], [ 89.212708497941918, 26.608321308886566 ], [ 89.212087263898866, 26.609514186739862 ], [ 89.211464754186565, 26.610629341815788 ], [ 89.212398477320306, 26.611537136321399 ], [ 89.214177809657514, 26.612433021889796 ], [ 89.215216352910417, 26.61420331029775 ], [ 89.215804134780441, 26.616139305499679 ], [ 89.216480594026294, 26.617961984758669 ], [ 89.217445625559208, 26.619870834327035 ], [ 89.21851131332258, 26.622651413147917 ], [ 89.220083381172245, 26.622802929921889 ], [ 89.221608230877152, 26.623509653179049 ], [ 89.221729462045374, 26.625295708376566 ], [ 89.220728419912717, 26.62660045603155 ], [ 89.220931530526727, 26.62801908765741 ], [ 89.222770280486586, 26.628042493620178 ], [ 89.225304857697708, 26.628064438555914 ], [ 89.227096153461872, 26.629845954745594 ], [ 89.22725320580092, 26.632191867372772 ], [ 89.227225326231604, 26.634523135656433 ], [ 89.228552, 26.635496 ], [ 89.228738221836835, 26.637443085203209 ], [ 89.229586598156885, 26.639304210500551 ], [ 89.230369661688229, 26.640527587449274 ], [ 89.232794519997128, 26.640872512647277 ], [ 89.233198050234364, 26.642654168006434 ], [ 89.233477512111648, 26.645590780796972 ], [ 89.230913371201382, 26.645472134785912 ], [ 89.228653968697259, 26.644354077246472 ], [ 89.227395631990788, 26.64272670044187 ], [ 89.226504506015729, 26.641463794376101 ], [ 89.225686975118705, 26.640385360248501 ], [ 89.224649706285746, 26.639300793260016 ], [ 89.223533285481594, 26.638383139869941 ], [ 89.222219268186521, 26.637553044062383 ], [ 89.220875976461656, 26.636830955217931 ], [ 89.219569628891534, 26.636247253989513 ], [ 89.218318262860464, 26.635800806291236 ], [ 89.216066760295988, 26.636281985285752 ], [ 89.214217043678161, 26.636749344458892 ], [ 89.211675587053108, 26.637616155035364 ] ] ] } },
{ "type": "Feature", "properties": { "id": "412", "beat": "Titi Beat", "range": "Nilpara", "division": "Jaldapara" }, "geometry": { "type": "Polygon", "coordinates": [ [ [ 89.317182985278606, 26.780429874129112 ], [ 89.314556099999976, 26.780479900000024 ], [ 89.308826283542842, 26.781816009842611 ], [ 89.306185070002797, 26.782665896813455 ], [ 89.304394446650448, 26.782854376839087 ], [ 89.302619930954194, 26.782125923656068 ], [ 89.301466534341571, 26.781540993174861 ], [ 89.300023705550203, 26.780812227565669 ], [ 89.298948788446253, 26.779999823551741 ], [ 89.297847130570474, 26.778618144909753 ], [ 89.29710968497433, 26.775569944908543 ], [ 89.296868717768064, 26.772865753539403 ], [ 89.296616016680716, 26.770873610550343 ], [ 89.295849050866209, 26.768851152108734 ], [ 89.294231162122173, 26.765549735259945 ], [ 89.292474772730102, 26.761719761493367 ], [ 89.289730867553885, 26.758563313868493 ], [ 89.287994066756383, 26.759199519476422 ], [ 89.285732902329485, 26.760026302818211 ], [ 89.284537845728963, 26.758856595999607 ], [ 89.283461663383335, 26.756713739090536 ], [ 89.28197244541829, 26.753742533367301 ], [ 89.280685657783721, 26.751233926494049 ], [ 89.279903807595119, 26.749854843649061 ], [ 89.276814253154924, 26.748952806086727 ], [ 89.274529934929959, 26.748323687607993 ], [ 89.272864715417811, 26.74781443220952 ], [ 89.270749446634653, 26.747151990394517 ], [ 89.268502645465531, 26.746438740467486 ], [ 89.269625434499545, 26.745037940510656 ], [ 89.27167691195271, 26.744265753876732 ], [ 89.273938517423076, 26.743916539110117 ], [ 89.27519167376542, 26.742892665777422 ], [ 89.277008771945077, 26.741694549738597 ], [ 89.284087138708728, 26.742379538055154 ], [ 89.290441600000023, 26.742859 ], [ 89.29379365, 26.743787549999968 ], [ 89.30194795721647, 26.744573909325801 ], [ 89.303258496784622, 26.745145726869783 ], [ 89.305172463431134, 26.745624247539361 ], [ 89.308444153758316, 26.745591518506899 ], [ 89.308787585052301, 26.747163675572764 ], [ 89.308723389605305, 26.750148878548512 ], [ 89.309952711675308, 26.752100045144982 ], [ 89.310684287695608, 26.753311008132822 ], [ 89.310725765502042, 26.754732614939584 ], [ 89.310728436584057, 26.756455542970052 ], [ 89.31076652083182, 26.758847380657251 ], [ 89.31116157181485, 26.76062236410565 ], [ 89.311803706343341, 26.762447042087782 ], [ 89.313095217820305, 26.766033655127501 ], [ 89.313991020558333, 26.769167570141665 ], [ 89.315413348445972, 26.774457394710442 ], [ 89.316574458382803, 26.778666637851416 ], [ 89.317182985278606, 26.780429874129112 ] ] ] } },
{ "type": "Feature", "properties": { "id": "427", "beat": "Nilpara", "range": "Nilpara", "division": "Jaldapara" }, "geometry": { "type": "Polygon", "coordinates": [ [ [ 89.337175599893271, 26.777139752155048 ], [ 89.335142210675471, 26.777128396981624 ], [ 89.333689863278465, 26.777266443511387 ], [ 89.326947762515005, 26.778437534407644 ], [ 89.325820768618044, 26.779139412694423 ], [ 89.321008449121109, 26.779446602426653 ], [ 89.319238505311546, 26.779735015205645 ], [ 89.317182985278606, 26.780429874129112 ], [ 89.316574458382803, 26.778666637851416 ], [ 89.315413348445972, 26.774457394710442 ], [ 89.313991020558333, 26.769167570141665 ], [ 89.313095217820305, 26.766033655127501 ], [ 89.311803706343341, 26.762447042087782 ], [ 89.31116157181485, 26.76062236410565 ], [ 89.31076652083182, 26.758847380657251 ], [ 89.310728436584057, 26.756455542970052 ], [ 89.310725765502042, 26.754732614939584 ], [ 89.310684287695608, 26.753311008132822 ], [ 89.309952711675308, 26.752100045144982 ], [ 89.308723389605305, 26.750148878548512 ], [ 89.308787585052301, 26.747163675572764 ], [ 89.308444153758316, 26.745591518506899 ], [ 89.311560617963863, 26.745479344294846 ], [ 89.314821997339493, 26.745342034207457 ], [ 89.317937369523548, 26.744034835286261 ], [ 89.319208657600925, 26.743595230705701 ], [ 89.320605699116825, 26.742973613744685 ], [ 89.324089631464062, 26.741381462621742 ], [ 89.327946998342512, 26.739502385425233 ], [ 89.328690404609631, 26.741524248631514 ], [ 89.329072784421086, 26.743998990210198 ], [ 89.329072656971221, 26.746459191158049 ], [ 89.329246560402254, 26.748329229835559 ], [ 89.33040479771924, 26.750513932312796 ], [ 89.331309798947245, 26.751963004146166 ], [ 89.332116970310139, 26.753546122832265 ], [ 89.332708528567196, 26.75607435815656 ], [ 89.332760282354315, 26.75735359391939 ], [ 89.33309887266708, 26.758867619777231 ], [ 89.333632046532486, 26.761054642906583 ], [ 89.335751739129222, 26.762862620491916 ], [ 89.336014695873516, 26.764419020420409 ], [ 89.335217682482948, 26.766513263712348 ], [ 89.335618103192246, 26.767974728917913 ], [ 89.336462210698627, 26.769491806333605 ], [ 89.336337790524908, 26.771142057798329 ], [ 89.336106213214336, 26.773038926890262 ], [ 89.336425604393881, 26.7746611901769 ], [ 89.337175599893271, 26.777139752155048 ] ] ] } },
{ "type": "Feature", "properties": { "id": "442", "beat": "Dalsingpara", "range": "Nilpara", "division": "Jaldapara" }, "geometry": { "type": "Polygon", "coordinates": [ [ [ 89.337175599893271, 26.777139752155048 ], [ 89.339878038837284, 26.786045501317528 ], [ 89.341707742651877, 26.791603227814591 ], [ 89.343777683741777, 26.794295888587431 ], [ 89.344202786829982, 26.798260165747482 ], [ 89.344390212015668, 26.801168203165997 ], [ 89.34433968918681, 26.803073919374391 ], [ 89.344754448041982, 26.807266586937388 ], [ 89.345742030758032, 26.810200574642355 ], [ 89.34899342142576, 26.813556474920556 ], [ 89.35017165662822, 26.816909616427591 ], [ 89.351327870193828, 26.820127960050392 ], [ 89.35278842575903, 26.822855809216232 ], [ 89.354502016564993, 26.824150121207772 ], [ 89.356000555216553, 26.82546956668163 ], [ 89.357036678575668, 26.826359098459999 ], [ 89.358260061150375, 26.834291716087392 ], [ 89.361233975071372, 26.837200786150188 ], [ 89.365726586843209, 26.842434308671496 ], [ 89.366980504210758, 26.843813192865255 ], [ 89.368997592296651, 26.846106009252139 ], [ 89.37111849999998, 26.849803799999965 ], [ 89.370270351973232, 26.851350806282241 ], [ 89.371483299999966, 26.853192300000021 ], [ 89.37193390000003, 26.855030100000025 ], [ 89.3725777, 26.85711670000001 ], [ 89.37272785, 26.858542849999971 ], [ 89.3728566, 26.860103 ], [ 89.371517658619908, 26.85916916717072 ], [ 89.368990959647462, 26.858750505927713 ], [ 89.365250166639754, 26.857413424692915 ], [ 89.360896898283201, 26.855741205713805 ], [ 89.359170012847571, 26.855096626564638 ], [ 89.349187318519782, 26.851270606215209 ], [ 89.346704758809977, 26.850335854323763 ], [ 89.345203642689853, 26.849804280121774 ], [ 89.343299872023152, 26.848002539515285 ], [ 89.341581979599454, 26.846385072131522 ], [ 89.339412643378665, 26.843941040064216 ], [ 89.338578850000061, 26.84273125 ], [ 89.337882684158288, 26.838490354472892 ], [ 89.336898322281385, 26.834007352246562 ], [ 89.336443445936709, 26.832112870522799 ], [ 89.334971103215452, 26.825881339615602 ], [ 89.334216293715841, 26.821369767439666 ], [ 89.333720019080673, 26.819261251812325 ], [ 89.331998, 26.812797 ], [ 89.329774298466702, 26.811031977193071 ], [ 89.326088, 26.808152 ], [ 89.3240833, 26.807678299999964 ], [ 89.321433666666636, 26.806019866666634 ], [ 89.321434459111671, 26.804159698346012 ], [ 89.322343948279212, 26.803159131543001 ], [ 89.321729577654793, 26.801818198868947 ], [ 89.320785164774264, 26.79989006262246 ], [ 89.320039976152444, 26.798332877049351 ], [ 89.319801771451139, 26.796980326258872 ], [ 89.319701540681763, 26.790306464614304 ], [ 89.318964253474746, 26.787435213986647 ], [ 89.318138845368523, 26.784434450568188 ], [ 89.317719185554779, 26.782904563302516 ], [ 89.317182985278606, 26.780429874129112 ], [ 89.319238505311546, 26.779735015205645 ], [ 89.321008449121109, 26.779446602426653 ], [ 89.325820768618044, 26.779139412694423 ], [ 89.326947762515005, 26.778437534407644 ], [ 89.333689863278465, 26.777266443511387 ], [ 89.335142210675471, 26.777128396981624 ], [ 89.337175599893271, 26.777139752155048 ] ] ] } }
]
}
