{"type":"FeatureCollection", "features": [
{"type":"Feature","geometry":{"type":"Polygon","coordinates":[[[89.3171829852786,26.780429874129112],[89.31455609999998,26.780479900000024],[89.30882628354284,26.78181600984261],[89.3061850700028,26.782665896813455],[89.30439444665045,26.782854376839087],[89.3026199309542,26.782125923656068],[89.30146653434157,26.78154099317486],[89.3000237055502,26.78081222756567],[89.29894878844625,26.77999982355174],[89.29784713057047,26.778618144909753],[89.29710968497433,26.775569944908543],[89.29686871776806,26.772865753539403],[89.29661601668072,26.770873610550343],[89.29584905086621,26.768851152108734],[89.29423116212217,26.765549735259945],[89.2924747727301,26.761719761493367],[89.28973086755389,26.758563313868493],[89.28799406675638,26.75919951947642],[89.28573290232949,26.76002630281821],[89.28453784572896,26.758856595999607],[89.28346166338333,26.756713739090536],[89.28197244541829,26.7537425333673],[89.28068565778372,26.75123392649405],[89.27990380759512,26.74985484364906],[89.27681425315492,26.748952806086727],[89.27452993492996,26.748323687607993],[89.27286471541781,26.74781443220952],[89.27074944663465,26.747151990394517],[89.26850264546553,26.746438740467486],[89.26962543449955,26.745037940510656],[89.27167691195271,26.744265753876732],[89.27393851742308,26.743916539110117],[89.27519167376542,26.742892665777422],[89.27700877194508,26.741694549738597],[89.28408713870873,26.742379538055154],[89.29044160000002,26.742859],[89.29379365,26.74378754999997],[89.30194795721647,26.7445739093258],[89.30325849678462,26.745145726869783],[89.30517246343113,26.74562424753936],[89.30844415375832,26.7455915185069],[89.3087875850523,26.747163675572764],[89.3087233896053,26.75014887854851],[89.30995271167531,26.75210004514498],[89.31068428769561,26.753311008132822],[89.31072576550204,26.754732614939584],[89.31072843658406,26.756455542970052],[89.31076652083182,26.75884738065725],[89.31116157181485,26.76062236410565],[89.31180370634334,26.762447042087782],[89.3130952178203,26.7660336551275],[89.31399102055833,26.769167570141665],[89.31541334844597,26.774457394710442],[89.3165744583828,26.778666637851416],[89.3171829852786,26.780429874129112]]]},"properties":{"id":"412","beat":"Titi Beat","range":"Nilpara","division":"Jaldapara"}},
{"type":"Feature","geometry":{"type":"Polygon","coordinates":[[[89.33717559989327,26.777139752155048],[89.33514221067547,26.777128396981624],[89.33368986327847,26.777266443511387],[89.326947762515,26.778437534407644],[89.32582076861804,26.779139412694423],[89.32100844912111,26.779446602426653],[89.31923850531155,26.779735015205645],[89.3171829852786,26.780429874129112],[89.3165744583828,26.778666637851416],[89.31541334844597,26.774457394710442],[89.31399102055833,26.769167570141665],[89.3130952178203,26.7660336551275],[89.31180370634334,26.762447042087782],[89.31116157181485,26.76062236410565],[89.31076652083182,26.75884738065725],[89.31072843658406,26.756455542970052],[89.31072576550204,26.754732614939584],[89.31068428769561,26.753311008132822],[89.30995271167531,26.75210004514498],[89.3087233896053,26.75014887854851],[89.3087875850523,26.747163675572764],[89.30844415375832,26.7455915185069],[89.31156061796386,26.745479344294846],[89.3148219973395,26.745342034207457],[89.31793736952355,26.74403483528626],[89.31920865760092,26.7435952307057],[89.32060569911683,26.742973613744685],[89.32408963146406,26.741381462621742],[89.32794699834251,26.739502385425233],[89.32869040460963,26.741524248631514],[89.32907278442109,26.743998990210198],[89.32907265697122,26.74645919115805],[89.32924656040225,26.74832922983556],[89.33040479771924,26.750513932312796],[89.33130979894725,26.751963004146166],[89.33211697031014,26.753546122832265],[89.3327085285672,26.75607435815656],[89.33276028235431,26.75735359391939],[89.33309887266708,26.75886761977723],[89.33363204653249,26.761054642906583],[89.33575173912922,26.762862620491916],[89.33601469587352,26.76441902042041],[89.33521768248295,26.766513263712348],[89.33561810319225,26.767974728917913],[89.33646221069863,26.769491806333605],[89.33633779052491,26.77114205779833],[89.33610621321434,26.773038926890262],[89.33642560439388,26.7746611901769],[89.33717559989327,26.777139752155048]]]},"properties":{"id":"427","beat":"Nilpara","range":"Nilpara","division":"Jaldapara"}},
{"type":"Feature","geometry":{"type":"Polygon","coordinates":[[[89.33717559989327,26.777139752155048],[89.33987803883728,26.786045501317528],[89.34170774265188,26.79160322781459],[89.34377768374178,26.79429588858743],[89.34420278682998,26.798260165747482],[89.34439021201567,26.801168203165997],[89.34433968918681,26.80307391937439],[89.34475444804198,26.807266586937388],[89.34574203075803,26.810200574642355],[89.34899342142576,26.813556474920556],[89.35017165662822,26.81690961642759],[89.35132787019383,26.820127960050392],[89.35278842575903,26.822855809216232],[89.354502016565,26.824150121207772],[89.35600055521655,26.82546956668163],[89.35703667857567,26.82635909846],[89.35826006115038,26.834291716087392],[89.36123397507137,26.837200786150188],[89.36572658684321,26.842434308671496],[89.36698050421076,26.843813192865255],[89.36899759229665,26.84610600925214],[89.37111849999998,26.849803799999965],[89.37027035197323,26.85135080628224],[89.37148329999997,26.85319230000002],[89.37193390000003,26.855030100000025],[89.3725777,26.85711670000001],[89.37272785,26.85854284999997],[89.3728566,26.860103],[89.37151765861991,26.85916916717072],[89.36899095964746,26.858750505927713],[89.36525016663975,26.857413424692915],[89.3608968982832,26.855741205713805],[89.35917001284757,26.855096626564638],[89.34918731851978,26.85127060621521],[89.34670475880998,26.850335854323763],[89.34520364268985,26.849804280121774],[89.34329987202315,26.848002539515285],[89.34158197959945,26.846385072131522],[89.33941264337867,26.843941040064216],[89.33857885000006,26.84273125],[89.33788268415829,26.838490354472892],[89.33689832228139,26.834007352246562],[89.33644344593671,26.8321128705228],[89.33497110321545,26.825881339615602],[89.33421629371584,26.821369767439666],[89.33372001908067,26.819261251812325],[89.331998,26.812797],[89.3297742984667,26.81103197719307],[89.326088,26.808152],[89.3240833,26.807678299999964],[89.32143366666664,26.806019866666634],[89.32143445911167,26.804159698346012],[89.32234394827921,26.803159131543],[89.32172957765479,26.801818198868947],[89.32078516477426,26.79989006262246],[89.32003997615244,26.79833287704935],[89.31980177145114,26.796980326258872],[89.31970154068176,26.790306464614304],[89.31896425347475,26.787435213986647],[89.31813884536852,26.784434450568188],[89.31771918555478,26.782904563302516],[89.3171829852786,26.780429874129112],[89.31923850531155,26.779735015205645],[89.32100844912111,26.779446602426653],[89.32582076861804,26.779139412694423],[89.326947762515,26.778437534407644],[89.33368986327847,26.777266443511387],[89.33514221067547,26.777128396981624],[89.33717559989327,26.777139752155048]]]},"properties":{"id":"442","beat":"Dalsingpara","range":"Nilpara","division":"Jaldapara"}}
]}