{"type":"FeatureCollection", "features": [
{"type":"Feature","geometry":{"type":"Polygon","coordinates":[[[89.8670381474732,26.5789942828367],[89.8660292505337,26.579374983955],[89.8642208539843,26.5798127696284],[89.8633642390021,26.5800982835219],[89.8625076298967,26.580555127752],[89.8612512593842,26.58110713439],[89.8603185027393,26.5814687969505],[89.8597859946395,26.5818541873457],[89.85978802128,26.5807471852106],[89.8597900603857,26.5791221820582],[89.8597271108459,26.577031176726],[89.85927816634,26.574766163543],[89.8588922160827,26.5727341520442],[89.8582482398796,26.5718041376911],[89.8571502618884,26.5709901147356],[89.8554692712344,26.5707560815793],[89.85391828169,26.5704640508388],[89.8528852937907,26.570056029947],[89.8520463249935,26.5688360112386],[89.851141349366,26.5679059918159],[89.8505603660455,26.5672659792633],[89.8501733710876,26.5670919713964],[89.849461376874,26.5669169572071],[89.8490093722963,26.5671489488708],[89.8479093719692,26.5672639277036],[89.8458593750977,26.5673228879518],[89.8459143766832,26.5672518888827],[89.8477334083127,26.5657689213564],[89.8484414052039,26.5658329352499],[89.8497214039543,26.5657669600124],[89.8510794139564,26.5652259853619],[89.8540174448479,26.5636710394484],[89.8562054660047,26.562590079876],[89.8577114821787,26.5617791075695],[89.8587694944859,26.561170126947],[89.8596724924691,26.5611711445078],[89.8613284904031,26.5611051765796],[89.8632894941834,26.5607682140496],[89.8659264980898,26.5603642645326],[89.8675084978305,26.5602302950318],[89.8695215046088,26.559764333258],[89.8703404791242,26.5607493511256],[89.8694444287431,26.5629263379915],[89.8692523933318,26.5644163371933],[89.8693123435575,26.5664803424271],[89.8685982656754,26.5697833350461],[89.8685422597844,26.5700333344492],[89.8687552419702,26.5707543400129],[89.8693212161126,26.5717773530388],[89.8692572010958,26.572407353035],[89.8695101922623,26.5727513586347],[89.8691281779204,26.5733823524464],[89.8689221762083,26.573472348616],[89.8708321085025,26.5761113909766],[89.8718552591121,26.5772391431081],[89.8702361683772,26.5778331627757],[89.8685039075303,26.5784422802701],[89.8670381474732,26.5789942828367]]]},"properties":{"compartment":"N Bholka BL4"},"id":"comptt.29"}
]}