{"type":"FeatureCollection", "features": [
{"type":"Feature","geometry":{"type":"Polygon","coordinates":[[[89.41010503151706,26.595122400517372],[89.40705280875967,26.595170566938712],[89.40545613302511,26.59524393189229],[89.40276569979123,26.595400910013282],[89.39890031921081,26.595590228116787],[89.39533386709486,26.595556586394757],[89.38499401622246,26.595674170914744],[89.3829066942743,26.595652652622352],[89.37857138131767,26.595642045824246],[89.37327600911338,26.595569442489523],[89.37103192543424,26.595467505295638],[89.3687892810769,26.59472343109072],[89.36883114948911,26.58908142149467],[89.36889914642394,26.583828045540596],[89.36898810027277,26.577400556235446],[89.36905544443776,26.57248881686866],[89.3690192124408,26.570152049848154],[89.37164180458542,26.569569427271038],[89.37313478471322,26.569568946524395],[89.37522181952724,26.569535871250764],[89.37623113473369,26.56857504181022],[89.378045826093,26.568353636668444],[89.38105256454143,26.568313707455175],[89.38161125640781,26.56682408634347],[89.38147963913038,26.56333006453763],[89.38124292348516,26.556751932421722],[89.3810882407048,26.55249456374839],[89.38093394186753,26.54824318087802],[89.38086505603245,26.546538796180734],[89.3848358104491,26.54608765800636],[89.39310660169262,26.549139819774307],[89.40400080282183,26.553129818111014],[89.40558995629776,26.553549955534976],[89.40643525067918,26.551882071880943],[89.40841762231696,26.551306409941315],[89.41018630749198,26.551344162278216],[89.40932541503938,26.54958600028276],[89.41006608987071,26.547803570051702],[89.41164868017556,26.54613959167901],[89.41402025580707,26.545973919072534],[89.4157966755772,26.54639939075362],[89.41481333053999,26.54740995473323],[89.41464932166008,26.54882476588955],[89.41546763060104,26.550091014459458],[89.41628184136235,26.551119376724312],[89.41796949248449,26.551695632844023],[89.41759710753361,26.553712344769036],[89.41952391228146,26.55527084183546],[89.41879912303382,26.556777555353143],[89.4167785657518,26.557127663791917],[89.41490656338365,26.557068560453516],[89.41315953575584,26.557831432300098],[89.41321933693399,26.559249323196614],[89.41401081125669,26.560290474623375],[89.41461718728137,26.56214211572098],[89.41300046858645,26.5625644738157],[89.4114387384162,26.562407700014205],[89.41142873885964,26.564524263750393],[89.41214720325215,26.566243417828954],[89.41103722490372,26.567700400464293],[89.41093453465568,26.569998914555352],[89.41057284482444,26.57130001002716],[89.4091801267251,26.5728074452693],[89.4093254864181,26.57469515630852],[89.40855605016534,26.57632853580853],[89.40806020327362,26.577780916705677],[89.40950106115783,26.57893804798918],[89.41102139170061,26.579633456915445],[89.41218258008055,26.580992868163815],[89.41317421739637,26.58339540180074],[89.41330849955261,26.5852235954016],[89.41354373683266,26.586585419025603],[89.41458674964656,26.587909377695322],[89.4149287847969,26.589775247847395],[89.41356952237979,26.59116988128653],[89.41238283556058,26.592848704686382],[89.41214547198689,26.594797980882305],[89.41010503151706,26.595122400517372]]]},"properties":{"id":"7","beat":"Bania Beat","range":"Chilapata","division":"Jaldapara"}},
{"type":"Feature","geometry":{"type":"Polygon","coordinates":[[[89.41010503151706,26.595122400517372],[89.41050258178647,26.59701901301145],[89.41019930663144,26.59891393674653],[89.40998922589996,26.60043235384863],[89.4095905274212,26.602798761931005],[89.40903554022988,26.604213048881846],[89.40792782649208,26.605477167750717],[89.40679982846207,26.606475611460827],[89.40575859209197,26.607230123677976],[89.40352337662654,26.608337894514282],[89.40184904654325,26.609108848688116],[89.40081025119049,26.610372014542964],[89.40077954106717,26.612114530600543],[89.40135158827134,26.61393845501862],[89.402355367626,26.614837735183887],[89.40303062712819,26.61602868123633],[89.40304677710385,26.61813770202989],[89.40178868796121,26.619912996000565],[89.40316760937479,26.62215619133787],[89.40446419029752,26.6239087620919],[89.403941676702,26.62594564260549],[89.403207607375,26.628524544240932],[89.4023107767321,26.630157061252728],[89.40219293933119,26.631710388498046],[89.40199404896647,26.633170728379067],[89.40193708968687,26.63471129855583],[89.40141405659395,26.63660413025645],[89.39985660068118,26.638137157807932],[89.39833867052351,26.63991930865314],[89.39666915688996,26.64153611650554],[89.39481943043617,26.64374257993502],[89.39364925993381,26.644985874901998],[89.39231982279051,26.646334156216593],[89.39128120104314,26.647368007767362],[89.3914545344728,26.644187391423106],[89.39054,26.642746],[89.39086838596289,26.639987541411607],[89.39148373340487,26.63676646923933],[89.39119413675795,26.634225082944944],[89.38905504724522,26.633932522865138],[89.38630586919237,26.63363142034622],[89.38040839578062,26.633274079997797],[89.38156613457123,26.631124571436075],[89.38456398141754,26.625783182213596],[89.38604510788933,26.623055400201594],[89.38500708752153,26.619402123491735],[89.38361940474529,26.61457676194158],[89.38314730016577,26.6128411621854],[89.38139571676115,26.612692010524867],[89.37875341137465,26.61215636790714],[89.37772750000005,26.610167],[89.377699,26.608869],[89.37578763257441,26.608014866250944],[89.37737,26.60672050000005],[89.37562416599059,26.60585627826401],[89.37540971936285,26.60457186442801],[89.37524984291565,26.602622247467604],[89.37373137364204,26.601525587292045],[89.37274567189525,26.600484516306803],[89.37238513354416,26.59870634363805],[89.3718974909138,26.59682979031909],[89.37103192543424,26.595467505295638],[89.37327600911338,26.595569442489523],[89.37857138131767,26.595642045824246],[89.3829066942743,26.595652652622352],[89.38499401622246,26.595674170914744],[89.39533386709486,26.595556586394757],[89.39890031921081,26.595590228116787],[89.40276569979123,26.595400910013282],[89.40545613302511,26.59524393189229],[89.40705280875967,26.595170566938712],[89.41010503151706,26.595122400517372]]]},"properties":{"id":"22","beat":"Mendabari Beat","range":"Chilapata","division":"Jaldapara"}},
{"type":"Feature","geometry":{"type":"Polygon","coordinates":[[[89.38086505603245,26.546538796180734],[89.38093394186753,26.54824318087802],[89.3810882407048,26.55249456374839],[89.38124292348516,26.556751932421722],[89.38147963913038,26.56333006453763],[89.38161125640781,26.56682408634347],[89.38105256454143,26.568313707455175],[89.378045826093,26.568353636668444],[89.37623113473369,26.56857504181022],[89.37522181952724,26.569535871250764],[89.37313478471322,26.569568946524395],[89.37164180458542,26.569569427271038],[89.3690192124408,26.570152049848154],[89.36905544443776,26.57248881686866],[89.36898810027277,26.577400556235446],[89.36889914642394,26.583828045540596],[89.36883114948911,26.58908142149467],[89.3687892810769,26.59472343109072],[89.36691510934283,26.595350922930276],[89.36482941882947,26.59526732197372],[89.3621193217738,26.595196647275536],[89.35994992751375,26.59518118434238],[89.3572814256724,26.595039886437714],[89.35496972184376,26.59490964023829],[89.35249807624606,26.594830266267692],[89.3504542431163,26.594265303590074],[89.35081905246126,26.592726522669345],[89.35266431885738,26.591239648847235],[89.35290066354565,26.58912391569323],[89.35313092587477,26.586957027359396],[89.35336617796919,26.585547558615634],[89.35297158098575,26.583955977594435],[89.3531975383606,26.58216420709322],[89.35310915461868,26.58063994728507],[89.35326416970761,26.57869895794657],[89.35411873232394,26.576300731471118],[89.35429465202239,26.57439431810528],[89.35385002212166,26.572714867802897],[89.35375134713615,26.57122266381337],[89.35310492699651,26.57010143789415],[89.35341466194815,26.568739938535828],[89.35405899897891,26.56661896609415],[89.35384769999997,26.564089533333394],[89.35267455634424,26.5625787614768],[89.35325462667433,26.56065037362038],[89.35431480626342,26.55952361152262],[89.35365173429524,26.55793140950821],[89.35270297749696,26.55657329446272],[89.35199573156883,26.554903360260777],[89.35159758020167,26.553342672548467],[89.3512200957807,26.55185746515957],[89.34776122883815,26.553101504654723],[89.34751029664241,26.551671759693278],[89.34797985622679,26.550271796088058],[89.34768434305836,26.548497514146423],[89.3459104187463,26.546914433448958],[89.34484736397985,26.545871868290487],[89.34370430334882,26.5447482474709],[89.34247719757263,26.542142307879583],[89.34234188401538,26.5401197876625],[89.34478447530958,26.540896866306422],[89.3463877284831,26.541283471486558],[89.34782066436203,26.541603959844366],[89.3494111634399,26.542039571978197],[89.35213227158306,26.542649092726204],[89.35654124050137,26.54421792667349],[89.35660178748773,26.545889453754416],[89.35793743955597,26.54596731507039],[89.36245853587747,26.546692997372016],[89.36389708858783,26.546056658743115],[89.36516911560604,26.54610968770638],[89.36690631115931,26.546313136176895],[89.3683145489092,26.546386873616783],[89.36987211288184,26.546522493639728],[89.37133058402605,26.54656988153982],[89.37783674027358,26.54630471090326],[89.38086505603245,26.546538796180734]]]},"properties":{"id":"37","beat":"Chilapata Beat","range":"Chilapata","division":"Jaldapara"}}
]}