{"type":"FeatureCollection", "features": [
{"type":"Feature","geometry":{"type":"Polygon","coordinates":[[[89.26989747060048,26.567665870138672],[89.26775759999995,26.56728],[89.266309,26.567447],[89.26520870744444,26.568203476093625],[89.263552,26.569352],[89.26239131026301,26.57035322376044],[89.26074950000007,26.571807500000048],[89.25936366666666,26.572561],[89.257499,26.572919],[89.256201,26.574523499999973],[89.25459775,26.575638749999968],[89.25341311434208,26.578581658662063],[89.25215062735788,26.57733187491082],[89.25053749941688,26.575124670814436],[89.25070844583657,26.573007563794963],[89.25004975662601,26.57077796457194],[89.24990333330925,26.569209153959143],[89.249511889182,26.567878493490575],[89.24940795965631,26.566412186163017],[89.24934023879344,26.56456638875521],[89.25118834380699,26.56313856241858],[89.25118929495362,26.561175850352907],[89.25083972213982,26.559330074383595],[89.24971093551937,26.557503776196338],[89.24932117529058,26.555306932719517],[89.2492944669489,26.553335732543896],[89.24935032945996,26.550775855232793],[89.24903903828846,26.54841342620377],[89.24864292230053,26.546710124932453],[89.24813190010202,26.545529747632017],[89.24841536220994,26.54398601190601],[89.25035136613609,26.543131839910743],[89.25195836757511,26.542396256987193],[89.25343466213567,26.54148767152317],[89.25375292046878,26.54023586655069],[89.25402985738182,26.53858796247403],[89.25460742491101,26.536732392972244],[89.25609398141476,26.535535099077816],[89.25765,26.538194],[89.257788,26.539467],[89.25867878713117,26.54159622916418],[89.25974950000003,26.544372499999984],[89.26094325257584,26.546767910820172],[89.261721,26.548299],[89.2624235279407,26.55030876212629],[89.26459749484559,26.552766354267636],[89.265224,26.554151],[89.265086,26.555595],[89.2657814386819,26.556996773507883],[89.2666404907274,26.55859253492138],[89.26766633333337,26.560008],[89.26887982423918,26.561512783334155],[89.269556,26.563181],[89.2706458,26.564747400000048],[89.27062275000004,26.56617225],[89.26989747060048,26.567665870138672]]]},"properties":{"id":"187","beat":"Kunjanagar","range":"Jaldapara West","division":"Jaldapara"}},
{"type":"Feature","geometry":{"type":"Polygon","coordinates":[[[89.28112823082486,26.578556218074027],[89.28193545833965,26.579865548771846],[89.28221807566307,26.581337180629376],[89.28526283459364,26.586957171720897],[89.282614851865,26.587789181556857],[89.28407125150508,26.592051736996584],[89.2850359135897,26.595442267030027],[89.28594089927086,26.596703863578057],[89.28636856214095,26.598027756711755],[89.28489130336555,26.59827589018339],[89.28405192506544,26.599738633287277],[89.2857661283763,26.601008322147283],[89.28719144621756,26.60170315799916],[89.28692129315826,26.603005347279744],[89.28708018991277,26.60577350839021],[89.28659002971926,26.607616643044533],[89.28613012214484,26.609884582658065],[89.28745938903252,26.61137086042204],[89.28946026832045,26.61539730891213],[89.2905106644404,26.617368150927938],[89.2921204712138,26.619285607644542],[89.293984023576,26.622595054975566],[89.28774538640825,26.623473369402266],[89.284187,26.62463],[89.28233725987978,26.625887146084974],[89.28010494215276,26.62742295546358],[89.27828333333332,26.628346],[89.27694566666665,26.628597666666646],[89.27491337195954,26.628895865095796],[89.27437935390817,26.627575502191984],[89.27542114529972,26.626487982186557],[89.2759592954296,26.62461081561646],[89.27524323922239,26.622824217890344],[89.27630775074789,26.621520995191077],[89.27649596174659,26.61965738681839],[89.27557970785622,26.61760246192663],[89.27471141262612,26.61541016248669],[89.27422191458793,26.614076545051184],[89.27408998607882,26.612323438627243],[89.27315221375521,26.610591411741595],[89.27245764285317,26.609095181515478],[89.27216480698651,26.606444350127482],[89.27197230253314,26.604643911027186],[89.27219752084311,26.60230180468294],[89.2717986041015,26.601008175073197],[89.27145938716697,26.599547529614835],[89.27259089501065,26.598370905649197],[89.27186647484538,26.597304498987288],[89.27224293274578,26.595920029447033],[89.2721133244997,26.594499132759523],[89.27199027032147,26.592987781339332],[89.27076582303116,26.592101829962537],[89.272322,26.590729],[89.273676,26.590042],[89.27461355988358,26.588464336570798],[89.27558589357226,26.586533614766854],[89.276216,26.583748],[89.27580915045964,26.582020793204368],[89.275096,26.580569166666727],[89.27673,26.579929],[89.27822762506936,26.579458793286374],[89.28112823082486,26.578556218074027]]]},"properties":{"id":"202","beat":"TEC","range":"Jaldapara West","division":"Jaldapara"}},
{"type":"Feature","geometry":{"type":"Polygon","coordinates":[[[89.293984023576,26.622595054975566],[89.29598491544135,26.622418767825],[89.29702728438869,26.62463666199199],[89.30044799869731,26.624179230833526],[89.30083492247779,26.6258466486108],[89.30272791906908,26.633657096804335],[89.30119608456434,26.63421490291879],[89.30167140888352,26.635455726753314],[89.30251050523752,26.639584135820098],[89.30309872914738,26.642410127629372],[89.30348404503839,26.64408996560778],[89.30435574715226,26.646698741017786],[89.30561259125136,26.650084033553505],[89.30738702335368,26.65612486259458],[89.30033,26.658294],[89.2952355,26.658548],[89.29074995992784,26.658639208630223],[89.28578449999998,26.658734],[89.2803271672453,26.65918508531763],[89.2764478385402,26.659610013360872],[89.2755197210448,26.658461830647788],[89.27471663698128,26.65592430119758],[89.2747364510823,26.653690583396898],[89.2744056046247,26.651485901112164],[89.27468609476,26.648768145264416],[89.27469865068173,26.647391466773477],[89.27580544914606,26.645413824476353],[89.27714208664746,26.643791797027465],[89.27802596995765,26.64217437238942],[89.27743290551956,26.640174754923766],[89.27715268189836,26.63783965978687],[89.2766035503686,26.635979142486914],[89.27495046936541,26.63390596781702],[89.27465245622697,26.63133651427935],[89.27491337195954,26.628895865095796],[89.27694566666665,26.628597666666646],[89.27828333333332,26.628346],[89.28010494215276,26.62742295546358],[89.28233725987978,26.625887146084974],[89.284187,26.62463],[89.28774538640825,26.623473369402266],[89.293984023576,26.622595054975566]]]},"properties":{"id":"217","beat":"Hollong Beat","range":"Jaldapara West","division":"Jaldapara"}},
{"type":"Feature","geometry":{"type":"Polygon","coordinates":[[[89.27076582303116,26.592101829962537],[89.26866411522693,26.593025642554117],[89.26705545333745,26.593265222554933],[89.2657369435099,26.59151224564428],[89.26483699435452,26.59038822766399],[89.26354275322382,26.590327685037344],[89.26236124293688,26.588725205405154],[89.26012513774884,26.58844925547558],[89.25883303254068,26.587457707460775],[89.25767363498166,26.586208135127258],[89.25800084033283,26.584220636854898],[89.25744090180075,26.582144214829466],[89.2557002389023,26.579436792735216],[89.25341311434208,26.578581658662063],[89.25459775,26.575638749999968],[89.256201,26.574523499999973],[89.257499,26.572919],[89.25936366666666,26.572561],[89.26074950000007,26.571807500000048],[89.26239131026301,26.57035322376044],[89.263552,26.569352],[89.26520870744444,26.568203476093625],[89.266309,26.567447],[89.26775759999995,26.56728],[89.26989747060048,26.567665870138672],[89.26951967857144,26.569263142857206],[89.269774,26.570911],[89.270439,26.572062],[89.2699956666667,26.57361666666666],[89.26950549999998,26.575181],[89.26861661111117,26.576522944444473],[89.27020759999998,26.57771020000003],[89.27185549999999,26.5789755],[89.273084,26.579879],[89.275096,26.580569166666727],[89.27580915045964,26.582020793204368],[89.276216,26.583748],[89.27558589357226,26.586533614766854],[89.27461355988358,26.588464336570798],[89.273676,26.590042],[89.272322,26.590729],[89.27076582303116,26.592101829962537]]]},"properties":{"id":"232","beat":"Moiradanga Beat","range":"Jaldapara West","division":"Jaldapara"}},
{"type":"Feature","geometry":{"type":"Polygon","coordinates":[[[89.25609398141476,26.535535099077816],[89.25797229873831,26.534691956785565],[89.26019990021733,26.53397267272081],[89.2617147921216,26.535114378166995],[89.26300784532079,26.535827486248735],[89.26457522073584,26.536027489380213],[89.26681221203275,26.53581255394987],[89.26856060962612,26.53474929838219],[89.26938784911725,26.53343153157585],[89.26984894172269,26.53224489559011],[89.2696586281258,26.53020603228126],[89.27006820630383,26.528611061561673],[89.27212137801781,26.52843646052591],[89.2744588082701,26.52852798058482],[89.27620086801252,26.528579272507972],[89.27787411419742,26.529275568920767],[89.27795936583668,26.53091878995583],[89.27921947159473,26.53213834728118],[89.27857721099357,26.53403456164724],[89.2781164078859,26.535541348460693],[89.27651206543936,26.535836606542944],[89.2746973693252,26.536837039716847],[89.27306296418196,26.53863412163461],[89.27354135318735,26.540247283409705],[89.275123419781,26.54040286878451],[89.2742068630853,26.541608243773133],[89.27625088522981,26.545626694807016],[89.27878423502642,26.54533454687939],[89.28017446166184,26.5461756009083],[89.28061314957148,26.547452684050114],[89.28152941398595,26.55023819783117],[89.2824369084919,26.55234364148659],[89.28253127244517,26.55391601957397],[89.28292581518028,26.555441566944264],[89.28411713565251,26.55842402582155],[89.28683853624982,26.558151928416766],[89.29002741295882,26.557679827426554],[89.29126865790396,26.55810838311891],[89.29277844332474,26.559114420162715],[89.29333954601944,26.560907353317724],[89.29256847746359,26.562545829780586],[89.29112046497154,26.5626318867679],[89.28969636787832,26.56228008824301],[89.28989193205366,26.560464499035323],[89.28857484774858,26.560379931501814],[89.2869335800575,26.56110529377668],[89.28586995353348,26.562129469378696],[89.28605813110771,26.563802567548304],[89.28405591814348,26.564047209314527],[89.28413939066446,26.565915455665305],[89.28541558503207,26.566204686062093],[89.28575139322488,26.567912805140274],[89.2830132771892,26.570876151430404],[89.28139279595528,26.572009552544078],[89.28169185724498,26.574873784735058],[89.28352700390556,26.575830997385445],[89.28503248730946,26.57560290618716],[89.2860420532579,26.576818173511178],[89.2850100362155,26.57758066174915],[89.28341238786793,26.578118377626307],[89.28112823082486,26.578556218074027],[89.27822762506936,26.579458793286374],[89.27673,26.579929],[89.275096,26.580569166666727],[89.273084,26.579879],[89.27185549999999,26.5789755],[89.27020759999998,26.57771020000003],[89.26861661111117,26.576522944444473],[89.26950549999998,26.575181],[89.2699956666667,26.57361666666666],[89.270439,26.572062],[89.269774,26.570911],[89.26951967857144,26.569263142857206],[89.26989747060048,26.567665870138672],[89.27062275000004,26.56617225],[89.2706458,26.564747400000048],[89.269556,26.563181],[89.26887982423918,26.561512783334155],[89.26766633333337,26.560008],[89.2666404907274,26.55859253492138],[89.2657814386819,26.556996773507883],[89.265086,26.555595],[89.265224,26.554151],[89.26459749484559,26.552766354267636],[89.2624235279407,26.55030876212629],[89.261721,26.548299],[89.26094325257584,26.546767910820172],[89.25974950000003,26.544372499999984],[89.25867878713117,26.54159622916418],[89.257788,26.539467],[89.25765,26.538194],[89.25609398141476,26.535535099077816]]]},"properties":{"id":"247","beat":"Bangdaki","range":"Jaldapara West","division":"Jaldapara"}}
]}