{"type":"FeatureCollection", "features": [
{"type":"Feature","geometry":{"type":"Polygon","coordinates":[[[89.34206585019957,26.68157428065853],[89.34047017148792,26.682075416512944],[89.33832466918535,26.68028987417034],[89.33702658339041,26.6813962862745],[89.33514111618697,26.683439196446816],[89.33384002153585,26.685445895145048],[89.33287192999593,26.68695410751311],[89.33219842015195,26.68839082072027],[89.33261807699856,26.68998135679245],[89.33276612765971,26.69187833589594],[89.33153321977095,26.69322781063598],[89.33057464503278,26.694662889762093],[89.33014992813523,26.696394649364123],[89.3289989181464,26.69759459982152],[89.32830189174055,26.695953922611164],[89.32765917803607,26.69433460244938],[89.32688914927692,26.692636779412553],[89.32626452703623,26.691114267512177],[89.32601100578371,26.687606444567884],[89.32607689272592,26.685003614397733],[89.32614439565023,26.681269549592816],[89.32621915475173,26.677275317407904],[89.32702049936354,26.675504739661886],[89.32736134646014,26.674158779205463],[89.32723748799532,26.67260039701142],[89.32636695342094,26.67053911120511],[89.32763164638658,26.66943650318076],[89.32911011945882,26.666352123100616],[89.33071436787107,26.66488095608183],[89.332653,26.662955],[89.33352224935723,26.660752433319505],[89.33395463166559,26.65771013176829],[89.33349662602764,26.65474862355274],[89.33407718766658,26.653185877711564],[89.33539300686151,26.65141685067515],[89.33656502836571,26.650311425744537],[89.33670062214041,26.647972979469607],[89.3370550821487,26.645691842722023],[89.33745850559276,26.64407880338783],[89.33805560328051,26.641896926775647],[89.33827302388967,26.640480166712692],[89.33885566122218,26.638191364201973],[89.33948682790181,26.636215035497283],[89.33994392726328,26.63487494891185],[89.34145711782752,26.633108779935803],[89.34142143808941,26.631216478547685],[89.341733,26.629064],[89.34217,26.627665],[89.34329542857141,26.625696571428563],[89.34441307332638,26.627310658099194],[89.34568,26.627978],[89.347003,26.628274],[89.34842410523343,26.628963896311035],[89.34878180542397,26.63137390902443],[89.34890147964472,26.63361688971592],[89.34845218519143,26.63507324612419],[89.34752662241736,26.636126645350704],[89.34634049573543,26.638139194968595],[89.3459534018193,26.6393930021878],[89.34552149380542,26.6407348265349],[89.3444120511404,26.6442816580775],[89.3440281138546,26.64553752319784],[89.34399304416905,26.647265989182227],[89.34395872100012,26.648819342772782],[89.3438335570245,26.65151435561021],[89.34376241234635,26.653195758522934],[89.34360391533376,26.65457463086173],[89.34349410182037,26.65821714901612],[89.34338934847837,26.660612798854537],[89.34331355689771,26.66199520883196],[89.34315831193842,26.66453257421643],[89.34296119792309,26.669025900354796],[89.3428326239971,26.67154279845975],[89.34264458170469,26.67488102247199],[89.34246648245583,26.677885084692747],[89.34233603709235,26.680060058033376],[89.34206585019957,26.68157428065853]]]},"properties":{"id":"262","beat":"NEC Beat","range":"Kodalbasti","division":"Jaldapara"}},
{"type":"Feature","geometry":{"type":"Polygon","coordinates":[[[89.3696229261505,26.613625971019587],[89.36648167818609,26.61322072166738],[89.36518400847787,26.613269514256547],[89.36063597921844,26.613422112936373],[89.35815663875715,26.613611386629714],[89.35539630294932,26.613827020148488],[89.35282141811321,26.614017999583865],[89.35132862923422,26.614388927399173],[89.35066344624109,26.616047305248085],[89.35016924073993,26.617451149857978],[89.34984283500683,26.619712205012195],[89.34966596474102,26.621459944287455],[89.34958332652856,26.622933026865773],[89.34936821874712,26.624727916870754],[89.34880346276601,26.62675588191749],[89.34842410523343,26.628963896311035],[89.347003,26.628274],[89.34568,26.627978],[89.34441307332638,26.627310658099194],[89.34329542857141,26.625696571428563],[89.3432866666667,26.623899166666646],[89.34319598691792,26.62221987955399],[89.34277063192465,26.62074707312793],[89.342516,26.61934],[89.3426248576702,26.616775602459956],[89.342113,26.615025],[89.34257524962825,26.613669685315504],[89.342696,26.611835],[89.34246450000003,26.610098],[89.34208540000002,26.608441],[89.34264971705898,26.607218376588985],[89.343717,26.605872],[89.344736,26.605095],[89.346056,26.604371],[89.34715,26.603695],[89.348507336366,26.603096617148562],[89.349533,26.6023],[89.35085065133401,26.599780032941027],[89.350172,26.598489],[89.34992573257173,26.597105226808797],[89.35001037837579,26.595511251658703],[89.3504542431163,26.594265303590074],[89.35249807624606,26.594830266267692],[89.35496972184376,26.59490964023829],[89.3572814256724,26.595039886437714],[89.35994992751375,26.59518118434238],[89.3621193217738,26.595196647275536],[89.36482941882947,26.59526732197372],[89.36691510934283,26.595350922930276],[89.3687892810769,26.59472343109072],[89.37103192543424,26.595467505295638],[89.3718974909138,26.59682979031909],[89.37238513354416,26.59870634363805],[89.37274567189525,26.600484516306803],[89.37373137364204,26.601525587292045],[89.37524984291565,26.602622247467604],[89.37540971936285,26.60457186442801],[89.37562416599059,26.60585627826401],[89.37737,26.60672050000005],[89.37578763257441,26.608014866250944],[89.377699,26.608869],[89.37772750000005,26.610167],[89.37875341137465,26.61215636790714],[89.37504093714875,26.612845557457014],[89.37213143397693,26.612974820504213],[89.3696229261505,26.613625971019587]]]},"properties":{"id":"277","beat":"CC Line Beat","range":"Kodalbasti","division":"Jaldapara"}},
{"type":"Feature","geometry":{"type":"Polygon","coordinates":[[[89.3696229261505,26.613625971019587],[89.36892225245757,26.61596661914451],[89.36842774842242,26.618238291855338],[89.36783571396319,26.62131913332412],[89.36605482373083,26.630669697358293],[89.36549360775982,26.6338127437093],[89.36485365169185,26.637306706640278],[89.36453763707817,26.639210728084254],[89.3642745853806,26.640835586439586],[89.36374335781555,26.643723420653036],[89.36339158666334,26.64553799219779],[89.3616053505516,26.647240057177683],[89.35977953146448,26.649126961107854],[89.35859464093879,26.650320876369886],[89.35562124651184,26.652793646455645],[89.35630065637,26.654623620381106],[89.35747550205403,26.65684748428249],[89.3585242311448,26.65884909384956],[89.35922242650881,26.660094665833515],[89.35944877596691,26.66175041164544],[89.35967402167407,26.664036580010634],[89.35961937915911,26.666477560386152],[89.36042313723281,26.66842622780176],[89.35855654840238,26.669271945560162],[89.35563734720125,26.67053517473405],[89.35312901912498,26.671613031381984],[89.35174766513121,26.67227727390013],[89.35028127926621,26.67360636904838],[89.34915355942132,26.674760412992253],[89.3468007496846,26.67717976080092],[89.34421920010969,26.67963792430265],[89.34206585019957,26.68157428065853],[89.34233603709235,26.680060058033376],[89.34246648245583,26.677885084692747],[89.34264458170469,26.67488102247199],[89.3428326239971,26.67154279845975],[89.34296119792309,26.669025900354796],[89.34315831193842,26.66453257421643],[89.34331355689771,26.66199520883196],[89.34338934847837,26.660612798854537],[89.34349410182037,26.65821714901612],[89.34360391533376,26.65457463086173],[89.34376241234635,26.653195758522934],[89.3438335570245,26.65151435561021],[89.34395872100012,26.648819342772782],[89.34399304416905,26.647265989182227],[89.3440281138546,26.64553752319784],[89.3444120511404,26.6442816580775],[89.34552149380542,26.6407348265349],[89.3459534018193,26.6393930021878],[89.34634049573543,26.638139194968595],[89.34752662241736,26.636126645350704],[89.34845218519143,26.63507324612419],[89.34890147964472,26.63361688971592],[89.34878180542397,26.63137390902443],[89.34842410523343,26.628963896311035],[89.34880346276601,26.62675588191749],[89.34936821874712,26.624727916870754],[89.34958332652856,26.622933026865773],[89.34966596474102,26.621459944287455],[89.34984283500683,26.619712205012195],[89.35016924073993,26.617451149857978],[89.35066344624109,26.616047305248085],[89.35132862923422,26.614388927399173],[89.35282141811321,26.614017999583865],[89.35539630294932,26.613827020148488],[89.35815663875715,26.613611386629714],[89.36063597921844,26.613422112936373],[89.36518400847787,26.613269514256547],[89.36648167818609,26.61322072166738],[89.3696229261505,26.613625971019587]]]},"properties":{"id":"292","beat":"Kodalbasti Beat","range":"Kodalbasti","division":"Jaldapara"}},
{"type":"Feature","geometry":{"type":"Polygon","coordinates":[[[89.37875341137465,26.61215636790714],[89.38139571676115,26.612692010524867],[89.38314730016577,26.6128411621854],[89.38361940474529,26.61457676194158],[89.38500708752153,26.619402123491735],[89.38604510788933,26.623055400201594],[89.38456398141754,26.625783182213596],[89.38156613457123,26.631124571436075],[89.38040839578062,26.633274079997797],[89.38630586919237,26.63363142034622],[89.38905504724522,26.633932522865138],[89.39119413675795,26.634225082944944],[89.39148373340487,26.63676646923933],[89.39086838596289,26.639987541411607],[89.39054,26.642746],[89.3914545344728,26.644187391423106],[89.39128120104314,26.647368007767362],[89.38827487814407,26.650299304845497],[89.38381629175652,26.65385400048405],[89.38205219245806,26.6555570521997],[89.37924069367752,26.658023895596365],[89.37745583155746,26.658613291014703],[89.37492135645238,26.659517290767624],[89.37121312674233,26.660788570230924],[89.36946853847061,26.662144113428702],[89.36981863084189,26.66393967867994],[89.36828200249093,26.665514313557807],[89.36759635470509,26.66732515959324],[89.36735790857647,26.66902109273667],[89.36720304858622,26.670811388696418],[89.365704493491,26.67023274404751],[89.3641520955036,26.669891024012397],[89.36180304217947,26.669125612630744],[89.36042313723281,26.66842622780176],[89.35961937915911,26.666477560386152],[89.35967402167407,26.664036580010634],[89.35944877596691,26.66175041164544],[89.35922242650881,26.660094665833515],[89.3585242311448,26.65884909384956],[89.35747550205403,26.65684748428249],[89.35630065637,26.654623620381106],[89.35562124651184,26.652793646455645],[89.35859464093879,26.650320876369886],[89.35977953146448,26.649126961107854],[89.3616053505516,26.647240057177683],[89.36339158666334,26.64553799219779],[89.36374335781555,26.643723420653036],[89.3642745853806,26.640835586439586],[89.36453763707817,26.639210728084254],[89.36485365169185,26.637306706640278],[89.36549360775982,26.6338127437093],[89.36605482373083,26.630669697358293],[89.36783571396319,26.62131913332412],[89.36842774842242,26.618238291855338],[89.36892225245757,26.61596661914451],[89.3696229261505,26.613625971019587],[89.37213143397693,26.612974820504213],[89.37504093714875,26.612845557457014],[89.37875341137465,26.61215636790714]]]},"properties":{"id":"307","beat":"Manthuram Beat","range":"Kodalbasti","division":"Jaldapara"}}
]}