{"type":"FeatureCollection", "features": [
{"type":"Feature","geometry":{"type":"Polygon","coordinates":[[[89.23347751211165,26.645590780796972],[89.23447159717986,26.64771136941501],[89.23490313848949,26.649042733817467],[89.23381191415059,26.650449944098302],[89.23466973246111,26.65286611217032],[89.23265643337393,26.653315931294756],[89.23373953338236,26.6546402022846],[89.23394059773251,26.65593111888275],[89.2336703150616,26.65733480411098],[89.23300215000002,26.6586792],[89.2342161021906,26.659730188439294],[89.23562876340705,26.659851103710157],[89.23781894035832,26.659477785165013],[89.23944268220623,26.660560377520596],[89.24040341557962,26.662211592741418],[89.24138667892912,26.664725829633433],[89.24258517704259,26.666083396275113],[89.24381782856237,26.667419796903406],[89.24470890125684,26.668589111224687],[89.2461082110448,26.66969323629455],[89.24824388387894,26.669544970765806],[89.24835968356984,26.671083297180413],[89.24869531698512,26.672545786822514],[89.25072892869872,26.67399334238966],[89.25228760458006,26.675170386706963],[89.25410546029482,26.676592516966117],[89.25596455352591,26.678657499427587],[89.2572,26.681748],[89.259454,26.685632],[89.26304958113559,26.688691557150605],[89.26356203644737,26.691390158572663],[89.26252012660372,26.695242554344116],[89.26025333215505,26.695737440286297],[89.25740201160613,26.696930981889803],[89.255438,26.69756],[89.25425267065091,26.696818969488493],[89.25284137037701,26.695513746403503],[89.25253138663852,26.692636808493024],[89.25201157856043,26.6914410242923],[89.25043355648644,26.690664099606646],[89.2487192199951,26.689638209118442],[89.24654788117914,26.68881900066164],[89.24424315221991,26.68800470840588],[89.24129961338998,26.687322485521385],[89.23893890561877,26.68556098537999],[89.2396288413982,26.684439012995302],[89.23899956142866,26.682744593418033],[89.23860705549832,26.67989887822885],[89.24056889830351,26.678194839162465],[89.24001392232198,26.675346206310728],[89.23866757922124,26.672334593888884],[89.23820629112045,26.670773505209404],[89.23649036019314,26.670707218711247],[89.23429284635452,26.670017668374506],[89.23230344231249,26.669159237054078],[89.23129553778918,26.667791041378123],[89.23123316482007,26.66602654534013],[89.22972768539842,26.663171821800972],[89.22823589593037,26.661563621252775],[89.22742901012953,26.660306445456065],[89.22679941640438,26.659010345388882],[89.22564770095461,26.657481610073656],[89.22351711729861,26.657023283114782],[89.22348875435685,26.655372898523392],[89.22438105943236,26.654133350699365],[89.22398813472999,26.652662787329533],[89.22206809849243,26.65197634617779],[89.22068401372954,26.651182154076285],[89.2191857433226,26.65064250260886],[89.21784745433106,26.64944181096284],[89.21717522711246,26.647721185952282],[89.21727321441003,26.64589769176499],[89.21565831476873,26.645118882406564],[89.2168105183935,26.64409063963466],[89.21596126214781,26.642323596012478],[89.21446209429058,26.64200665322464],[89.21331645997375,26.640681549548432],[89.21264029319119,26.63920590885746],[89.21167558705311,26.637616155035364],[89.21421704367816,26.63674934445889],[89.21606676029599,26.636281985285752],[89.21831826286046,26.635800806291236],[89.21956962889153,26.636247253989513],[89.22087597646166,26.63683095521793],[89.22221926818652,26.637553044062383],[89.2235332854816,26.63838313986994],[89.22464970628575,26.639300793260016],[89.2256869751187,26.6403853602485],[89.22650450601573,26.6414637943761],[89.22739563199079,26.64272670044187],[89.22865396869726,26.644354077246472],[89.23091337120138,26.645472134785912],[89.23347751211165,26.645590780796972]]]},"properties":{"id":"367","beat":"North Khairbari Beat","range":"Madarihat","division":"Jaldapara"}},
{"type":"Feature","geometry":{"type":"Polygon","coordinates":[[[89.2317531382244,26.721629887561164],[89.23145299889262,26.723536150224973],[89.23032242870768,26.724244889115038],[89.22803646616363,26.726203681032594],[89.22673359631553,26.72817415862773],[89.22598306302943,26.731146381472907],[89.22307078657637,26.732674308820307],[89.22127160976261,26.736261400016208],[89.22094184049695,26.7390853535514],[89.21107168065124,26.74036614756056],[89.20516776606958,26.740987335349235],[89.1946945334009,26.74275801605645],[89.19217189750819,26.742782730712992],[89.19198433192877,26.741317633662646],[89.19270867340659,26.73932940586638],[89.19294611258051,26.73736839124751],[89.19229921823104,26.73570323092384],[89.19150997058514,26.734551712512015],[89.1902733,26.733499400000042],[89.19005011301343,26.73143094984062],[89.19061217543971,26.730062478055576],[89.1912645323142,26.72884044337182],[89.19195019136266,26.72730702144052],[89.19275896478663,26.72491234322613],[89.19355255100159,26.72261004994451],[89.19324379245913,26.720981491041844],[89.19286153076784,26.718904042107276],[89.19251188626853,26.717405217713612],[89.19233483057657,26.71563381914152],[89.19355513958125,26.714251835913664],[89.19524219053024,26.711982124444404],[89.19520015872251,26.70898475054803],[89.19869129493863,26.70864957580567],[89.1999382121308,26.70769984521541],[89.20172411485134,26.705589732752248],[89.20374617843797,26.703077912721344],[89.20462574442877,26.701903094578753],[89.2054540215759,26.7003744652384],[89.20657967324226,26.697731158158337],[89.20780352103276,26.69845587335144],[89.20895123886393,26.699138776771917],[89.21059370807932,26.69990052128463],[89.21204317420253,26.7011815942018],[89.21370567786039,26.702297100772824],[89.21575797064241,26.70360653962475],[89.21703010219238,26.704782240638718],[89.21788499635318,26.705760041738007],[89.21980799581098,26.707776616640448],[89.22104600353629,26.708524769202217],[89.22290876619775,26.709647771404914],[89.2252211703341,26.711487095461887],[89.22622959003073,26.71279577601701],[89.22676617981836,26.715354320344257],[89.22799153378465,26.71828016030621],[89.22827315985636,26.719635164165638],[89.2301293993543,26.720487549106046],[89.23186814899047,26.71993151076774],[89.2317531382244,26.721629887561164]]]},"properties":{"id":"382","beat":"Dhumchi Beat","range":"Madarihat","division":"Jaldapara"}},
{"type":"Feature","geometry":{"type":"Polygon","coordinates":[[[89.21167558705311,26.637616155035364],[89.21052404410668,26.636863633593137],[89.20833014199106,26.635035957683854],[89.2074389597436,26.63309894379519],[89.20823066532158,26.630877540977142],[89.20694847349962,26.62961643379748],[89.20567186861604,26.628584735342102],[89.20448849332628,26.627026432276494],[89.20482181168622,26.624736953057575],[89.2037157917917,26.622737565860614],[89.20316199834149,26.621135399673783],[89.20423562246275,26.620345132502525],[89.20605660843337,26.620086729330332],[89.20536462635268,26.61893423361325],[89.20468805826437,26.616043301408336],[89.20479854800368,26.61388501256762],[89.20154639568877,26.613977260524894],[89.19847175635452,26.613348948134956],[89.19643821587123,26.613759290716114],[89.19500547042344,26.611174905807903],[89.19394719873635,26.607588771757122],[89.19483091559489,26.605946338826662],[89.196724609826,26.604261197485084],[89.19414939420872,26.60345207813392],[89.19154645375656,26.60298723848679],[89.1903092214715,26.60044842831332],[89.19007978202805,26.598084212776023],[89.19239149888705,26.59706739172058],[89.1937871047064,26.59633205858886],[89.19512265417166,26.59528347724142],[89.19587672730367,26.594133608040675],[89.19651936914751,26.59298867883661],[89.19563925267714,26.59157859053715],[89.19444581380878,26.590717628699327],[89.19313140762506,26.589531695991646],[89.1925045279624,26.587892921912097],[89.19339394174591,26.5867889062715],[89.19468722579083,26.586837966921532],[89.19649481718153,26.586617253258808],[89.1984139395025,26.586443996887247],[89.19935086427476,26.5874727022453],[89.19936476745656,26.588933751145298],[89.19895707512262,26.590872973803663],[89.1991822693752,26.592331023915687],[89.20044497816873,26.593687349684007],[89.20129204236503,26.595687728774113],[89.20287843920434,26.59670123952677],[89.20474752239141,26.59729590667527],[89.20697723029426,26.596865425302678],[89.20817356141438,26.598591820567023],[89.20945709827696,26.600105564298364],[89.21009454129089,26.60145800153905],[89.21058620408101,26.603180490611493],[89.21121471580642,26.60485982748683],[89.21259383344287,26.606309488873585],[89.21270849794192,26.608321308886566],[89.21208726389887,26.60951418673986],[89.21146475418657,26.610629341815788],[89.2123984773203,26.6115371363214],[89.21417780965751,26.612433021889796],[89.21521635291042,26.61420331029775],[89.21580413478044,26.61613930549968],[89.2164805940263,26.61796198475867],[89.21744562555921,26.619870834327035],[89.21851131332258,26.622651413147917],[89.22008338117224,26.62280292992189],[89.22160823087715,26.62350965317905],[89.22172946204537,26.625295708376566],[89.22072841991272,26.62660045603155],[89.22093153052673,26.62801908765741],[89.22277028048659,26.62804249362018],[89.22530485769771,26.628064438555914],[89.22709615346187,26.629845954745594],[89.22725320580092,26.63219186737277],[89.2272253262316,26.634523135656433],[89.228552,26.635496],[89.22873822183684,26.63744308520321],[89.22958659815689,26.63930421050055],[89.23036966168823,26.640527587449274],[89.23279451999713,26.640872512647277],[89.23319805023436,26.642654168006434],[89.23347751211165,26.645590780796972],[89.23091337120138,26.645472134785912],[89.22865396869726,26.644354077246472],[89.22739563199079,26.64272670044187],[89.22650450601573,26.6414637943761],[89.2256869751187,26.6403853602485],[89.22464970628575,26.639300793260016],[89.2235332854816,26.63838313986994],[89.22221926818652,26.637553044062383],[89.22087597646166,26.63683095521793],[89.21956962889153,26.636247253989513],[89.21831826286046,26.635800806291236],[89.21606676029599,26.636281985285752],[89.21421704367816,26.63674934445889],[89.21167558705311,26.637616155035364]]]},"properties":{"id":"397","beat":"South Khairbari Beat","range":"Madarihat","division":"Jaldapara"}}
]}