{"type":"FeatureCollection", "features": [
{"type":"Feature","geometry":{"type":"Polygon","coordinates":[[[89.8718552591121,26.5772391431081],[89.8719770756128,26.5773734157432],[89.8721680717993,26.5775144197377],[89.8733790476683,26.578406445061],[89.8750360026031,26.5801274807012],[89.8769479845624,26.5807025190445],[89.8789889855471,26.5804755583152],[89.8808999537443,26.5816225977734],[89.882557916935,26.5830006327681],[89.8848509008371,26.5834606783078],[89.8852348834312,26.5841486871445],[89.8853578362323,26.5860976933989],[89.8854837917916,26.5879316994841],[89.8863757511363,26.5895387200323],[89.8871397080606,26.5912577383122],[89.8867546868154,26.5921747326337],[89.8853496402215,26.5942367093629],[89.884556600089,26.5959746973638],[89.884503617402,26.5960910465626],[89.8828563734527,26.5955747134659],[89.8811812435485,26.595308180322],[89.8796964577254,26.5952700813368],[89.8781926428631,26.5951939019063],[89.8773550806651,26.5949464251097],[89.8767459438382,26.5948702730994],[89.871568255232,26.5948701722921],[89.8651722743815,26.5946606473584],[89.8655340076845,26.5924144399804],[89.8657815321505,26.5901301603032],[89.8657815587374,26.5890260881307],[89.8659909886113,26.58735094891],[89.8662765518977,26.5859423116952],[89.8666001946398,26.5845527052583],[89.8668096167147,26.583201176673],[89.8670000161611,26.5815450671174],[89.8670381474732,26.5789942828367],[89.8685039075303,26.5784422802701],[89.8702361683772,26.5778331627757],[89.8718552591121,26.5772391431081]]]},"properties":{"compartment":"N Bholka BL3"},"id":"comptt.48"}
]}