{"type":"FeatureCollection", "features": [
{"type":"Feature","geometry":{"type":"Polygon","coordinates":[[[89.8555859946395,26.576754187345703],[89.8549389905817,26.5769821752034],[89.851382962198,26.5784881089617],[89.8491829419639,26.5795310681953],[89.8473699320449,26.5801100340488],[89.8444599232155,26.5807449786635],[89.84135891060501,26.581554919902302],[89.83331816483461,26.5717347442889],[89.8319221944824,26.5706317149847],[89.8333081970238,26.5703977414883],[89.8352312078263,26.5697707776707],[89.83733525036881,26.567807814765],[89.8390873031709,26.5654508442387],[89.8416593750977,26.5622228879518],[89.8437093719692,26.5621639277036],[89.8448093722963,26.5620489488708],[89.845261376874,26.5618169572071],[89.84597337108761,26.561991971396402],[89.8463603660455,26.562165979263302],[89.846941349366,26.5628059918159],[89.8478463249935,26.5637360112386],[89.84868529379071,26.564956029947002],[89.84971828169,26.565364050838802],[89.8512692712344,26.565656081579302],[89.85295026188841,26.565890114735602],[89.8540482398796,26.5667041376911],[89.8546922160827,26.567634152044203],[89.85507816634001,26.569666163543],[89.8555271108459,26.571931176726],[89.85559006038571,26.5740221820582],[89.85558802128,26.575647185210602],[89.8555859946395,26.576754187345703]]]},"properties":{"compartment":"N Bholka BL5","Division":"BuxaTR_EAST","Range":"Bholka","Beat":"Balapara","DIVISION":"BuxaTR_EAST","BEAT_NAME":"Balapara"},"id":"comptt.33"},
{"type":"Feature","geometry":{"type":"Polygon","coordinates":[[[89.84352853404461,26.5358809727575],[89.843488007427,26.5357438717018],[89.8434900311269,26.534756869809602],[89.8438150568967,26.5336538739659],[89.84426807817971,26.532725880951002],[89.8454970824261,26.532435904260502],[89.846983079094,26.5324379331348],[89.8484050745123,26.532497960879702],[89.8502130537589,26.5331959973756],[89.85157004096651,26.533604024541702],[89.85266903431611,26.5337800462407],[89.853186037355,26.5336060559444],[89.85376905557091,26.532794065678],[89.8538350735566,26.532039065478003],[89.8533810843309,26.5316320558582],[89.8524790988782,26.5311090373072],[89.8508641192243,26.5304100045597],[89.8495731346546,26.5298859784515],[89.8484101553734,26.5291299543763],[89.8476361780183,26.5282579376318],[89.84757220603281,26.5270969341138],[89.8478322277609,26.526167937344002],[89.84783325005981,26.525238935543],[89.8477062712479,26.5243679313695],[89.8470602922126,26.523553917227503],[89.8461563234909,26.5223338972804],[89.8457053454152,26.5214618868138],[89.8457073635064,26.5207078853762],[89.8461593750596,26.52018489313],[89.84674138210221,26.5198379037528],[89.8477123841109,26.5196649222707],[89.8495873910863,26.519201957775703],[89.8512944026103,26.5185649896761],[89.85217240065211,26.5185660067287],[89.8542394016206,26.5183360464185],[89.85586040206181,26.5181690775705],[89.8561153936777,26.518495083163202],[89.8580253481515,26.520217123642603],[89.8581503010973,26.5221661299028],[89.8595502457147,26.5243451613821],[89.8606952156392,26.5254931858829],[89.86018417822831,26.5270981791144],[89.8617101445747,26.528360211244202],[89.86336608309111,26.5307692481618],[89.86298204265161,26.532488244086203],[89.8596649949407,26.5347781841402],[89.8590189727747,26.5357601735186],[89.8588535470905,26.536011960799403],[89.857841169786,26.5359924710881],[89.8509026774781,26.5358923960645],[89.8476190354145,26.5358637822041],[89.84352853404461,26.5358809727575]]]},"properties":{"compartment":"S Bholka BL3B","Division":"BuxaTR_EAST","Range":"Bholka","Beat":"Balapara","DIVISION":"BuxaTR_EAST","BEAT_NAME":"Balapara"},"id":"comptt.5"},
{"type":"Feature","geometry":{"type":"Polygon","coordinates":[[[89.8588535470905,26.536011960799403],[89.8583849509898,26.536725163096],[89.85927692145,26.537873182688102],[89.86067889905141,26.5386772115165],[89.8618228441849,26.540856238039],[89.8632248410792,26.540857265290402],[89.8648828125922,26.5418912995535],[89.86436877241431,26.543610292949502],[89.863665716138,26.546016284023302],[89.8637906648614,26.5481382906331],[89.8646805912475,26.551119313809],[89.8644215325546,26.5535843136293],[89.8653215046088,26.554664333258],[89.8633084978305,26.555130295031802],[89.86172649808981,26.5552642645326],[89.85908949418341,26.5556682140496],[89.8571284904031,26.5560051765796],[89.8554724924691,26.5560711445078],[89.8545694944859,26.556070126947002],[89.8535114821787,26.5566791075695],[89.8520054660047,26.557490079876],[89.8498174448479,26.558571039448402],[89.8468794139564,26.5601259853619],[89.84552140395431,26.5606669600124],[89.8442414052039,26.560732935249902],[89.84353340831271,26.560668921356402],[89.8441544190801,26.560163932444702],[89.844604426908,26.5597969404774],[89.8456554718298,26.5578319570687],[89.8456564945014,26.5568889552422],[89.8428975254514,26.5558558995756],[89.842366531389,26.5556578888641],[89.8428145513115,26.5547878958731],[89.8437865714664,26.5538599129557],[89.8448865885253,26.5530489327549],[89.8456636147131,26.5518879455883],[89.8465056379439,26.550843959913202],[89.84721665031161,26.5502639725993],[89.8477346672884,26.5495099811923],[89.8478006838945,26.5488129811098],[89.84747870554,26.5479419731442],[89.8466387269604,26.5471279552216],[89.8457997455906,26.5464299375467],[89.8452207719834,26.5453849242469],[89.8451567916606,26.5445719214115],[89.8452228068684,26.543932921443503],[89.8457408210516,26.5432949302621],[89.84651784302301,26.542308943432502],[89.84742185356541,26.541786959979],[89.8483278612931,26.5413819767931],[89.8494268630213,26.5412089978126],[89.8503328582094,26.5413260156497],[89.8516248567265,26.541269040647702],[89.8519498713614,26.5406300457103],[89.8519508950709,26.5396430437933],[89.8518869133495,26.5388880410682],[89.851435925491,26.5384240313936],[89.8507229312685,26.5382490171947],[89.8491079418726,26.5379559852367],[89.84658895169031,26.5377789359405],[89.8445199688522,26.537254894710802],[89.8437449859389,26.5366148783995],[89.8435560017526,26.5359738734731],[89.84352853404461,26.5358809727575],[89.8476190354145,26.5358637822041],[89.8509026774781,26.5358923960645],[89.857841169786,26.5359924710881],[89.8588535470905,26.536011960799403]]]},"properties":{"compartment":"S Bholka BL2A","Division":"BuxaTR_EAST","Range":"Bholka","Beat":"Balapara","DIVISION":"BuxaTR_EAST","BEAT_NAME":"Balapara"},"id":"comptt.16"}
]}
