{"type":"FeatureCollection", "features": [
{"type":"Feature","geometry":{"type":"Polygon","coordinates":[[[89.8380302198011,26.495300306647],[89.8372441402858,26.4957698223123],[89.8365112634662,26.4961219687802],[89.8357974175174,26.4964360455428],[89.8350740525025,26.496712052046203],[89.8347123637219,26.4971117958085],[89.8341888700525,26.497730446858203],[89.8336939254073,26.4983871685358],[89.8330657287373,26.4995578486299],[89.8325898028694,26.5006809515851],[89.8323708753295,26.501432858803103],[89.8323232657721,26.502670180292],[89.8323517826214,26.5040502635367],[89.8323707943229,26.5048116953905],[89.8323232107769,26.5049639847639],[89.8321423686676,26.5050686714583],[89.8317711683495,26.505116254346703],[89.8313333481792,26.5051638359423],[89.8308955254986,26.505316117741803],[89.8305814300336,26.5055730921466],[89.8303053985506,26.5060775277723],[89.83015310542321,26.506639085910802],[89.8301245281412,26.5073624367656],[89.83019114133181,26.508057249412403],[89.8303624417789,26.5088567542953],[89.8307811996219,26.5097419141487],[89.8313941168517,26.511051588599003],[89.8323458558857,26.513088431046],[89.832916896765,26.5142496243966],[89.8334879367294,26.5154488778222],[89.83426835572341,26.5170859661685],[89.8347804423484,26.5184296687335],[89.8347567823991,26.518429640514203],[89.8329784463929,26.5184276337398],[89.8289074625092,26.5181325541196],[89.8248364688982,26.518243475292902],[89.8208954819448,26.5180653984308],[89.8185874871623,26.518062353615402],[89.8185394894765,26.517970352505],[89.8184624932948,26.517818350715203],[89.81846350699101,26.5172473496267],[89.8186555368129,26.5159863509074],[89.8192335781254,26.514210358681602],[89.81974562373101,26.512261364837503],[89.820453703212,26.5088813720177],[89.8209657419246,26.507219378727502],[89.8213497891668,26.505213382284],[89.8218648374793,26.5031503882707],[89.822120872628,26.501660390343602],[89.82250791572821,26.4998263942894],[89.82289094507651,26.4985663992722],[89.8238819915732,26.4965344145497],[89.8245220686785,26.4932574205942],[89.8250470863457,26.492471429250102],[89.83099107299421,26.492478544572702],[89.8343120693073,26.4923256087013],[89.837783059044,26.492433676250602],[89.8376720423954,26.493138675474203],[89.8377949954166,26.495087681667602],[89.8380302198011,26.495300306647]]]},"properties":{"compartment":"S Bholka BL 5","Division":"BTR_E","Range":"Bholka","Beat":"Barobisha","DIVISION":"BTR_E","BEAT_NAME":"Barobisha"},"id":"comptt.1"},
{"type":"Feature","geometry":{"type":"Polygon","coordinates":[[[89.8380302198011,26.495300306647],[89.83805498920991,26.495322687171303],[89.8395779529618,26.4966947194032],[89.84199591183611,26.4981877692421],[89.8439068993254,26.4985338070026],[89.8453058494697,26.500484837971502],[89.8459407985848,26.5025488543376],[89.8472117462685,26.5046138830521],[89.8491217255137,26.5053039214783],[89.8500126767868,26.507253942597803],[89.85103164703361,26.5084009646291],[89.8511545944973,26.510579971292],[89.8512795392397,26.5128719782156],[89.85242349540741,26.514594003807503],[89.85458844383021,26.516545049678502],[89.85586040206181,26.5181690775705],[89.8542394016206,26.5183360464185],[89.85217240065211,26.5185660067287],[89.8512944026103,26.5185649896761],[89.8499744055435,26.5185639640401],[89.8473254114578,26.5185609125921],[89.8441594199359,26.518498850990202],[89.8402814299973,26.5184367755642],[89.8365334383914,26.518432702778203],[89.8347804423484,26.5184296687335],[89.83426835572341,26.5170859661685],[89.8334879367294,26.5154488778222],[89.832916896765,26.5142496243966],[89.8323458558857,26.513088431046],[89.8313941168517,26.511051588599003],[89.8307811996219,26.5097419141487],[89.8303624417789,26.5088567542953],[89.83019114133181,26.508057249412403],[89.8301245281412,26.5073624367656],[89.83015310542321,26.506639085910802],[89.8303053985506,26.5060775277723],[89.8305814300336,26.5055730921466],[89.8308955254986,26.505316117741803],[89.8313333481792,26.5051638359423],[89.8317711683495,26.505116254346703],[89.8321423686676,26.5050686714583],[89.8323232107769,26.5049639847639],[89.8323707943229,26.5048116953905],[89.8323517826214,26.5040502635367],[89.8323232657721,26.502670180292],[89.8323708753295,26.501432858803103],[89.8325898028694,26.5006809515851],[89.8330657287373,26.4995578486299],[89.8336939254073,26.4983871685358],[89.8341888700525,26.497730446858203],[89.8347123637219,26.4971117958085],[89.8350740525025,26.496712052046203],[89.8357974175174,26.4964360455428],[89.8365112634662,26.4961219687802],[89.8372441402858,26.4957698223123],[89.8380302198011,26.495300306647]]]},"properties":{"compartment":"S Bholka BL6","Division":"BTR_E","Range":"Bholka","Beat":"Barobisha","DIVISION":"BTR_E","BEAT_NAME":"Barobisha"},"id":"comptt.2"}
]}
