{"type":"FeatureCollection", "features": [
{"type":"Feature","geometry":{"type":"Polygon","coordinates":[[[89.6490959923368,26.7150817251145],[89.6488511339743,26.7150384202558],[89.6479841397649,26.7148854030529],[89.64640314023251,26.715023372444],[89.6448981267708,26.715729344354102],[89.6436311058379,26.716720321428202],[89.6421250768888,26.7180662944817],[89.6406990546464,26.719127268576102],[89.6390360432906,26.719762237267002],[89.63745504892721,26.719687206267203],[89.6361110522739,26.719683180023303],[89.6350820444986,26.720107160706302],[89.6337350306427,26.720814135694702],[89.6320730296316,26.7210221036274],[89.6307300432709,26.7205930766323],[89.62986306260821,26.719881058416803],[89.629314093205,26.7186720455089],[89.6284481228257,26.7175350265449],[89.6276591454088,26.7166810095977],[89.62616116460481,26.7160379791959],[89.6246581717857,26.715891949597403],[89.62315617724771,26.7158169201474],[89.6221261643576,26.716452901195],[89.62093412093,26.7183668813894],[89.6202960846973,26.719927871757],[89.61950205404631,26.721273858689802],[89.6186350349013,26.7221518433514],[89.6168450913031,26.7200018045312],[89.6156811256032,26.7187017794672],[89.61416814732,26.7179567485944],[89.6132781674949,26.7172127298839],[89.61231619379821,26.716222709326],[89.61156422261351,26.7151076926426],[89.6114302528242,26.7138726878036],[89.6114342856965,26.712513685434402],[89.6116473210331,26.7110316869216],[89.61172035370831,26.709673685900203],[89.6115873943822,26.708005680301202],[89.6109754377678,26.706273665242602],[89.6101575040462,26.7036156445],[89.6096825380926,26.702255632786603],[89.6090015814885,26.7005296163974],[89.6090187148901,26.7000337958895],[89.60902459753581,26.6998636156477],[89.6095416516906,26.6975716216063],[89.6099926768945,26.696483628443602],[89.610333690617,26.69588163401],[89.61052870031921,26.6954606370548],[89.6111636947116,26.6956286497408],[89.6139677037696,26.694971703239602],[89.6157327111775,26.694487736787202],[89.6172827220595,26.693881765921102],[89.6180777307884,26.6934407806285],[89.6186797374,26.6931067917651],[89.6202157587373,26.6920698198452],[89.6210947751194,26.6913038356019],[89.6213661801937,26.6910681005083],[89.6216693552221,26.6924830789388],[89.621824013056,26.692970872836902],[89.6221333236121,26.693744200267602],[89.62254970419541,26.6945056397652],[89.6228828241836,26.6948863669507],[89.6233825043435,26.6952432873417],[89.62396545113731,26.695731089593902],[89.6245246165502,26.696278381490302],[89.6251551538038,26.6967423846285],[89.6257143289968,26.6968851657935],[89.6261307242483,26.697039844195203],[89.6265828179752,26.697254003401202],[89.6271062915293,26.697468163999602],[89.6274751074717,26.6975990414306],[89.628046171486,26.6977894129144],[89.62837928578911,26.697991669778702],[89.6289265589983,26.6982177308636],[89.62940244266821,26.6984318905344],[89.6299616181503,26.698562771679303],[89.63043750239571,26.6987531413073],[89.6309014849439,26.699014890833002],[89.6313416778374,26.6992647398732],[89.6316866923996,26.6994551069488],[89.632174476329,26.6996573668312],[89.63274553516591,26.700061888705502],[89.6333998895559,26.7002284617731],[89.6338162839457,26.7004188302418],[89.6340899175297,26.7006567860121],[89.6344349306537,26.700906633196702],[89.63495839672831,26.701430124359902],[89.6353391086147,26.7017275723277],[89.6356246301559,26.7020487984818],[89.6360291339992,26.702262956762702],[89.6362313826472,26.7022986607734],[89.636647787325,26.7024771292219],[89.63777800042341,26.70347652309],[89.6382419895186,26.703881042878702],[89.6386108025849,26.7041308905291],[89.63930083286121,26.7044640345988],[89.6396696436251,26.7048090624229],[89.6400979353966,26.705106501321],[89.6407879622196,26.7055824056515],[89.6414304082936,26.706094009119003],[89.6421561215764,26.706712684406803],[89.6429651206283,26.707497921624203],[89.64359566788231,26.707961924774402],[89.6440834503738,26.7082236747704],[89.6444165626622,26.7085092217916],[89.6451184908956,26.708925636249102],[89.6454635022916,26.7092468735681],[89.6461178471848,26.7098060673581],[89.6469149405826,26.7104128440215],[89.6473194392441,26.7108411526977],[89.6477715234722,26.7114479226285],[89.6481760181022,26.7120428016092],[89.6485091249194,26.7125543890447],[89.6487470619651,26.713065984623],[89.6488779235877,26.713399107785502],[89.6489374048059,26.7137560295982],[89.6489730843536,26.7141843310768],[89.6490087696602,26.714374692120902],[89.64903256499541,26.714565052933],[89.6490959923368,26.7150817251145]]]},"properties":{"compartment":"Phaskhawa BL1","Division":"BTR_E","Range":"Jainti","Beat":"Bhutiabasti","DIVISION":"BTR_E","BEAT_NAME":"Bhutiabasti"},"id":"comptt.169"},
{"type":"Feature","geometry":{"type":"Polygon","coordinates":[[[89.6213661801937,26.6910681005083],[89.6222287961762,26.690318855934102],[89.6235678148756,26.6894108804018],[89.6242738296475,26.6887288929343],[89.6251548417721,26.688138909044902],[89.6261418521664,26.687609927332403],[89.6274818748049,26.686538951520102],[89.6284028852636,26.6860139685264],[89.6298779020192,26.6851729957609],[89.632022913678,26.6844760363184],[89.63554292876421,26.683500103176602],[89.6370799354958,26.6830681323585],[89.6396039473417,26.6823261802196],[89.641989957012,26.6816882255779],[89.6449899718072,26.6807772824084],[89.6481069841542,26.679956341682],[89.64913399712721,26.679317360538302],[89.6494649057703,26.6830653738368],[89.6497798348329,26.6859693852831],[89.6500977849313,26.688002395197902],[89.6506747554335,26.6891654085756],[89.651128747285,26.689457417963702],[89.6529407484481,26.6892294528873],[89.6540407442383,26.6892944744601],[89.6541687173636,26.690393478967],[89.6540326741725,26.6921934796069],[89.6540225913573,26.695619485678503],[89.6538885453445,26.6975354865688],[89.65336250309791,26.6993344795968],[89.6524534674035,26.7009004647247],[89.6521244260806,26.7026414614877],[89.6520503546261,26.705602465455602],[89.6519752789527,26.7087374697216],[89.65197023257551,26.710654473127402],[89.65280719677921,26.712050492015702],[89.6532581633604,26.7133865032613],[89.6531891297851,26.7147805044631],[89.6524560985783,26.716142492644202],[89.6508301207402,26.715388459525503],[89.6490959923368,26.7150817251145],[89.64903256499541,26.714565052933],[89.6490087696602,26.714374692120902],[89.6489730843536,26.7141843310768],[89.6489374048059,26.7137560295982],[89.6488779235877,26.713399107785502],[89.6487470619651,26.713065984623],[89.6485091249194,26.7125543890447],[89.6481760181022,26.7120428016092],[89.6477715234722,26.7114479226285],[89.6473194392441,26.7108411526977],[89.6469149405826,26.7104128440215],[89.6461178471848,26.7098060673581],[89.6454635022916,26.7092468735681],[89.6451184908956,26.708925636249102],[89.6444165626622,26.7085092217916],[89.6440834503738,26.7082236747704],[89.64359566788231,26.707961924774402],[89.6429651206283,26.707497921624203],[89.6421561215764,26.706712684406803],[89.6414304082936,26.706094009119003],[89.6407879622196,26.7055824056515],[89.6400979353966,26.705106501321],[89.6396696436251,26.7048090624229],[89.63930083286121,26.7044640345988],[89.6386108025849,26.7041308905291],[89.6382419895186,26.703881042878702],[89.63777800042341,26.70347652309],[89.636647787325,26.7024771292219],[89.6362313826472,26.7022986607734],[89.6360291339992,26.702262956762702],[89.6356246301559,26.7020487984818],[89.6353391086147,26.7017275723277],[89.63495839672831,26.701430124359902],[89.6344349306537,26.700906633196702],[89.6340899175297,26.7006567860121],[89.6338162839457,26.7004188302418],[89.6333998895559,26.7002284617731],[89.63274553516591,26.700061888705502],[89.632174476329,26.6996573668312],[89.6316866923996,26.6994551069488],[89.6313416778374,26.6992647398732],[89.6309014849439,26.699014890833002],[89.63043750239571,26.6987531413073],[89.6299616181503,26.698562771679303],[89.62940244266821,26.6984318905344],[89.6289265589983,26.6982177308636],[89.62837928578911,26.697991669778702],[89.628046171486,26.6977894129144],[89.6274751074717,26.6975990414306],[89.6271062915293,26.697468163999602],[89.6265828179752,26.697254003401202],[89.6261307242483,26.697039844195203],[89.6257143289968,26.6968851657935],[89.6251551538038,26.6967423846285],[89.6245246165502,26.696278381490302],[89.62396545113731,26.695731089593902],[89.6233825043435,26.6952432873417],[89.6228828241836,26.6948863669507],[89.62254970419541,26.6945056397652],[89.6221333236121,26.693744200267602],[89.621824013056,26.692970872836902],[89.6216693552221,26.6924830789388],[89.6213661801937,26.6910681005083]]]},"properties":{"compartment":"Phaskhawa BL2","Division":"BTR_E","Range":"Jainti","Beat":"Bhutiabasti","DIVISION":"BTR_E","BEAT_NAME":"Bhutiabasti"},"id":"comptt.163"}
]}
