{"type":"FeatureCollection", "features": [
{"type":"Feature","geometry":{"type":"Polygon","coordinates":[[[89.61746834489941,26.7746597853412],[89.6171897536344,26.7751519107813],[89.6167137255224,26.7763579036481],[89.61591367064631,26.778698892224103],[89.614088640757,26.7801138590819],[89.612504620598,26.7811038298852],[89.6107626129198,26.7815957967003],[89.6085456081576,26.782015754095102],[89.6058536028659,26.7825057023251],[89.6033195937441,26.783137653899303],[89.6003925942388,26.783413597148],[89.5977805922169,26.7837615466863],[89.5961995821245,26.7843375167966],[89.5938376648389,26.7811704649378],[89.59205670110521,26.7798574277632],[89.5905197575712,26.7776873938325],[89.5891498119695,26.7755853632928],[89.58810584612,26.774284340559902],[89.5859739243271,26.771278293519103],[89.58542595979411,26.769872280300202],[89.584208020518,26.767493252252702],[89.5838910363171,26.7668742449539],[89.5836840860208,26.7648462372947],[89.5850611295762,26.7629102607546],[89.58591917023911,26.761146274376102],[89.5871414368103,26.7595138653475],[89.5886167729852,26.7566347390351],[89.5889737082592,26.7559684948193],[89.58944961958531,26.7550405124602],[89.5904173024141,26.7535880687713],[89.59082181497351,26.753028905674903],[89.5912620285987,26.7524221431906],[89.591714140752,26.751874881044802],[89.59213056443521,26.7512681280952],[89.5927254388329,26.7506137785461],[89.5932608319345,26.750018927941102],[89.59403417618141,26.749352691856302],[89.59478372019831,26.7486983553272],[89.5954737711898,26.748174887869702],[89.5961757215756,26.7476752106869],[89.59694905890281,26.7472945151112],[89.5977461838654,26.7470089901704],[89.5986515634138,26.7469232344551],[89.59886927332771,26.747330042684002],[89.5990691424566,26.747758347356],[89.5992594804552,26.7482342419272],[89.5995830753581,26.7488243593066],[89.5998305234464,26.7492907449768],[89.6001446002176,26.7498047120342],[89.6007822808881,26.750537595806403],[89.6011153938414,26.7507945827752],[89.6013914083189,26.7509944685262],[89.6015151329395,26.7512038613191],[89.6015722358775,26.751489402947],[89.6017054463248,26.7531074384528],[89.6018006041695,26.7540116419345],[89.6020004365252,26.7555440185888],[89.6020575302302,26.756210270900002],[89.6020955849046,26.7568384527709],[89.6021146172418,26.7571525337064],[89.602162188816,26.7574951852509],[89.6022573602735,26.757837827725503],[89.6024001234606,26.7581043309936],[89.6026380647984,26.7584374562413],[89.6031234581426,26.7590751668715],[89.6033137989043,26.7594368512406],[89.6033804229702,26.7596747929697],[89.6035041457416,26.759960335900303],[89.603656427058,26.760302979491602],[89.6038562889499,26.7606170739615],[89.6040561622269,26.7608740583292],[89.6042369846272,26.761169112393002],[89.6043607167056,26.761483205375303],[89.6047128633754,26.7619971831808],[89.6050650075056,26.7626158511747],[89.605207755612,26.7630917448197],[89.6053600265375,26.7638626891809],[89.6056360294675,26.7645384657898],[89.6060547952796,26.7650809949501],[89.60634032395801,26.765518821318],[89.6065021157104,26.7658424350622],[89.6070446216803,26.7663659266078],[89.60761567988921,26.7667942385408],[89.6082628776805,26.767232071979702],[89.6089671857937,26.7676508765012],[89.6096143965873,26.767964979718602],[89.6099379916378,26.768136306353],[89.6104995498008,26.7681553473652],[89.6108802588686,26.768155354807902],[89.6111657958601,26.7682505405614],[89.61167974467111,26.768659821345903],[89.612307910662,26.769173794552202],[89.6131740068317,26.770068493096502],[89.6138878273002,26.7708013783732],[89.6142875624633,26.771372457218],[89.6155058078369,26.7726764333885],[89.6166955058201,26.773875708814302],[89.61746834489941,26.7746597853412]]]},"properties":{"compartment":"Tobgaon BL1","Division":"BTR_E","Range":"Buxaduar","Beat":"Buxaduar","DIVISION":"BTR_E","BEAT_NAME":"Buxaduar"},"id":"comptt.203"},
{"type":"Feature","geometry":{"type":"Polygon","coordinates":[[[89.636486667507,26.776763291086702],[89.6357016618627,26.7770742762978],[89.63434965215801,26.7776092508253],[89.6333206478124,26.777891231210702],[89.6312636494893,26.7780281912263],[89.6292856595968,26.777810152144102],[89.62715267872831,26.7772361093872],[89.6253347004936,26.776522072539702],[89.6228867307403,26.775522022857],[89.6206747621372,26.7744509776652],[89.619408775642,26.7740219521343],[89.6183807782259,26.7740189320269],[89.6176677731231,26.7743009185934],[89.61753676766621,26.7745389164611],[89.61746834489941,26.7746597853412],[89.6166955058201,26.773875708814302],[89.6155058078369,26.7726764333885],[89.6142875624633,26.771372457218],[89.6138878273002,26.7708013783732],[89.6131740068317,26.770068493096502],[89.612307910662,26.769173794552202],[89.61167974467111,26.768659821345903],[89.6111657958601,26.7682505405614],[89.6108802588686,26.768155354807902],[89.6104995498008,26.7681553473652],[89.6099379916378,26.768136306353],[89.6096143965873,26.767964979718602],[89.6089671857937,26.7676508765012],[89.6082628776805,26.767232071979702],[89.60761567988921,26.7667942385408],[89.6070446216803,26.7663659266078],[89.6065021157104,26.7658424350622],[89.60634032395801,26.765518821318],[89.6060547952796,26.7650809949501],[89.6056360294675,26.7645384657898],[89.6053600265375,26.7638626891809],[89.605207755612,26.7630917448197],[89.6050650075056,26.7626158511747],[89.6047128633754,26.7619971831808],[89.6043607167056,26.761483205375303],[89.6042369846272,26.761169112393002],[89.6040561622269,26.7608740583292],[89.6038562889499,26.7606170739615],[89.603656427058,26.760302979491602],[89.6035041457416,26.759960335900303],[89.6033804229702,26.7596747929697],[89.6033137989043,26.7594368512406],[89.6031234581426,26.7590751668715],[89.6026380647984,26.7584374562413],[89.6024001234606,26.7581043309936],[89.6022573602735,26.757837827725503],[89.602162188816,26.7574951852509],[89.6021146172418,26.7571525337064],[89.6020955849046,26.7568384527709],[89.6020575302302,26.756210270900002],[89.6020004365252,26.7555440185888],[89.6018006041695,26.7540116419345],[89.6017054463248,26.7531074384528],[89.6015722358775,26.751489402947],[89.6015151329395,26.7512038613191],[89.6013914083189,26.7509944685262],[89.6011153938414,26.7507945827752],[89.6007822808881,26.750537595806403],[89.6001446002176,26.7498047120342],[89.5998305234464,26.7492907449768],[89.5995830753581,26.7488243593066],[89.5992594804552,26.7482342419272],[89.5990691424566,26.747758347356],[89.59886927332771,26.747330042684002],[89.5986515634138,26.7469232344551],[89.59887642368591,26.7469019320563],[89.59999476921121,26.7469733440298],[89.6013986394239,26.747235111922702],[89.6029452781345,26.747544472690603],[89.603575821687,26.7477467353713],[89.6040279188488,26.7478181343312],[89.6050391797387,26.748091794577903],[89.6059433668542,26.7485320130327],[89.60653821386231,26.7490079155091],[89.6070378934106,26.749388635955402],[89.6076684423499,26.7497812589802],[89.608203814983,26.7500311198891],[89.608965229659,26.750173895021803],[89.6097742473914,26.750185810849402],[89.61070223742911,26.7500906488086],[89.6118681843848,26.749686160859902],[89.6127128932797,26.749234086549002],[89.6136171049139,26.7486630331857],[89.614735469775,26.7479373137268],[89.6154374219039,26.7473662564107],[89.6161274729085,26.746842788947703],[89.6168770178055,26.7461527523459],[89.6175670831358,26.745450824560002],[89.6179834950964,26.7449154517283],[89.6184475129959,26.744130239375302],[89.61869736824531,26.743475893074702],[89.6187568805896,26.7425479025616],[89.61867360376681,26.7420125199681],[89.6182215298604,26.7413938500207],[89.6177337537344,26.7408703595482],[89.6170675171784,26.7403825556547],[89.6164012840816,26.739751981504202],[89.6158540195412,26.7391690097637],[89.6153900424915,26.738681209822],[89.61471191749351,26.737717514840202],[89.6143550139289,26.737075046711603],[89.61399811036371,26.7364325885834],[89.6137006963647,26.7358020216387],[89.6134984618447,26.7351833565743],[89.61316535369541,26.7343148485042],[89.6128393268453,26.7333558583767],[89.6129837788712,26.733293753118502],[89.6136637842846,26.7330017658705],[89.614767791595,26.7325887866835],[89.6188978247152,26.7308058641103],[89.6192308088882,26.731425871732],[89.6209637426618,26.7339859101969],[89.6228546863645,26.736119950983703],[89.6245346377236,26.737958987121303],[89.6265816172894,26.7385970282577],[89.629227586607,26.7395980817545],[89.6317955561418,26.740598133730302],[89.63380653597271,26.7412291741595],[89.63429397247211,26.7413248738553],[89.6337203260317,26.7420606039848],[89.6334538160668,26.742498419573202],[89.6332920046945,26.7429838272932],[89.6332158551903,26.7433835765312],[89.6331777714411,26.743954646823802],[89.6332729320622,26.7447446301169],[89.6333966529952,26.7451063131907],[89.6335298927513,26.7455155865368],[89.633615544007,26.7458677488496],[89.633615535009,26.746238939523302],[89.6335584101503,26.746857599530202],[89.6333870764911,26.7474381872365],[89.633177671078,26.7480949143369],[89.6329682538182,26.748827791575202],[89.6325399283204,26.749922335192],[89.6323495597824,26.7502935321456],[89.63210208815231,26.7507979682251],[89.6319022084832,26.751216755079],[89.6317784558598,26.7517497536276],[89.6317118281749,26.752073352912703],[89.6316832692433,26.7524445530279],[89.6317593965955,26.752958515448],[89.63193070556261,26.7533963395901],[89.632159126468,26.753748504693],[89.6324636885732,26.754043571180603],[89.632872945808,26.7545289900597],[89.6331679877054,26.7548335663788],[89.63333930036491,26.7551191002451],[89.6334344725164,26.7554331926753],[89.63348205663,26.7556711440373],[89.63345348838921,26.7560137841009],[89.6333487901022,26.7563659426938],[89.6331869717229,26.7567276201875],[89.6329299817278,26.757165435959102],[89.6327205839255,26.7575080724882],[89.6324445560541,26.757860227732],[89.6320638349739,26.7583551511885],[89.6318258777023,26.7586787571244],[89.6316640723238,26.758916694393303],[89.6315593654211,26.759211742881803],[89.63157838505741,26.7600493247728],[89.6316354224155,26.7630379313089],[89.6316258763441,26.7641134430731],[89.6315782672918,26.764903433575203],[89.6314450049138,26.765426911919402],[89.6312451168545,26.7657790686501],[89.6310071707355,26.7660550744985],[89.6305217450557,26.766749876267703],[89.6302361888896,26.7674446719444],[89.630131485517,26.7680062209152],[89.6300838857006,26.7684154907264],[89.6300743421631,26.7693863122997],[89.63014094883431,26.7699288345855],[89.6303598542105,26.7705094299185],[89.6309118590736,26.7714897724899],[89.6313401383947,26.772298802332003],[89.6317684277151,26.773107832174702],[89.6322347780977,26.773869262675902],[89.6325774040945,26.774411790360702],[89.6330342481958,26.7750209404006],[89.6338337279978,26.775772867401002],[89.6345475581751,26.776106011966903],[89.6351852392309,26.7764105949919],[89.63571823308341,26.776610475779503],[89.636486667507,26.776763291086702]]]},"properties":{"compartment":"Tobgaon BL2","Division":"BTR_E","Range":"Buxaduar","Beat":"Buxaduar","DIVISION":"BTR_E","BEAT_NAME":"Buxaduar"},"id":"comptt.199"},
{"type":"Feature","geometry":{"type":"Polygon","coordinates":[[[89.63429397247211,26.7413248738553],[89.6357065223281,26.7416022119537],[89.6367725076519,26.742101233685503],[89.6373044955781,26.7425462448874],[89.6379364853949,26.742903257883402],[89.63928047690611,26.7431192845338],[89.6399084529895,26.744043298484],[89.6405384187164,26.745394313251],[89.6406153927123,26.7464593166933],[89.6405303550494,26.7480213178745],[89.6406833116429,26.749796324094],[89.6409132663245,26.7516423319477],[89.64146221331771,26.753773346555302],[89.6425621623916,26.7557633716774],[89.6432681141362,26.757682388971702],[89.6445300713968,26.759318416621202],[89.6461840259598,26.7610264520684],[89.6473669902968,26.7623784776618],[89.6483129535062,26.7638004987513],[89.6487029146349,26.7653635092285],[89.64869888365361,26.7666405114803],[89.6484598601069,26.7676345086204],[89.6481378178274,26.76940850556],[89.6474227937537,26.7704714935164],[89.6459167733651,26.7714614658692],[89.64441076159571,26.7720964375738],[89.6429067549939,26.7725184089287],[89.64172175274301,26.7727293861377],[89.6402937356186,26.7735773597531],[89.6394207188242,26.774356344096102],[89.6382306924808,26.775560323011],[89.636486667507,26.776763291086702],[89.63571823308341,26.776610475779503],[89.6351852392309,26.7764105949919],[89.6345475581751,26.776106011966903],[89.6338337279978,26.775772867401002],[89.6330342481958,26.7750209404006],[89.6325774040945,26.774411790360702],[89.6322347780977,26.773869262675902],[89.6317684277151,26.773107832174702],[89.6313401383947,26.772298802332003],[89.6309118590736,26.7714897724899],[89.6303598542105,26.7705094299185],[89.63014094883431,26.7699288345855],[89.6300743421631,26.7693863122997],[89.6300838857006,26.7684154907264],[89.630131485517,26.7680062209152],[89.6302361888896,26.7674446719444],[89.6305217450557,26.766749876267703],[89.6310071707355,26.7660550744985],[89.6312451168545,26.7657790686501],[89.6314450049138,26.765426911919402],[89.6315782672918,26.764903433575203],[89.6316258763441,26.7641134430731],[89.6316354224155,26.7630379313089],[89.63157838505741,26.7600493247728],[89.6315593654211,26.759211742881803],[89.6316640723238,26.758916694393303],[89.6318258777023,26.7586787571244],[89.6320638349739,26.7583551511885],[89.6324445560541,26.757860227732],[89.6327205839255,26.7575080724882],[89.6329299817278,26.757165435959102],[89.6331869717229,26.7567276201875],[89.6333487901022,26.7563659426938],[89.63345348838921,26.7560137841009],[89.63348205663,26.7556711440373],[89.6334344725164,26.7554331926753],[89.63333930036491,26.7551191002451],[89.6331679877054,26.7548335663788],[89.632872945808,26.7545289900597],[89.6324636885732,26.754043571180603],[89.632159126468,26.753748504693],[89.63193070556261,26.7533963395901],[89.6317593965955,26.752958515448],[89.6316832692433,26.7524445530279],[89.6317118281749,26.752073352912703],[89.6317784558598,26.7517497536276],[89.6319022084832,26.751216755079],[89.63210208815231,26.7507979682251],[89.6323495597824,26.7502935321456],[89.6325399283204,26.749922335192],[89.6329682538182,26.748827791575202],[89.633177671078,26.7480949143369],[89.6333870764911,26.7474381872365],[89.6335584101503,26.746857599530202],[89.633615535009,26.746238939523302],[89.633615544007,26.7458677488496],[89.6335298927513,26.7455155865368],[89.6333966529952,26.7451063131907],[89.6332729320622,26.7447446301169],[89.6331777714411,26.743954646823802],[89.6332158551903,26.7433835765312],[89.6332920046945,26.7429838272932],[89.6334538160668,26.742498419573202],[89.6337203260317,26.7420606039848],[89.63429397247211,26.7413248738553]]]},"properties":{"compartment":"Tobgaon BL3","Division":"BTR_E","Range":"Buxaduar","Beat":"Buxaduar","DIVISION":"BTR_E","BEAT_NAME":"Buxaduar"},"id":"comptt.197"},
{"type":"Feature","geometry":{"type":"Polygon","coordinates":[[[89.5986515634138,26.7469232344551],[89.5977461838654,26.7470089901704],[89.59694905890281,26.7472945151112],[89.5961757215756,26.7476752106869],[89.5954737711898,26.748174887869702],[89.59478372019831,26.7486983553272],[89.59403417618141,26.749352691856302],[89.5932608319345,26.750018927941102],[89.5927254388329,26.7506137785461],[89.59213056443521,26.7512681280952],[89.591714140752,26.751874881044802],[89.5912620285987,26.7524221431906],[89.59082181497351,26.753028905674903],[89.5904173024141,26.7535880687713],[89.58944961958531,26.7550405124602],[89.5889737082592,26.7559684948193],[89.5886167729852,26.7566347390351],[89.5871414368103,26.7595138653475],[89.58591917023911,26.761146274376102],[89.58588618128191,26.7606942729252],[89.58424519175901,26.7604292403866],[89.58192920577311,26.760087194522402],[89.5789112274438,26.759501134509403],[89.5764172490604,26.758864084647502],[89.5730222794354,26.757958016708002],[89.5710582947288,26.7575279775746],[89.56894730653511,26.7572569358529],[89.5680798426705,26.7570890490579],[89.567960313615,26.7570659162326],[89.5661523301523,26.756568880032102],[89.5642383506881,26.7559178414903],[89.5619093929822,26.7544117933328],[89.5605024176896,26.753536764304002],[89.5604044194118,26.753475762282],[89.55984042934631,26.7531237506441],[89.55949643536461,26.752910743548902],[89.557952501877,26.750324708827502],[89.5584655341127,26.7489417164049],[89.55893309705411,26.748766794869102],[89.561357553137,26.747859770971303],[89.5640025670147,26.7470158211325],[89.5669746114138,26.7448788753874],[89.570830656534,26.7426219466841],[89.5727586824766,26.7413539820813],[89.5738986871407,26.7410450037926],[89.5741561582815,26.740975139010402],[89.5772447008618,26.7401370675135],[89.5808677023783,26.7397051374882],[89.58396070281461,26.7393721972902],[89.586246708275,26.7389142411111],[89.5892396978773,26.739039299778],[89.5913836704367,26.739954343279603],[89.5915646701853,26.7399463467999],[89.5916296708007,26.739914348012],[89.5943107071855,26.738140397193103],[89.5955907295247,26.737088420305],[89.5965377421208,26.736472437693802],[89.596782185893,26.7363135129859],[89.59770975770181,26.7357104592139],[89.5998047664909,26.7351354990905],[89.60076077051771,26.7348725172858],[89.6023127730369,26.734611547122],[89.6049627749294,26.734265598245102],[89.6064487727714,26.734204627151502],[89.6077797802951,26.733759652341103],[89.6088227792957,26.733695672592003],[89.6095817778772,26.7336776873802],[89.61051677476961,26.733711705698802],[89.6116897689017,26.733835728827],[89.6124627747172,26.7335177433485],[89.6128393268453,26.7333558583767],[89.61316535369541,26.7343148485042],[89.6134984618447,26.7351833565743],[89.6137006963647,26.7358020216387],[89.61399811036371,26.7364325885834],[89.6143550139289,26.737075046711603],[89.61471191749351,26.737717514840202],[89.6153900424915,26.738681209822],[89.6158540195412,26.7391690097637],[89.6164012840816,26.739751981504202],[89.6170675171784,26.7403825556547],[89.6177337537344,26.7408703595482],[89.6182215298604,26.7413938500207],[89.61867360376681,26.7420125199681],[89.6187568805896,26.7425479025616],[89.61869736824531,26.743475893074702],[89.6184475129959,26.744130239375302],[89.6179834950964,26.7449154517283],[89.6175670831358,26.745450824560002],[89.6168770178055,26.7461527523459],[89.6161274729085,26.746842788947703],[89.6154374219039,26.7473662564107],[89.614735469775,26.7479373137268],[89.6136171049139,26.7486630331857],[89.6127128932797,26.749234086549002],[89.6118681843848,26.749686160859902],[89.61070223742911,26.7500906488086],[89.6097742473914,26.750185810849402],[89.608965229659,26.750173895021803],[89.608203814983,26.7500311198891],[89.6076684423499,26.7497812589802],[89.6070378934106,26.749388635955402],[89.60653821386231,26.7490079155091],[89.6059433668542,26.7485320130327],[89.6050391797387,26.748091794577903],[89.6040279188488,26.7478181343312],[89.603575821687,26.7477467353713],[89.6029452781345,26.747544472690603],[89.6013986394239,26.747235111922702],[89.59999476921121,26.7469733440298],[89.59887642368591,26.7469019320563],[89.5986515634138,26.7469232344551]]]},"properties":{"compartment":"Tobgaon BL4","Division":"BTR_E","Range":"Buxaduar","Beat":"Buxaduar","DIVISION":"BTR_E","BEAT_NAME":"Buxaduar"},"id":"comptt.190"}
]}
