{"type":"FeatureCollection", "features": [
{"type":"Feature","geometry":{"type":"Polygon","coordinates":[[[89.5641648303726,26.7218210781661],[89.5628323126581,26.7218676628363],[89.5586823158559,26.7221615823982],[89.5550503199318,26.7223665119089],[89.5532023156313,26.7227344765076],[89.550201318828,26.7229114182787],[89.5497813173353,26.7230164102703],[89.5496723169782,26.7230424081898],[89.5471626119867,26.72309599142],[89.5469583223462,26.7231003553509],[89.545898324291,26.7231293347251],[89.5453173414161,26.7224813222551],[89.5444403744695,26.7212053029108],[89.5438524504267,26.7181252860413],[89.5432055113587,26.7156722691229],[89.5413845966115,26.712334227764],[89.5411126051721,26.7120082218894],[89.541424296415,26.7119245978202],[89.5419168484632,26.7117889771864],[89.5427163495724,26.71166050255],[89.5433873501402,26.7115677154706],[89.5439869805413,26.7114892070247],[89.5448935500042,26.7114178445761],[89.5461570485775,26.7113464790872],[89.5476917959581,26.7112965389249],[89.5495334920579,26.7112680247858],[89.5535880814444,26.7112895138852],[89.5543590296986,26.7112823989059],[89.5548944062959,26.7113680694965],[89.5554868817161,26.7114965712761],[89.5560936474461,26.7116107933093],[89.5566432964246,26.7115965340024],[89.5570237750429,26.7116145714537],[89.5575234531106,26.7116431412479],[89.5579660323561,26.7116288698533],[89.5585656546532,26.7118858619995],[89.558865451482,26.7123998287523],[89.5591081318933,26.71318506487],[89.5593365485532,26.7137133102565],[89.5596220826658,26.7139274662029],[89.5599218891595,26.7140416822513],[89.5603930152276,26.7141559116409],[89.5607356612698,26.7142844085503],[89.5611068510389,26.714255855739],[89.5612067831957,26.7145699482425],[89.5613209860074,26.7148554909739],[89.561506578642,26.7151410250977],[89.5618063796117,26.7154836815498],[89.5622346730122,26.7161261410378],[89.5627057787099,26.7170826919159],[89.5631055073457,26.7179250312007],[89.5633910204079,26.7185960479553],[89.5635623361702,26.7191671223059],[89.5638050100137,26.7202236089065],[89.5640048660341,26.7211944345207],[89.5641648303726,26.7218210781661]]]},"properties":{"compartment":"N RVBK BL1","Division":"BTR_E","Range":"Buxaduar","Beat":"Buxaroad"},"id":"comptt.166"},
{"type":"Feature","geometry":{"type":"Polygon","coordinates":[[[89.5821175999561,26.7080160144342],[89.5832206016874,26.707832035617],[89.5846466036884,26.7076040630206],[89.5852146042002,26.7075250739569],[89.5856685782041,26.7085540846435],[89.5859055526923,26.7095850911021],[89.5856075074824,26.7114850886744],[89.584186486944,26.7124790627282],[89.5830964613104,26.7136500435517],[89.5808484384836,26.7148230017893],[89.5798714399987,26.7148599827979],[89.5788174361663,26.7151259627115],[89.5785574311728,26.7153589580539],[89.5774134147451,26.7161549371526],[89.5767204012675,26.7167829247496],[89.5761113967977,26.7170299133085],[89.5759423752045,26.7179399116268],[89.5757783553638,26.7187769099129],[89.5750793398926,26.7194878975384],[89.5748313257737,26.7200968937806],[89.5739593143103,26.7206598777676],[89.5729043033727,26.7212198581787],[89.5708713085735,26.7212128185049],[89.569722302879,26.7215657967145],[89.5676003010969,26.7218567558322],[89.5669823058463,26.7217237435406],[89.5653439085655,26.7217803124204],[89.5642903102732,26.7218166911889],[89.5641648303726,26.7218210781661],[89.5640048660341,26.7211944345207],[89.5638050100137,26.7202236089065],[89.5635623361702,26.7191671223059],[89.5633910204079,26.7185960479553],[89.5631055073457,26.7179250312007],[89.5627057787099,26.7170826919159],[89.5622346730122,26.7161261410378],[89.5618063796117,26.7154836815498],[89.561506578642,26.7151410250977],[89.5613209860074,26.7148554909739],[89.5612067831957,26.7145699482425],[89.5611068510389,26.714255855739],[89.5614427502766,26.7142529022848],[89.5617163910359,26.7141934175164],[89.5619900332336,26.7140744526431],[89.562144696302,26.7139316854073],[89.562299368795,26.7138127182137],[89.5624659335599,26.7135985710839],[89.5626087066578,26.7134558036162],[89.5626919927801,26.7131940647781],[89.5627276893081,26.7129204249909],[89.5627039079972,26.7125635038966],[89.5625968351669,26.7122779613041],[89.5623945934353,26.7119567367927],[89.5622637306639,26.7116711937364],[89.5620971694189,26.711326169879],[89.562061487274,26.7110049386158],[89.5620614938898,26.7107312981327],[89.5621804784843,26.7105290500958],[89.5625849797818,26.7104338778156],[89.5631084684834,26.7104338880237],[89.563608148107,26.7103982077047],[89.56431008838,26.7103149412457],[89.5649406496932,26.7101959833317],[89.5657258729248,26.7099818382653],[89.5663088478083,26.7097201091707],[89.5668918247053,26.7093750999286],[89.5676175612492,26.7090300934701],[89.5683195138256,26.7088516468424],[89.5692831966174,26.7086375152553],[89.5702706687762,26.708447174174],[89.5711272806839,26.708280630583],[89.572257523354,26.7080546022223],[89.5731855150868,26.7078880600231],[89.5743276542781,26.7078048021474],[89.5763977897411,26.7077810424739],[89.5771830080904,26.707769167765],[89.5780634059179,26.7077691849336],[89.5787891321141,26.7078524792339],[89.5798360983814,26.7079000897354],[89.5806213152949,26.7079476951328],[89.5815730926615,26.7079596037151],[89.5821175999561,26.7080160144342]]]},"properties":{"compartment":"N RVBK BL2","Division":"BTR_E","Range":"Buxaduar","Beat":"Buxaroad"},"id":"comptt.165"},
{"type":"Feature","geometry":{"type":"Polygon","coordinates":[[[89.5570237750429,26.7116145714537],[89.5566432964246,26.7115965340024],[89.5560936474461,26.7116107933093],[89.5554868817161,26.7114965712761],[89.5548944062959,26.7113680694965],[89.5543590296986,26.7112823989059],[89.5535880814444,26.7112895138852],[89.5495334920579,26.7112680247858],[89.5476917959581,26.7112965389249],[89.5461570485775,26.7113464790872],[89.5448935500042,26.7114178445761],[89.5439869805413,26.7114892070247],[89.5433873501402,26.7115677154706],[89.5427163495724,26.71166050255],[89.5419168484632,26.7117889771864],[89.541424296415,26.7119245978202],[89.5411126051721,26.7120082218894],[89.5357987719394,26.7056581071762],[89.5318538573016,26.7025340248227],[89.5312782034834,26.7019239425378],[89.5325394177337,26.7016172965835],[89.5339099912012,26.7013317827973],[89.5358326044387,26.700998699687],[89.5374316077988,26.7006941603192],[89.5389449395355,26.7004657594146],[89.5404202099895,26.7002944678681],[89.5416099388585,26.7002183509231],[89.5430185778726,26.7001136781949],[89.5447413049552,26.700056601672],[89.5463593332212,26.699961453042],[89.5471493135519,26.6998662982724],[89.5482629083664,26.6995522294259],[89.5503092524699,26.6991715486422],[89.5538023078084,26.6985910357044],[89.5548587895518,26.6984102159782],[89.5568575273463,26.6982960347352],[89.5588534757651,26.6981564433932],[89.5588229587144,26.6984514033187],[89.5587229913666,26.6995935433849],[89.5585801875689,26.7010069430944],[89.5583945493844,26.7030199730261],[89.5581946246812,26.704890222427],[89.5579233277428,26.7064463898819],[89.5577091420401,26.7079454483491],[89.5575235173079,26.7089876565674],[89.5573236295126,26.7097443240038],[89.5572379531587,26.7104296035413],[89.5570951697076,26.7110006717637],[89.5570237750429,26.7116145714537]]]},"properties":{"compartment":"N RVBK BL3","Division":"BTR_E","Range":"Buxaduar","Beat":"Buxaroad"},"id":"comptt.158"},
{"type":"Feature","geometry":{"type":"Polygon","coordinates":[[[89.5611068510389,26.714255855739],[89.5607356612698,26.7142844085503],[89.5603930152276,26.7141559116409],[89.5599218891595,26.7140416822513],[89.5596220826658,26.7139274662029],[89.5593365485532,26.7137133102565],[89.5591081318933,26.71318506487],[89.558865451482,26.7123998287523],[89.5585656546532,26.7118858619995],[89.5579660323561,26.7116288698533],[89.5575234531106,26.7116431412479],[89.5570237750429,26.7116145714537],[89.5570951697076,26.7110006717637],[89.5572379531587,26.7104296035413],[89.5573236295126,26.7097443240038],[89.5575235173079,26.7089876565674],[89.5577091420401,26.7079454483491],[89.5579233277428,26.7064463898819],[89.5581946246812,26.704890222427],[89.5583945493844,26.7030199730261],[89.5585801875689,26.7010069430944],[89.5587229913666,26.6995935433849],[89.5588229587144,26.6984514033187],[89.5588534757651,26.6981564433932],[89.5591703655144,26.6981342795308],[89.5616164517471,26.6980391470417],[89.5633867701189,26.6979249713473],[89.5651666000795,26.6977441657206],[89.5672319700265,26.6975348056093],[89.5702681671165,26.697344514456],[89.571181877618,26.6972303120645],[89.5722098099075,26.6970304617477],[89.5723735112233,26.6969428952391],[89.5734488663979,26.6978768274018],[89.5755087965994,26.7005548723115],[89.5778307289752,26.7031159221295],[89.5803466734613,26.7051559748129],[89.5813766371515,26.7065529973817],[89.5821175999561,26.7080160144342],[89.5815730926615,26.7079596037151],[89.5806213152949,26.7079476951328],[89.5798360983814,26.7079000897354],[89.5787891321141,26.7078524792339],[89.5780634059179,26.7077691849336],[89.5771830080904,26.707769167765],[89.5763977897411,26.7077810424739],[89.5743276542781,26.7078048021474],[89.5731855150868,26.7078880600231],[89.572257523354,26.7080546022223],[89.5711272806839,26.708280630583],[89.5702706687762,26.708447174174],[89.5692831966174,26.7086375152553],[89.5683195138256,26.7088516468424],[89.5676175612492,26.7090300934701],[89.5668918247053,26.7093750999286],[89.5663088478083,26.7097201091707],[89.5657258729248,26.7099818382653],[89.5649406496932,26.7101959833317],[89.56431008838,26.7103149412457],[89.563608148107,26.7103982077047],[89.5631084684834,26.7104338880237],[89.5625849797818,26.7104338778156],[89.5621804784843,26.7105290500958],[89.5620614938898,26.7107312981327],[89.562061487274,26.7110049386158],[89.5620971694189,26.711326169879],[89.5622637306639,26.7116711937364],[89.5623945934353,26.7119567367927],[89.5625968351669,26.7122779613041],[89.5627039079972,26.7125635038966],[89.5627276893081,26.7129204249909],[89.5626919927801,26.7131940647781],[89.5626087066578,26.7134558036162],[89.5624659335599,26.7135985710839],[89.562299368795,26.7138127182137],[89.562144696302,26.7139316854073],[89.5619900332336,26.7140744526431],[89.5617163910359,26.7141934175164],[89.5614427502766,26.7142529022848],[89.5611068510389,26.714255855739]]]},"properties":{"compartment":"N RVBK BL4","Division":"BTR_E","Range":"Buxaduar","Beat":"Buxaroad"},"id":"comptt.161"},
{"type":"Feature","geometry":{"type":"Polygon","coordinates":[[[89.5723735112233,26.6969428952391],[89.5722098099075,26.6970304617477],[89.571181877618,26.6972303120645],[89.5702681671165,26.697344514456],[89.5672319700265,26.6975348056093],[89.5651666000795,26.6977441657206],[89.5633867701189,26.6979249713473],[89.5616164517471,26.6980391470417],[89.5591703655144,26.6981342795308],[89.5588534757651,26.6981564433932],[89.5588657986111,26.6980373834233],[89.5586802056253,26.6977661193273],[89.5581805351435,26.6974234689838],[89.5572097323869,26.6963955182495],[89.556410265755,26.6955103411075],[89.5547970249379,26.6940540771011],[89.5536263657785,26.6928976322508],[89.5523985946903,26.6914128257115],[89.5512993201777,26.6900565019048],[89.5508710353779,26.6894711525299],[89.5508282103111,26.6892712713439],[89.5507907798579,26.6888968524593],[89.551352140283,26.6888043807311],[89.5539431420546,26.6884644306172],[89.5567911459952,26.6880084853061],[89.5597701481934,26.6876115426513],[89.5631371480138,26.6872736076605],[89.5663651542487,26.6866846695175],[89.5668931552853,26.6865876796341],[89.5706481569451,26.6861347519997],[89.5736861560872,26.6858598107096],[89.5726431027071,26.6881767944938],[89.5717930515751,26.6903807818359],[89.571464022944,26.6915997775843],[89.5713949796341,26.6933997794292],[89.571322937729,26.6951417811125],[89.571770905746,26.6964197921097],[89.5723618918914,26.696932804539],[89.5723735112233,26.6969428952391]]]},"properties":{"compartment":"N RVBK BL8","Division":"BTR_E","Range":"Buxaduar","Beat":"Buxaroad"},"id":"comptt.144"},
{"type":"Feature","geometry":{"type":"Polygon","coordinates":[[[89.5588534757651,26.6981564433932],[89.5568575273463,26.6982960347352],[89.5548587895518,26.6984102159782],[89.5538023078084,26.6985910357044],[89.5503092524699,26.6991715486422],[89.5482629083664,26.6995522294259],[89.5471493135519,26.6998662982724],[89.5463593332212,26.699961453042],[89.5447413049552,26.700056601672],[89.5430185778726,26.7001136781949],[89.5416099388585,26.7002183509231],[89.5404202099895,26.7002944678681],[89.5389449395355,26.7004657594146],[89.5374316077988,26.7006941603192],[89.5358326044387,26.700998699687],[89.5339099912012,26.7013317827973],[89.5325394177337,26.7016172965835],[89.5312782034834,26.7019239425378],[89.5311678765848,26.7018070101833],[89.5311028784147,26.701738008796],[89.5303678990522,26.7009599931135],[89.5288869405948,26.699393961519],[89.5275349757491,26.6980789328792],[89.525883060658,26.6947348948618],[89.5257811414478,26.6913998870651],[89.5281741410267,26.6911689332841],[89.5321251420229,26.6907180094735],[89.5351661398016,26.6904950683317],[89.5367211357945,26.6905000986369],[89.5389861369711,26.6902171422717],[89.541640138558,26.6898771933857],[89.544360141387,26.6894792456838],[89.5471451412354,26.6891982994533],[89.5492151401403,26.6890303394904],[89.5503081387256,26.6889763606919],[89.5507907798579,26.6888968524593],[89.5508282103111,26.6892712713439],[89.5508710353779,26.6894711525299],[89.5512993201777,26.6900565019048],[89.5523985946903,26.6914128257115],[89.5536263657785,26.6928976322508],[89.5547970249379,26.6940540771011],[89.556410265755,26.6955103411075],[89.5572097323869,26.6963955182495],[89.5581805351435,26.6974234689838],[89.5586802056253,26.6977661193273],[89.5588657986111,26.6980373834233],[89.5588534757651,26.6981564433932]]]},"properties":{"compartment":"N RVBK BL9","Division":"BTR_E","Range":"Buxaduar","Beat":"Buxaroad"},"id":"comptt.150"}
]}