{"type":"FeatureCollection", "features": [
{"type":"Feature","geometry":{"type":"Polygon","coordinates":[[[89.8670381474732,26.5789942828367],[89.8660292505337,26.579374983955],[89.8642208539843,26.5798127696284],[89.8633642390021,26.5800982835219],[89.8625076298967,26.580555127752],[89.8612512593842,26.58110713439],[89.8603185027393,26.5814687969505],[89.8597859946395,26.5818541873457],[89.85978802128,26.5807471852106],[89.8597900603857,26.5791221820582],[89.8597271108459,26.577031176726],[89.85927816634,26.574766163543],[89.8588922160827,26.5727341520442],[89.8582482398796,26.5718041376911],[89.8571502618884,26.5709901147356],[89.8554692712344,26.5707560815793],[89.85391828169,26.5704640508388],[89.8528852937907,26.570056029947],[89.8520463249935,26.5688360112386],[89.851141349366,26.5679059918159],[89.8505603660455,26.5672659792633],[89.8501733710876,26.5670919713964],[89.849461376874,26.5669169572071],[89.8490093722963,26.5671489488708],[89.8479093719692,26.5672639277036],[89.8458593750977,26.5673228879518],[89.8459143766832,26.5672518888827],[89.8477334083127,26.5657689213564],[89.8484414052039,26.5658329352499],[89.8497214039543,26.5657669600124],[89.8510794139564,26.5652259853619],[89.8540174448479,26.5636710394484],[89.8562054660047,26.562590079876],[89.8577114821787,26.5617791075695],[89.8587694944859,26.561170126947],[89.8596724924691,26.5611711445078],[89.8613284904031,26.5611051765796],[89.8632894941834,26.5607682140496],[89.8659264980898,26.5603642645326],[89.8675084978305,26.5602302950318],[89.8695215046088,26.559764333258],[89.8703404791242,26.5607493511256],[89.8694444287431,26.5629263379915],[89.8692523933318,26.5644163371933],[89.8693123435575,26.5664803424271],[89.8685982656754,26.5697833350461],[89.8685422597844,26.5700333344492],[89.8687552419702,26.5707543400129],[89.8693212161126,26.5717773530388],[89.8692572010958,26.572407353035],[89.8695101922623,26.5727513586347],[89.8691281779204,26.5733823524464],[89.8689221762083,26.573472348616],[89.8708321085025,26.5761113909766],[89.8718552591121,26.5772391431081],[89.8702361683772,26.5778331627757],[89.8685039075303,26.5784422802701],[89.8670381474732,26.5789942828367]]]},"properties":{"compartment":"N Bholka BL4","Division":"BuxaTR_EAST","Range":"Bholka","Beat":"Chengmari","beat":"Chengmari"},"id":"comptt.29"},
{"type":"Feature","geometry":{"type":"Polygon","coordinates":[[[89.8718552591121,26.5772391431081],[89.8719770756128,26.5773734157432],[89.8721680717993,26.5775144197377],[89.8733790476683,26.578406445061],[89.8750360026031,26.5801274807012],[89.8769479845624,26.5807025190445],[89.8789889855471,26.5804755583152],[89.8808999537443,26.5816225977734],[89.882557916935,26.5830006327681],[89.8848509008371,26.5834606783078],[89.8852348834312,26.5841486871445],[89.8853578362323,26.5860976933989],[89.8854837917916,26.5879316994841],[89.8863757511363,26.5895387200323],[89.8871397080606,26.5912577383122],[89.8867546868154,26.5921747326337],[89.8853496402215,26.5942367093629],[89.884556600089,26.5959746973638],[89.884503617402,26.5960910465626],[89.8828563734527,26.5955747134659],[89.8811812435485,26.595308180322],[89.8796964577254,26.5952700813368],[89.8781926428631,26.5951939019063],[89.8773550806651,26.5949464251097],[89.8767459438382,26.5948702730994],[89.871568255232,26.5948701722921],[89.8651722743815,26.5946606473584],[89.8655340076845,26.5924144399804],[89.8657815321505,26.5901301603032],[89.8657815587374,26.5890260881307],[89.8659909886113,26.58735094891],[89.8662765518977,26.5859423116952],[89.8666001946398,26.5845527052583],[89.8668096167147,26.583201176673],[89.8670000161611,26.5815450671174],[89.8670381474732,26.5789942828367],[89.8685039075303,26.5784422802701],[89.8702361683772,26.5778331627757],[89.8718552591121,26.5772391431081]]]},"properties":{"compartment":"N Bholka BL3","Division":"BuxaTR_EAST","Range":"Bholka","Beat":"Chengmari","beat":"Chengmari"},"id":"comptt.48"},
{"type":"Feature","geometry":{"type":"Polygon","coordinates":[[[89.8651722743815,26.5946606473584],[89.864810576293,26.5958598926762],[89.8646582692043,26.5965832511341],[89.8644869294059,26.5974208194458],[89.8642774976777,26.599172098813],[89.8642203612034,26.6002761698721],[89.864008550019,26.6020048491477],[89.8634731045457,26.6047709641604],[89.8627204611134,26.608301736444],[89.8609204079875,26.6061072570737],[89.8574185107848,26.6021631811352],[89.857272509494,26.6022301784238],[89.8562904970688,26.6028361604909],[89.8549794920001,26.6031671356119],[89.8535225098102,26.6025621060556],[89.8531575512662,26.6008750956434],[89.8526995723995,26.6000400850903],[89.8525726021201,26.598818080224],[89.8535356197609,26.597997097364],[89.8507907451248,26.5930450342289],[89.845558910605,26.5866549199023],[89.8486599232155,26.5858449786635],[89.8515699320449,26.5852100340488],[89.8533829419639,26.5846310681953],[89.855582962198,26.5835881089617],[89.8591389905817,26.5820821752034],[89.8597859946395,26.5818541873457],[89.8603185027393,26.5814687969505],[89.8612512593842,26.58110713439],[89.8625076298967,26.580555127752],[89.8633642390021,26.5800982835219],[89.8642208539843,26.5798127696284],[89.8660292505337,26.579374983955],[89.8670381474732,26.5789942828367],[89.8670000161611,26.5815450671174],[89.8668096167147,26.583201176673],[89.8666001946398,26.5845527052583],[89.8662765518977,26.5859423116952],[89.8659909886113,26.58735094891],[89.8657815587374,26.5890260881307],[89.8657815321505,26.5901301603032],[89.8655340076845,26.5924144399804],[89.8651722743815,26.5946606473584]]]},"properties":{"compartment":"N Bholka BL1","Division":"BuxaTR_EAST","Range":"Bholka","Beat":"Chengmari","beat":"Chengmari"},"id":"comptt.56"},
{"type":"Feature","geometry":{"type":"Polygon","coordinates":[[[89.884503617402,26.5960910465626],[89.8841995819831,26.5967586919645],[89.8850915413565,26.5983637125121],[89.8862364890873,26.6004287389001],[89.8858534540195,26.6019187343925],[89.8840644110186,26.6038657034044],[89.884828376153,26.6052427210113],[89.8857193078604,26.6079947438167],[89.8863552622265,26.6098297598408],[89.8869902083199,26.6120077765267],[89.8877531458309,26.6145297963901],[89.8857090839927,26.6172797620103],[89.8834131139482,26.6162467152267],[89.880992146954,26.6150986657841],[89.8783141722565,26.6142936120165],[89.8757631806942,26.6141765620851],[89.8735931661853,26.6149765213863],[89.8728271595792,26.6153205071409],[89.8707861669032,26.6152034671463],[89.868107178413,26.6149714144965],[89.8677261930712,26.6143984059459],[89.863166337025,26.6088453061969],[89.8627204611134,26.608301736444],[89.8634731045457,26.6047709641604],[89.864008550019,26.6020048491477],[89.8642203612034,26.6002761698721],[89.8642774976777,26.599172098813],[89.8644869294059,26.5974208194458],[89.8646582692043,26.5965832511341],[89.864810576293,26.5958598926762],[89.8651722743815,26.5946606473584],[89.871568255232,26.5948701722921],[89.8767459438382,26.5948702730994],[89.8773550806651,26.5949464251097],[89.8781926428631,26.5951939019063],[89.8796964577254,26.5952700813368],[89.8811812435485,26.595308180322],[89.8828563734527,26.5955747134659],[89.884503617402,26.5960910465626]]]},"properties":{"compartment":"N Bholka BL2","Division":"BuxaTR_EAST","Range":"Bholka","Beat":"Chengmari","beat":"Chengmari"},"id":"comptt.69"}
]}