{"type":"FeatureCollection", "features": [
{"type":"Feature","geometry":{"type":"Polygon","coordinates":[[[89.64913399712721,26.679317360538302],[89.6481069841542,26.679956341682],[89.6449899718072,26.6807772824084],[89.641989957012,26.6816882255779],[89.6396039473417,26.6823261802196],[89.6370799354958,26.6830681323585],[89.63554292876421,26.683500103176602],[89.632022913678,26.6844760363184],[89.6298779020192,26.6851729957609],[89.6284028852636,26.6860139685264],[89.6273209098225,26.6851059457849],[89.6262319288405,26.6844279233248],[89.6263354813447,26.6835659440137],[89.6263609544784,26.683353923894803],[89.62682199400061,26.6816719298357],[89.62851305434,26.6790049579675],[89.6307191106047,26.6764549963442],[89.63292816963741,26.6737900345638],[89.6339682063478,26.6721660518844],[89.6353992504928,26.6701950761923],[89.6368942944576,26.6682251017459],[89.6376093207184,26.6670661135715],[89.6380663574732,26.6654981196247],[89.63839438888711,26.664164123589202],[89.6383554172718,26.6629921206971],[89.64112152608371,26.6627657641806],[89.6469987900101,26.6624327480901],[89.6521622156749,26.6620997280924],[89.65468444595571,26.661838036761],[89.6583012264982,26.6614573865399],[89.6618704188885,26.661005355260702],[89.6660820720561,26.6604581663255],[89.6689961359952,26.6604217930442],[89.66900340354161,26.660522713371503],[89.6691073702442,26.6618917179165],[89.668532348098,26.662865708502302],[89.66731531924721,26.6641806872024],[89.6657803035893,26.6649806587566],[89.6649482737965,26.666296644958603],[89.66398925814251,26.6670396276318],[89.6631582490897,26.667496612274],[89.66270721005421,26.669157606532103],[89.6620641714742,26.6708185970465],[89.66091415627581,26.6715615759926],[89.6608461379609,26.672326576070102],[89.6608069466683,26.672797976170802],[89.6602425906331,26.6726896549707],[89.6594050265435,26.6725278283469],[89.6581772290195,26.6725468444478],[89.6574157985419,26.672642009779302],[89.6566543630072,26.6729465654943],[89.6560356906941,26.6735176244801],[89.6556168988221,26.674050617292203],[89.6551029218899,26.6748025186492],[89.6546079795103,26.6753640600284],[89.65343725886281,26.6763348589817],[89.6525616032566,26.677067723251202],[89.65107680428281,26.6780004460093],[89.650429575948,26.678409694139003],[89.649630065449,26.678923649490702],[89.64913399712721,26.679317360538302]]]},"properties":{"compartment":"Jainti BL2B","Division":"BTR_E","Range":"Hatipota","Beat":"Chuniajhora","DIVISION":"BTR_E","BEAT_NAME":"Chuniajhora"},"id":"comptt.137"},
{"type":"Feature","geometry":{"type":"Polygon","coordinates":[[[89.6689961359952,26.6604217930442],[89.6660820720561,26.6604581663255],[89.6618704188885,26.661005355260702],[89.6583012264982,26.6614573865399],[89.65468444595571,26.661838036761],[89.6521622156749,26.6620997280924],[89.6469987900101,26.6624327480901],[89.64112152608371,26.6627657641806],[89.6383554172718,26.6629921206971],[89.63833443110501,26.6624211192491],[89.6386624625142,26.661087123212603],[89.6387324931905,26.6598091222511],[89.63925452972781,26.658243129570803],[89.6402925510021,26.657258147998903],[89.6418465653902,26.656507176904],[89.6442465874977,26.6553522215513],[89.6468366035558,26.654429270320502],[89.6497516300121,26.6530433245724],[89.6511776475643,26.652174350761403],[89.6524106837704,26.6505513718111],[89.65339872784621,26.648626387533803],[89.6534517302283,26.648522388375902],[89.6552558378639,26.6484416533665],[89.657492526539,26.648275136625703],[89.6594912786562,26.647989635032502],[89.661061732372,26.6476803350534],[89.6629177154094,26.647371040635402],[89.6661299967005,26.6465858817598],[89.6684517508796,26.6461836762419],[89.6685197462792,26.646367677904802],[89.6690227121539,26.6477326902132],[89.6701047109081,26.6476777111878],[89.6704257004468,26.6480797181804],[89.6706146861493,26.648653722918603],[89.6701656678912,26.649454715646502],[89.6693336422434,26.650599701546],[89.6688166089201,26.6520316941088],[89.6687505772726,26.6533496952473],[89.66906655296751,26.654325703199202],[89.6697645319277,26.655128718276],[89.669941513285,26.655883723113803],[89.6700185050165,26.6562187252307],[89.6694404842831,26.657134715654003],[89.6696324741233,26.6575367201348],[89.669564449375,26.6585687207086],[89.669308432025,26.659312717089],[89.6689864092792,26.6602867126061],[89.6689961359952,26.6604217930442]]]},"properties":{"compartment":"Jainti BL3B","Division":"BTR_E","Range":"Hatipota","Beat":"Chuniajhora","DIVISION":"BTR_E","BEAT_NAME":"Chuniajhora"},"id":"comptt.116"},
{"type":"Feature","geometry":{"type":"Polygon","coordinates":[[[89.6684517508796,26.6461836762419],[89.6661299967005,26.6465858817598],[89.6629177154094,26.647371040635402],[89.661061732372,26.6476803350534],[89.6594912786562,26.647989635032502],[89.657492526539,26.648275136625703],[89.6552558378639,26.6484416533665],[89.6534517302283,26.648522388375902],[89.654817787122,26.646028410416502],[89.6558598209802,26.6445214279504],[89.6567688579763,26.6428974426782],[89.6577458962067,26.6412154586219],[89.65826692853,26.639823466216],[89.6583339619825,26.6384294649657],[89.6581439932488,26.6371514589241],[89.6580200271522,26.6357574539552],[89.6573770651115,26.634246438668303],[89.6566711032422,26.6327344221543],[89.65640912223411,26.6319724156583],[89.65835312012851,26.6318674533086],[89.6606191215735,26.6315834968991],[89.6626891235376,26.631297536670402],[89.6649541222216,26.6311285804525],[89.6661201249925,26.6308986027284],[89.6665421228323,26.630946611031803],[89.6664531151379,26.6312746099021],[89.66495899273241,26.6364995904176],[89.6642609311247,26.6391235816467],[89.6634289096672,26.640095567230603],[89.66266088943141,26.6410105539552],[89.6629148694373,26.641814560377302],[89.6631028509983,26.642560565408],[89.6641218430001,26.642791585676502],[89.6652718374403,26.642908608287403],[89.6657188363523,26.6429096169944],[89.6662898183756,26.6435986293809],[89.6667358075943,26.6440016388078],[89.6669227808822,26.645090644451702],[89.6674307616547,26.6458376557193],[89.66807075733401,26.645953668398],[89.6684517508796,26.6461836762419]]]},"properties":{"compartment":"Jainti BL6B","Division":"BTR_E","Range":"Hatipota","Beat":"Chuniajhora","DIVISION":"BTR_E","BEAT_NAME":"Chuniajhora"},"id":"comptt.102"},
{"type":"Feature","geometry":{"type":"Polygon","coordinates":[[[89.6608069466683,26.672797976170802],[89.66078111922761,26.6731085762371],[89.6610351172196,26.673166581295],[89.6612271056736,26.6736255858797],[89.6614140747414,26.6748875918402],[89.6610950727739,26.6750005858283],[89.66000605189551,26.67597256638],[89.6593000231433,26.6772325549254],[89.6595540059137,26.677920561138702],[89.6610860021542,26.6779245910156],[89.66236199765541,26.6779846160044],[89.6623609865676,26.678443616827103],[89.6627419759442,26.6788456249935],[89.6635059588483,26.6794776410502],[89.6635039422284,26.6801656422742],[89.6632479220583,26.681025638860802],[89.6636269017478,26.6818286477252],[89.6646458895508,26.6822326683379],[89.6647108852388,26.6824046699213],[89.66553786661261,26.6830936873142],[89.6665608682551,26.6829247069535],[89.6678358568264,26.6832717324559],[89.6680898603776,26.6830997370931],[89.6689228638772,26.682872752920602],[89.6693038629446,26.682873760352603],[89.6704518601354,26.682876782746202],[89.6716648544173,26.6829938066175],[89.6726868685629,26.682307825285502],[89.67370986329941,26.6824248454515],[89.6737698630116,26.682430846632702],[89.6749228575847,26.682541869323302],[89.67638784153121,26.6830618988533],[89.67665184433551,26.682919903740203],[89.677502828414,26.6834949213979],[89.6781648189604,26.683820934910703],[89.67846581169451,26.6840919412814],[89.6784648064516,26.6843089416623],[89.6782838042712,26.684416938331402],[89.6779207972782,26.6847419318511],[89.6778597908966,26.6850119311595],[89.6779797840604,26.685282934000103],[89.678400775179,26.685608942813],[89.67864176933621,26.685826947916002],[89.6785807616247,26.686151947326],[89.67827775451241,26.6864759420138],[89.6778547411341,26.687070934860802],[89.677490722369,26.6878829292585],[89.67742770419281,26.6886409294279],[89.6774726966391,26.688948930873902],[89.6764347008493,26.688876910493],[89.6751406997947,26.689047885566502],[89.6717117095581,26.6889818185576],[89.6671157179582,26.6890877291037],[89.66128872516201,26.689365615957403],[89.6570177328239,26.6894715328476],[89.6540407442383,26.6892944744601],[89.6529407484481,26.6892294528873],[89.651128747285,26.689457417963702],[89.6506747554335,26.6891654085756],[89.6500977849313,26.688002395197902],[89.6497798348329,26.6859693852831],[89.6494649057703,26.6830653738368],[89.64913399712721,26.679317360538302],[89.649630065449,26.678923649490702],[89.650429575948,26.678409694139003],[89.65107680428281,26.6780004460093],[89.6525616032566,26.677067723251202],[89.65343725886281,26.6763348589817],[89.6546079795103,26.6753640600284],[89.6551029218899,26.6748025186492],[89.6556168988221,26.674050617292203],[89.6560356906941,26.6735176244801],[89.6566543630072,26.6729465654943],[89.6574157985419,26.672642009779302],[89.6581772290195,26.6725468444478],[89.6594050265435,26.6725278283469],[89.6602425906331,26.6726896549707],[89.6608069466683,26.672797976170802]]]},"properties":{"compartment":"RF","Division":"BTR_E","Range":"Hatipota","Beat":"Chuniajhora","DIVISION":"BTR_E","BEAT_NAME":"Chuniajhora"},"id":"comptt.142"},
{"type":"Feature","geometry":{"type":"Polygon","coordinates":[[[89.6767178450245,26.6828849049629],[89.6770268483019,26.6827189106831],[89.6774788846165,26.681171916644402],[89.67779990599081,26.680255921214503],[89.678376935069,26.6789959301415],[89.6794029644566,26.6776789477178],[89.679914983973,26.6768209561174],[89.68074700548381,26.6758489705457],[89.6819620191755,26.675162992969202],[89.68279304071281,26.674190007374],[89.6835620568402,26.673447020994303],[89.68477505944931,26.6732200442251],[89.6856110687268,26.672754059663003],[89.6857970708229,26.6726490630952],[89.6867560615697,26.6729380823283],[89.6861780380538,26.6739680729647],[89.685091025456,26.6745960529318],[89.6842610232916,26.674767037064303],[89.68361999576871,26.675969026788103],[89.6832329773318,26.676770020722703],[89.6821449508674,26.6779720017282],[89.681823930847,26.6788319970576],[89.68220692024751,26.679233005267502],[89.68309892223951,26.6790630223485],[89.684058924071,26.6788930407554],[89.6849509205061,26.678953058261502],[89.6858449169613,26.6790120758051],[89.6863559240397,26.678669085135603],[89.6870609389474,26.6779830976143],[89.6874419311094,26.678270105575603],[89.6878219107795,26.6790741144748],[89.6871808846256,26.680219104093702],[89.68737186198591,26.6811371095182],[89.6877518472363,26.6817101179905],[89.6862828272228,26.682682091138503],[89.6851298092409,26.6835390702356],[89.6842407955163,26.6841940541074],[89.68324380083081,26.6840720344357],[89.6813028125447,26.6837779960345],[89.6789098295895,26.6833079484941],[89.6767178450245,26.6828849049629]]]},"properties":{"compartment":"JH I","Division":"BTR_E","Range":"Hatipota","Beat":"Chuniajhora","DIVISION":"BTR_E","BEAT_NAME":"Chuniajhora"},"id":"comptt.133"}
]}
