{"type":"FeatureCollection", "features": [
{"type":"Feature","geometry":{"type":"Polygon","coordinates":[[[89.56671596785661,26.793696136793102],[89.5665474278919,26.7937119535246],[89.5653874281334,26.7938209310282],[89.5652264078405,26.7946729293865],[89.56505935136781,26.797014930263103],[89.5641823105061,26.7987869162413],[89.5625922576439,26.8011258892707],[89.5607611968022,26.8038178582036],[89.5593311573609,26.805587833349403],[89.5577471458873,26.8062228034765],[89.55608313981651,26.8066437716599],[89.5543421425923,26.806708737709002],[89.5519691538795,26.806488690890703],[89.54975517167391,26.805984646685403],[89.5477001924992,26.8053396053452],[89.5458052163759,26.8045525668883],[89.544540221373,26.804477542008502],[89.5432722194541,26.8046875175704],[89.5411332025709,26.805603477330102],[89.53931019522341,26.8060944425257],[89.5369331823963,26.8068683973775],[89.5347141674748,26.8077123554413],[89.5331301595104,26.8082043253115],[89.53115116292051,26.8082692867074],[89.52925317473141,26.8079802490704],[89.527356193492,26.8074052109556],[89.5252232094007,26.8069721684733],[89.5234832173702,26.8068251341789],[89.521425219295,26.8069600941554],[89.5200792193481,26.8070980680653],[89.5183382187267,26.807305034368202],[89.516516214863,26.8076539993334],[89.5143812204454,26.807646957557502],[89.5129572379788,26.8070739287084],[89.511613251836,26.8066439016735],[89.5099602941243,26.805075866623902],[89.5091653208232,26.8040598493147],[89.5098453406176,26.803173861079102],[89.51134837683091,26.8015258876175],[89.5126564072966,26.8001349107852],[89.51458244258251,26.798480945579502],[89.5171845078946,26.795519991318002],[89.5177635673964,26.7930089982756],[89.5189626222885,26.790623017570002],[89.5201546972181,26.7874120352887],[89.521185735995,26.7857070524764],[89.5218565155192,26.785216554189702],[89.5219597477766,26.785141066621],[89.5225827572944,26.7846840780035],[89.5226507573168,26.7846760793188],[89.52541775817271,26.7843531328439],[89.52824075867561,26.7840391874793],[89.5301917537604,26.784039225617303],[89.5322227134303,26.7854902678555],[89.5334676985493,26.785974293040802],[89.5354087080365,26.7853823299514],[89.5377937077462,26.7851473761663],[89.5391411584556,26.784178311606002],[89.5394177320169,26.783979405868802],[89.539888739038,26.7836414144842],[89.5408287832039,26.781724429499402],[89.5423558762932,26.777730452342603],[89.54256890523891,26.776515454374],[89.5426877099446,26.7758403552692],[89.5429757057662,26.776039541489602],[89.54454612335701,26.7768009935204],[89.5453194404504,26.7772531094296],[89.5463901905521,26.7775505608811],[89.5470564265747,26.7776457540709],[89.5480439012161,26.7777647535817],[89.5490432678497,26.777800463178803],[89.5506018153952,26.7777410035389],[89.5520770814188,26.7777529323969],[89.5533381882678,26.7777529570481],[89.5541828898066,26.7780147140212],[89.5545398022749,26.778288361480403],[89.5549205009306,26.7787166696774],[89.5558008718811,26.7798231388386],[89.55675263380711,26.7808820193129],[89.55781146604251,26.781917111840002],[89.5588702985661,26.7829402943476],[89.5597625758361,26.783785023285102],[89.56039311097861,26.7843323165804],[89.5612140188236,26.784748733367202],[89.5616423064917,26.7852127425617],[89.5631770370702,26.7858552237073],[89.5645095011108,26.7871996521414],[89.5652471052977,26.788187138313102],[89.5660679880087,26.7896386369359],[89.5664129782585,26.7908283757893],[89.5665081406861,26.7915422089144],[89.56669846698381,26.7929104050595],[89.56671596785661,26.793696136793102]]]},"properties":{"compartment":"Chunabhati BL1","Division":"BTR_E","Range":"Buxaduar","Beat":"Chunabhati","DIVISION":"BTR_E","BEAT_NAME":"Chunabhati"},"id":"comptt.214"},
{"type":"Feature","geometry":{"type":"Polygon","coordinates":[[[89.5680798426705,26.7570890490579],[89.56894730653511,26.7572569358529],[89.5710582947288,26.7575279775746],[89.5730222794354,26.757958016708002],[89.5764172490604,26.758864084647502],[89.5789112274438,26.759501134509403],[89.58192920577311,26.760087194522402],[89.58424519175901,26.7604292403866],[89.58588618128191,26.7606942729252],[89.58591917023911,26.761146274376102],[89.5850611295762,26.7629102607546],[89.5836840860208,26.7648462372947],[89.5838910363171,26.7668742449539],[89.584208020518,26.767493252252702],[89.58542595979411,26.769872280300202],[89.5859739243271,26.771278293519103],[89.58810584612,26.774284340559902],[89.5891498119695,26.7755853632928],[89.5905197575712,26.7776873938325],[89.59205670110521,26.7798574277632],[89.5938376648389,26.7811704649378],[89.5961995821245,26.7843375167966],[89.59603858111271,26.7843955137516],[89.5942135546988,26.7856684803353],[89.5923125405675,26.786443444539803],[89.5902535319773,26.787006405274102],[89.5879595291925,26.7873543610275],[89.58590253095011,26.787491321039802],[89.5840805252575,26.787911286152703],[89.5821795145664,26.7885452501011],[89.57964248998451,26.7898162027422],[89.5769504675401,26.7910151522202],[89.57393945109101,26.7920000950755],[89.5713264405091,26.792703045213102],[89.5683154275229,26.7935459878124],[89.56671596785661,26.793696136793102],[89.56669846698381,26.7929104050595],[89.5665081406861,26.7915422089144],[89.5664129782585,26.7908283757893],[89.5660679880087,26.7896386369359],[89.5652471052977,26.788187138313102],[89.5645095011108,26.7871996521414],[89.5631770370702,26.7858552237073],[89.5616423064917,26.7852127425617],[89.5612140188236,26.784748733367202],[89.56039311097861,26.7843323165804],[89.5597625758361,26.783785023285102],[89.5588702985661,26.7829402943476],[89.55781146604251,26.781917111840002],[89.55675263380711,26.7808820193129],[89.5558008718811,26.7798231388386],[89.5549205009306,26.7787166696774],[89.5545398022749,26.778288361480403],[89.5541828898066,26.7780147140212],[89.5533381882678,26.7777529570481],[89.5531835546364,26.7766821921387],[89.5530884031641,26.775516258224503],[89.5530646294914,26.7744335958522],[89.5530646427692,26.773886314888202],[89.5531479277566,26.773672166138702],[89.5533382936313,26.7734104293981],[89.5536119395865,26.7731367942641],[89.5538974866664,26.772815579278802],[89.5543257974307,26.772327796789902],[89.5549563746171,26.7715544777503],[89.5554798697612,26.7708763467854],[89.5560390548163,26.7701982065173],[89.55662204356341,26.769365406441203],[89.55728831527671,26.768401737761],[89.5579545881437,26.767390478996003],[89.5588112223657,26.7658914330886],[89.5593347250097,26.764903961574003],[89.5597511553227,26.7640235681557],[89.5599653171953,26.7635119814365],[89.5601437891563,26.763000404019802],[89.56031035941581,26.7625602064966],[89.5604293471971,26.7622270882328],[89.5606197042238,26.7619177614054],[89.5609409397711,26.761656017219103],[89.56136924591691,26.761358595061502],[89.5624162303319,26.760656674276103],[89.5629516085196,26.7602640740416],[89.5642484360642,26.7594074878624],[89.56611633651761,26.7583724625228],[89.5680798426705,26.7570890490579]]]},"properties":{"compartment":"Chunabhati BL2","Division":"BTR_E","Range":"Buxaduar","Beat":"Chunabhati","DIVISION":"BTR_E","BEAT_NAME":"Chunabhati"},"id":"comptt.205"},
{"type":"Feature","geometry":{"type":"Polygon","coordinates":[[[89.5533381882678,26.7777529570481],[89.5520770814188,26.7777529323969],[89.5506018153952,26.7777410035389],[89.5490432678497,26.777800463178803],[89.5480439012161,26.7777647535817],[89.5470564265747,26.7776457540709],[89.5463901905521,26.7775505608811],[89.5453194404504,26.7772531094296],[89.54454612335701,26.7768009935204],[89.5429757057662,26.776039541489602],[89.5426877099446,26.7758403552692],[89.5428499432801,26.7749184570639],[89.54457300628191,26.7721434858656],[89.5447420116562,26.7719044887485],[89.5456040374171,26.770753503572102],[89.54749909265661,26.768280536256402],[89.5474851129182,26.7674465345167],[89.5474621440899,26.766163531812],[89.5472461956985,26.7640575238897],[89.5471442350635,26.762444519061702],[89.54712789899091,26.762194378445102],[89.5471212436554,26.7620925179936],[89.54682928996421,26.7602125089849],[89.54731136601491,26.7570255127982],[89.5478353714922,26.756745522541102],[89.5484253960256,26.755672532178302],[89.549830409216,26.7549835584086],[89.5515144178824,26.7544525903654],[89.5533804189474,26.754216626396],[89.5548674251044,26.753809654722403],[89.5562664292285,26.7534956814937],[89.5582704288186,26.7533067203019],[89.55984042934631,26.7531237506441],[89.5604044194118,26.753475762282],[89.5605024176896,26.753536764304002],[89.5619093929822,26.7544117933328],[89.5642383506881,26.7559178414903],[89.5661523301523,26.756568880032102],[89.567960313615,26.7570659162326],[89.5680798426705,26.7570890490579],[89.56611633651761,26.7583724625228],[89.5642484360642,26.7594074878624],[89.5629516085196,26.7602640740416],[89.5624162303319,26.760656674276103],[89.56136924591691,26.761358595061502],[89.5609409397711,26.761656017219103],[89.5606197042238,26.7619177614054],[89.5604293471971,26.7622270882328],[89.56031035941581,26.7625602064966],[89.5601437891563,26.763000404019802],[89.5599653171953,26.7635119814365],[89.5597511553227,26.7640235681557],[89.5593347250097,26.764903961574003],[89.5588112223657,26.7658914330886],[89.5579545881437,26.767390478996003],[89.55728831527671,26.768401737761],[89.55662204356341,26.769365406441203],[89.5560390548163,26.7701982065173],[89.5554798697612,26.7708763467854],[89.5549563746171,26.7715544777503],[89.5543257974307,26.772327796789902],[89.5538974866664,26.772815579278802],[89.5536119395865,26.7731367942641],[89.5533382936313,26.7734104293981],[89.5531479277566,26.773672166138702],[89.5530646427692,26.773886314888202],[89.5530646294914,26.7744335958522],[89.5530884031641,26.775516258224503],[89.5531835546364,26.7766821921387],[89.5533381882678,26.7777529570481]]]},"properties":{"compartment":"Chunabhati BL3","Division":"BTR_E","Range":"Buxaduar","Beat":"Chunabhati","DIVISION":"BTR_E","BEAT_NAME":"Chunabhati"},"id":"comptt.198"}
]}
