{"type":"FeatureCollection", "features": [
{"type":"Feature","geometry":{"type":"Polygon","coordinates":[[[89.8347567823991,26.518429640514203],[89.8347804423484,26.5184296687335],[89.8365334383914,26.518432702778203],[89.8402814299973,26.5184367755642],[89.8441594199359,26.518498850990202],[89.8473254114578,26.5185609125921],[89.8499744055435,26.5185639640401],[89.8512944026103,26.5185649896761],[89.8495873910863,26.519201957775703],[89.8477123841109,26.5196649222707],[89.84674138210221,26.5198379037528],[89.8461593750596,26.52018489313],[89.8457073635064,26.5207078853762],[89.8457053454152,26.5214618868138],[89.8461563234909,26.5223338972804],[89.8470602922126,26.523553917227503],[89.8477062712479,26.5243679313695],[89.84783325005981,26.525238935543],[89.8478322277609,26.526167937344002],[89.84757220603281,26.5270969341138],[89.8476361780183,26.5282579376318],[89.8484101553734,26.5291299543763],[89.8495731346546,26.5298859784515],[89.8508641192243,26.5304100045597],[89.8524790988782,26.5311090373072],[89.8533810843309,26.5316320558582],[89.8538350735566,26.532039065478003],[89.85376905557091,26.532794065678],[89.853186037355,26.5336060559444],[89.85266903431611,26.5337800462407],[89.85157004096651,26.533604024541702],[89.8502130537589,26.5331959973756],[89.8484050745123,26.532497960879702],[89.846983079094,26.5324379331348],[89.8454970824261,26.532435904260502],[89.84426807817971,26.532725880951002],[89.8438150568967,26.5336538739659],[89.8434900311269,26.534756869809602],[89.843488007427,26.5357438717018],[89.84352853404461,26.5358809727575],[89.8394501240399,26.5358407834361],[89.8388963853296,26.5358381726722],[89.838933790636,26.535613772960403],[89.839119431882,26.5338791431777],[89.8391551763118,26.5316091294363],[89.8389934346315,26.5287785207631],[89.83857469166111,26.527274689691],[89.8379846300337,26.5253139943996],[89.8368996705135,26.522477647788502],[89.83581467997081,26.5205169528904],[89.83512942981031,26.5193367272802],[89.8347567823991,26.518429640514203]]]},"properties":{"compartment":"S Bholka BL3A","Division":"BTR_E","Range":"Bholka","Beat":"Ghoramara","DIVISION":"BTR_E","BEAT_NAME":"Ghoramara"},"id":"comptt.4"},
{"type":"Feature","geometry":{"type":"Polygon","coordinates":[[[89.8388963853296,26.5358381726722],[89.83539553349,26.535821664621203],[89.83111250843281,26.536011941778803],[89.8212710817242,26.5359546404712],[89.8174870562165,26.5361193672796],[89.8174480775786,26.5352333648038],[89.8203391559983,26.5316984141026],[89.82060523654481,26.5283184127072],[89.8224432474727,26.527692447188603],[89.8237572766125,26.5263564701122],[89.8233233134368,26.524862458780202],[89.82210135016611,26.5234454322966],[89.8218403865994,26.521951424326403],[89.821910389467,26.521825425440902],[89.82141940421471,26.5212564148018],[89.8207814313107,26.520186400335902],[89.8205334350547,26.5200533952625],[89.8199894475203,26.519584383789603],[89.81976745550101,26.519272378873602],[89.81954446082071,26.5190713741538],[89.81940846311531,26.5189883713522],[89.81890747159811,26.5186813610293],[89.8185874871623,26.518062353615402],[89.8208954819448,26.5180653984308],[89.8248364688982,26.518243475292902],[89.8289074625092,26.5181325541196],[89.8329784463929,26.5184276337398],[89.8347567823991,26.518429640514203],[89.83512942981031,26.5193367272802],[89.83581467997081,26.5205169528904],[89.8368996705135,26.522477647788502],[89.8379846300337,26.5253139943996],[89.83857469166111,26.527274689691],[89.8389934346315,26.5287785207631],[89.8391551763118,26.5316091294363],[89.839119431882,26.5338791431777],[89.838933790636,26.535613772960403],[89.8388963853296,26.5358381726722]]]},"properties":{"compartment":"S Bholka BL4","Division":"BTR_E","Range":"Bholka","Beat":"Ghoramara","DIVISION":"BTR_E","BEAT_NAME":"Ghoramara"},"id":"comptt.6"},
{"type":"Feature","geometry":{"type":"Polygon","coordinates":[[[89.8388963853296,26.5358381726722],[89.8388195544311,26.5362990520798],[89.83858395706311,26.5378766305843],[89.8383412124515,26.5393399987263],[89.8380913375102,26.5408176467571],[89.8379985123361,26.5418741270168],[89.8377771995038,26.542844944612103],[89.8375201900607,26.5440941620569],[89.8372845998305,26.544957899164903],[89.8369990385611,26.5462856362074],[89.8368276775509,26.5475919554272],[89.8366848935087,26.5486056046308],[89.8364350217617,26.5495335915854],[89.8360923581612,26.5505472369031],[89.83579253544501,26.5511040321617],[89.8353427999736,26.5517893047564],[89.8350585812066,26.5521803299943],[89.8349886321694,26.5521467385689],[89.8245097764326,26.5471145250882],[89.8175218640191,26.5441183834717],[89.8173458719797,26.543803379440902],[89.8176179846719,26.539086375578602],[89.8174870562165,26.5361193672796],[89.8212710817242,26.5359546404712],[89.83111250843281,26.536011941778803],[89.83539553349,26.535821664621203],[89.8388963853296,26.5358381726722]]]},"properties":{"compartment":"S Bholka BL1","Division":"BTR_E","Range":"Bholka","Beat":"Ghoramara","DIVISION":"BTR_E","BEAT_NAME":"Ghoramara"},"id":"comptt.9"},
{"type":"Feature","geometry":{"type":"Polygon","coordinates":[[[89.84352853404461,26.5358809727575],[89.8435560017526,26.5359738734731],[89.8437449859389,26.5366148783995],[89.8445199688522,26.537254894710802],[89.84658895169031,26.5377789359405],[89.8491079418726,26.5379559852367],[89.8507229312685,26.5382490171947],[89.851435925491,26.5384240313936],[89.8518869133495,26.5388880410682],[89.8519508950709,26.5396430437933],[89.8519498713614,26.5406300457103],[89.8516248567265,26.541269040647702],[89.8503328582094,26.5413260156497],[89.8494268630213,26.5412089978126],[89.8483278612931,26.5413819767931],[89.84742185356541,26.541786959979],[89.84651784302301,26.542308943432502],[89.8457408210516,26.5432949302621],[89.8452228068684,26.543932921443503],[89.8451567916606,26.5445719214115],[89.8452207719834,26.5453849242469],[89.8457997455906,26.5464299375467],[89.8466387269604,26.5471279552216],[89.84747870554,26.5479419731442],[89.8478006838945,26.5488129811098],[89.8477346672884,26.5495099811923],[89.84721665031161,26.5502639725993],[89.8465056379439,26.550843959913202],[89.8456636147131,26.5518879455883],[89.8448865885253,26.5530489327549],[89.8437865714664,26.5538599129557],[89.8428145513115,26.5547878958731],[89.842366531389,26.5556578888641],[89.8420725346615,26.5555488829347],[89.8350585812066,26.5521803299943],[89.8353427999736,26.5517893047564],[89.83579253544501,26.5511040321617],[89.8360923581612,26.5505472369031],[89.8364350217617,26.5495335915854],[89.8366848935087,26.5486056046308],[89.8368276775509,26.5475919554272],[89.8369990385611,26.5462856362074],[89.8372845998305,26.544957899164903],[89.8375201900607,26.5440941620569],[89.8377771995038,26.542844944612103],[89.8379985123361,26.5418741270168],[89.8380913375102,26.5408176467571],[89.8383412124515,26.5393399987263],[89.83858395706311,26.5378766305843],[89.8388195544311,26.5362990520798],[89.8388963853296,26.5358381726722],[89.8394501240399,26.5358407834361],[89.84352853404461,26.5358809727575]]]},"properties":{"compartment":"S Bholka BL2B","Division":"BTR_E","Range":"Bholka","Beat":"Ghoramara","DIVISION":"BTR_E","BEAT_NAME":"Ghoramara"},"id":"comptt.11"}
]}
