{"type":"FeatureCollection", "features": [
{"type":"Feature","geometry":{"type":"Polygon","coordinates":[[[89.732431139034,26.670797877521],[89.7329570172439,26.6757878971526],[89.7336919551152,26.678287916185],[89.7359089633108,26.677734958386],[89.7361409723644,26.6773379621643],[89.7383859913982,26.676334004061],[89.7408830125561,26.6752180506592],[89.7404979729739,26.6768930463058],[89.7402539711974,26.6769900417294],[89.7405579710459,26.6769670476154],[89.7431539568405,26.6773050988863],[89.7435199197366,26.6788051088536],[89.7435148673935,26.6809711128404],[89.7433278517291,26.6816371104482],[89.738133847935,26.6822940103635],[89.7364078506757,26.6823469767936],[89.7273968415707,26.6835938033581],[89.72689986983,26.6824727915618],[89.7267768755561,26.6822477887408],[89.7270058743921,26.6822737932563],[89.7264519200155,26.6804397790125],[89.7244159570911,26.6791027367974],[89.7234899754015,26.6784347174865],[89.7251609794658,26.6781047494576],[89.7272009745983,26.678108789251],[89.7277619815032,26.6777687995547],[89.7274470429396,26.675256788701],[89.7274520989332,26.672938784452],[89.7276421447768,26.6710227845638],[89.7300041420151,26.6709088304056],[89.7315591411162,26.6707958605141],[89.732431139034,26.670797877521]]]},"properties":{"compartment":"Rahima RF","Division":"BTR_E","Range":"Hatipota","Beat":"Hatipota"},"id":"comptt.127"},
{"type":"Feature","geometry":{"type":"Polygon","coordinates":[[[89.6902074557182,26.6920080035891],[89.6906607104011,26.6925971035211],[89.691805685443,26.6935171275604],[89.6925106976025,26.6929451402543],[89.6933406969902,26.6928891563421],[89.6934666800327,26.6935781600765],[89.6937846709617,26.6939221669175],[89.692888662034,26.6943791502841],[89.6916736497282,26.6950071277437],[89.6917366301614,26.6958101304593],[89.6917976106228,26.6966121331342],[89.6924345979886,26.6970721464139],[89.6931995836485,26.6975901622989],[89.6929415648639,26.6983921587505],[89.6927475417669,26.699366156769],[89.6937055463895,26.6990811749337],[89.6946005497594,26.6988541919763],[89.6949195503824,26.6987971980951],[89.6957495497714,26.6987412141862],[89.6959405514959,26.6986512177462],[89.6959705524649,26.6986082182519],[89.6969295640291,26.6980362359031],[89.6979505518421,26.6984402565743],[89.6985245365771,26.6990152688413],[89.6996105159164,26.6997632914208],[89.7006975244004,26.6993063117831],[89.7014035462901,26.6983323237502],[89.7026775265671,26.6990233498936],[89.7033175125261,26.6995413633451],[89.7043384989401,26.7000033841277],[89.7058704910912,26.7001784143492],[89.7067014779792,26.7006394314238],[89.7074644497628,26.7017314483466],[89.7082904186385,26.7029374667124],[89.7087333759066,26.7046604785671],[89.7106513796363,26.7043195153672],[89.7132093734906,26.7043245653039],[89.7155733678066,26.704329611455],[89.7176823655335,26.7042186524128],[89.7201743609612,26.7041657009552],[89.7219633566645,26.7041697358829],[89.7231143511327,26.7042867585689],[89.7230523943243,26.7025077540287],[89.7230604748216,26.6991797479553],[89.7232625562533,26.6957937455588],[89.7232015966422,26.6941297412535],[89.7230966317379,26.692688736507],[89.723036636425,26.6925007349844],[89.7266475869009,26.6941988086256],[89.7303885752701,26.6943178818504],[89.7348765456283,26.6951099709205],[89.7358715215597,26.6960089920288],[89.7367684950341,26.6970190114346],[89.7366654621312,26.6983890120012],[89.7362934349348,26.6995490069221],[89.7362693971978,26.7011110093911],[89.7361083975978,26.7011100062465],[89.7348623735037,26.702225984023],[89.734567363062,26.7026859791291],[89.7331383235934,26.7044549545577],[89.7321692799257,26.7063529392056],[89.7304682585168,26.7074019079668],[89.7291042360299,26.7084628833279],[89.7272112012282,26.710083849409],[89.7253971644507,26.7117788171676],[89.7222971485587,26.7127357584315],[89.7193021271501,26.7139107021506],[89.7169590743379,26.7163196609018],[89.7146850333486,26.7182336200699],[89.712320034539,26.7184145742248],[89.709919009789,26.7196705296796],[89.7085290067498,26.7199315030219],[89.7073550000299,26.7203234808258],[89.7067490014856,26.72032246899],[89.7067492035098,26.7198258780696],[89.706784913015,26.7190168572611],[89.7068087236173,26.7185766569067],[89.7067849326036,26.7182078357556],[89.7065945819829,26.7178390213523],[89.7062971595988,26.7175534750134],[89.7059402482191,26.7172322474465],[89.7054762639242,26.7170418780327],[89.7051312467558,26.7169585911411],[89.7046910515407,26.7168039122584],[89.7043817271683,26.7166016558426],[89.7040842962242,26.7162566293936],[89.7038106763758,26.7158640133212],[89.7035941466227,26.7154618783459],[89.7034870849979,26.7151263656317],[89.7034514018214,26.7148479744175],[89.7034299896481,26.7145267434022],[89.7033086484021,26.7141769603829],[89.703123057135,26.7138343161225],[89.7027304565303,26.7134845178076],[89.7022664757484,26.7131490081259],[89.7019452523827,26.7129063014038],[89.7014669909435,26.7125993414967],[89.7008316786667,26.7123423386167],[89.7000107797661,26.7119639918887],[89.699675272979,26.7118640451536],[89.6992469771026,26.7117355465542],[89.6988115429708,26.711535667683],[89.6981262620223,26.711228703736],[89.6975766174704,26.7110573626887],[89.6970055512416,26.7109574213558],[89.6956992281376,26.7108003455649],[89.6944785731041,26.7107146615789],[89.6930294896502,26.7105861430552],[89.6925083922686,26.7105290227778],[89.6921015051342,26.7104504946902],[89.6916375098628,26.7103005853558],[89.6912591866342,26.710057867522],[89.6909593846009,26.7097580511152],[89.6905881956738,26.7093368730906],[89.6903526372878,26.7088800176474],[89.6899814647512,26.7081947191348],[89.6897744700968,26.7075808139588],[89.6896459876736,26.7068669701305],[89.689488969635,26.7059746754152],[89.6892677062382,26.7048967691029],[89.6892106198598,26.7039259461929],[89.6890964429402,26.7025696514558],[89.6890393760697,26.700792187054],[89.6889823109217,26.6989433425204],[89.6890251901931,26.6969017595803],[89.6892465243755,26.6950529204779],[89.6894607082045,26.6940464127941],[89.6897462625536,26.6930113464493],[89.6902074557182,26.6920080035891]]]},"properties":{"compartment":"Hatipota BL2B","Division":"BTR_E","Range":"Hatipota","Beat":"Hatipota"},"id":"comptt.162"},
{"type":"Feature","geometry":{"type":"Polygon","coordinates":[[[89.7067490014856,26.72032246899],[89.7059440217214,26.7203912633985],[89.7048375705339,26.7205482820839],[89.7036597393431,26.7207124493889],[89.7020250483707,26.7209122878386],[89.7005616797604,26.7209979194216],[89.6992696314374,26.7210550042973],[89.6962358279365,26.7210834951087],[89.6944869313936,26.7211120110112],[89.6927808568256,26.7210548775917],[89.6916530026151,26.7209263653309],[89.6906679080663,26.7207978558581],[89.689939801525,26.720726451509],[89.6892473735163,26.7207121679625],[89.6881837569095,26.7206764471288],[89.6875198874513,26.7207192642456],[89.687020206393,26.7208120546606],[89.6864705440712,26.7209619542053],[89.6859779921322,26.7210904348255],[89.6854426109867,26.7211903645565],[89.6851428001451,26.7212545988212],[89.6844289611531,26.721283144936],[89.68287993467,26.721290244704],[89.6811096288891,26.7212902101389],[89.6788396244755,26.7212830358046],[89.677404809801,26.7212044776459],[89.6766195944407,26.7210902521049],[89.6759307487644,26.7209795884522],[89.6753953724625,26.7208796478157],[89.6740533550641,26.7209046016605],[89.6735037056863,26.7209331509819],[89.6726613762312,26.7209938046482],[89.6717655064726,26.7210723073023],[89.671051667748,26.7210901433986],[89.6702843008802,26.7210365883187],[89.6696668351228,26.720922366054],[89.6691849986092,26.7208259864702],[89.6686746024233,26.7207188963093],[89.6683712254825,26.7206225302096],[89.6677751823533,26.7203976581606],[89.6672469500122,26.7201335273635],[89.6669471353961,26.7199407811569],[89.6666901589493,26.7198194259176],[89.6671133115309,26.7196709139057],[89.6682364155228,26.719394915324],[89.6695314545616,26.7188934696844],[89.6700727793861,26.7186406597875],[89.6707241643075,26.7183729820117],[89.6717176035949,26.7178911605194],[89.6722708311994,26.717522360641],[89.6727050890886,26.7171535484399],[89.6729222235371,26.7169483223012],[89.6734665360587,26.7163772618762],[89.6738145462416,26.7159221978324],[89.6740227532311,26.7156128713275],[89.6742785555059,26.7150804653412],[89.6743648243699,26.7147057063356],[89.6744213494234,26.7140781262842],[89.6745332048678,26.7130156965125],[89.6746581420841,26.7127051783796],[89.6749508223546,26.712251893258],[89.6751649795303,26.7119342368532],[89.6755004917712,26.7113952924095],[89.6756718272351,26.7111525953068],[89.675982357117,26.7107135905592],[89.6763535573725,26.7102531669562],[89.6767604584923,26.7097534939774],[89.6770388638736,26.7095036489508],[89.6775135731044,26.7090753574264],[89.6779882836308,26.7085935258032],[89.678298811267,26.7082473212255],[89.6785879232719,26.7077226559009],[89.6787235609796,26.7073907179362],[89.678794961517,26.7069481385139],[89.6788592131073,26.7064627288731],[89.6789327545372,26.7059830294241],[89.6791183689462,26.7053691319146],[89.6793253957213,26.7046552946387],[89.6795395604068,26.7040271176597],[89.6799036343894,26.7034132236321],[89.6804318884988,26.7027779227682],[89.6807388477825,26.7023638979941],[89.6812242669864,26.7019356066757],[89.6816454311637,26.7017214644984],[89.6820594606965,26.7017000525374],[89.6823949564449,26.7018428293471],[89.6825591407018,26.7020641229592],[89.6827661477919,26.7021640671828],[89.683065957942,26.7021283829671],[89.6832087317464,26.7019570554366],[89.6834585782311,26.7016643897714],[89.6836656098248,26.7011647028884],[89.6837726933824,26.7005936339235],[89.6837512946554,26.7001296426491],[89.6836799227799,26.6993872498859],[89.6835871419906,26.6986020166259],[89.6835014961773,26.6980238038874],[89.6833301919481,26.6973884893723],[89.6831446027464,26.6969601849609],[89.6829233239747,26.696517599827],[89.6825307275092,26.6959964812061],[89.6822309275429,26.6956110046461],[89.6819454099589,26.6951255881805],[89.6818169278588,26.6948114950945],[89.6817098555351,26.6945045424394],[89.6816726966391,26.6940489308739],[89.6816277041928,26.6937409294279],[89.681690722369,26.6929829292585],[89.6820547411341,26.6921709348608],[89.6824777545124,26.6915759420138],[89.6827807616247,26.691251947326],[89.6828417693362,26.690926947916],[89.682600775179,26.690708942813],[89.6821797840604,26.6903829340001],[89.6820597908966,26.6901119311595],[89.6821207972782,26.6898419318511],[89.6824838042712,26.6895169383314],[89.6826648064516,26.6894089416623],[89.6826658116945,26.6891919412814],[89.6823648189604,26.6889209349107],[89.681702828414,26.6885949213979],[89.6808518443355,26.6880199037402],[89.6809178450245,26.6879849049629],[89.6831098295895,26.6884079484941],[89.6855028125447,26.6888779960345],[89.6874438008308,26.6891720344357],[89.6884407955163,26.6892940541074],[89.6886867719921,26.6902430606606],[89.6887497538326,26.6909880632673],[89.6893217413551,26.6914480752757],[89.6895147395194,26.6915050791458],[89.6897687351939,26.6916590843854],[89.690086729798,26.6918510909437],[89.6902074557182,26.6920080035891],[89.6897462625536,26.6930113464493],[89.6894607082045,26.6940464127941],[89.6892465243755,26.6950529204779],[89.6890251901931,26.6969017595803],[89.6889823109217,26.6989433425204],[89.6890393760697,26.700792187054],[89.6890964429402,26.7025696514558],[89.6892106198598,26.7039259461929],[89.6892677062382,26.7048967691029],[89.689488969635,26.7059746754152],[89.6896459876736,26.7068669701305],[89.6897744700968,26.7075808139588],[89.6899814647512,26.7081947191348],[89.6903526372878,26.7088800176474],[89.6905881956738,26.7093368730906],[89.6909593846009,26.7097580511152],[89.6912591866342,26.710057867522],[89.6916375098628,26.7103005853558],[89.6921015051342,26.7104504946902],[89.6925083922686,26.7105290227778],[89.6930294896502,26.7105861430552],[89.6944785731041,26.7107146615789],[89.6956992281376,26.7108003455649],[89.6970055512416,26.7109574213558],[89.6975766174704,26.7110573626887],[89.6981262620223,26.711228703736],[89.6988115429708,26.711535667683],[89.6992469771026,26.7117355465542],[89.699675272979,26.7118640451536],[89.7000107797661,26.7119639918887],[89.7008316786667,26.7123423386167],[89.7014669909435,26.7125993414967],[89.7019452523827,26.7129063014038],[89.7022664757484,26.7131490081259],[89.7027304565303,26.7134845178076],[89.703123057135,26.7138343161225],[89.7033086484021,26.7141769603829],[89.7034299896481,26.7145267434022],[89.7034514018214,26.7148479744175],[89.7034870849979,26.7151263656317],[89.7035941466227,26.7154618783459],[89.7038106763758,26.7158640133212],[89.7040842962242,26.7162566293936],[89.7043817271683,26.7166016558426],[89.7046910515407,26.7168039122584],[89.7051312467558,26.7169585911411],[89.7054762639242,26.7170418780327],[89.7059402482191,26.7172322474465],[89.7062971595988,26.7175534750134],[89.7065945819829,26.7178390213523],[89.7067849326036,26.7182078357556],[89.7068087236173,26.7185766569067],[89.706784913015,26.7190168572611],[89.7067492035098,26.7198258780696],[89.7067490014856,26.72032246899]]]},"properties":{"compartment":"Hatipota BL2A","Division":"BTR_E","Range":"Hatipota","Beat":"Hatipota"},"id":"comptt.164"},
{"type":"Feature","geometry":{"type":"Polygon","coordinates":[[[89.6666901589493,26.7198194259176],[89.6664688690476,26.7198372616303],[89.6662975479892,26.7198979383972],[89.6661226561618,26.7199907351532],[89.6658763839008,26.7201085105616],[89.66534099784,26.7204118806662],[89.6647841919168,26.7207116903461],[89.6642845053388,26.7210329011801],[89.6638561896264,26.7213112933287],[89.6633350824951,26.7216574937899],[89.6627854248273,26.7220286837394],[89.6624713305694,26.7222356879867],[89.6621144054639,26.7224819514697],[89.6617467717666,26.7226711146389],[89.6613148985693,26.7228459965278],[89.6608366250513,26.7230387275434],[89.6602511397579,26.7233154366195],[89.6602110405047,26.7232885657874],[89.6582670766713,26.7219875254555],[89.6566560985783,26.7212424926442],[89.6573891297851,26.7198805044631],[89.6574581633604,26.7184865032613],[89.6570071967792,26.7171504920157],[89.6561702325755,26.7157544731274],[89.6561752789527,26.7138374697216],[89.6562503546261,26.7107024654556],[89.6563244260806,26.7077414614877],[89.6566534674035,26.7060004647247],[89.6575625030979,26.7044344795968],[89.6580885453445,26.7026354865688],[89.6582225913573,26.7007194856785],[89.6582326741725,26.6972934796069],[89.6583687173636,26.695493478967],[89.6582407442383,26.6943944744601],[89.6612177328239,26.6945715328476],[89.665488725162,26.6944656159574],[89.6713157179582,26.6941877291037],[89.6759117095581,26.6940818185576],[89.6793406997947,26.6941478855665],[89.6806347008493,26.693976910493],[89.6816726966391,26.6940489308739],[89.6817098555351,26.6945045424394],[89.6818169278588,26.6948114950945],[89.6819454099589,26.6951255881805],[89.6822309275429,26.6956110046461],[89.6825307275092,26.6959964812061],[89.6829233239747,26.696517599827],[89.6831446027464,26.6969601849609],[89.6833301919481,26.6973884893723],[89.6835014961773,26.6980238038874],[89.6835871419906,26.6986020166259],[89.6836799227799,26.6993872498859],[89.6837512946554,26.7001296426491],[89.6837726933824,26.7005936339235],[89.6836656098248,26.7011647028884],[89.6834585782311,26.7016643897714],[89.6832087317464,26.7019570554366],[89.683065957942,26.7021283829671],[89.6827661477919,26.7021640671828],[89.6825591407018,26.7020641229592],[89.6823949564449,26.7018428293471],[89.6820594606965,26.7017000525374],[89.6816454311637,26.7017214644984],[89.6812242669864,26.7019356066757],[89.6807388477825,26.7023638979941],[89.6804318884988,26.7027779227682],[89.6799036343894,26.7034132236321],[89.6795395604068,26.7040271176597],[89.6793253957213,26.7046552946387],[89.6791183689462,26.7053691319146],[89.6789327545372,26.7059830294241],[89.6788592131073,26.7064627288731],[89.678794961517,26.7069481385139],[89.6787235609796,26.7073907179362],[89.6785879232719,26.7077226559009],[89.678298811267,26.7082473212255],[89.6779882836308,26.7085935258032],[89.6775135731044,26.7090753574264],[89.6770388638736,26.7095036489508],[89.6767604584923,26.7097534939774],[89.6763535573725,26.7102531669562],[89.675982357117,26.7107135905592],[89.6756718272351,26.7111525953068],[89.6755004917712,26.7113952924095],[89.6751649795303,26.7119342368532],[89.6749508223546,26.712251893258],[89.6746581420841,26.7127051783796],[89.6745332048678,26.7130156965125],[89.6744213494234,26.7140781262842],[89.6743648243699,26.7147057063356],[89.6742785555059,26.7150804653412],[89.6740227532311,26.7156128713275],[89.6738145462416,26.7159221978324],[89.6734665360587,26.7163772618762],[89.6729222235371,26.7169483223012],[89.6727050890886,26.7171535484399],[89.6722708311994,26.717522360641],[89.6717176035949,26.7178911605194],[89.6707241643075,26.7183729820117],[89.6700727793861,26.7186406597875],[89.6695314545616,26.7188934696844],[89.6682364155228,26.719394915324],[89.6671133115309,26.7196709139057],[89.6666901589493,26.7198194259176]]]},"properties":{"compartment":"Hatipota BL3","Division":"BTR_E","Range":"Hatipota","Beat":"Hatipota"},"id":"comptt.167"},
{"type":"Feature","geometry":{"type":"Polygon","coordinates":[[[89.7067490014856,26.72032246899],[89.7067509994226,26.7204074691872],[89.7067899575335,26.7221334731606],[89.7068109186621,26.7237364765536],[89.7068538706283,26.725715481076],[89.7069818452315,26.7267514855039],[89.7071436600636,26.7343785028615],[89.705352631755,26.7357214703681],[89.7032145956176,26.7374214317555],[89.7012335694345,26.7386953954154],[89.6997295610274,26.7391893669454],[89.6978315673482,26.7391143297209],[89.6961715817106,26.7386842964893],[89.6943566084634,26.7377582593119],[89.692144634489,26.7369012145088],[89.6900906532352,26.7363291733227],[89.6884296624465,26.7361121404724],[89.6874016615018,26.7362521206485],[89.6855826435663,26.7371710868106],[89.6837606290812,26.7379480526502],[89.6819376077188,26.7390090189927],[89.6799595919148,26.7398559819105],[89.6776635820359,26.7404899382216],[89.6750545832585,26.7406968876309],[89.6728405920958,26.7405508441086],[89.6711016049606,26.7401918094757],[89.6697596254542,26.7394787819496],[89.669208645724,26.7386967697501],[89.6688176810922,26.7372757595038],[89.6687437277147,26.7353587545395],[89.6681957789326,26.7332987400553],[89.6674898219251,26.7315937231382],[89.6663088712599,26.7296736965526],[89.6639439372341,26.7271836458059],[89.6626039800648,26.7255476166444],[89.6603960370584,26.7234125696261],[89.6602511397579,26.7233154366195],[89.6608366250513,26.7230387275434],[89.6613148985693,26.7228459965278],[89.6617467717666,26.7226711146389],[89.6621144054639,26.7224819514697],[89.6624713305694,26.7222356879867],[89.6627854248273,26.7220286837394],[89.6633350824951,26.7216574937899],[89.6638561896264,26.7213112933287],[89.6642845053388,26.7210329011801],[89.6647841919168,26.7207116903461],[89.66534099784,26.7204118806662],[89.6658763839008,26.7201085105616],[89.6661226561618,26.7199907351532],[89.6662975479892,26.7198979383972],[89.6664688690476,26.7198372616303],[89.6666901589493,26.7198194259176],[89.6669471353961,26.7199407811569],[89.6672469500122,26.7201335273635],[89.6677751823533,26.7203976581606],[89.6683712254825,26.7206225302096],[89.6686746024233,26.7207188963093],[89.6691849986092,26.7208259864702],[89.6696668351228,26.720922366054],[89.6702843008802,26.7210365883187],[89.671051667748,26.7210901433986],[89.6717655064726,26.7210723073023],[89.6726613762312,26.7209938046482],[89.6735037056863,26.7209331509819],[89.6740533550641,26.7209046016605],[89.6753953724625,26.7208796478157],[89.6759307487644,26.7209795884522],[89.6766195944407,26.7210902521049],[89.677404809801,26.7212044776459],[89.6788396244755,26.7212830358046],[89.6811096288891,26.7212902101389],[89.68287993467,26.721290244704],[89.6844289611531,26.721283144936],[89.6851428001451,26.7212545988212],[89.6854426109867,26.7211903645565],[89.6859779921322,26.7210904348255],[89.6864705440712,26.7209619542053],[89.687020206393,26.7208120546606],[89.6875198874513,26.7207192642456],[89.6881837569095,26.7206764471288],[89.6892473735163,26.7207121679625],[89.689939801525,26.720726451509],[89.6906679080663,26.7207978558581],[89.6916530026151,26.7209263653309],[89.6927808568256,26.7210548775917],[89.6944869313936,26.7211120110112],[89.6962358279365,26.7210834951087],[89.6992696314374,26.7210550042973],[89.7005616797604,26.7209979194216],[89.7020250483707,26.7209122878386],[89.7036597393431,26.7207124493889],[89.7048375705339,26.7205482820839],[89.7059440217214,26.7203912633985],[89.7067490014856,26.72032246899]]]},"properties":{"compartment":"Hatipota BL1","Division":"BTR_E","Range":"Hatipota","Beat":"Hatipota"},"id":"comptt.177"}
]}