{"type":"FeatureCollection", "features": [
{"type":"Feature","geometry":{"type":"Polygon","coordinates":[[[89.6652142245567,26.622706640036903],[89.6653933221812,26.6227875736711],[89.66590029746081,26.6237635853321],[89.665645285658,26.6242785813157],[89.6658322534071,26.6255985873812],[89.6663351997019,26.627777601176803],[89.6667761433662,26.6300716139784],[89.6665421228323,26.630946611031803],[89.6661201249925,26.6308986027284],[89.6649541222216,26.6311285804525],[89.6626891235376,26.631297536670402],[89.6606191215735,26.6315834968991],[89.65835312012851,26.6318674533086],[89.65640912223411,26.6319724156583],[89.6564602941432,26.631058344979802],[89.6565554963966,26.630125595124],[89.656707809889,26.629135736275],[89.6568981782433,26.6283552785504],[89.6572789120146,26.6277461448446],[89.6580022735929,26.627194117911902],[89.6587446714565,26.626794381628603],[89.6594870724397,26.6266801858687],[89.66040078163951,26.626623093547803],[89.6611431730827,26.626489857752702],[89.6618855677372,26.626223371713],[89.66262797789621,26.625728465254003],[89.6632371274554,26.6252716162709],[89.6636559188437,26.6247576534777],[89.6642650706962,26.6242056343192],[89.66470291479071,26.623577461686303],[89.664931342962,26.623215785467302],[89.6652142245567,26.622706640036903]]]},"properties":{"compartment":"Jainti BL7B","Division":"BTR_E","Range":"Jainti","Beat":"Jainti-South","DIVISION":"BTR_E","BEAT_NAME":"Jainti-South"},"id":"comptt.90"},
{"type":"Feature","geometry":{"type":"Polygon","coordinates":[[[89.65640912223411,26.6319724156583],[89.6547363649645,26.6316098324323],[89.6522997998657,26.6316478550725],[89.6499774485345,26.631933350389],[89.6477312347319,26.632314017361303],[89.645637300569,26.632694687297302],[89.64243929859751,26.6330943757768],[89.63948876925241,26.6333608188306],[89.64299142856531,26.629306279617502],[89.6453899884112,26.626584221332703],[89.6488789112631,26.622383791505502],[89.6502383680274,26.6223832780097],[89.65463637053651,26.621843362603702],[89.65922537443831,26.6212274507747],[89.661865371888,26.621072501864102],[89.6624953712805,26.621035514056],[89.6647153478369,26.6217895586427],[89.6648843289324,26.6225575633426],[89.6652142245567,26.622706640036903],[89.664931342962,26.623215785467302],[89.66470291479071,26.623577461686303],[89.6642650706962,26.6242056343192],[89.6636559188437,26.6247576534777],[89.6632371274554,26.6252716162709],[89.66262797789621,26.625728465254003],[89.6618855677372,26.626223371713],[89.6611431730827,26.626489857752702],[89.66040078163951,26.626623093547803],[89.6594870724397,26.6266801858687],[89.6587446714565,26.626794381628603],[89.6580022735929,26.627194117911902],[89.6572789120146,26.6277461448446],[89.6568981782433,26.6283552785504],[89.656707809889,26.629135736275],[89.6565554963966,26.630125595124],[89.6564602941432,26.631058344979802],[89.65640912223411,26.6319724156583]]]},"properties":{"compartment":"Jainti BL7A","Division":"BTR_E","Range":"Jainti","Beat":"Jainti-South","DIVISION":"BTR_E","BEAT_NAME":"Jainti-South"},"id":"comptt.91"},
{"type":"Feature","geometry":{"type":"Polygon","coordinates":[[[89.63948876925241,26.6333608188306],[89.6385179515828,26.6333607999338],[89.6367857143666,26.6334178763205],[89.6352628571085,26.6334559167484],[89.6331689275557,26.633646236337903],[89.6312272831671,26.6340221492284],[89.62998995926431,26.6343076656633],[89.6285860786317,26.6344741986404],[89.6276104981154,26.6345931498676],[89.6250168811795,26.6351403803775],[89.6219711624738,26.6358065723022],[89.6215428761247,26.6352830830192],[89.6209242308087,26.6347357899884],[89.6202104085896,26.634069524890702],[89.61933002734611,26.633379466509002],[89.61844964724911,26.6326418180424],[89.61766444806871,26.631856571343],[89.617045809058,26.6310475478428],[89.6163557853791,26.6300243625674],[89.6158323330157,26.628929800405402],[89.6156419935397,26.6280969851983],[89.6154992568137,26.6271451907029],[89.6154992780216,26.626264789114],[89.6153327416674,26.6248846933826],[89.6153738403199,26.6245217936289],[89.61654040047951,26.624397625998903],[89.6218373959951,26.624052728432503],[89.6237793965374,26.6238357658236],[89.6277503993729,26.6233208421516],[89.6312763956565,26.6231229103963],[89.63238719185111,26.6231718311093],[89.6326393909339,26.623182937025103],[89.6341983855491,26.6232509674822],[89.6375523876605,26.6228290319751],[89.6405463885488,26.6224940896215],[89.642131389616,26.622292120094002],[89.6436343837274,26.6223871495125],[89.6472651951041,26.6223845522574],[89.6477203740219,26.622384229014102],[89.6488789112631,26.622383791505502],[89.6453899884112,26.626584221332703],[89.64299142856531,26.629306279617502],[89.63948876925241,26.6333608188306]]]},"properties":{"compartment":"Jainti BL8","Division":"BTR_E","Range":"Jainti","Beat":"Jainti-South","DIVISION":"BTR_E","BEAT_NAME":"Jainti-South"},"id":"comptt.92"},
{"type":"Feature","geometry":{"type":"Polygon","coordinates":[[[89.6219711624738,26.6358065723022],[89.61978206088091,26.636092070210502],[89.6180926398042,26.636306187715203],[89.616807730045,26.6364251329212],[89.615546620803,26.6365202885476],[89.61421412345591,26.6365440526557],[89.6127864423264,26.636734385211902],[89.6117632684978,26.6369961057697],[89.6107163058746,26.6372102357784],[89.6097645230216,26.6374243676395],[89.6083844312086,26.637638491164303],[89.60688537484741,26.6376384619882],[89.6051721701551,26.6375908485591],[89.6031020469067,26.637519418141302],[89.5989855777462,26.637900058709903],[89.5973913358944,26.638137968109902],[89.5955591429043,26.6384472630066],[89.5946073577698,26.6387565750374],[89.59356039688251,26.6388993249174],[89.592323079328,26.6389230908798],[89.5899198280624,26.638804073896402],[89.58796868143071,26.6384471152875],[89.58698259986251,26.638201955636802],[89.5868271586084,26.6374350712653],[89.5865422007503,26.635715062648302],[89.58618526612041,26.6330380509225],[89.5858933168453,26.6309620415353],[89.5853393747806,26.6286130265648],[89.58462545210091,26.6254750070756],[89.5901464398226,26.625425114380203],[89.5937304343352,26.6252901838565],[89.5981274277955,26.6251172690813],[89.5994414272724,26.625006294443903],[89.6012244275136,26.624816328788302],[89.6029424239416,26.6247913621647],[89.605235420325,26.6247104066269],[89.6083714114655,26.624762467729102],[89.6134534000463,26.624725566532103],[89.6145746501929,26.6246066476049],[89.6151314002737,26.6245475988569],[89.6153738403199,26.6245217936289],[89.6153327416674,26.6248846933826],[89.6154992780216,26.626264789114],[89.6154992568137,26.6271451907029],[89.6156419935397,26.6280969851983],[89.6158323330157,26.628929800405402],[89.6163557853791,26.6300243625674],[89.617045809058,26.6310475478428],[89.61766444806871,26.631856571343],[89.61844964724911,26.6326418180424],[89.61933002734611,26.633379466509002],[89.6202104085896,26.634069524890702],[89.6209242308087,26.6347357899884],[89.6215428761247,26.6352830830192],[89.6219711624738,26.6358065723022]]]},"properties":{"compartment":"Jainti BL 9","Division":"BTR_E","Range":"Jainti","Beat":"Jainti-South","DIVISION":"BTR_E","BEAT_NAME":"Jainti-South"},"id":"comptt.93"},
{"type":"Feature","geometry":{"type":"Polygon","coordinates":[[[89.6534517302283,26.648522388375902],[89.6521471172818,26.648359312668003],[89.6491014076841,26.648644793870503],[89.6452466708507,26.6493109700112],[89.6431527378386,26.6496440498371],[89.6412967588505,26.6497867839503],[89.638060699739,26.6500722514455],[89.6344915002902,26.6504053125396],[89.6328734684468,26.6506432314603],[89.6322072143122,26.650881158917002],[89.6313506106366,26.651119092666402],[89.6299705205196,26.6512618360479],[89.6274958773058,26.6516424985443],[89.62549266478891,26.651947290084003],[89.6254971263917,26.651880400049702],[89.6255447415309,26.6508334390805],[89.6256875364389,26.6497864799647],[89.6260682742146,26.6485967552235],[89.6278291262028,26.646264915284902],[89.63073215297591,26.642790945506903],[89.6331116760894,26.639935636649],[89.636823717793,26.6361761520779],[89.63948876925241,26.6333608188306],[89.64243929859751,26.6330943757768],[89.645637300569,26.632694687297302],[89.6477312347319,26.632314017361303],[89.6499774485345,26.631933350389],[89.6522997998657,26.6316478550725],[89.6547363649645,26.6316098324323],[89.65640912223411,26.6319724156583],[89.6566711032422,26.6327344221543],[89.6573770651115,26.634246438668303],[89.6580200271522,26.6357574539552],[89.6581439932488,26.6371514589241],[89.6583339619825,26.6384294649657],[89.65826692853,26.639823466216],[89.6577458962067,26.6412154586219],[89.6567688579763,26.6428974426782],[89.6558598209802,26.6445214279504],[89.654817787122,26.646028410416502],[89.6534517302283,26.648522388375902]]]},"properties":{"compartment":"Jainti BL6A","Division":"BTR_E","Range":"Jainti","Beat":"Jainti-South","DIVISION":"BTR_E","BEAT_NAME":"Jainti-South"},"id":"comptt.103"},
{"type":"Feature","geometry":{"type":"Polygon","coordinates":[[[89.62549266478891,26.651947290084003],[89.62126922501561,26.652360978582102],[89.6151659086015,26.6528248505622],[89.6100619697916,26.653288752005402],[89.60591455661171,26.65383832223],[89.5966632171059,26.6547518537191],[89.5928267187185,26.6550732195888],[89.5919477555011,26.6536371999041],[89.59119180840361,26.6515201813981],[89.59026086941991,26.649084158917002],[89.5892089422484,26.6461701332294],[89.5872001133558,26.6392750818097],[89.5871860347066,26.6392056214842],[89.58698259986251,26.638201955636802],[89.58796868143071,26.6384471152875],[89.5899198280624,26.638804073896402],[89.592323079328,26.6389230908798],[89.59356039688251,26.6388993249174],[89.5946073577698,26.6387565750374],[89.5955591429043,26.6384472630066],[89.5973913358944,26.638137968109902],[89.5989855777462,26.637900058709903],[89.6031020469067,26.637519418141302],[89.6051721701551,26.6375908485591],[89.60688537484741,26.6376384619882],[89.6083844312086,26.637638491164303],[89.6097645230216,26.6374243676395],[89.6107163058746,26.6372102357784],[89.6117632684978,26.6369961057697],[89.6127864423264,26.636734385211902],[89.61421412345591,26.6365440526557],[89.615546620803,26.6365202885476],[89.616807730045,26.6364251329212],[89.6180926398042,26.636306187715203],[89.61978206088091,26.636092070210502],[89.6219711624738,26.6358065723022],[89.6250168811795,26.6351403803775],[89.6276104981154,26.6345931498676],[89.6285860786317,26.6344741986404],[89.62998995926431,26.6343076656633],[89.6312272831671,26.6340221492284],[89.6331689275557,26.633646236337903],[89.6352628571085,26.6334559167484],[89.6367857143666,26.6334178763205],[89.6385179515828,26.6333607999338],[89.63948876925241,26.6333608188306],[89.636823717793,26.6361761520779],[89.6331116760894,26.639935636649],[89.63073215297591,26.642790945506903],[89.6278291262028,26.646264915284902],[89.6260682742146,26.6485967552235],[89.6256875364389,26.6497864799647],[89.6255447415309,26.6508334390805],[89.6254971263917,26.651880400049702],[89.62549266478891,26.651947290084003]]]},"properties":{"compartment":"Jainti BL5","Division":"BTR_E","Range":"Jainti","Beat":"Jainti-South","DIVISION":"BTR_E","BEAT_NAME":"Jainti-South"},"id":"comptt.104"},
{"type":"Feature","geometry":{"type":"Polygon","coordinates":[[[89.6534517302283,26.648522388375902],[89.65339872784621,26.648626387533803],[89.6524106837704,26.6505513718111],[89.6511776475643,26.652174350761403],[89.6497516300121,26.6530433245724],[89.6468366035558,26.654429270320502],[89.6442465874977,26.6553522215513],[89.6418465653902,26.656507176904],[89.6402925510021,26.657258147998903],[89.63925452972781,26.658243129570803],[89.6387324931905,26.6598091222511],[89.6386624625142,26.661087123212603],[89.63833443110501,26.6624211192491],[89.6383554172718,26.6629921206971],[89.6356194210589,26.6631080675999],[89.62953440526981,26.6643699513323],[89.6266843955219,26.6650588970524],[89.6249173946035,26.665273863014],[89.62483063112761,26.6621120955983],[89.62502104579491,26.6598278051711],[89.6251162657577,26.658162184009402],[89.6254018478873,26.6559730856073],[89.6254018811838,26.654592993108203],[89.6254019121817,26.6533080807814],[89.62549266478891,26.651947290084003],[89.6274958773058,26.6516424985443],[89.6299705205196,26.6512618360479],[89.6313506106366,26.651119092666402],[89.6322072143122,26.650881158917002],[89.6328734684468,26.6506432314603],[89.6344915002902,26.6504053125396],[89.638060699739,26.6500722514455],[89.6412967588505,26.6497867839503],[89.6431527378386,26.6496440498371],[89.6452466708507,26.6493109700112],[89.6491014076841,26.648644793870503],[89.6521471172818,26.648359312668003],[89.6534517302283,26.648522388375902]]]},"properties":{"compartment":"Jainti BL3A","Division":"BTR_E","Range":"Jainti","Beat":"Jainti-South","DIVISION":"BTR_E","BEAT_NAME":"Jainti-South"},"id":"comptt.118"},
{"type":"Feature","geometry":{"type":"Polygon","coordinates":[[[89.6249173946035,26.665273863014],[89.6210523926586,26.6657417885568],[89.6160043926059,26.6662506911249],[89.61399739619651,26.6663036521185],[89.6125733983504,26.6663576244725],[89.6099864047805,26.666351574060702],[89.608174406507,26.666462538959003],[89.6040324140539,26.6665674584545],[89.600665419701,26.6666733930515],[89.5984196324792,26.6667879908166],[89.5980404228706,26.666807342154502],[89.59759644526561,26.6659243319224],[89.59598653327241,26.662440294318802],[89.5943786392805,26.6582092554243],[89.5928267187185,26.6550732195888],[89.5966632171059,26.6547518537191],[89.60591455661171,26.65383832223],[89.6100619697916,26.653288752005402],[89.6151659086015,26.6528248505622],[89.62126922501561,26.652360978582102],[89.62549266478891,26.651947290084003],[89.6254019121817,26.6533080807814],[89.6254018811838,26.654592993108203],[89.6254018478873,26.6559730856073],[89.6251162657577,26.658162184009402],[89.62502104579491,26.6598278051711],[89.62483063112761,26.6621120955983],[89.6249173946035,26.665273863014]]]},"properties":{"compartment":"Jainti BL4","Division":"BTR_E","Range":"Jainti","Beat":"Jainti-South","DIVISION":"BTR_E","BEAT_NAME":"Jainti-South"},"id":"comptt.121"}
]}
