{"type":"FeatureCollection", "features": [
{"type":"Feature","geometry":{"type":"Polygon","coordinates":[[[89.6291173946035,26.670373863014],[89.629213828933,26.6722561183015],[89.629213810551,26.6730175496799],[89.6292137950408,26.673660000843],[89.6291186014836,26.6742310700221],[89.6288568437328,26.6749924963001],[89.6286426781645,26.6756587433329],[89.6283809261582,26.6761822191798],[89.6283333196115,26.6768722595012],[89.6283333040981,26.6775147206639],[89.6283332897335,26.6781095817404],[89.6284998257715,26.6790851667521],[89.6285712029568,26.6796086490909],[89.6287139373263,26.6806556237682],[89.6289280629011,26.6820595104834],[89.6289280335898,26.6832730326799],[89.6289280117487,26.6841772343166],[89.6287376171469,26.685628703233],[89.628571044329,26.6861759809766],[89.6282862430946,26.6871066162254],[89.627850350252,26.6868309081126],[89.6271936332248,26.686359754458],[89.6264369760945,26.6859028888814],[89.6258088055493,26.6855745060423],[89.6249664958694,26.684817818255],[89.6242955016355,26.6842324541177],[89.6237101744348,26.683761311857],[89.622425291,26.682790465059],[89.6212260666673,26.6818481799839],[89.6207196486601,26.6813857697212],[89.6205693527428,26.6812485361022],[89.6193844056167,26.680420461514],[89.618285112077,26.6798493690601],[89.6164577134071,26.6787357414403],[89.615729605174,26.6783216965054],[89.6151014429059,26.6780647038015],[89.6136309547515,26.6773080037843],[89.6125887707299,26.6767511924742],[89.6110897319568,26.676023041955],[89.6097905609744,26.6753662854603],[89.6089054141589,26.6749094173928],[89.6082772418929,26.6746524146919],[89.6075205775275,26.6744953596674],[89.6063070722025,26.6740099251527],[89.6044368367507,26.6731818372297],[89.6039086052758,26.6728820164008],[89.6034089344207,26.6725536360774],[89.6028807053581,26.6721538750699],[89.6026196324792,26.6718879908166],[89.604865419701,26.6717733930515],[89.6082324140539,26.6716674584545],[89.612374406507,26.671562538959],[89.6141864047805,26.6714515740607],[89.6167733983504,26.6714576244725],[89.6181973961965,26.6714036521185],[89.6202043926059,26.6713506911249],[89.6252523926586,26.6708417885568],[89.6291173946035,26.670373863014]]]},"properties":{"compartment":"Jainti BL1","Division":"BTR_E","Range":"Jainti","Beat":"Jainti-North"},"id":"comptt.130"},
{"type":"Feature","geometry":{"type":"Polygon","coordinates":[[[89.6291173946035,26.670373863014],[89.6308843955219,26.6701588970524],[89.6337344052698,26.6694699513323],[89.6398194210589,26.6682080675999],[89.6425554172718,26.6680921206971],[89.6425943888871,26.6692641235892],[89.6422663574732,26.6705981196247],[89.6418093207184,26.6721661135715],[89.6410942944576,26.6733251017459],[89.6395992504928,26.6752950761923],[89.6381682063478,26.6772660518844],[89.6371281696374,26.6788900345638],[89.6349191106047,26.6815549963442],[89.63271305434,26.6841049579675],[89.6310219940006,26.6867719298357],[89.6305609544784,26.6884539238948],[89.6305354813447,26.6886659440137],[89.629520700683,26.6878874225884],[89.6282862430946,26.6871066162254],[89.628571044329,26.6861759809766],[89.6287376171469,26.685628703233],[89.6289280117487,26.6841772343166],[89.6289280335898,26.6832730326799],[89.6289280629011,26.6820595104834],[89.6287139373263,26.6806556237682],[89.6285712029568,26.6796086490909],[89.6284998257715,26.6790851667521],[89.6283332897335,26.6781095817404],[89.6283333040981,26.6775147206639],[89.6283333196115,26.6768722595012],[89.6283809261582,26.6761822191798],[89.6286426781645,26.6756587433329],[89.6288568437328,26.6749924963001],[89.6291186014836,26.6742310700221],[89.6292137950408,26.673660000843],[89.629213810551,26.6730175496799],[89.629213828933,26.6722561183015],[89.6291173946035,26.670373863014]]]},"properties":{"compartment":"Jainti BL2A","Division":"BTR_E","Range":"Jainti","Beat":"Jainti-North"},"id":"comptt.131"},
{"type":"Feature","geometry":{"type":"Polygon","coordinates":[[[89.5817337011945,26.6736426352357],[89.5796381450888,26.6736953150619],[89.5762402872416,26.6735382085982],[89.5746733598968,26.6735381786413],[89.5741884773058,26.6725017967942],[89.5732905216017,26.6707577762108],[89.571679567724,26.669010741739],[89.5703926144197,26.6672067134796],[89.5694946699454,26.6649966920788],[89.5693097264317,26.6626736843625],[89.5693147588331,26.6613296820796],[89.5701127513425,26.6615586980215],[89.5707497453829,26.6617407107459],[89.5757037395003,26.6614788067341],[89.5772837403885,26.6612808371451],[89.5783107366089,26.6613328572334],[89.579094735164,26.6613128724626],[89.5818677314624,26.6611839262249],[89.5856537275739,26.6609599995428],[89.5886787235598,26.660819058192],[89.5921287255563,26.660386124596],[89.5948467200421,26.6603391774365],[89.5959337176746,26.6603271985811],[89.5970267187185,26.6601732195888],[89.5985786392805,26.6633092554243],[89.6001865332724,26.6675402943188],[89.6017964452656,26.6710243319224],[89.6022404228706,26.6719073421545],[89.6000824721824,26.6717397898162],[89.5969130375156,26.6718396682539],[89.5947144073805,26.6720680558336],[89.5905170493893,26.6724106146829],[89.5876188596038,26.6726960987378],[89.5855201764844,26.6730386984682],[89.5831216730717,26.6734241224342],[89.5819081508855,26.6736382491773],[89.5817337011945,26.6736426352357]]]},"properties":{"compartment":"N RVBK BL14","Division":"BTR_E","Range":"Jainti","Beat":"Jainti-North"},"id":"comptt.122"},
{"type":"Feature","geometry":{"type":"Polygon","coordinates":[[[89.6207196486601,26.6813857697212],[89.6164148183513,26.6814340554676],[89.6144874606239,26.6815339580854],[89.6118177012593,26.6817766064918],[89.6092764440008,26.6819193272231],[89.6076346145547,26.6820620654832],[89.6057072433942,26.682304728358],[89.6030660401872,26.6827044276033],[89.6015955382626,26.6829328293558],[89.5995682321847,26.6833896506663],[89.5977265191042,26.6837036953374],[89.5950424825723,26.6842461640019],[89.591330513395,26.6850027630158],[89.5904168032224,26.685102685388],[89.5893746206029,26.684074733244],[89.5888749594113,26.6833466122081],[89.5874187760767,26.6815619806503],[89.5867763373021,26.6807481866816],[89.5854629274034,26.6788065176311],[89.5843922048424,26.677364544202],[89.5837497777872,26.67647937011],[89.5831929939734,26.6758654581703],[89.5825791147791,26.6750659447884],[89.5819652373071,26.6741950512802],[89.5817337011945,26.6736426352357],[89.5819081508855,26.6736382491773],[89.5831216730717,26.6734241224342],[89.5855201764844,26.6730386984682],[89.5876188596038,26.6726960987378],[89.5905170493893,26.6724106146829],[89.5947144073805,26.6720680558336],[89.5969130375156,26.6718396682539],[89.6000824721824,26.6717397898162],[89.6022404228706,26.6719073421545],[89.6026196324792,26.6718879908166],[89.6028807053581,26.6721538750699],[89.6034089344207,26.6725536360774],[89.6039086052758,26.6728820164008],[89.6044368367507,26.6731818372297],[89.6063070722025,26.6740099251527],[89.6075205775275,26.6744953596674],[89.6082772418929,26.6746524146919],[89.6089054141589,26.6749094173928],[89.6097905609744,26.6753662854603],[89.6110897319568,26.676023041955],[89.6125887707299,26.6767511924742],[89.6136309547515,26.6773080037843],[89.6151014429059,26.6780647038015],[89.615729605174,26.6783216965054],[89.6164577134071,26.6787357414403],[89.618285112077,26.6798493690601],[89.6193844056167,26.680420461514],[89.6205693527428,26.6812485361022],[89.6207196486601,26.6813857697212]]]},"properties":{"compartment":"N RVBK BL13","Division":"BTR_E","Range":"Jainti","Beat":"Jainti-North"},"id":"comptt.128"},
{"type":"Feature","geometry":{"type":"Polygon","coordinates":[[[89.5736861560872,26.6858598107096],[89.5706481569451,26.6861347519997],[89.5668931552853,26.6865876796341],[89.5663651542487,26.6866846695175],[89.5658601998787,26.6848466564271],[89.5652882756544,26.6817666398366],[89.5647823456307,26.6789196249459],[89.5647243962431,26.6768286201196],[89.5648654472026,26.6747026191075],[89.5664204410667,26.6747976495626],[89.5693974334969,26.6748067075634],[89.57179143162,26.6746397538977],[89.5744454360818,26.674183804784],[89.5749534359644,26.6741368145956],[89.5746733598968,26.6735381786413],[89.5762402872416,26.6735382085982],[89.5796381450888,26.6736953150619],[89.5817337011945,26.6736426352357],[89.5819652373071,26.6741950512802],[89.5825791147791,26.6750659447884],[89.5831929939734,26.6758654581703],[89.5837497777872,26.67647937011],[89.5843922048424,26.677364544202],[89.5854629274034,26.6788065176311],[89.5867763373021,26.6807481866816],[89.5874187760767,26.6815619806503],[89.5888749594113,26.6833466122081],[89.5893746206029,26.684074733244],[89.5904168032224,26.685102685388],[89.5894031505375,26.6853168160164],[89.5878469819435,26.6854167258686],[89.5857340247196,26.6855166148706],[89.5829357771157,26.6857021606711],[89.5808085364878,26.6859448296495],[89.578866895062,26.68620177227],[89.5763113620477,26.6861731724207],[89.5750407389728,26.6860160973822],[89.5736861560872,26.6858598107096]]]},"properties":{"compartment":"N RVBK BL12","Division":"BTR_E","Range":"Jainti","Beat":"Jainti-North"},"id":"comptt.129"},
{"type":"Feature","geometry":{"type":"Polygon","coordinates":[[[89.5904168032224,26.685102685388],[89.5917730692088,26.6859593133486],[89.5923869577042,26.686373356052],[89.5931578965045,26.6867588417655],[89.5936290174189,26.6870872215342],[89.594043037094,26.6874727002923],[89.5944570460791,26.6878867391015],[89.5949424479931,26.6881722790726],[89.5955991639696,26.6886862627915],[89.5968983214741,26.6898998102848],[89.5979976080892,26.6907564432453],[89.5990683437395,26.6916558957275],[89.5996393992349,26.692198427831],[89.6010670453874,26.6934548179128],[89.6018094159788,26.6941829436903],[89.602494684299,26.6945969877923],[89.6031942329294,26.6949967521475],[89.6038794998645,26.6958819270955],[89.6060209542587,26.6979663725893],[89.6065317617158,26.6988474741314],[89.6064767620676,26.6988384730427],[89.6041937762009,26.6984844278917],[89.6002468015624,26.6978343497681],[89.5982843843569,26.6974835435986],[89.5979138173512,26.6974173035345],[89.5969468239005,26.6972442843716],[89.5932608472173,26.6966532114522],[89.5907368619886,26.6962981616117],[89.5892498657363,26.6962941326155],[89.586724870732,26.6963440834805],[89.5841368758637,26.6963950331198],[89.5812248818232,26.6964449764422],[89.5786988854128,26.6965539273948],[89.5766908849031,26.6967798886533],[89.5752038886682,26.6967758596598],[89.5723618918914,26.696932804539],[89.571770905746,26.6964197921097],[89.571322937729,26.6951417811125],[89.5713949796341,26.6933997794292],[89.571464022944,26.6915997775843],[89.5717930515751,26.6903807818359],[89.5726431027071,26.6881767944938],[89.5736861560872,26.6858598107096],[89.5750407389728,26.6860160973822],[89.5763113620477,26.6861731724207],[89.578866895062,26.68620177227],[89.5808085364878,26.6859448296495],[89.5829357771157,26.6857021606711],[89.5857340247196,26.6855166148706],[89.5878469819435,26.6854167258686],[89.5894031505375,26.6853168160164],[89.5904168032224,26.685102685388]]]},"properties":{"compartment":"N RVBK BL7","Division":"BTR_E","Range":"Jainti","Beat":"Jainti-North"},"id":"comptt.146"},
{"type":"Feature","geometry":{"type":"Polygon","coordinates":[[[89.6207196486601,26.6813857697212],[89.6201695802667,26.6822193500629],[89.6185848192881,26.6840753025234],[89.6168572938284,26.6857171018115],[89.6154724061559,26.6874160078782],[89.6135164491796,26.6895574936065],[89.6117603496458,26.6917846333801],[89.6105039495814,26.69398324284],[89.6095330908929,26.6956821569656],[89.6074472559358,26.698989372976],[89.6070257586725,26.6989234839004],[89.6067347604466,26.6988794781472],[89.6065317617158,26.6988474741314],[89.6060209542587,26.6979663725893],[89.6038794998645,26.6958819270955],[89.6031942329294,26.6949967521475],[89.602494684299,26.6945969877923],[89.6018094159788,26.6941829436903],[89.6010670453874,26.6934548179128],[89.5996393992349,26.692198427831],[89.5990683437395,26.6916558957275],[89.5979976080892,26.6907564432453],[89.5968983214741,26.6898998102848],[89.5955991639696,26.6886862627915],[89.5949424479931,26.6881722790726],[89.5944570460791,26.6878867391015],[89.594043037094,26.6874727002923],[89.5936290174189,26.6870872215342],[89.5931578965045,26.6867588417655],[89.5923869577042,26.686373356052],[89.5917730692088,26.6859593133486],[89.5904168032224,26.685102685388],[89.591330513395,26.6850027630158],[89.5950424825723,26.6842461640019],[89.5977265191042,26.6837036953374],[89.5995682321847,26.6833896506663],[89.6015955382626,26.6829328293558],[89.6030660401872,26.6827044276033],[89.6057072433942,26.682304728358],[89.6076346145547,26.6820620654832],[89.6092764440008,26.6819193272231],[89.6118177012593,26.6817766064918],[89.6144874606239,26.6815339580854],[89.6164148183513,26.6814340554676],[89.6207196486601,26.6813857697212]]]},"properties":{"compartment":"N RVBK BL6B","Division":"BTR_E","Range":"Jainti","Beat":"Jainti-North"},"id":"comptt.147"},
{"type":"Feature","geometry":{"type":"Polygon","coordinates":[[[89.6305354813447,26.6886659440137],[89.6304319288405,26.6895279233248],[89.6315209098225,26.6902059457849],[89.6326028852636,26.6911139685264],[89.6316818748049,26.6916389515201],[89.6303418521664,26.6927099273324],[89.6293548417721,26.6932389090449],[89.6284738296475,26.6938288929343],[89.6277678148756,26.6945108804018],[89.6264287961762,26.6954188559341],[89.6255661801937,26.6961681005083],[89.6252947751194,26.6964038356019],[89.6244157587373,26.6971698198452],[89.6228797374,26.6982067917651],[89.6222777307884,26.6985407806285],[89.6214827220595,26.6989817659211],[89.6199327111775,26.6995877367872],[89.6181677037696,26.7000717032396],[89.6153636947116,26.7007286497408],[89.6147287003192,26.7005606370548],[89.6138957097936,26.7002526202558],[89.6128587178075,26.7000255996248],[89.6126427194701,26.699978595328],[89.6120207242977,26.6998415829522],[89.6104657352198,26.6995465520986],[89.6076207549721,26.6990164956695],[89.6074472559358,26.698989372976],[89.6095330908929,26.6956821569656],[89.6105039495814,26.69398324284],[89.6117603496458,26.6917846333801],[89.6135164491796,26.6895574936065],[89.6154724061559,26.6874160078782],[89.6168572938284,26.6857171018115],[89.6185848192881,26.6840753025234],[89.6201695802667,26.6822193500629],[89.6207196486601,26.6813857697212],[89.6212260666673,26.6818481799839],[89.622425291,26.682790465059],[89.6237101744348,26.683761311857],[89.6242955016355,26.6842324541177],[89.6249664958694,26.684817818255],[89.6258088055493,26.6855745060423],[89.6264369760945,26.6859028888814],[89.6271936332248,26.686359754458],[89.627850350252,26.6868309081126],[89.6282862430946,26.6871066162254],[89.629520700683,26.6878874225884],[89.6305354813447,26.6886659440137]]]},"properties":{"compartment":"N RVBK BL6A","Division":"BTR_E","Range":"Jainti","Beat":"Jainti-North"},"id":"comptt.149"}
]}