{"type":"FeatureCollection", "features": [
{"type":"Feature","geometry":{"type":"Polygon","coordinates":[[[89.7226273638394,26.662437670709],[89.7227194117923,26.6604426687673],[89.7229174491602,26.6588756696924],[89.7229184666599,26.6581506683544],[89.7231644389262,26.6592756752554],[89.7285434140745,26.6597847810496],[89.7324364048038,26.6597928569448],[89.7370723938171,26.6598009473252],[89.7386243901353,26.6598039775834],[89.7410663843394,26.6598090251944],[89.7435343742142,26.6599910736468],[89.7430302969746,26.6632380699447],[89.7429092998879,26.6631290673802],[89.740588301005,26.663306022465],[89.7376103194487,26.662828963511],[89.7374373205273,26.6628009600857],[89.7358873216231,26.6629049300651],[89.7359443134487,26.6632379318027],[89.7226273638394,26.662437670709]]]},"properties":{"compartment":"Rahima RF","Division":"BTR_E","Range":"NorthRydak","Beat":"Kartik"},"id":"comptt.111"},
{"type":"Feature","geometry":{"type":"Polygon","coordinates":[[[89.7276421447768,26.6710227845638],[89.7276731520723,26.6707177845963],[89.7275712083028,26.6683997782605],[89.7275722249422,26.6677107769879],[89.7259362212286,26.668022745677],[89.7253091767528,26.6699247370168],[89.7244351571769,26.6708197216527],[89.7219191483286,26.6714296737381],[89.7219497915859,26.6679798478774],[89.7220354958649,26.6661381461003],[89.7223211034596,26.6633113463752],[89.7226273638394,26.662437670709],[89.7359443134487,26.6632379318027],[89.736170280755,26.6645699387139],[89.737785228233,26.6665889739992],[89.7381572030201,26.6675969831495],[89.7377811849572,26.668380977294],[89.7364091774016,26.6688259513796],[89.7346621734268,26.6691589179424],[89.7331651769882,26.669155888748],[89.7325321784881,26.6691548764039],[89.7324111433324,26.6706218768003],[89.732431139034,26.670797877521],[89.7315591411162,26.6707958605141],[89.7300041420151,26.6709088304056],[89.7276421447768,26.6710227845638]]]},"properties":{"compartment":"Rahima RF","Division":"BTR_E","Range":"NorthRydak","Beat":"Kartik"},"id":"comptt.119"},
{"type":"Feature","geometry":{"type":"Polygon","coordinates":[[[89.732431139034,26.670797877521],[89.7329570172439,26.6757878971526],[89.7336919551152,26.678287916185],[89.7359089633108,26.677734958386],[89.7361409723644,26.6773379621643],[89.7383859913982,26.676334004061],[89.7408830125561,26.6752180506592],[89.7404979729739,26.6768930463058],[89.7402539711974,26.6769900417294],[89.7405579710459,26.6769670476154],[89.7431539568405,26.6773050988863],[89.7435199197366,26.6788051088536],[89.7435148673935,26.6809711128404],[89.7433278517291,26.6816371104482],[89.738133847935,26.6822940103635],[89.7364078506757,26.6823469767936],[89.7273968415707,26.6835938033581],[89.72689986983,26.6824727915618],[89.7267768755561,26.6822477887408],[89.7270058743921,26.6822737932563],[89.7264519200155,26.6804397790125],[89.7244159570911,26.6791027367974],[89.7234899754015,26.6784347174865],[89.7251609794658,26.6781047494576],[89.7272009745983,26.678108789251],[89.7277619815032,26.6777687995547],[89.7274470429396,26.675256788701],[89.7274520989332,26.672938784452],[89.7276421447768,26.6710227845638],[89.7300041420151,26.6709088304056],[89.7315591411162,26.6707958605141],[89.732431139034,26.670797877521]]]},"properties":{"compartment":"Rahima RF","Division":"BTR_E","Range":"NorthRydak","Beat":"Kartik"},"id":"comptt.127"},
{"type":"Feature","geometry":{"type":"Polygon","coordinates":[[[89.7219191483286,26.6714296737381],[89.7216911474854,26.6714866693993],[89.7206911498753,26.6714846498977],[89.7195731715049,26.6706976266276],[89.7184542174594,26.668903601457],[89.7183312366831,26.6681195975936],[89.7189572487172,26.6675606087524],[89.7189592649419,26.666888607535],[89.7193612916277,26.6657446132326],[89.7183423529588,26.6633035888056],[89.7177193544424,26.6633025766602],[89.7165973625528,26.6630755543664],[89.712983368494,26.6631804841205],[89.7093993787216,26.6631054141253],[89.7071233852551,26.6630563696739],[89.7025093909244,26.6632712801472],[89.6996423924185,26.6634892246757],[89.6968984044449,26.6632591707706],[89.692239422862,26.6629520794049],[89.6920814217389,26.6630140764407],[89.6919584208709,26.6630620741325],[89.6919484276057,26.6627840734229],[89.6927915016981,26.6596320840121],[89.6936485300606,26.6583730983785],[89.6949195942235,26.6555901179848],[89.6954406526448,26.6531181235518],[89.695407698421,26.6512241193968],[89.6953647598969,26.6486801138417],[89.6961047951317,26.6471471254127],[89.69635379879,26.6469711299362],[89.696323846378,26.6450011256975],[89.7005688929116,26.6426572040228],[89.7117868740868,26.6423454219297],[89.7116598338634,26.6440254225896],[89.7117828335751,26.6440254249854],[89.7128977552637,26.6471634525593],[89.7130217387608,26.6478354562288],[89.7135987361779,26.6478864675646],[89.7140027299476,26.6481054758439],[89.7147667101588,26.6488514921205],[89.7159147060221,26.648911514598],[89.7169986978863,26.6491435361503],[89.717826691774,26.6493165526052],[89.7191656622916,26.6504085807348],[89.7202476348095,26.6514426037505],[89.7201796017623,26.6528186049996],[89.7205625953158,26.6530486128928],[89.7217105898078,26.6531656354814],[89.7221365849987,26.6533236440781],[89.7232505646078,26.6540606671658],[89.7232175596889,26.6542676669104],[89.7228985135608,26.6562096643304],[89.7229214724707,26.6579096679617],[89.7228984689035,26.6580596677942],[89.7229184666599,26.6581506683544],[89.7229174491602,26.6588756696924],[89.7227194117923,26.6604426687673],[89.7226273638394,26.662437670709],[89.7223211034596,26.6633113463752],[89.7220354958649,26.6661381461003],[89.7219497915859,26.6679798478774],[89.7219191483286,26.6714296737381]]]},"properties":{"compartment":"Karthik BL.","Division":"BTR_E","Range":"NorthRydak","Beat":"Kartik"},"id":"comptt.120"}
]}