{"type":"FeatureCollection", "features": [
{"type":"Feature","geometry":{"type":"Polygon","coordinates":[[[89.8388345463759,26.685534853785402],[89.8378847882819,26.6855441452566],[89.8365046973491,26.685710678631],[89.8337445149124,26.686067545426102],[89.8321026939972,26.686257873735702],[89.8282717631965,26.6862339988812],[89.8222755338391,26.6863528620255],[89.818468399561,26.6864717579176],[89.8141139913516,26.686804803540102],[89.81192489343171,26.686923731027303],[89.8110206908747,26.6871140737407],[89.8101402882646,26.687304406918603],[89.8095454273105,26.687399575487703],[89.8089505580841,26.6874233639187],[89.80818912981191,26.6874233490518],[89.8072552148558,26.6873025005839],[89.8082444573422,26.6862804779247],[89.8083885056508,26.684270476854902],[89.8083095373314,26.6829684727984],[89.8084745628195,26.681899473955102],[89.8086526249975,26.6793124724337],[89.80862766121581,26.6778174690585],[89.8082357378049,26.6746874553629],[89.8144387335281,26.6742835756452],[89.8215857255096,26.6739477144866],[89.827840714003,26.6738408363667],[89.8337117117359,26.673388950084],[89.8381787071547,26.6731640368398],[89.8383247068031,26.6731650396916],[89.838614645464,26.675674050247903],[89.8386225647166,26.679011056914803],[89.8388194906941,26.682052066694503],[89.83883440702441,26.6855080737305],[89.8388345463759,26.685534853785402]]]},"properties":{"compartment":"Kumargram BL2","Division":"BTR_E","Range":"Kumargram","Beat":"Kumargram","DIVISION":"BTR_E","BEAT_NAME":"Kumargram"},"id":"comptt.139"},
{"type":"Feature","geometry":{"type":"Polygon","coordinates":[[[89.8388345463759,26.685534853785402],[89.8388383889116,26.686256075268002],[89.838708306687,26.6896650793802],[89.83920326093501,26.6915090926461],[89.8391911761709,26.6950110992449],[89.8391911734105,26.6951250994674],[89.83921254161021,26.695241439916202],[89.8400320606551,26.6997031248308],[89.8377450583807,26.7000090807452],[89.8330130552425,26.7005779894031],[89.8295230313272,26.701889923770402],[89.82943303097291,26.701912922056803],[89.82125001352951,26.7033957650614],[89.8143449876738,26.705108633473202],[89.80679997721751,26.7062474882646],[89.8020699797961,26.7065853965066],[89.8019819807959,26.7065523947239],[89.8027360800497,26.7023834014208],[89.8046861289836,26.700179435262303],[89.8044921855024,26.6978634270071],[89.804769230703,26.6959704287667],[89.8036013259744,26.6921443985801],[89.8048033677031,26.690307418509402],[89.8061024086769,26.6884924403722],[89.8071294319964,26.6874324583789],[89.8072552148558,26.6873025005839],[89.80818912981191,26.6874233490518],[89.8089505580841,26.6874233639187],[89.8095454273105,26.687399575487703],[89.8101402882646,26.687304406918603],[89.8110206908747,26.6871140737407],[89.81192489343171,26.686923731027303],[89.8141139913516,26.686804803540102],[89.818468399561,26.6864717579176],[89.8222755338391,26.6863528620255],[89.8282717631965,26.6862339988812],[89.8321026939972,26.686257873735702],[89.8337445149124,26.686067545426102],[89.8365046973491,26.685710678631],[89.8378847882819,26.6855441452566],[89.8388345463759,26.685534853785402]]]},"properties":{"compartment":"Kumargram BL1","Division":"BTR_E","Range":"Kumargram","Beat":"Kumargram","DIVISION":"BTR_E","BEAT_NAME":"Kumargram"},"id":"comptt.157"}
]}
