{"type":"FeatureCollection", "features": [
{"type":"Feature","geometry":{"type":"Polygon","coordinates":[[[89.793655010208,26.6673895650579],[89.7917768649036,26.6673725283909],[89.7893855095007,26.6674081818153],[89.7870298528712,26.6674914160278],[89.785090595869,26.6675508583171],[89.7824375022287,26.6675389165474],[89.7800580476799,26.6675388701385],[89.7786184715551,26.6675150420158],[89.7776904851208,26.6674555338033],[89.7765245626826,26.667253260678],[89.7755846757021,26.6672175522793],[89.773704911456,26.6671580255051],[89.7733530325052,26.6671503161332],[89.773454280727,26.6667981299311],[89.7736684412727,26.6663412732369],[89.7739968241427,26.665777348566],[89.7744465510452,26.6650349659209],[89.7747535243087,26.6644567608048],[89.7750390674487,26.663885695284],[89.7752603686667,26.6634002886737],[89.7755316466671,26.6626293424932],[89.7757029805854,26.662036864704],[89.7758600352259,26.6614158265817],[89.7759599841349,26.6610374878089],[89.7760171122796,26.6602808274792],[89.7760314231075,26.6590030453204],[89.7760100241888,26.6581321632416],[89.775917245088,26.6572755597985],[89.7757673628423,26.6565545755009],[89.7755461024806,26.6553481788859],[89.775517562023,26.6545415467908],[89.7755104613357,26.6529139835476],[89.7752963283713,26.6522286980662],[89.7751464376767,26.6518574944363],[89.774996535086,26.6515648209562],[89.7748038041446,26.6512078965186],[89.7747181519235,26.65089380425],[89.7747038902277,26.6505511633186],[89.774689630594,26.6497088314342],[89.7747538873394,26.6494232921421],[89.7748895159884,26.6490521040777],[89.7750251536037,26.6487237360951],[89.7753178448217,26.6482311908603],[89.775624806179,26.6477315158898],[89.7758461048037,26.6473531794811],[89.7760745413443,26.6470605133749],[89.776267277105,26.6468035366409],[89.776509993613,26.6465108608128],[89.7766384881426,26.6463109929356],[89.7769903818602,26.6457083079776],[89.7774286412313,26.6456937071569],[89.7781327402506,26.6456706230932],[89.7796846378528,26.645619750983],[89.7829186275365,26.6457408142435],[89.7847296289257,26.6455118491018],[89.7871886316387,26.6451668963674],[89.790165641551,26.6444749530634],[89.7931426514951,26.6437820097562],[89.7956036682436,26.6428560559432],[89.7968976792748,26.6422770800506],[89.7980756881575,26.6417981020886],[89.7976406349149,26.6440450979293],[89.7965486093506,26.6452070788778],[89.7955945870688,26.6462200622284],[89.7936775389039,26.6483960290387],[89.7916294633913,26.6517169954862],[89.7912074339783,26.6529749896715],[89.7904774106753,26.6540089774217],[89.7911113566091,26.6561879939605],[89.7921262988903,26.658482018151],[89.7923782346192,26.6611190281231],[89.791479172989,26.6637550156461],[89.791861141651,26.6650160255145],[89.7937721012176,26.6665090656517],[89.7936910866864,26.6671180652404],[89.793655010208,26.6673895650579]]]},"properties":{"compartment":"C Rydak BL2","Division":"BTR_E","Range":"NorthRydak","Beat":"Mainabari"},"id":"comptt.115"},
{"type":"Feature","geometry":{"type":"Polygon","coordinates":[[[89.7693386126437,26.6671103502614],[89.766651407372,26.6671706179707],[89.7624873586935,26.6670991566307],[89.7613214285091,26.6672181041197],[89.7607146661727,26.6673727625808],[89.7601911722074,26.6675869027785],[89.7598937388702,26.6677534572943],[89.7591323008557,26.6681579532127],[89.7571930260779,26.6689550369056],[89.7555987834399,26.6692167463115],[89.753564348661,26.6696093173806],[89.7521961569419,26.6698115410818],[89.7513038572835,26.669882913816],[89.7506138065825,26.6699780805392],[89.7499342446363,26.6701237975625],[89.7505561575413,26.6682882262196],[89.7509741923014,26.6668092315742],[89.7515862343635,26.6650092401035],[89.7516492937054,26.6625462366737],[89.7509343602737,26.6598582176513],[89.7511974344924,26.656759216918],[89.7533744875681,26.6543522547982],[89.7558765104903,26.6531633013136],[89.7564115171244,26.6528373111235],[89.7574665420146,26.6517053295408],[89.7574675527539,26.6512603287169],[89.7588786020927,26.6490813520852],[89.7605536595804,26.6465393799057],[89.7632476481868,26.6467544328128],[89.7680376425993,26.6465295257323],[89.7719186447401,26.6460716004946],[89.7763186428809,26.6457306855947],[89.7769903818602,26.6457083079776],[89.7766384881426,26.6463109929356],[89.776509993613,26.6465108608128],[89.776267277105,26.6468035366409],[89.7760745413443,26.6470605133749],[89.7758461048037,26.6473531794811],[89.775624806179,26.6477315158898],[89.7753178448217,26.6482311908603],[89.7750251536037,26.6487237360951],[89.7748895159884,26.6490521040777],[89.7747538873394,26.6494232921421],[89.774689630594,26.6497088314342],[89.7747038902277,26.6505511633186],[89.7747181519235,26.65089380425],[89.7748038041446,26.6512078965186],[89.774996535086,26.6515648209562],[89.7751464376767,26.6518574944363],[89.7752963283713,26.6522286980662],[89.7755104613357,26.6529139835476],[89.775517562023,26.6545415467908],[89.7755461024806,26.6553481788859],[89.7757673628423,26.6565545755009],[89.775917245088,26.6572755597985],[89.7760100241888,26.6581321632416],[89.7760314231075,26.6590030453204],[89.7760171122796,26.6602808274792],[89.7759599841349,26.6610374878089],[89.7758600352259,26.6614158265817],[89.7757029805854,26.662036864704],[89.7755316466671,26.6626293424932],[89.7752603686667,26.6634002886737],[89.7750390674487,26.663885695284],[89.7747535243087,26.6644567608048],[89.7744465510452,26.6650349659209],[89.7739968241427,26.665777348566],[89.7736684412727,26.6663412732369],[89.773454280727,26.6667981299311],[89.7733530325052,26.6671503161332],[89.7720749860636,26.6671223036494],[89.7693386126437,26.6671103502614]]]},"properties":{"compartment":"C Rydak BL1","Division":"BTR_E","Range":"NorthRydak","Beat":"Mainabari"},"id":"comptt.117"},
{"type":"Feature","geometry":{"type":"Polygon","coordinates":[[[89.7693386126437,26.6671103502614],[89.7690887554577,26.6674315760001],[89.7687437273407,26.6678003899731],[89.7683986977868,26.6682286840592],[89.7680726975563,26.668683158566],[89.7676729365184,26.6691780717109],[89.767244624166,26.6697301044074],[89.7666449848487,26.6705867043413],[89.7662642491666,26.6712719782183],[89.7659501479305,26.6717669030329],[89.7653505099921,26.6725663928569],[89.7649316995663,26.6734515463701],[89.7645985584824,26.67435573159],[89.764274930596,26.6751266767421],[89.7637418996193,26.6764591688755],[89.7634849038785,26.6771349251458],[89.7631803147958,26.6779534607584],[89.7628852459207,26.6787624665384],[89.7624378850954,26.6796666595277],[89.7621332957808,26.6804947051573],[89.7618096632879,26.6814560006681],[89.7616002562831,26.6821793579554],[89.7614193936888,26.683131136233],[89.7613908189004,26.6841590676264],[89.7614193506531,26.6849109796101],[89.761552578941,26.6857961438897],[89.7616953269757,26.6866908283733],[89.7620664813613,26.6881280283441],[89.762275855326,26.6891845144356],[89.7625708740265,26.6904504025963],[89.762617161922,26.6909464144414],[89.7616534907676,26.6906727651144],[89.7609991491869,26.6903872118023],[89.7601544474708,26.6901254548205],[89.7589290280746,26.6898042002964],[89.7582865835896,26.689637627443],[89.7574775692024,26.6894829513619],[89.7566447617061,26.6894591350646],[89.7558000553884,26.6893877384451],[89.7550862222212,26.6891735741094],[89.7540392721279,26.6888642230933],[89.7533611391664,26.6886381594323],[89.7527067890272,26.6882931260106],[89.7519096806577,26.6878885996911],[89.7515408778425,26.6876268519995],[89.7506485911327,26.6871628337112],[89.7498395816406,26.6868058972508],[89.7491277193777,26.6865542328853],[89.7491197687218,26.6845142288752],[89.7491628069667,26.6829282267176],[89.7489608514819,26.6811062193345],[89.7484129259453,26.6780782029245],[89.7485999997552,26.675006200769],[89.7498111056823,26.670506215884],[89.7498311075204,26.6704282161266],[89.7499342446363,26.6701237975625],[89.7506138065825,26.6699780805392],[89.7513038572835,26.669882913816],[89.7521961569419,26.6698115410818],[89.753564348661,26.6696093173806],[89.7555987834399,26.6692167463115],[89.7571930260779,26.6689550369056],[89.7591323008557,26.6681579532127],[89.7598937388702,26.6677534572943],[89.7601911722074,26.6675869027785],[89.7607146661727,26.6673727625808],[89.7613214285091,26.6672181041197],[89.7624873586935,26.6670991566307],[89.766651407372,26.6671706179707],[89.7693386126437,26.6671103502614]]]},"properties":{"compartment":"N Rydak BL2","Division":"BTR_E","Range":"NorthRydak","Beat":"Mainabari"},"id":"comptt.136"},
{"type":"Feature","geometry":{"type":"Polygon","coordinates":[[[89.793655010208,26.6673895650579],[89.7935130547111,26.6684580643397],[89.7940210036713,26.6705220782099],[89.7951769666901,26.6719431034892],[89.7934929289321,26.6736640739384],[89.7920449113277,26.6745290473473],[89.7908368827088,26.6758270262673],[89.7860098415514,26.6779859362219],[89.7835958104994,26.6794988920144],[89.7826277708641,26.6812298764354],[89.7835877110153,26.6836138997265],[89.7838246580645,26.6857809084951],[89.783580621981,26.6872959066298],[89.7823725985795,26.6883778851208],[89.7816465583726,26.6901088742582],[89.7789915435912,26.6909718240833],[89.778746491777,26.6931368234335],[89.7787444816565,26.6939686249823],[89.7779883785746,26.6937544898138],[89.7771079831892,26.6936473924234],[89.7757041001594,26.6934927047239],[89.7744310979818,26.6932904194891],[89.7734674245172,26.6931119403382],[89.7708857339907,26.69255271888],[89.7693747843804,26.6922671588446],[89.7682921317695,26.6920648773281],[89.766602733725,26.6917317237208],[89.765056091324,26.6915651232173],[89.7638306701973,26.6913152588258],[89.762617161922,26.6909464144414],[89.7625708740265,26.6904504025963],[89.762275855326,26.6891845144356],[89.7620664813613,26.6881280283441],[89.7616953269757,26.6866908283733],[89.761552578941,26.6857961438897],[89.7614193506531,26.6849109796101],[89.7613908189004,26.6841590676264],[89.7614193936888,26.683131136233],[89.7616002562831,26.6821793579554],[89.7618096632879,26.6814560006681],[89.7621332957808,26.6804947051573],[89.7624378850954,26.6796666595277],[89.7628852459207,26.6787624665384],[89.7631803147958,26.6779534607584],[89.7634849038785,26.6771349251458],[89.7637418996193,26.6764591688755],[89.764274930596,26.6751266767421],[89.7645985584824,26.67435573159],[89.7649316995663,26.6734515463701],[89.7653505099921,26.6725663928569],[89.7659501479305,26.6717669030329],[89.7662642491666,26.6712719782183],[89.7666449848487,26.6705867043413],[89.767244624166,26.6697301044074],[89.7676729365184,26.6691780717109],[89.7680726975563,26.668683158566],[89.7683986977868,26.6682286840592],[89.7687437273407,26.6678003899731],[89.7690887554577,26.6674315760001],[89.7693386126437,26.6671103502614],[89.7720749860636,26.6671223036494],[89.7733530325052,26.6671503161332],[89.773704911456,26.6671580255051],[89.7755846757021,26.6672175522793],[89.7765245626826,26.667253260678],[89.7776904851208,26.6674555338033],[89.7786184715551,26.6675150420158],[89.7800580476799,26.6675388701385],[89.7824375022287,26.6675389165474],[89.785090595869,26.6675508583171],[89.7870298528712,26.6674914160278],[89.7893855095007,26.6674081818153],[89.7917768649036,26.6673725283909],[89.793655010208,26.6673895650579]]]},"properties":{"compartment":"N Rydak BL3","Division":"BTR_E","Range":"NorthRydak","Beat":"Mainabari"},"id":"comptt.140"},
{"type":"Feature","geometry":{"type":"Polygon","coordinates":[[[89.7787444816565,26.6939686249823],[89.7787444716032,26.6939708249863],[89.7787414288798,26.6957368282985],[89.7772893693737,26.6983338049066],[89.7760783093077,26.7009307862156],[89.7768752606381,26.7028658054679],[89.7763462676647,26.7026257946806],[89.7741332831676,26.7021957506497],[89.7723922872269,26.7021937166517],[89.771208277975,26.7026886944758],[89.7700202584219,26.7036096730319],[89.7691482295467,26.7048856584324],[89.7678781844012,26.7068716374094],[89.7666091306556,26.7092126170776],[89.7656550864927,26.7111276020848],[89.7647040371616,26.7132555875528],[89.7633570042183,26.7147445640702],[89.7616139687767,26.7163745331175],[89.7596319201555,26.7185714985677],[89.7591548989279,26.7194934909972],[89.7591538782916,26.7203454925926],[89.7594678534838,26.7213395006109],[89.7600968038378,26.7233285166704],[89.7608037488448,26.7255305346593],[89.7607227129026,26.7270215359041],[89.7604816842355,26.7282275334817],[89.7591336409759,26.730141510768],[89.7576285963335,26.7321274851193],[89.7554885566557,26.7339694467838],[89.7545405519994,26.7342524287916],[89.7534325580669,26.7341084068645],[89.7517725723283,26.7336793736111],[89.7497186012765,26.7326823315862],[89.7490276109571,26.7323493174536],[89.7493469423644,26.7318479827469],[89.7497181453408,26.7312769189218],[89.7499751367376,26.7307819930086],[89.7503558715366,26.7301347892254],[89.7508983996493,26.7293352983156],[89.7512600965681,26.7286024239978],[89.7515456527407,26.7279076282639],[89.7517074648186,26.7273936704538],[89.7517931377655,26.7268511511019],[89.7518502663131,26.7260802107604],[89.7518788323897,26.7254139600587],[89.751793183197,26.7249761375574],[89.7515647638749,26.7245573423027],[89.7513458631469,26.7241956573422],[89.7511745529997,26.7238054232576],[89.7510889010391,26.7234818109725],[89.7510793905152,26.723091580049],[89.7511841031841,26.722558581087],[89.7513935035339,26.722111254332],[89.751574353028,26.7217019870913],[89.7517361632577,26.7212641694244],[89.7519170136736,26.7208168321114],[89.7521359381506,26.720198175218],[89.7522120988094,26.7197508358597],[89.7522311398313,26.7192939753677],[89.752202599119,26.7189132640901],[89.7520598402859,26.7184659204555],[89.7519170846799,26.717885326569],[89.7516410893832,26.7173047300802],[89.7513270118693,26.7168193130277],[89.75118425073,26.7164671495734],[89.7510890813238,26.7160388469049],[89.7510890919266,26.7156010260774],[89.7511652474228,26.7149538163411],[89.751184306739,26.7141543152018],[89.7512890465972,26.7124982041161],[89.7514318348412,26.711317994673],[89.7515841484529,26.7103281357757],[89.751898274591,26.7088052890299],[89.7521362352359,26.7079296520204],[89.7524503680513,26.7061307747515],[89.7527740093222,26.7048077985678],[89.7529929478395,26.7036085605735],[89.7531357382398,26.7027519517405],[89.7533166231958,26.7008769417238],[89.7533071322377,26.6996776892693],[89.7534674086914,26.6989823410822],[89.7531694522089,26.6972123319166],[89.7532474798024,26.6960643312674],[89.7527964985816,26.6953313210779],[89.7512925355999,26.6939452891024],[89.7500735925872,26.69170626108],[89.7497036151656,26.6908082521625],[89.74920864865,26.6894712399768],[89.7491876908498,26.6877282362741],[89.7491537075897,26.6870392343089],[89.7491277193777,26.6865542328853],[89.7498395816406,26.6868058972508],[89.7506485911327,26.6871628337112],[89.7515408778425,26.6876268519995],[89.7519096806577,26.6878885996911],[89.7527067890272,26.6882931260106],[89.7533611391664,26.6886381594323],[89.7540392721279,26.6888642230933],[89.7550862222212,26.6891735741094],[89.7558000553884,26.6893877384451],[89.7566447617061,26.6894591350646],[89.7574775692024,26.6894829513619],[89.7582865835896,26.689637627443],[89.7589290280746,26.6898042002964],[89.7601544474708,26.6901254548205],[89.7609991491869,26.6903872118023],[89.7616534907676,26.6906727651144],[89.762617161922,26.6909464144414],[89.7638306701973,26.6913152588258],[89.765056091324,26.6915651232173],[89.766602733725,26.6917317237208],[89.7682921317695,26.6920648773281],[89.7693747843804,26.6922671588446],[89.7708857339907,26.69255271888],[89.7734674245172,26.6931119403382],[89.7744310979818,26.6932904194891],[89.7757041001594,26.6934927047239],[89.7771079831892,26.6936473924234],[89.7779883785746,26.6937544898138],[89.7787444816565,26.6939686249823]]]},"properties":{"compartment":"N Rydak BL1","Division":"BTR_E","Range":"NorthRydak","Beat":"Mainabari"},"id":"comptt.175"},
{"type":"Feature","geometry":{"type":"Polygon","coordinates":[[[89.7534674086914,26.6989823410822],[89.7533071322377,26.6996776892693],[89.7533166231958,26.7008769417238],[89.7531357382398,26.7027519517405],[89.7529929478395,26.7036085605735],[89.7527740093222,26.7048077985678],[89.7524503680513,26.7061307747515],[89.7521362352359,26.7079296520204],[89.751898274591,26.7088052890299],[89.7515841484529,26.7103281357757],[89.7514318348412,26.711317994673],[89.7512890465972,26.7124982041161],[89.751184306739,26.7141543152018],[89.7511652474228,26.7149538163411],[89.7510890919266,26.7156010260774],[89.7510890813238,26.7160388469049],[89.75118425073,26.7164671495734],[89.7513270118693,26.7168193130277],[89.7516410893832,26.7173047300802],[89.7519170846799,26.717885326569],[89.7520598402859,26.7184659204555],[89.752202599119,26.7189132640901],[89.7522311398313,26.7192939753677],[89.7522120988094,26.7197508358597],[89.7521359381506,26.720198175218],[89.7519170136736,26.7208168321114],[89.7517361632577,26.7212641694244],[89.751574353028,26.7217019870913],[89.7513935035339,26.722111254332],[89.7511841031841,26.722558581087],[89.7510793905152,26.723091580049],[89.7510889010391,26.7234818109725],[89.7511745529997,26.7238054232576],[89.7513458631469,26.7241956573422],[89.7515647638749,26.7245573423027],[89.751793183197,26.7249761375574],[89.7518788323897,26.7254139600587],[89.7518502663131,26.7260802107604],[89.7517931377655,26.7268511511019],[89.7517074648186,26.7273936704538],[89.7515456527407,26.7279076282639],[89.7512600965681,26.7286024239978],[89.7508983996493,26.7293352983156],[89.7503558715366,26.7301347892254],[89.7499751367376,26.7307819930086],[89.7497181453408,26.7312769189218],[89.7493469423644,26.7318479827469],[89.7490276109571,26.7323493174536],[89.7474186334655,26.7315752845498],[89.7473486344526,26.7315412831177],[89.7455336576605,26.7307582461738],[89.7435576830146,26.7299022059485],[89.7414246966693,26.7295441635967],[89.7390527040525,26.7294681171074],[89.7362857209664,26.7290370622341],[89.7346267386844,26.7284660287479],[89.7330477682338,26.7273989958947],[89.7310717936018,26.7265429556845],[89.7290178139942,26.7258999143529],[89.7276748309526,26.7253298870493],[89.726728845236,26.7248318676367],[89.7256218599461,26.7243318450762],[89.7243578629624,26.7243298203825],[89.7237118619605,26.7244338079588],[89.7234878616146,26.7244698036508],[89.7231588361623,26.724726797705],[89.7231826261036,26.7243140873971],[89.7230969755269,26.7239333650114],[89.7229922933807,26.7236192723786],[89.7229161516284,26.7232861502678],[89.7227258165994,26.7226865154278],[89.7226496762298,26.7222962832102],[89.7224974177953,26.7214206385975],[89.7224879118789,26.7208400473252],[89.7225735829722,26.7203736781254],[89.7228591448901,26.7194409319565],[89.7232017997584,26.7187937274368],[89.7238775886844,26.7179466490483],[89.7242963766898,26.7175754565316],[89.7247532446057,26.7172042747583],[89.7254099809005,26.7168806769771],[89.7264855026663,26.7162905868743],[89.7275324835778,26.715738576285],[89.7284176555607,26.7151580024817],[89.7290839134479,26.7147677847601],[89.7298643838333,26.7142633490541],[89.7306924415727,26.7138636144736],[89.7316347144364,26.7136542424804],[89.732662648944,26.7133687320168],[89.7333003427525,26.7131498240578],[89.7338904589764,26.7128357549909],[89.7344329750816,26.7125311950121],[89.7350230917672,26.712198075909],[89.7356512783638,26.711864967549],[89.7363080125899,26.7116270299253],[89.7371360689507,26.7112844054498],[89.7377166661203,26.7109322561241],[89.7381449745673,26.7105420337529],[89.7384210022179,26.7101993884977],[89.7385447413757,26.7098091601792],[89.738687523484,26.7092952019996],[89.7388969263584,26.7087431650489],[89.7391253668838,26.7082863186491],[89.7396298364414,26.7074297168856],[89.7401247853293,26.7066016749896],[89.7404769647801,26.7057641102876],[89.7407053992206,26.705145453582],[89.7410195050736,26.7044601684231],[89.7412955357169,26.7039938029332],[89.7417809639338,26.703194310903],[89.7421045817019,26.7028421565569],[89.7425519330972,26.702328204321],[89.7429421718618,26.7019284611852],[89.743427596623,26.7012717394229],[89.7437131390858,26.7007292239738],[89.7440367639928,26.7000820190703],[89.7441853267749,26.6995394609468],[89.7447654164483,26.6994971721902],[89.7460774157188,26.6994011976191],[89.748034413322,26.6993122356517],[89.7534674086914,26.6989823410822]]]},"properties":{"compartment":"Bhutanghat BL2","Division":"BTR_E","Range":"NorthRydak","Beat":"Mainabari"},"id":"comptt.173"},
{"type":"Feature","geometry":{"type":"Polygon","coordinates":[[[89.7231588361623,26.724726797705],[89.7228528510918,26.7249657921755],[89.7228498201401,26.7262437945085],[89.7222937870945,26.7276617863005],[89.7213407583967,26.7289387700722],[89.7201547337354,26.7300717490211],[89.7188087197487,26.7307797240483],[89.7173037079066,26.7314146958319],[89.7159587042428,26.7316966700814],[89.7135077015412,26.7320466228501],[89.7118456969338,26.7323985910365],[89.7103416919554,26.7327505623094],[89.7088366783792,26.7334575342234],[89.7073346631014,26.7342345063251],[89.7071436600636,26.7343785028615],[89.7069818452315,26.7267514855039],[89.7068538706283,26.725715481076],[89.7068109186621,26.7237364765536],[89.7067899575335,26.7221334731606],[89.7067509994226,26.7204074691872],[89.7067490014856,26.72032246899],[89.7073550000299,26.7203234808258],[89.7085290067498,26.7199315030219],[89.709919009789,26.7196705296796],[89.712320034539,26.7184145742248],[89.7146850333486,26.7182336200699],[89.7169590743379,26.7163196609018],[89.7193021271501,26.7139107021506],[89.7222971485587,26.7127357584315],[89.7253971644507,26.7117788171676],[89.7272112012282,26.710083849409],[89.7291042360299,26.7084628833279],[89.7304682585168,26.7074019079668],[89.7321692799257,26.7063529392056],[89.7331383235934,26.7044549545577],[89.734567363062,26.7026859791291],[89.7348623735037,26.702225984023],[89.7361083975978,26.7011100062465],[89.7362693971978,26.7011110093911],[89.7362934349348,26.6995490069221],[89.7407234284015,26.6993920930949],[89.7408634279059,26.6993990958407],[89.7438604169578,26.6995631546494],[89.7441853267749,26.6995394609468],[89.7440367639928,26.7000820190703],[89.7437131390858,26.7007292239738],[89.743427596623,26.7012717394229],[89.7429421718618,26.7019284611852],[89.7425519330972,26.702328204321],[89.7421045817019,26.7028421565569],[89.7417809639338,26.703194310903],[89.7412955357169,26.7039938029332],[89.7410195050736,26.7044601684231],[89.7407053992206,26.705145453582],[89.7404769647801,26.7057641102876],[89.7401247853293,26.7066016749896],[89.7396298364414,26.7074297168856],[89.7391253668838,26.7082863186491],[89.7388969263584,26.7087431650489],[89.738687523484,26.7092952019996],[89.7385447413757,26.7098091601792],[89.7384210022179,26.7101993884977],[89.7381449745673,26.7105420337529],[89.7377166661203,26.7109322561241],[89.7371360689507,26.7112844054498],[89.7363080125899,26.7116270299253],[89.7356512783638,26.711864967549],[89.7350230917672,26.712198075909],[89.7344329750816,26.7125311950121],[89.7338904589764,26.7128357549909],[89.7333003427525,26.7131498240578],[89.732662648944,26.7133687320168],[89.7316347144364,26.7136542424804],[89.7306924415727,26.7138636144736],[89.7298643838333,26.7142633490541],[89.7290839134479,26.7147677847601],[89.7284176555607,26.7151580024817],[89.7275324835778,26.715738576285],[89.7264855026663,26.7162905868743],[89.7254099809005,26.7168806769771],[89.7247532446057,26.7172042747583],[89.7242963766898,26.7175754565316],[89.7238775886844,26.7179466490483],[89.7232017997584,26.7187937274368],[89.7228591448901,26.7194409319565],[89.7225735829722,26.7203736781254],[89.7224879118789,26.7208400473252],[89.7224974177953,26.7214206385975],[89.7226496762298,26.7222962832102],[89.7227258165994,26.7226865154278],[89.7229161516284,26.7232861502678],[89.7229922933807,26.7236192723786],[89.7230969755269,26.7239333650114],[89.7231826261036,26.7243140873971],[89.7231588361623,26.724726797705]]]},"properties":{"compartment":"Bhutanghat BL1","Division":"BTR_E","Range":"NorthRydak","Beat":"Mainabari"},"id":"comptt.176"}
]}