{"type":"FeatureCollection", "features": [
{"type":"Feature","geometry":{"type":"Polygon","coordinates":[[[89.7582638088943,26.5574901663574],[89.7586738236894,26.5568351730801],[89.7588338415546,26.5560761747483],[89.7588908886932,26.554108172121],[89.7592428974225,26.5537111782055],[89.7597549201954,26.5527141862589],[89.7597679319814,26.5522221855775],[89.7597719037839,26.5520634253032],[89.7598009636292,26.5509011837109],[89.7602339775751,26.5502791909405],[89.760645022258,26.5483791953158],[89.7607040676454,26.5464831928613],[89.760769089344,26.5455731923956],[89.7599581140045,26.544623174842],[89.7584782104026,26.5407481387478],[89.7587362281731,26.5399831423056],[89.75886527518,26.5380121410697],[89.7592823090461,26.5365611464117],[89.7596043449266,26.5350351497661],[89.7600423557549,26.5345421573331],[89.7602423487716,26.5348141617323],[89.7604943013813,26.5367651703293],[89.7612562610286,26.5383741881796],[89.762401218454,26.5400392135747],[89.764442201314,26.5405592541941],[89.7654221871249,26.5410572741708],[89.7662451751663,26.5414772909512],[89.7668861348894,26.5430943064759],[89.7671430643702,26.5460073170109],[89.768151016956,26.5478863401655],[89.7688209645688,26.5500043572123],[89.7679409144139,26.5521763442534],[89.7696808102834,26.5563463859977],[89.7709037866669,26.5572134114115],[89.7714473959663,26.5588559551049],[89.7705097786321,26.5588339568443],[89.7698244908809,26.5588053934743],[89.7685538651517,26.5587482586767],[89.7673117917598,26.5585911842438],[89.7666407856926,26.558491241016],[89.7660268891525,26.558405568925],[89.7652131227264,26.5583341629779],[89.7643136847816,26.5583341455022],[89.7636284084057,26.5582484720249],[89.7628289122915,26.5581627963284],[89.7624006173865,26.5579914676814],[89.7617296123509,26.5578486843732],[89.7608730077401,26.5577059074593],[89.7592740141437,26.5575916561765],[89.7582638088943,26.5574901663574]]]},"properties":{"compartment":"MARA BL4","Division":"BTR_E","Range":"SouthRydak","Beat":"Marakata","beat":"Marakata"},"id":"comptt.10"},
{"type":"Feature","geometry":{"type":"Polygon","coordinates":[[[89.7748696572012,26.5709626247089],[89.7738597571226,26.571061615266],[89.7727604482563,26.5711187040052],[89.7711114827044,26.5710901218965],[89.7701977780505,26.5709544738766],[89.7691484454229,26.5707474430848],[89.7682847013427,26.5705832359824],[89.7674227470871,26.5704261789287],[89.7670420391011,26.570378581438],[89.7667184312136,26.570321465039],[89.7659284548496,26.5702453095389],[89.7646054829083,26.5700358934254],[89.763844059226,26.5698455182635],[89.7625496467639,26.5696551327424],[89.7616073818951,26.5695313841928],[89.7606365643472,26.5695218453055],[89.7600575138374,26.569598224196],[89.7598085152972,26.5695612192861],[89.7580985304412,26.5690941851645],[89.7570395318838,26.56913516466],[89.755979562292,26.567971141852],[89.75577456817,26.5677461374415],[89.7554085978736,26.5665451280524],[89.7566666831795,26.5628751455415],[89.7569137028445,26.5620331487445],[89.757483758239,26.559673155344],[89.7579947992531,26.5579171619413],[89.7582638088943,26.5574901663574],[89.7592740141437,26.5575916561765],[89.7608730077401,26.5577059074593],[89.7617296123509,26.5578486843732],[89.7624006173865,26.5579914676814],[89.7628289122915,26.5581627963284],[89.7636284084057,26.5582484720249],[89.7643136847816,26.5583341455022],[89.7652131227264,26.5583341629779],[89.7660268891525,26.558405568925],[89.7666407856926,26.558491241016],[89.7673117917598,26.5585911842438],[89.7685538651517,26.5587482586767],[89.7698244908809,26.5588053934743],[89.7705097786321,26.5588339568443],[89.7714473959663,26.5588559551049],[89.7715147409243,26.5590594268014],[89.7724676696958,26.5619334507985],[89.7748696572012,26.5709626247089]]]},"properties":{"compartment":"MARA BL3","Division":"BTR_E","Range":"SouthRydak","Beat":"Marakata","beat":"Marakata"},"id":"comptt.23"},
{"type":"Feature","geometry":{"type":"Polygon","coordinates":[[[89.7748696572012,26.5709626247089],[89.7748914451828,26.5710445152887],[89.7753324041229,26.5727105270406],[89.7831163747722,26.5731946792964],[89.7912223579185,26.5731308367753],[89.7908343323693,26.5742298313397],[89.7906432963916,26.5757438305303],[89.7902272516371,26.5776438260855],[89.7897161999017,26.5798428203655],[89.7894011732408,26.5809808164216],[89.789433141172,26.582310819594],[89.7889170851053,26.584689814119],[89.7887280468667,26.5862968135234],[89.7891149848162,26.5888388259243],[89.7890968091332,26.5890766760268],[89.7885671808899,26.5890536356796],[89.7880675051742,26.5889227557084],[89.7874607445692,26.5885896232667],[89.7869967636401,26.5882564836026],[89.786461399458,26.587649712026],[89.7861758855666,26.5870072552414],[89.785783282777,26.5863290963057],[89.785271721116,26.5856152449882],[89.784962405846,26.5850322678556],[89.7846887784905,26.5845325815768],[89.7841177261046,26.5838544191718],[89.7834633913316,26.5832833353526],[89.7828923317894,26.5829026135177],[89.7821190101314,26.5826289579544],[89.7814884647144,26.5824980754412],[89.7812743143431,26.5825337613446],[89.7795196104123,26.5824474770546],[89.7783679523484,26.5824760047122],[89.7770830434445,26.5825521198694],[89.7766928161656,26.5824759721352],[89.7763311401954,26.5823427148473],[89.7759218882261,26.5820476563253],[89.7757600847769,26.5817906626882],[89.7756268440097,26.5814194693886],[89.7754079466429,26.580915014169],[89.7751700211507,26.5803344184342],[89.7750843705031,26.5799537060421],[89.7748464386729,26.579220830017],[89.7745228458929,26.5785355324172],[89.7741706985993,26.5780405946256],[89.7737424146834,26.5774124150999],[89.7731808801558,26.5768222930563],[89.772590787524,26.5761560303127],[89.7719150398233,26.5757086763217],[89.7713439734856,26.5751947042393],[89.7710489317116,26.5748806079047],[89.7706111200346,26.5745760288126],[89.7701637860908,26.5743666297171],[89.7694594750226,26.5740620354444],[89.7691549107528,26.5738526391247],[89.7688313083573,26.57356710229],[89.7686124059515,26.5732720374726],[89.7684030269563,26.5728342125686],[89.7677748724183,26.571834828455],[89.7676416330196,26.5714065250497],[89.7675179131412,26.5709972518657],[89.7674227470871,26.5704261789287],[89.7682847013427,26.5705832359824],[89.7691484454229,26.5707474430848],[89.7701977780505,26.5709544738766],[89.7711114827044,26.5710901218965],[89.7727604482563,26.5711187040052],[89.7738597571226,26.571061615266],[89.7748696572012,26.5709626247089]]]},"properties":{"compartment":"MARA BL2A","Division":"BTR_E","Range":"SouthRydak","Beat":"Marakata","beat":"Marakata"},"id":"comptt.36"},
{"type":"Feature","geometry":{"type":"Polygon","coordinates":[[[89.7846234523121,26.6088899080136],[89.7841065124985,26.6089277669474],[89.7818015136561,26.6090977224043],[89.7793905140485,26.6093096758783],[89.7767415358264,26.608656623069],[89.774202562729,26.6077805719786],[89.7742195655565,26.6076615720826],[89.7742935762985,26.607208572659],[89.7745546282313,26.6050275735792],[89.7718726284629,26.6052725218501],[89.7709996361679,26.6050355044088],[89.7678726321769,26.6054984444352],[89.7648326355085,26.6056493855611],[89.7643686365728,26.6056493765313],[89.7646016373146,26.6055963809649],[89.7646856443226,26.6052973820314],[89.7647716585745,26.6046973825644],[89.7648556692184,26.6042473833437],[89.764939679838,26.6037983841249],[89.7650236922874,26.6032733847614],[89.7651097065138,26.6026743852963],[89.7649437231474,26.6019993807829],[89.7647827248408,26.6019443775456],[89.7648487663668,26.6002133755394],[89.7644857778644,26.5997703676345],[89.7651538368788,26.5972553758503],[89.7658048748402,26.595616385399],[89.766049238201,26.5950030586507],[89.7662519008225,26.5944943919612],[89.7667079820393,26.5910763943301],[89.7661250629495,26.5877693767004],[89.7653831056697,26.5860643590272],[89.7639361532725,26.5842233273874],[89.7635442100727,26.581899315348],[89.7628052547698,26.5801112975814],[89.7616823345379,26.57690126965],[89.7611223826127,26.5749552550679],[89.760104449354,26.5722762301928],[89.7600575138374,26.569598224196],[89.7606365643472,26.5695218453055],[89.7616073818951,26.5695313841928],[89.7625496467639,26.5696551327424],[89.763844059226,26.5698455182635],[89.7646054829083,26.5700358934254],[89.7659284548496,26.5702453095389],[89.7667184312136,26.570321465039],[89.7670420391011,26.570378581438],[89.7674227470871,26.5704261789287],[89.7675179131412,26.5709972518657],[89.7676416330196,26.5714065250497],[89.7677748724183,26.571834828455],[89.7684030269563,26.5728342125686],[89.7686124059515,26.5732720374726],[89.7688313083573,26.57356710229],[89.7691549107528,26.5738526391247],[89.7694594750226,26.5740620354444],[89.7701637860908,26.5743666297171],[89.7706111200346,26.5745760288126],[89.7710489317116,26.5748806079047],[89.7713439734856,26.5751947042393],[89.7719150398233,26.5757086763217],[89.772590787524,26.5761560303127],[89.7731808801558,26.5768222930563],[89.7737424146834,26.5774124150999],[89.7741706985993,26.5780405946256],[89.7745228458929,26.5785355324172],[89.7748464386729,26.579220830017],[89.7750843705031,26.5799537060421],[89.7751700211507,26.5803344184342],[89.7754079466429,26.580915014169],[89.7756268440097,26.5814194693886],[89.7757600847769,26.5817906626882],[89.7759218882261,26.5820476563253],[89.7763311401954,26.5823427148473],[89.7766928161656,26.5824759721352],[89.7770830434445,26.5825521198694],[89.7783679523484,26.5824760047122],[89.7795196104123,26.5824474770546],[89.7812743143431,26.5825337613446],[89.7813575761219,26.5832832943974],[89.7814408462006,26.5836878067906],[89.7814408358963,26.5841161076095],[89.7813813291434,26.5848180477946],[89.7812028555233,26.5854010154382],[89.7809292001157,26.5860672613897],[89.7805722806227,26.5864955552664],[89.7802034545919,26.5867810886385],[89.7797989415054,26.5869476410888],[89.7794182277921,26.5871379940476],[89.7790137141334,26.5873283365432],[89.7784307380184,26.5876376557948],[89.7780024335552,26.5878636978957],[89.7771458172055,26.5882087118927],[89.7764676744578,26.5883871490428],[89.7761345409232,26.5885656029036],[89.776027456014,26.5887797612295],[89.7760036563344,26.5891842615388],[89.7760155408467,26.5898267229963],[89.7761225968595,26.5903977961689],[89.7763962170515,26.5911949230133],[89.7768244908768,26.5922418933435],[89.7771813937406,26.5929200515816],[89.777681069142,26.5934792323705],[89.7781926325111,26.59412170355],[89.778787486263,26.5947403763051],[89.7793823314465,26.5952995589468],[89.7799652878027,26.5958111512667],[89.78045306638,26.596239471576],[89.7809884319851,26.596786753039],[89.7814881068118,26.5973697338762],[89.7820353486396,26.5984880966634],[89.7823922529309,26.5991067647918],[89.7827491529248,26.5999038932618],[89.7831655465068,26.6005463525939],[89.7835700421209,26.6011055315356],[89.7838555588647,26.6016290280938],[89.7841291885008,26.6020335341931],[89.7843552288176,26.6024142593209],[89.784664547799,26.6028425661607],[89.7848191997108,26.6031637997855],[89.7850214477892,26.6036396946328],[89.785240326975,26.6048984313029],[89.7852760050302,26.6053909829405],[89.7851831711972,26.6068043838398],[89.7850760785447,26.6073397627804],[89.7849261665051,26.6078537308463],[89.7847548324508,26.6084533486592],[89.7846234523121,26.6088899080136]]]},"properties":{"compartment":"MARA BL1","Division":"BTR_E","Range":"SouthRydak","Beat":"Marakata","beat":"Marakata"},"id":"comptt.58"},
{"type":"Feature","geometry":{"type":"Polygon","coordinates":[[[89.7890968091332,26.5890766760268],[89.7890809741837,26.589283826116],[89.7888679097069,26.5919828271461],[89.7894278403841,26.594809843461],[89.7908807762706,26.5973358765777],[89.7904717460426,26.5986298711006],[89.7909616846092,26.6011348854409],[89.789566632628,26.6034248626825],[89.7901515920635,26.605053877192],[89.7902985439395,26.6070378838577],[89.7906565070873,26.6085338936954],[89.7919934779825,26.6096159217982],[89.7897544900572,26.6093258776552],[89.7873445008385,26.6091058303192],[89.7846935121973,26.6088847782915],[89.7846234523121,26.6088899080136],[89.7847548324508,26.6084533486592],[89.7849261665051,26.6078537308463],[89.7850760785447,26.6073397627804],[89.7851831711972,26.6068043838398],[89.7852760050302,26.6053909829405],[89.785240326975,26.6048984313029],[89.7850214477892,26.6036396946328],[89.7848191997108,26.6031637997855],[89.784664547799,26.6028425661607],[89.7843552288176,26.6024142593209],[89.7841291885008,26.6020335341931],[89.7838555588647,26.6016290280938],[89.7835700421209,26.6011055315356],[89.7831655465068,26.6005463525939],[89.7827491529248,26.5999038932618],[89.7823922529309,26.5991067647918],[89.7820353486396,26.5984880966634],[89.7814881068118,26.5973697338762],[89.7809884319851,26.596786753039],[89.78045306638,26.596239471576],[89.7799652878027,26.5958111512667],[89.7793823314465,26.5952995589468],[89.778787486263,26.5947403763051],[89.7781926325111,26.59412170355],[89.777681069142,26.5934792323705],[89.7771813937406,26.5929200515816],[89.7768244908768,26.5922418933435],[89.7763962170515,26.5911949230133],[89.7761225968595,26.5903977961689],[89.7760155408467,26.5898267229963],[89.7760036563344,26.5891842615388],[89.776027456014,26.5887797612295],[89.7761345409232,26.5885656029036],[89.7764676744578,26.5883871490428],[89.7771458172055,26.5882087118927],[89.7780024335552,26.5878636978957],[89.7784307380184,26.5876376557948],[89.7790137141334,26.5873283365432],[89.7794182277921,26.5871379940476],[89.7797989415054,26.5869476410888],[89.7802034545919,26.5867810886385],[89.7805722806227,26.5864955552664],[89.7809292001157,26.5860672613897],[89.7812028555233,26.5854010154382],[89.7813813291434,26.5848180477946],[89.7814408358963,26.5841161076095],[89.7814408462006,26.5836878067906],[89.7813575761219,26.5832832943974],[89.7812743143431,26.5825337613446],[89.7814884647144,26.5824980754412],[89.7821190101314,26.5826289579544],[89.7828923317894,26.5829026135177],[89.7834633913316,26.5832833353526],[89.7841177261046,26.5838544191718],[89.7846887784905,26.5845325815768],[89.784962405846,26.5850322678556],[89.785271721116,26.5856152449882],[89.785783282777,26.5863290963057],[89.7861758855666,26.5870072552414],[89.786461399458,26.587649712026],[89.7869967636401,26.5882564836026],[89.7874607445692,26.5885896232667],[89.7880675051742,26.5889227557084],[89.7885671808899,26.5890536356796],[89.7890968091332,26.5890766760268]]]},"properties":{"compartment":"MARA BL2B","Division":"BTR_E","Range":"SouthRydak","Beat":"Marakata","beat":"Marakata"},"id":"comptt.59"}
]}