{"type":"FeatureCollection", "features": [
{"type":"Feature","geometry":{"type":"Polygon","coordinates":[[[89.74293675647391,26.5139648775433],[89.74195493214211,26.5138223182254],[89.7411173626943,26.513879412083803],[89.74058436026661,26.5140316820309],[89.7401084626885,26.514393353481402],[89.73972773215421,26.5148692369937],[89.7392137569056,26.515554518316],[89.7383380951855,26.5165443631955],[89.7377860386549,26.517286743885702],[89.737100728738,26.5186001930674],[89.7360346992385,26.519932674896403],[89.7353493847967,26.5210176936447],[89.7346260113546,26.5220646415817],[89.7340739529955,26.522883172411802],[89.7332684671296,26.5244559797446],[89.7325546116655,26.5255862180204],[89.73228690230711,26.5264190243936],[89.73185531624961,26.5275468181416],[89.7315094645096,26.5272356808432],[89.7294240590779,26.5263979996163],[89.7293434903705,26.5263656371689],[89.7270095126879,26.5256595905457],[89.72708753490821,26.5247255903036],[89.7272175621394,26.5235775906683],[89.726581602167,26.5219695753045],[89.7251806109637,26.5217375476839],[89.7244105935107,26.5225395342494],[89.7235186038917,26.5221925162896],[89.7218626325596,26.521156482213403],[89.7204616468519,26.5206954541658],[89.71918868563931,26.519200426664202],[89.7188087250434,26.517593416279702],[89.718303773027,26.5156404028226],[89.7190738207171,26.513576413890302],[89.72009784030351,26.5126604320354],[89.7202278592717,26.5118564330491],[89.7196988685945,26.5115184221547],[89.7193968819937,26.5109884153034],[89.7173998872347,26.510962376521903],[89.7158499143049,26.509982344624103],[89.7143099165041,26.5100393148635],[89.7102049422863,26.509360233982303],[89.7089899553354,26.508933209622],[89.7034529874076,26.5081311007512],[89.7022370161321,26.5070500751567],[89.7032580606388,26.5050930913061],[89.70263916137961,26.5009470715761],[89.7039122159441,26.498545091775902],[89.7117312075586,26.498138242592002],[89.7177872011179,26.497822359404303],[89.72093219050261,26.497962420638903],[89.72360619204551,26.497640471876302],[89.7254751914257,26.497486507822302],[89.7287811892254,26.4972605714933],[89.7326381765953,26.497417646569602],[89.7362881647398,26.4975627176124],[89.7402581590359,26.4974207943207],[89.7427991553706,26.4973308434203],[89.7442361170386,26.498793874051202],[89.7430940861169,26.5001938545535],[89.7424510285128,26.502659846746003],[89.7427009701975,26.5050698561501],[89.7449329594547,26.5053048998851],[89.7455659098639,26.5073139159641],[89.74396586269711,26.509434888940202],[89.7435678214258,26.511194884547702],[89.74293675647391,26.5139648775433]]]},"properties":{"compartment":"Narathali BL2","Division":"BTR_E","Range":"SouthRydak","Beat":"Narathali","DIVISION":"BTR_E","BEAT_NAME":"Narathali"},"id":"comptt.3"},
{"type":"Feature","geometry":{"type":"Polygon","coordinates":[[[89.74293675647391,26.5139648775433],[89.74548474085421,26.514372927749502],[89.7456127199198,26.515233931862102],[89.7491817033588,26.5155840017728],[89.74968966088551,26.5173070148943],[89.7505816395429,26.5181120337288],[89.7510865998287,26.5197200465766],[89.7515965738898,26.520753058432202],[89.7529955348367,26.5222480884184],[89.7549044725726,26.5246621300507],[89.7555404298113,26.5263841456647],[89.7552793753479,26.528679144955202],[89.75584235575491,26.5294421573331],[89.7554043449266,26.5299351497661],[89.7550823090461,26.5314611464117],[89.75466527518,26.5329121410697],[89.75453622817311,26.534883142305603],[89.7542782104026,26.535648138747803],[89.75575811400451,26.539523174842],[89.7520601574643,26.538065100264202],[89.7498411824925,26.5372340556009],[89.74815420131151,26.536611021664303],[89.746450231043,26.5355349865421],[89.74485225678781,26.5346149537758],[89.7430672757394,26.5339959179503],[89.7404943029583,26.5331078663208],[89.7391593244308,26.5323408389564],[89.7380033661255,26.5307138134455],[89.73675237677631,26.530389788550902],[89.7363193804596,26.5302777799347],[89.7336724126544,26.5291897265049],[89.7319674535717,26.5276476905079],[89.73185531624961,26.5275468181416],[89.73228690230711,26.5264190243936],[89.7325546116655,26.5255862180204],[89.7332684671296,26.5244559797446],[89.7340739529955,26.522883172411802],[89.7346260113546,26.5220646415817],[89.7353493847967,26.5210176936447],[89.7360346992385,26.519932674896403],[89.737100728738,26.5186001930674],[89.7377860386549,26.517286743885702],[89.7383380951855,26.5165443631955],[89.7392137569056,26.515554518316],[89.73972773215421,26.5148692369937],[89.7401084626885,26.514393353481402],[89.74058436026661,26.5140316820309],[89.7411173626943,26.513879412083803],[89.74195493214211,26.5138223182254],[89.74293675647391,26.5139648775433]]]},"properties":{"compartment":"Narathali BL1","Division":"BTR_E","Range":"SouthRydak","Beat":"Narathali","DIVISION":"BTR_E","BEAT_NAME":"Narathali"},"id":"comptt.7"}
]}
