{"type":"FeatureCollection", "features": [
{"type":"Feature","geometry":{"type":"Polygon","coordinates":[[[89.6166577580772,26.7251108300945],[89.6159329188944,26.725149996014903],[89.6150477593228,26.725221368863803],[89.6143053666386,26.7254069547056],[89.6131774897103,26.725806673407902],[89.612163831467,26.7262492344168],[89.6103649492646,26.726934490533],[89.6087231108295,26.7274484194056],[89.6071526601478,26.728048019825202],[89.6057820855477,26.7283763536584],[89.6041545312322,26.728718962500203],[89.6031551484923,26.728933103374402],[89.6021986070314,26.7290901249822],[89.6016418077036,26.7291186641634],[89.60184169723911,26.7287046473227],[89.6020701384331,26.728219240911102],[89.6025270118575,26.7272055980104],[89.6027554523596,26.7267487416497],[89.6031409445746,26.7257922074573],[89.6034122201558,26.7251212015477],[89.6036834967734,26.7244073655609],[89.6039404941165,26.7236649792439],[89.6042117772993,26.7226798827696],[89.6042974560969,26.7218946630313],[89.6042974692286,26.7213521420569],[89.6043117650894,26.7206954111562],[89.60421183673691,26.720224278359503],[89.6040119755185,26.7198816338434],[89.6037121766178,26.719453317223103],[89.6034694786137,26.7189821816403],[89.6030697403024,26.7185395930444],[89.6025272406321,26.7177543610474],[89.6021703329064,26.717283223236603],[89.6019561931038,26.7168834683402],[89.60192765284711,26.7164837170657],[89.6019704924155,26.7160839671842],[89.6020276129851,26.7156413875044],[89.6022274963143,26.715070320379702],[89.6024131062238,26.714642013232503],[89.6025987168238,26.714185166034103],[89.6030555809056,26.713556993820703],[89.6033982397397,26.7131572497889],[89.6038122715079,26.7126290169187],[89.60408354362501,26.7121007812628],[89.60432626201221,26.7117295853317],[89.6044547627506,26.711272737018],[89.6045832669428,26.710673108447903],[89.6047546034474,26.7099735505338],[89.60501161252,26.708745753341603],[89.6055256310056,26.706275878930303],[89.6058683050301,26.7052479537673],[89.6060253601841,26.704605505676],[89.6061395895729,26.704205757185502],[89.6063394756576,26.7035204698524],[89.6064536995339,26.702935131028003],[89.6066107695196,26.702092802577003],[89.6066536114981,26.7015931125141],[89.6067392909664,26.7007793327219],[89.60679634318521,26.6998539997922],[89.60695822283171,26.6998529353259],[89.6078624192456,26.699910063064003],[89.6087475754767,26.6999767004481],[89.6090187148901,26.7000337958895],[89.6090015814885,26.7005296163974],[89.6096825380926,26.702255632786603],[89.6101575040462,26.7036156445],[89.6109754377678,26.706273665242602],[89.6115873943822,26.708005680301202],[89.61172035370831,26.709673685900203],[89.6116473210331,26.7110316869216],[89.6114342856965,26.712513685434402],[89.6114302528242,26.7138726878036],[89.61156422261351,26.7151076926426],[89.61231619379821,26.716222709326],[89.6132781674949,26.7172127298839],[89.61416814732,26.7179567485944],[89.6156811256032,26.7187017794672],[89.6168450913031,26.7200018045312],[89.6186350349013,26.7221518433514],[89.61843002879131,26.722424839842603],[89.61824802197161,26.7227248368314],[89.61767101119891,26.723227826475803],[89.6170409966091,26.7238938153795],[89.6166429700748,26.7250298096595],[89.6166577580772,26.7251108300945]]]},"properties":{"compartment":"Tashigaon BL2B","Division":"BTR_E","Range":"Jainti","Beat":"Phaskhawa","DIVISION":"BTR_E","BEAT_NAME":"Phaskhawa"},"id":"comptt.174"},
{"type":"Feature","geometry":{"type":"Polygon","coordinates":[[[89.6166577580772,26.7251108300945],[89.6169539280589,26.7267338188053],[89.6178168760497,26.7287948393734],[89.6188978247152,26.7308058641103],[89.614767791595,26.7325887866835],[89.6136637842846,26.7330017658705],[89.6129837788712,26.733293753118502],[89.6128393268453,26.7333558583767],[89.6124627747172,26.7335177433485],[89.6116897689017,26.733835728827],[89.61051677476961,26.733711705698802],[89.6095817778772,26.7336776873802],[89.6088227792957,26.733695672592003],[89.6077797802951,26.733759652341103],[89.6064487727714,26.734204627151502],[89.6049627749294,26.734265598245102],[89.6023127730369,26.734611547122],[89.60076077051771,26.7348725172858],[89.5998047664909,26.7351354990905],[89.59770975770181,26.7357104592139],[89.596782185893,26.7363135129859],[89.59693032813391,26.7357715641042],[89.5971730489498,26.7353004279995],[89.5974014780715,26.7349006817435],[89.5979297454478,26.7341297506767],[89.59842944254811,26.733373089077002],[89.59895770026941,26.7325878779835],[89.5996001818592,26.7316313488122],[89.6002141004071,26.730803299313003],[89.60097079240751,26.7298182223188],[89.6016418077036,26.7291186641634],[89.6021986070314,26.7290901249822],[89.6031551484923,26.728933103374402],[89.6041545312322,26.728718962500203],[89.6057820855477,26.7283763536584],[89.6071526601478,26.728048019825202],[89.6087231108295,26.7274484194056],[89.6103649492646,26.726934490533],[89.612163831467,26.7262492344168],[89.6131774897103,26.725806673407902],[89.6143053666386,26.7254069547056],[89.6150477593228,26.725221368863803],[89.6159329188944,26.725149996014903],[89.6166577580772,26.7251108300945]]]},"properties":{"compartment":"Tashigaon BL2A","Division":"BTR_E","Range":"Jainti","Beat":"Phaskhawa","DIVISION":"BTR_E","BEAT_NAME":"Phaskhawa"},"id":"comptt.178"},
{"type":"Feature","geometry":{"type":"Polygon","coordinates":[[[89.596782185893,26.7363135129859],[89.5965377421208,26.736472437693802],[89.5955907295247,26.737088420305],[89.5943107071855,26.738140397193103],[89.5916296708007,26.739914348012],[89.5915646701853,26.7399463467999],[89.5913276827597,26.7394513412871],[89.5907427249431,26.7377693268581],[89.5902867554702,26.7365553157852],[89.5897057906382,26.7351623019528],[89.5886568724575,26.7318902756294],[89.5890809014403,26.7306502816924],[89.5891639356666,26.729228280773203],[89.5882419942959,26.7269002586191],[89.586642069981,26.723936222100402],[89.5847141417921,26.7211651795315],[89.5823021679631,26.7203291309733],[89.5805241799914,26.7200130957156],[89.5803682487324,26.717188087642302],[89.57977032046361,26.7142840708058],[89.57984038212041,26.711728067621802],[89.5794944055885,26.7107930592081],[89.5788964613104,26.7085500435517],[89.57998648694401,26.7073790627282],[89.5814075074824,26.706385088674402],[89.5817055526923,26.7044850911021],[89.58146857820411,26.7034540846435],[89.5810146042002,26.702425073956903],[89.5818025671618,26.7022223889624],[89.58344915817361,26.7020130307007],[89.5844485312392,26.701784619782902],[89.5859523553668,26.701461048533],[89.5879511144942,26.7008804964759],[89.5901782935249,26.7002809088384],[89.5913965897406,26.6999002219165],[89.5929860791899,26.6993482119266],[89.59335727219181,26.6991864188758],[89.59386172486731,26.699024628423903],[89.5948135082883,26.698786696559],[89.5961745604779,26.6985582926923],[89.5972691196397,26.6984821739015],[89.5986396737554,26.6985869008172],[89.5996675973301,26.6987487211539],[89.6006860002382,26.6989391013566],[89.6015806727592,26.6991580291978],[89.60279894195921,26.699481653538502],[89.6041314341026,26.6996720398682],[89.6055115161314,26.699862427126803],[89.60679634318521,26.6998539997922],[89.6067392909664,26.7007793327219],[89.6066536114981,26.7015931125141],[89.6066107695196,26.702092802577003],[89.6064536995339,26.702935131028003],[89.6063394756576,26.7035204698524],[89.6061395895729,26.704205757185502],[89.6060253601841,26.704605505676],[89.6058683050301,26.7052479537673],[89.6055256310056,26.706275878930303],[89.60501161252,26.708745753341603],[89.6047546034474,26.7099735505338],[89.6045832669428,26.710673108447903],[89.6044547627506,26.711272737018],[89.60432626201221,26.7117295853317],[89.60408354362501,26.7121007812628],[89.6038122715079,26.7126290169187],[89.6033982397397,26.7131572497889],[89.6030555809056,26.713556993820703],[89.6025987168238,26.714185166034103],[89.6024131062238,26.714642013232503],[89.6022274963143,26.715070320379702],[89.6020276129851,26.7156413875044],[89.6019704924155,26.7160839671842],[89.60192765284711,26.7164837170657],[89.6019561931038,26.7168834683402],[89.6021703329064,26.717283223236603],[89.6025272406321,26.7177543610474],[89.6030697403024,26.7185395930444],[89.6034694786137,26.7189821816403],[89.6037121766178,26.719453317223103],[89.6040119755185,26.7198816338434],[89.60421183673691,26.720224278359503],[89.6043117650894,26.7206954111562],[89.6042974692286,26.7213521420569],[89.6042974560969,26.7218946630313],[89.6042117772993,26.7226798827696],[89.6039404941165,26.7236649792439],[89.6036834967734,26.7244073655609],[89.6034122201558,26.7251212015477],[89.6031409445746,26.7257922074573],[89.6027554523596,26.7267487416497],[89.6025270118575,26.7272055980104],[89.6020701384331,26.728219240911102],[89.60184169723911,26.7287046473227],[89.6016418077036,26.7291186641634],[89.60097079240751,26.7298182223188],[89.6002141004071,26.730803299313003],[89.5996001818592,26.7316313488122],[89.59895770026941,26.7325878779835],[89.59842944254811,26.733373089077002],[89.5979297454478,26.7341297506767],[89.5974014780715,26.7349006817435],[89.5971730489498,26.7353004279995],[89.59693032813391,26.7357715641042],[89.596782185893,26.7363135129859]]]},"properties":{"compartment":"Tashigaon BL1","Division":"BTR_E","Range":"Jainti","Beat":"Phaskhawa","DIVISION":"BTR_E","BEAT_NAME":"Phaskhawa"},"id":"comptt.179"},
{"type":"Feature","geometry":{"type":"Polygon","coordinates":[[[89.5940843843569,26.692383543598602],[89.59604680156241,26.692734349768102],[89.5999937762009,26.6933844278917],[89.6022767620676,26.6937384730427],[89.6023317617158,26.693747474131403],[89.6025347604466,26.693779478147203],[89.60282575867251,26.693823483900402],[89.6032472559358,26.693889372976003],[89.6034207549721,26.6939164956695],[89.60626573521981,26.6944465520986],[89.6078207242977,26.6947415829522],[89.6084427194701,26.694878595328003],[89.6086587178075,26.694925599624803],[89.6096957097936,26.6951526202558],[89.61052870031921,26.6954606370548],[89.610333690617,26.69588163401],[89.6099926768945,26.696483628443602],[89.6095416516906,26.6975716216063],[89.60902459753581,26.6998636156477],[89.6090187148901,26.7000337958895],[89.6087475754767,26.6999767004481],[89.6078624192456,26.699910063064003],[89.60695822283171,26.6998529353259],[89.60679634318521,26.6998539997922],[89.6055115161314,26.699862427126803],[89.6041314341026,26.6996720398682],[89.60279894195921,26.699481653538502],[89.6015806727592,26.6991580291978],[89.6006860002382,26.6989391013566],[89.5996675973301,26.6987487211539],[89.5986396737554,26.6985869008172],[89.5972691196397,26.6984821739015],[89.5961745604779,26.6985582926923],[89.5948135082883,26.698786696559],[89.59386172486731,26.699024628423903],[89.59335727219181,26.6991864188758],[89.5935000542669,26.6986724607405],[89.5936618734277,26.697863442448202],[89.5937856288929,26.696797442953603],[89.5938808558213,26.694846281318],[89.5939665411457,26.6937898010977],[89.5940843843569,26.692383543598602]]]},"properties":{"compartment":"N RVBK BL5B","Division":"BTR_E","Range":"Jainti","Beat":"Phaskhawa","DIVISION":"BTR_E","BEAT_NAME":"Phaskhawa"},"id":"comptt.153"},
{"type":"Feature","geometry":{"type":"Polygon","coordinates":[[[89.5810146042002,26.702425073956903],[89.5804466036884,26.7025040630206],[89.5790206016874,26.702732035617],[89.57791759995611,26.7029160144342],[89.5771766371515,26.7014529973817],[89.57614667346131,26.7000559748129],[89.5736307289752,26.6980159221295],[89.5713087965994,26.6954548723115],[89.5692488663979,26.6927768274018],[89.5681735112233,26.691842895239102],[89.5681618918914,26.691832804539],[89.5710038886682,26.691675859659803],[89.5724908849031,26.6916798886533],[89.57449888541281,26.6914539273948],[89.5770248818232,26.691344976442203],[89.57993687586371,26.6912950331198],[89.582524870732,26.691244083480502],[89.58504986573631,26.6911941326155],[89.5865368619886,26.691198161611702],[89.5890608472173,26.691553211452202],[89.5927468239005,26.6921442843716],[89.5937138173512,26.6923173035345],[89.5940843843569,26.692383543598602],[89.5939665411457,26.6937898010977],[89.5938808558213,26.694846281318],[89.5937856288929,26.696797442953603],[89.5936618734277,26.697863442448202],[89.5935000542669,26.6986724607405],[89.59335727219181,26.6991864188758],[89.5929860791899,26.6993482119266],[89.5913965897406,26.6999002219165],[89.5901782935249,26.7002809088384],[89.5879511144942,26.7008804964759],[89.5859523553668,26.701461048533],[89.5844485312392,26.701784619782902],[89.58344915817361,26.7020130307007],[89.5818025671618,26.7022223889624],[89.5810146042002,26.702425073956903]]]},"properties":{"compartment":"N RVBK BL5A","Division":"BTR_E","Range":"Jainti","Beat":"Phaskhawa","DIVISION":"BTR_E","BEAT_NAME":"Phaskhawa"},"id":"comptt.154"}
]}
