{"type":"FeatureCollection", "features": [
{"type":"Feature","geometry":{"type":"Polygon","coordinates":[[[89.5469747859935,26.7254494398574],[89.5469379079888,26.7257628396277],[89.5468784143215,26.7263339094698],[89.5467237271494,26.7270596377263],[89.5464500607743,26.7281779843506],[89.5462834836304,26.7289037123747],[89.5460217224053,26.7298079088548],[89.5457599611794,26.7307120953346],[89.5456409793846,26.73121178389],[89.5454030052187,26.7322349510422],[89.5453791977148,26.7329606818511],[89.5453434681459,26.7341861133043],[89.5454386283272,26.7349951265808],[89.5455456890535,26.7357803600479],[89.5456527478429,26.7362324529306],[89.5457955048145,26.7367559466352],[89.5459858531072,26.7372199411642],[89.5462237784005,26.7378029168307],[89.5466877590961,26.7385524572016],[89.5471755254113,26.7394804583506],[89.547544330088,26.7400753265933],[89.5476989752992,26.7406702006563],[89.5478655161594,26.741443525265],[89.5479130933656,26.7419670071131],[89.5477941034973,26.7427998262532],[89.5476632211486,26.7433233046177],[89.5475204425746,26.7436921124783],[89.5471159200449,26.7442512855637],[89.5467351942865,26.7449413193433],[89.5463663587859,26.7456194633336],[89.5460213258187,26.7461905276004],[89.5457595755243,26.746642623284],[89.545509720878,26.7472731695128],[89.5452836587651,26.747796646018],[89.5452241550825,26.7483677158583],[89.5451527608527,26.7489625855081],[89.5450456713228,26.749367094127],[89.5447839201625,26.7498548798724],[89.5444388886342,26.7503664540333],[89.5441295487455,26.7508066487658],[89.5439391762531,26.7513420259877],[89.5438915722502,26.7519249960805],[89.543951048267,26.7524960682432],[89.5439153445217,26.7530671385475],[89.5438558414119,26.7536144183453],[89.5437606469501,26.7542211775503],[89.5436773579349,26.7546018865915],[89.5435464787504,26.7549944947242],[89.5433680082435,26.7554465920319],[89.5431181561858,26.7559700680706],[89.5429872790185,26.7562793960571],[89.5425470657076,26.7568742585033],[89.5423447964128,26.7572787652623],[89.5422258157562,26.757730853731],[89.5421068353874,26.7581710521788],[89.5419759562012,26.7585636703109],[89.5418569678505,26.7589205786125],[89.5417617897278,26.7592656073582],[89.5416784878275,26.7597652866068],[89.5416533179837,26.7601892559891],[89.5413084420173,26.7600433098669],[89.5409614441234,26.7599923030007],[89.5388234571931,26.75967426069],[89.5353704832135,26.758958192005],[89.5327605333393,26.757160137898],[89.5291245669076,26.7561520651425],[89.5283185718679,26.7560310491941],[89.5254875786107,26.7560469939463],[89.5229776377239,26.7538679411493],[89.5222596571688,26.7531399258659],[89.5221696611744,26.7529839238376],[89.5220376679746,26.7527169207965],[89.5241746821336,26.7519099611116],[89.5270057203189,26.75003901312],[89.5272207281575,26.7496930167142],[89.529045770645,26.7477490489513],[89.5292377777176,26.7474370521552],[89.5294843486947,26.7470411875302],[89.5306828302636,26.7451170763144],[89.5320558902743,26.7424960985389],[89.5321819556374,26.7397830962625],[89.5320670164894,26.7372810896512],[89.5336940959522,26.7338291153708],[89.5347231325985,26.732208132616],[89.5365511733136,26.7303361650084],[89.540305240369,26.7271762327154],[89.5441502941863,26.7245543031272],[89.545898324291,26.7231293347251],[89.5469583223462,26.7231003553509],[89.5471626119867,26.72309599142],[89.5471045236233,26.7238592695353],[89.5470807069901,26.7245493102825],[89.5469747859935,26.7254494398574]]]},"properties":{"compartment":"Santrabari BL1","Division":"BTR_E","Range":"Buxaduar","Beat":"Santrabari"},"id":"comptt.185"},
{"type":"Feature","geometry":{"type":"Polygon","coordinates":[[[89.5631330970541,26.7538667948691],[89.5626655341127,26.7540417164049],[89.562152501877,26.7554247088275],[89.5636964353646,26.7580107435489],[89.5640404293463,26.7582237506441],[89.5624704288186,26.7584067203019],[89.5604664292285,26.7585956814937],[89.5590674251044,26.7589096547224],[89.5575804189474,26.759316626396],[89.5557144178824,26.7595525903654],[89.554030409216,26.7600835584086],[89.5526253960256,26.7607725321783],[89.5520353714922,26.7618455225411],[89.5501023779722,26.7617774846652],[89.5481703555847,26.7629004489007],[89.5460343701177,26.7625214065141],[89.5422844295616,26.7604563296516],[89.5416533179837,26.7601892559891],[89.5416784878275,26.7597652866068],[89.5417617897278,26.7592656073582],[89.5418569678505,26.7589205786125],[89.5419759562012,26.7585636703109],[89.5421068353874,26.7581710521788],[89.5422258157562,26.757730853731],[89.5423447964128,26.7572787652623],[89.5425470657076,26.7568742585033],[89.5429872790185,26.7562793960571],[89.5431181561858,26.7559700680706],[89.5433680082435,26.7554465920319],[89.5435464787504,26.7549944947242],[89.5436773579349,26.7546018865915],[89.5437606469501,26.7542211775503],[89.5438558414119,26.7536144183453],[89.5439153445217,26.7530671385475],[89.543951048267,26.7524960682432],[89.5438915722502,26.7519249960805],[89.5439391762531,26.7513420259877],[89.5441295487455,26.7508066487658],[89.5444388886342,26.7503664540333],[89.5447839201625,26.7498548798724],[89.5450456713228,26.749367094127],[89.5451527608527,26.7489625855081],[89.5452241550825,26.7483677158583],[89.5452836587651,26.747796646018],[89.545509720878,26.7472731695128],[89.5457595755243,26.746642623284],[89.5460213258187,26.7461905276004],[89.5463663587859,26.7456194633336],[89.5467351942865,26.7449413193433],[89.5471159200449,26.7442512855637],[89.5475204425746,26.7436921124783],[89.5476632211486,26.7433233046177],[89.5477941034973,26.7427998262532],[89.5479130933656,26.7419670071131],[89.5478655161594,26.741443525265],[89.5476989752992,26.7406702006563],[89.547544330088,26.7400753265933],[89.5471755254113,26.7394804583506],[89.5466877590961,26.7385524572016],[89.5462237784005,26.7378029168307],[89.5459858531072,26.7372199411642],[89.5457955048145,26.7367559466352],[89.5456527478429,26.7362324529306],[89.5455456890535,26.7357803600479],[89.5454386283272,26.7349951265808],[89.5453434681459,26.7341861133043],[89.5453791977148,26.7329606818511],[89.5454030052187,26.7322349510422],[89.5456409793846,26.73121178389],[89.5457599611794,26.7307120953346],[89.5460217224053,26.7298079088548],[89.5462834836304,26.7289037123747],[89.5464500607743,26.7281779843506],[89.5467237271494,26.7270596377263],[89.5468784143215,26.7263339094698],[89.5469379079888,26.7257628396277],[89.5469747859935,26.7254494398574],[89.5473543155104,26.7258223278555],[89.547746916471,26.7261554660996],[89.5480681393368,26.726417212826],[89.5485321218464,26.7266789623376],[89.5488890377896,26.7268098395307],[89.5493530340414,26.7269169187711],[89.550173939403,26.7270240149746],[89.5513993557718,26.7270478289238],[89.5527318515869,26.7270835549834],[89.5533861976538,26.7271787379171],[89.554528325309,26.7275713808915],[89.5554682040446,26.7279402098787],[89.5558727069918,26.7281900682111],[89.5575026168135,26.7288563411872],[89.5580379888597,26.7291299921157],[89.5589183731379,26.72968919028],[89.5592157946246,26.7300104166501],[89.5594061486807,26.7302364707632],[89.5594537325158,26.7304863221324],[89.5593704478283,26.7306885708641],[89.559251464669,26.7308313387942],[89.5589778304549,26.7310335838114],[89.5586922859824,26.7312477286171],[89.5585019195454,26.731533265406],[89.5584305342521,26.7317593144116],[89.5583591457914,26.7321162336479],[89.5583353351963,26.7325564339595],[89.5584691734412,26.7330283574034],[89.5588736620679,26.7334566760523],[89.5590640164109,26.7336708301448],[89.559373339882,26.7339087766009],[89.5598730263352,26.7340039665205],[89.560325121755,26.7341467455953],[89.5608961926389,26.7340515765721],[89.5616695179159,26.7337541611391],[89.5620145376344,26.7337303678303],[89.5623476653665,26.7337898644366],[89.5629068273533,26.7340635158324],[89.5632399484621,26.734396642922],[89.5635849569491,26.734836850433],[89.5637396064847,26.735253264187],[89.5638585763968,26.7356577772237],[89.5640013248097,26.7361217708296],[89.5640251068929,26.7368594125972],[89.5639775075061,26.7372520223619],[89.5639061096185,26.7375851415569],[89.5638109306377,26.7379658503718],[89.56370384111,26.7383703589962],[89.5636681411168,26.7387867690351],[89.563537257615,26.7393578374892],[89.5634182640005,26.7403453169109],[89.5631921563668,26.7427485667423],[89.563096925028,26.7448781886448],[89.5630731014585,26.7458537699028],[89.5629779049817,26.7465438092629],[89.562561454432,26.7486734248928],[89.5623591678433,26.7497917729177],[89.5623710248675,26.7515644662794],[89.5624780945122,26.7519808791054],[89.562620845132,26.7527661032795],[89.5627992922924,26.7532776976678],[89.5631330970541,26.7538667948691]]]},"properties":{"compartment":"Santrabari BL2","Division":"BTR_E","Range":"Buxaduar","Beat":"Santrabari"},"id":"comptt.188"},
{"type":"Feature","geometry":{"type":"Polygon","coordinates":[[[89.5783561582815,26.7460751390104],[89.5780986871407,26.7461450037926],[89.5769586824766,26.7464539820813],[89.575030656534,26.7477219466841],[89.5711746114138,26.7499788753874],[89.5682025670147,26.7521158211325],[89.565557553137,26.7529597709713],[89.5631330970541,26.7538667948691],[89.5627992922924,26.7532776976678],[89.562620845132,26.7527661032795],[89.5624780945122,26.7519808791054],[89.5623710248675,26.7515644662794],[89.5623591678433,26.7497917729177],[89.562561454432,26.7486734248928],[89.5629779049817,26.7465438092629],[89.5630731014585,26.7458537699028],[89.563096925028,26.7448781886448],[89.5631921563668,26.7427485667423],[89.5634182640005,26.7403453169109],[89.563537257615,26.7393578374892],[89.5636681411168,26.7387867690351],[89.56370384111,26.7383703589962],[89.5638109306377,26.7379658503718],[89.5639061096185,26.7375851415569],[89.5639775075061,26.7372520223619],[89.5640251068929,26.7368594125972],[89.5640013248097,26.7361217708296],[89.5638585763968,26.7356577772237],[89.5637396064847,26.735253264187],[89.5635849569491,26.734836850433],[89.5632399484621,26.734396642922],[89.5629068273533,26.7340635158324],[89.5623476653665,26.7337898644366],[89.5620145376344,26.7337303678303],[89.5616695179159,26.7337541611391],[89.5608961926389,26.7340515765721],[89.560325121755,26.7341467455953],[89.5598730263352,26.7340039665205],[89.559373339882,26.7339087766009],[89.5590640164109,26.7336708301448],[89.5588736620679,26.7334566760523],[89.5584691734412,26.7330283574034],[89.5583353351963,26.7325564339595],[89.5583591457914,26.7321162336479],[89.5584305342521,26.7317593144116],[89.5585019195454,26.731533265406],[89.5586922859824,26.7312477286171],[89.5589778304549,26.7310335838114],[89.559251464669,26.7308313387942],[89.5593704478283,26.7306885708641],[89.5594537325158,26.7304863221324],[89.5594061486807,26.7302364707632],[89.5592157946246,26.7300104166501],[89.5589183731379,26.72968919028],[89.5580379888597,26.7291299921157],[89.5575026168135,26.7288563411872],[89.5558727069918,26.7281900682111],[89.5554682040446,26.7279402098787],[89.554528325309,26.7275713808915],[89.5533861976538,26.7271787379171],[89.5527318515869,26.7270835549834],[89.5513993557718,26.7270478289238],[89.550173939403,26.7270240149746],[89.5493530340414,26.7269169187711],[89.5488890377896,26.7268098395307],[89.5485321218464,26.7266789623376],[89.5480681393368,26.726417212826],[89.547746916471,26.7261554660996],[89.5473543155104,26.7258223278555],[89.5469747859935,26.7254494398574],[89.5470807069901,26.7245493102825],[89.5471045236233,26.7238592695353],[89.5471626119867,26.72309599142],[89.5496723169782,26.7230424081898],[89.5497813173353,26.7230164102703],[89.550201318828,26.7229114182787],[89.5532023156313,26.7227344765076],[89.5550503199318,26.7223665119089],[89.5586823158559,26.7221615823982],[89.5628323126581,26.7218676628363],[89.5641648303726,26.7218210781661],[89.5642903102732,26.7218166911889],[89.5653439085655,26.7217803124204],[89.5652825596764,26.7242197147944],[89.5653824507405,26.7258187195703],[89.5654109920156,26.7265896614903],[89.5656536724129,26.7273748876138],[89.5659534640496,26.7281030147509],[89.566410305987,26.7288025849024],[89.5668956981988,26.7294878755861],[89.5675809716415,26.7301018000446],[89.5683661699992,26.7309155868074],[89.5688801187039,26.7313296275699],[89.5692941335096,26.7319149866858],[89.569693868696,26.7324860654982],[89.5701221527746,26.7330999749438],[89.5704933366488,26.7337281533006],[89.5708074068847,26.7340993600879],[89.5711500449761,26.7345562275847],[89.5721208435617,26.735341467924],[89.5727918342722,26.7360695923114],[89.5732486706972,26.7365835721396],[89.5735484650914,26.7371974790799],[89.5739053724547,26.7376828969076],[89.5742337236661,26.7384252946337],[89.5747191082654,26.7394246758816],[89.5750188988544,26.7401956331018],[89.5752044835286,26.7408095378139],[89.5754186226263,26.7412378427544],[89.5761609858943,26.7422657890718],[89.5766178271291,26.7429939192835],[89.5769461738685,26.7435078866066],[89.5774172974875,26.7441360769204],[89.5778598611772,26.7447642566771],[89.5780597199623,26.7452068413654],[89.5782595880554,26.7456779861048],[89.5783561582815,26.7460751390104]]]},"properties":{"compartment":"Santrabari BL3","Division":"BTR_E","Range":"Buxaduar","Beat":"Santrabari"},"id":"comptt.184"},
{"type":"Feature","geometry":{"type":"Polygon","coordinates":[[[89.5653439085655,26.7217803124204],[89.5669823058463,26.7217237435406],[89.5676003010969,26.7218567558322],[89.569722302879,26.7215657967145],[89.5708713085735,26.7212128185049],[89.5729043033727,26.7212198581787],[89.5739593143103,26.7206598777676],[89.5748313257737,26.7200968937806],[89.5750793398926,26.7194878975384],[89.5757783553638,26.7187769099129],[89.5759423752045,26.7179399116268],[89.5761113967977,26.7170299133085],[89.5767204012675,26.7167829247496],[89.5774134147451,26.7161549371526],[89.5785574311728,26.7153589580539],[89.5788174361663,26.7151259627115],[89.5798714399987,26.7148599827979],[89.5808484384836,26.7148230017893],[89.5830964613104,26.7136500435517],[89.5836944055885,26.7158930592081],[89.5840403821204,26.7168280676218],[89.5839703204636,26.7193840708058],[89.5845682487324,26.7222880876423],[89.5847241799914,26.7251130957156],[89.5865021679631,26.7254291309733],[89.5889141417921,26.7262651795315],[89.590842069981,26.7290362221004],[89.5924419942959,26.7320002586191],[89.5933639356666,26.7343282807732],[89.5932809014403,26.7357502816924],[89.5928568724575,26.7369902756294],[89.5939057906382,26.7402623019528],[89.5944867554702,26.7416553157852],[89.5949427249431,26.7428693268581],[89.5955276827597,26.7445513412871],[89.5957646701853,26.7450463467999],[89.5955836704367,26.7450543432796],[89.5934396978773,26.744139299778],[89.590446708275,26.7440142411111],[89.5881607028146,26.7444721972902],[89.5850677023783,26.7448051374882],[89.5814447008618,26.7452370675135],[89.5783561582815,26.7460751390104],[89.5782595880554,26.7456779861048],[89.5780597199623,26.7452068413654],[89.5778598611772,26.7447642566771],[89.5774172974875,26.7441360769204],[89.5769461738685,26.7435078866066],[89.5766178271291,26.7429939192835],[89.5761609858943,26.7422657890718],[89.5754186226263,26.7412378427544],[89.5752044835286,26.7408095378139],[89.5750188988544,26.7401956331018],[89.5747191082654,26.7394246758816],[89.5742337236661,26.7384252946337],[89.5739053724547,26.7376828969076],[89.5735484650914,26.7371974790799],[89.5732486706972,26.7365835721396],[89.5727918342722,26.7360695923114],[89.5721208435617,26.735341467924],[89.5711500449761,26.7345562275847],[89.5708074068847,26.7340993600879],[89.5704933366488,26.7337281533006],[89.5701221527746,26.7330999749438],[89.569693868696,26.7324860654982],[89.5692941335096,26.7319149866858],[89.5688801187039,26.7313296275699],[89.5683661699992,26.7309155868074],[89.5675809716415,26.7301018000446],[89.5668956981988,26.7294878755861],[89.566410305987,26.7288025849024],[89.5659534640496,26.7281030147509],[89.5656536724129,26.7273748876138],[89.5654109920156,26.7265896614903],[89.5653824507405,26.7258187195703],[89.5652825596764,26.7242197147944],[89.5653439085655,26.7217803124204]]]},"properties":{"compartment":"Santrabari BL4","Division":"BTR_E","Range":"Buxaduar","Beat":"Santrabari"},"id":"comptt.180"}
]}