{"type":"FeatureCollection", "features": [
{"type":"Feature","geometry":{"type":"Polygon","coordinates":[[[89.7243212405091,26.5788896383435],[89.7238178225282,26.5792700392706],[89.7233776688424,26.5790499503004],[89.7227590148559,26.5788595879159],[89.72171206014771,26.578740587338903],[89.7200702379664,26.578573995108602],[89.7186901511734,26.5785739682793],[89.7175242221675,26.5786453257472],[89.7163820748239,26.5786453035438],[89.7148116436279,26.5784311226142],[89.7131698208836,26.578288320431103],[89.7119087166821,26.578169325693903],[89.7096958201233,26.5782406728113],[89.7084242622108,26.578277168162103],[89.7083203225536,26.577025323804502],[89.7088363599393,26.5754203308378],[89.7079443786324,26.5747293122106],[89.7070544110955,26.5734652925542],[89.7080774252241,26.572778311154],[89.7094834467054,26.571748336556002],[89.710763468481,26.5707183595076],[89.71178749364141,26.569572377266102],[89.7120445233748,26.5683103799014],[89.7125695479165,26.567238388099202],[89.71209260348131,26.5649723745945],[89.7119666175434,26.5643993710753],[89.711460657334,26.5627923582405],[89.7101886851383,26.5617583315957],[89.7098147521222,26.5590063191893],[89.71070979683151,26.5570583329357],[89.7103328362588,26.555453322614103],[89.71072488549291,26.553365326326603],[89.7119168813995,26.5534203495809],[89.7127568766125,26.5535383661167],[89.7132728670075,26.553888376793402],[89.7144988557286,26.5542394012629],[89.71682683627141,26.554824447576703],[89.7197988208726,26.5551785059696],[89.722771802668,26.555649564604302],[89.7243417917774,26.5559515956697],[89.7241305914634,26.5564013224114],[89.72403539424731,26.5575434627068],[89.7239401721668,26.559304264163103],[89.7239163424946,26.5605415860234],[89.7240828206277,26.5643487364067],[89.7242730901261,26.567679986359302],[89.7243444324897,26.569654941454303],[89.724487112648,26.5729624104382],[89.7244157042093,26.5741521412843],[89.7246060380227,26.575222896994703],[89.7249153495687,26.5759605443928],[89.7249629217212,26.5766981767029],[89.7248439219704,26.5775309859536],[89.72474873189141,26.5779592849074],[89.7245107832876,26.578340000996402],[89.7243212405091,26.5788896383435]]]},"properties":{"compartment":"Dhawla BL2","Division":"BTR_E","Range":"SouthRydak","Beat":"SouthRydak","DIVISION":"BTR_E","BEAT_NAME":"SouthRydak"},"id":"comptt.32"},
{"type":"Feature","geometry":{"type":"Polygon","coordinates":[[[89.7238178225282,26.5792700392706],[89.72180420060741,26.5807915929778],[89.7215181789516,26.5817195891576],[89.7218991449456,26.5830965991479],[89.7220220977763,26.5850456051949],[89.7206140459556,26.5873355821095],[89.7216269856152,26.589745606328],[89.7215979685981,26.5904556070953],[89.7208259329972,26.5920095949945],[89.7201969249782,26.5924035834993],[89.7199809004761,26.5934425812455],[89.7196228782285,26.594401576079303],[89.7194768570513,26.5952955749146],[89.719261840631,26.5959985720497],[89.7192598175524,26.5969575738076],[89.719328783523,26.598364577786],[89.7195397599458,26.5993235836876],[89.71975073174501,26.6004745899491],[89.71988870679431,26.601497594550903],[89.72024268285631,26.6024576032373],[89.71967166725851,26.6031605934451],[89.7188166539111,26.6037975780031],[89.71782165165361,26.6039875589994],[89.71675263572371,26.604752539632102],[89.7151156380713,26.604813507895102],[89.7143326384046,26.6048754927763],[89.7134086390674,26.604937474914102],[89.7132666563264,26.6042344708369],[89.7132686747898,26.603467469442002],[89.7131307013076,26.6023794647231],[89.7131337228484,26.601484463108303],[89.7130627476424,26.6004614598146],[89.7128517681396,26.5996304541565],[89.71263977941881,26.599182449195002],[89.71221580813851,26.5980304387941],[89.71186383050271,26.597135430274403],[89.7114388499795,26.5963674205727],[89.71072887784631,26.5952784047285],[89.7107308963008,26.5945114033346],[89.7108079330371,26.5929774019666],[89.7106669595473,26.5918893971921],[89.7113919968123,26.5902704082667],[89.7113970436931,26.5883214047222],[89.7119141141769,26.5853414092064],[89.7105311447031,26.584206380195802],[89.7107241709996,26.5830943818709],[89.7107922207222,26.5810203793183],[89.7114972173232,26.5810933931604],[89.7125132296016,26.580484411773902],[89.7121442554717,26.579444402656403],[89.7099732606522,26.5794393604437],[89.7087152818135,26.5786813345739],[89.70844428636521,26.5785183290017],[89.7084242622108,26.578277168162103],[89.7096958201233,26.5782406728113],[89.7119087166821,26.578169325693903],[89.7131698208836,26.578288320431103],[89.7148116436279,26.5784311226142],[89.7163820748239,26.5786453035438],[89.7175242221675,26.5786453257472],[89.7186901511734,26.5785739682793],[89.7200702379664,26.578573995108602],[89.72171206014771,26.578740587338903],[89.7227590148559,26.5788595879159],[89.7233776688424,26.5790499503004],[89.7238178225282,26.5792700392706]]]},"properties":{"compartment":"Dhawla BL1","Division":"BTR_E","Range":"SouthRydak","Beat":"SouthRydak","DIVISION":"BTR_E","BEAT_NAME":"SouthRydak"},"id":"comptt.61"},
{"type":"Feature","geometry":{"type":"Polygon","coordinates":[[[89.7366545871544,26.5674138265205],[89.7364083160646,26.567513661889702],[89.7357658606838,26.567799189941702],[89.7351472009681,26.567846758007402],[89.7329343100828,26.5676801546854],[89.7274377745111,26.5676086677278],[89.7242730901261,26.567679986359302],[89.7240828206277,26.5643487364067],[89.7239163424946,26.5605415860234],[89.7239401721668,26.559304264163103],[89.72403539424731,26.5575434627068],[89.7241305914634,26.5564013224114],[89.7243417917774,26.5559515956697],[89.7244370917919,26.555988014684402],[89.7250457836857,26.5562206098509],[89.72836875091801,26.557264676368202],[89.73118471858331,26.5583397330998],[89.7330516926001,26.559241771072003],[89.73479167224531,26.5599218061609],[89.7356065987211,26.5608225936935],[89.7358683355384,26.561346079766302],[89.7361181560931,26.5621313061012],[89.7362727934357,26.5630593008561],[89.7364512221444,26.5643442167467],[89.7365463707573,26.5656410210414],[89.7366415150781,26.5671162956727],[89.7366545871544,26.5674138265205]]]},"properties":{"compartment":"SRD BL4","Division":"BTR_E","Range":"SouthRydak","Beat":"SouthRydak","DIVISION":"BTR_E","BEAT_NAME":"SouthRydak"},"id":"comptt.24"},
{"type":"Feature","geometry":{"type":"Polygon","coordinates":[[[89.7334147316903,26.5771334018298],[89.7330292430108,26.577947175868],[89.7328864613237,26.5784468540331],[89.7327294055487,26.5791178622433],[89.7326841666947,26.5803218736311],[89.7326484496074,26.5810357142808],[89.7327079248749,26.5816424765799],[89.7328506739393,26.582499080968702],[89.73307669966171,26.583486567223503],[89.73315995084741,26.5846763010831],[89.7331479956302,26.5869724851751],[89.7330749936003,26.5895573786234],[89.7327759713322,26.5892648222568],[89.730995017324,26.5875247843442],[89.7296410602553,26.5858707549014],[89.7274981269756,26.5833037084038],[89.7268061597542,26.5820076925134],[89.72488921925421,26.579718650942702],[89.7243992377067,26.5789986400646],[89.7243212405091,26.5788896383435],[89.7245107832876,26.578340000996402],[89.72474873189141,26.5779592849074],[89.7248439219704,26.5775309859536],[89.7249629217212,26.5766981767029],[89.7249153495687,26.5759605443928],[89.7246060380227,26.575222896994703],[89.7244157042093,26.5741521412843],[89.724487112648,26.5729624104382],[89.7243444324897,26.569654941454303],[89.7242730901261,26.567679986359302],[89.7274377745111,26.5676086677278],[89.7329343100828,26.5676801546854],[89.7351472009681,26.567846758007402],[89.7357658606838,26.567799189941702],[89.7364083160646,26.567513661889702],[89.7366545871544,26.5674138265205],[89.73668907894421,26.568198948639],[89.7366890563504,26.5691388404111],[89.7365462569345,26.570376159969],[89.736272595256,26.5713041463996],[89.7359989555904,26.571732441888102],[89.7356896125745,26.572303506951602],[89.7354278603065,26.5728388828728],[89.735094712768,26.573600307832002],[89.734856752447,26.5740524040582],[89.734559310833,26.5745639792401],[89.7343927412049,26.574980386786702],[89.73421426788501,26.575551454393203],[89.7340952892909,26.5759202727751],[89.7339644110105,26.5762771809032],[89.7338692260804,26.5764913394562],[89.7336907604847,26.5767411764573],[89.7334147316903,26.5771334018298]]]},"properties":{"compartment":"SRD BL1","Division":"BTR_E","Range":"SouthRydak","Beat":"SouthRydak","DIVISION":"BTR_E","BEAT_NAME":"SouthRydak"},"id":"comptt.45"},
{"type":"Feature","geometry":{"type":"Polygon","coordinates":[[[89.73479167224531,26.5599218061609],[89.7381466592938,26.560138871759403],[89.7405656514141,26.5602349189442],[89.7427066454283,26.56027896063],[89.74473863352111,26.560580000684503],[89.7466126224368,26.560862037634003],[89.7500995780198,26.5623771082662],[89.750488572897,26.562553116159602],[89.751779562292,26.562871141852],[89.75283953188381,26.56403516466],[89.7538985304412,26.5639941851645],[89.7556085152972,26.564461219286102],[89.7558575138374,26.564498224196],[89.755904449354,26.5671762301928],[89.7569223826127,26.5698552550679],[89.7574823345379,26.571801269650003],[89.7586052547698,26.5750112975814],[89.7593442100727,26.576799315348],[89.7597361532725,26.5791233273874],[89.7611831056697,26.580964359027202],[89.7619250629495,26.5826693767004],[89.76250798203931,26.5859763943301],[89.7620519008225,26.5893943919612],[89.76184923820101,26.5899030586507],[89.7613254482828,26.5895690281612],[89.760854326922,26.5892549283989],[89.7603403680645,26.5888408976135],[89.759826420238,26.588384026747303],[89.75922681119721,26.5875702435367],[89.7585129979513,26.586942048458003],[89.7579704840055,26.586742157525602],[89.7569282870464,26.586299556413],[89.7562715674854,26.5859283529346],[89.7559289361733,26.5855999756469],[89.75541499075071,26.5850431745937],[89.7551151931188,26.5845577578415],[89.7547011826191,26.5837867983262],[89.75420150956731,26.5831300573622],[89.7538017656374,26.5829158991815],[89.7534305823289,26.582673191502302],[89.7527453059246,26.5821734872276],[89.7517602329565,26.581559566906602],[89.7509892953751,26.581116971075403],[89.74976150918751,26.5806600863339],[89.7484623317911,26.5802603103131],[89.7474772502387,26.580003310671202],[89.746392221321,26.5796463688971],[89.745292917629,26.5794893072243],[89.74460764126741,26.5794036337374],[89.743836695447,26.5793036785578],[89.7427802244057,26.5790323975029],[89.74198073036901,26.5788610616339],[89.740909979362,26.578589780302202],[89.7400962170763,26.5783470540217],[89.7391825015876,26.5782471060676],[89.7375406846901,26.5782756241998],[89.7363271619561,26.578090000255802],[89.7354705701152,26.5778330031171],[89.7346139689614,26.577547455925],[89.73385730654721,26.5773047307569],[89.7334147316903,26.5771334018298],[89.7336907604847,26.5767411764573],[89.7338692260804,26.5764913394562],[89.7339644110105,26.5762771809032],[89.7340952892909,26.5759202727751],[89.73421426788501,26.575551454393203],[89.7343927412049,26.574980386786702],[89.734559310833,26.5745639792401],[89.734856752447,26.5740524040582],[89.735094712768,26.573600307832002],[89.7354278603065,26.5728388828728],[89.7356896125745,26.572303506951602],[89.7359989555904,26.571732441888102],[89.736272595256,26.5713041463996],[89.7365462569345,26.570376159969],[89.7366890563504,26.5691388404111],[89.73668907894421,26.568198948639],[89.7366545871544,26.5674138265205],[89.7366415150781,26.5671162956727],[89.7365463707573,26.5656410210414],[89.7364512221444,26.5643442167467],[89.7362727934357,26.5630593008561],[89.7361181560931,26.5621313061012],[89.7358683355384,26.561346079766302],[89.7356065987211,26.5608225936935],[89.73479167224531,26.5599218061609]]]},"properties":{"compartment":"SRD BL3","Division":"BTR_E","Range":"SouthRydak","Beat":"SouthRydak","DIVISION":"BTR_E","BEAT_NAME":"SouthRydak"},"id":"comptt.46"},
{"type":"Feature","geometry":{"type":"Polygon","coordinates":[[[89.76184923820101,26.5899030586507],[89.7616048748402,26.590516385399003],[89.7609538368788,26.5921553758503],[89.7602857778644,26.5946703676345],[89.7606487663668,26.595113375539402],[89.7605827248408,26.5968443775456],[89.7607437231474,26.5968993807829],[89.7609097065138,26.5975743852963],[89.7608236922874,26.598173384761402],[89.760739679838,26.5986983841249],[89.76065566921841,26.599147383343702],[89.7605716585745,26.5995973825644],[89.7604856443226,26.6001973820314],[89.7604016373146,26.600496380964902],[89.7601686365728,26.6005493765313],[89.75943264237931,26.6003783618834],[89.7578186494068,26.6002403302123],[89.75435765921151,26.6001632627155],[89.7526126584798,26.6003602291322],[89.7506946645064,26.6002931916822],[89.748605670135,26.600259150968],[89.7453076776879,26.600261086797403],[89.7437466876698,26.5999960559224],[89.7430117049446,26.5993490403985],[89.7412787466013,26.597785003726102],[89.7402397772406,26.5966119812973],[89.74022178188031,26.5964209805867],[89.7396507889047,26.5961839690306],[89.7369688403343,26.5943049133108],[89.7351599112843,26.591530872893703],[89.7336979474924,26.5901668418876],[89.7330749936003,26.5895573786234],[89.7331479956302,26.5869724851751],[89.73315995084741,26.5846763010831],[89.73307669966171,26.583486567223503],[89.7328506739393,26.582499080968702],[89.7327079248749,26.5816424765799],[89.7326484496074,26.5810357142808],[89.7326841666947,26.5803218736311],[89.7327294055487,26.5791178622433],[89.7328864613237,26.5784468540331],[89.7330292430108,26.577947175868],[89.7334147316903,26.5771334018298],[89.73385730654721,26.5773047307569],[89.7346139689614,26.577547455925],[89.7354705701152,26.5778330031171],[89.7363271619561,26.578090000255802],[89.7375406846901,26.5782756241998],[89.7391825015876,26.5782471060676],[89.7400962170763,26.5783470540217],[89.740909979362,26.578589780302202],[89.74198073036901,26.5788610616339],[89.7427802244057,26.5790323975029],[89.743836695447,26.5793036785578],[89.74460764126741,26.5794036337374],[89.745292917629,26.5794893072243],[89.746392221321,26.5796463688971],[89.7474772502387,26.580003310671202],[89.7484623317911,26.5802603103131],[89.74976150918751,26.5806600863339],[89.7509892953751,26.581116971075403],[89.7517602329565,26.581559566906602],[89.7527453059246,26.5821734872276],[89.7534305823289,26.582673191502302],[89.7538017656374,26.5829158991815],[89.75420150956731,26.5831300573622],[89.7547011826191,26.5837867983262],[89.7551151931188,26.5845577578415],[89.75541499075071,26.5850431745937],[89.7559289361733,26.5855999756469],[89.7562715674854,26.5859283529346],[89.7569282870464,26.586299556413],[89.7579704840055,26.586742157525602],[89.7585129979513,26.586942048458003],[89.75922681119721,26.5875702435367],[89.759826420238,26.588384026747303],[89.7603403680645,26.5888408976135],[89.760854326922,26.5892549283989],[89.7613254482828,26.5895690281612],[89.76184923820101,26.5899030586507]]]},"properties":{"compartment":"SRD BL2","Division":"BTR_E","Range":"SouthRydak","Beat":"SouthRydak","DIVISION":"BTR_E","BEAT_NAME":"SouthRydak"},"id":"comptt.54"}
]}
