{"type":"FeatureCollection", "features": [
{"type":"Feature","geometry":{"type":"Polygon","coordinates":[[[89.7739327402506,26.6405706230932],[89.7732286412313,26.640593707156903],[89.7727903818602,26.6406083079776],[89.7721186428809,26.6406306855947],[89.7677186447401,26.640971600494602],[89.7638376425993,26.641429525732303],[89.75904764818681,26.6416544328128],[89.7563536595804,26.6414393799057],[89.7576257032242,26.6395094010298],[89.7605768458758,26.6333154467636],[89.7631429478718,26.6288424882481],[89.7647050136696,26.6259655132006],[89.76493904332371,26.6247135153755],[89.7660360746618,26.623309534069],[89.7663850646251,26.622863140015802],[89.7665973578583,26.6231236046467],[89.7668686125891,26.623316350297003],[89.7673040464274,26.6235305091859],[89.7682463122026,26.6236161877017],[89.7695383556281,26.623766123153],[89.7711016492948,26.62388036382],[89.7721081554421,26.6239446335471],[89.7735144089547,26.6240802911971],[89.7745994438344,26.6241897625408],[89.7779068836957,26.624296907170102],[89.780964483275,26.624439737003],[89.7808573868779,26.625129776237703],[89.7806908137723,26.625688944063203],[89.7802148924334,26.627033337365102],[89.7798698545687,26.6278066521232],[89.7795605071957,26.6285561775307],[89.7791678665686,26.6294484715883],[89.77860866398001,26.6308523433789],[89.7782279361938,26.631625667439902],[89.77782340587841,26.6325060612416],[89.7773831847827,26.6334221444156],[89.77691916661121,26.634219256898],[89.77657412960251,26.6349568815846],[89.77619340095241,26.635765895711902],[89.7759316474842,26.6363488617252],[89.77558661076131,26.637074586388202],[89.77524156977981,26.637562370596303],[89.7748251540805,26.6382524137994],[89.77440873153941,26.6388115767522],[89.77407559995571,26.6393231612371],[89.77393281965901,26.639763359295102],[89.7739327402506,26.6405706230932]]]},"properties":{"compartment":"C Rydak BL4","Division":"BTR_E","Range":"NorthRydak","Beat":"Teamari","DIVISION":"BTR_E","BEAT_NAME":"Teamari"},"id":"comptt.97"},
{"type":"Feature","geometry":{"type":"Polygon","coordinates":[[[89.7957964324428,26.6247341765043],[89.79584596606091,26.6249941179695],[89.7961419274481,26.626567126762403],[89.7961368638471,26.629204131738103],[89.7952387801628,26.6327571210739],[89.7940837136761,26.6356211040721],[89.7938756881575,26.6366981020886],[89.79269767927481,26.637177080050602],[89.7914036682436,26.6377560559432],[89.7889426514951,26.638682009756202],[89.785965641551,26.639374953063403],[89.7829886316387,26.6400668963674],[89.7805296289257,26.640411849101802],[89.7787186275365,26.6406408142435],[89.7754846378528,26.640519750983],[89.7739327402506,26.6405706230932],[89.77393281965901,26.639763359295102],[89.77407559995571,26.6393231612371],[89.77440873153941,26.6388115767522],[89.7748251540805,26.6382524137994],[89.77524156977981,26.637562370596303],[89.77558661076131,26.637074586388202],[89.7759316474842,26.6363488617252],[89.77619340095241,26.635765895711902],[89.77657412960251,26.6349568815846],[89.77691916661121,26.634219256898],[89.7773831847827,26.6334221444156],[89.77782340587841,26.6325060612416],[89.7782279361938,26.631625667439902],[89.77860866398001,26.6308523433789],[89.7791678665686,26.6294484715883],[89.7795605071957,26.6285561775307],[89.7798698545687,26.6278066521232],[89.7802148924334,26.627033337365102],[89.7806908137723,26.625688944063203],[89.7808573868779,26.625129776237703],[89.780964483275,26.624439737003],[89.7825944086978,26.624475458821703],[89.7843552035377,26.624523083213102],[89.7860803078876,26.6245944969554],[89.7880671519313,26.6246540257743],[89.79045850505881,26.624713552474102],[89.7931829797301,26.6246779154818],[89.7957964324428,26.6247341765043]]]},"properties":{"compartment":"C Rydak BL3","Division":"BTR_E","Range":"NorthRydak","Beat":"Teamari","DIVISION":"BTR_E","BEAT_NAME":"Teamari"},"id":"comptt.94"},
{"type":"Feature","geometry":{"type":"Polygon","coordinates":[[[89.7877934779825,26.6045159217982],[89.7878834760193,26.6045889236903],[89.7890064898276,26.603909944249],[89.7902075019179,26.6032949664481],[89.7910915027068,26.603178983434002],[89.7918904676951,26.6045570016359],[89.7927133982177,26.6073630230508],[89.7929783430822,26.609626032559902],[89.7918102788751,26.6124000151469],[89.7918582173959,26.6149460209729],[89.792993174874,26.616603046261602],[89.7949370786486,26.6204110914468],[89.79529904635821,26.6217161010081],[89.79563599311611,26.6238921117585],[89.7957964324428,26.6247341765043],[89.7931829797301,26.6246779154818],[89.79045850505881,26.624713552474102],[89.7880671519313,26.6246540257743],[89.7860803078876,26.6245944969554],[89.7843552035377,26.624523083213102],[89.7825944086978,26.624475458821703],[89.780964483275,26.624439737003],[89.7779068836957,26.624296907170102],[89.7745994438344,26.6241897625408],[89.7746589402968,26.623916133177],[89.775241913309,26.6233212733957],[89.7763364983485,26.622179152533203],[89.7772407066511,26.621334458529702],[89.7779069763573,26.6204540698231],[89.7797510977569,26.618562432120303],[89.78059583078401,26.6175273765906],[89.7820235462483,26.6159212713194],[89.7825827284536,26.6153621011379],[89.7830943110165,26.6152074508041],[89.7834869329905,26.6150884782218],[89.7840223100881,26.6147434679864],[89.78452200898771,26.614327076919302],[89.7847480667895,26.61398206066],[89.7850574084167,26.6134704757029],[89.7854262465034,26.612685261379703],[89.7856880085609,26.611745374674502],[89.7859616688699,26.6108768783375],[89.7861758350125,26.610186841184102],[89.78643759534741,26.6093183346149],[89.786556584859,26.608497425357],[89.7867112768689,26.6075694365886],[89.7869492352484,26.6067842197149],[89.7871515119885,26.606070382283402],[89.7875917344937,26.6050948089816],[89.7877934779825,26.6045159217982]]]},"properties":{"compartment":"C Rydak BL6","Division":"BTR_E","Range":"NorthRydak","Beat":"Teamari","DIVISION":"BTR_E","BEAT_NAME":"Teamari"},"id":"comptt.81"},
{"type":"Feature","geometry":{"type":"Polygon","coordinates":[[[89.7877934779825,26.6045159217982],[89.7875917344937,26.6050948089816],[89.7871515119885,26.606070382283402],[89.7869492352484,26.6067842197149],[89.7867112768689,26.6075694365886],[89.786556584859,26.608497425357],[89.78643759534741,26.6093183346149],[89.7861758350125,26.610186841184102],[89.7859616688699,26.6108768783375],[89.7856880085609,26.611745374674502],[89.7854262465034,26.612685261379703],[89.7850574084167,26.6134704757029],[89.7847480667895,26.61398206066],[89.78452200898771,26.614327076919302],[89.7840223100881,26.6147434679864],[89.7834869329905,26.6150884782218],[89.7830943110165,26.6152074508041],[89.7825827284536,26.6153621011379],[89.7820235462483,26.6159212713194],[89.78059583078401,26.6175273765906],[89.7797510977569,26.618562432120303],[89.7779069763573,26.6204540698231],[89.7772407066511,26.621334458529702],[89.7763364983485,26.622179152533203],[89.775241913309,26.6233212733957],[89.7746589402968,26.623916133177],[89.7745994438344,26.6241897625408],[89.7735144089547,26.6240802911971],[89.7721081554421,26.6239446335471],[89.7711016492948,26.62388036382],[89.7695383556281,26.623766123153],[89.7682463122026,26.6236161877017],[89.7673040464274,26.6235305091859],[89.7668686125891,26.623316350297003],[89.7665973578583,26.6231236046467],[89.7663850646251,26.622863140015802],[89.7667310945035,26.6224205459121],[89.7672481458775,26.6202405518287],[89.7672542233415,26.6170265458231],[89.76725927867031,26.614730541546702],[89.7659843203927,26.613120513655502],[89.76560538210751,26.610595501469],[89.765736423299,26.6088735007406],[89.7667614513331,26.607612518292502],[89.7689334545777,26.607271559923703],[89.76944848103301,26.6061245677621],[89.770002562729,26.602680571978603],[89.7725415358264,26.603556623069],[89.7751905140485,26.6042096758783],[89.77760151365611,26.6039977224043],[89.7799065124985,26.6038277669474],[89.7804234523121,26.603789908013603],[89.7804935121973,26.6037847782915],[89.7831445008385,26.604005830319203],[89.78555449005721,26.6042258776552],[89.7877934779825,26.6045159217982]]]},"properties":{"compartment":"C Rydak BL5","Division":"BTR_E","Range":"NorthRydak","Beat":"Teamari","DIVISION":"BTR_E","BEAT_NAME":"Teamari"},"id":"comptt.79"}
]}
