{"type":"FeatureCollection", "features": [
{"type":"Feature","geometry":{"type":"Polygon","coordinates":[[[89.6026196324792,26.6718879908166],[89.6022404228706,26.6719073421545],[89.6017964452656,26.6710243319224],[89.6001865332724,26.6675402943188],[89.5985786392805,26.6633092554243],[89.5970267187185,26.6601732195888],[89.6008632171059,26.6598518537191],[89.6101145566117,26.65893832223],[89.6142619697916,26.6583887520054],[89.6193659086015,26.6579248505622],[89.6254692250156,26.6574609785821],[89.6296926647889,26.657047290084],[89.6296019121817,26.6584080807814],[89.6296018811838,26.6596929931082],[89.6296018478873,26.6610730856073],[89.6293162657577,26.6632621840094],[89.6292210457949,26.6649278051711],[89.6290306311276,26.6672120955983],[89.6291173946035,26.670373863014],[89.6252523926586,26.6708417885568],[89.6202043926059,26.6713506911249],[89.6181973961965,26.6714036521185],[89.6167733983504,26.6714576244725],[89.6141864047805,26.6714515740607],[89.612374406507,26.671562538959],[89.6082324140539,26.6716674584545],[89.604865419701,26.6717733930515],[89.6026196324792,26.6718879908166]]]},"properties":{"compartment":"Jainti BL4"},"id":"comptt.121"}
]}