{"type":"FeatureCollection", "features": [
{"type":"Feature","geometry":{"type":"Polygon","coordinates":[[[89.6261711624738,26.6409065723022],[89.6239820608809,26.6411920702105],[89.6222926398042,26.6414061877152],[89.621007730045,26.6415251329212],[89.619746620803,26.6416202885476],[89.6184141234559,26.6416440526557],[89.6169864423264,26.6418343852119],[89.6159632684978,26.6420961057697],[89.6149163058746,26.6423102357784],[89.6139645230216,26.6425243676395],[89.6125844312086,26.6427384911643],[89.6110853748474,26.6427384619882],[89.6093721701551,26.6426908485591],[89.6073020469067,26.6426194181413],[89.6031855777462,26.6430000587099],[89.6015913358944,26.6432379681099],[89.5997591429043,26.6435472630066],[89.5988073577698,26.6438565750374],[89.5977603968825,26.6439993249174],[89.596523079328,26.6440230908798],[89.5941198280624,26.6439040738964],[89.5921686814307,26.6435471152875],[89.5911825998625,26.6433019556368],[89.5910271586084,26.6425350712653],[89.5907422007503,26.6408150626483],[89.5903852661204,26.6381380509225],[89.5900933168453,26.6360620415353],[89.5895393747806,26.6337130265648],[89.5888254521009,26.6305750070756],[89.5943464398226,26.6305251143802],[89.5979304343352,26.6303901838565],[89.6023274277955,26.6302172690813],[89.6036414272724,26.6301062944439],[89.6054244275136,26.6299163287883],[89.6071424239416,26.6298913621647],[89.609435420325,26.6298104066269],[89.6125714114655,26.6298624677291],[89.6176534000463,26.6298255665321],[89.6187746501929,26.6297066476049],[89.6193314002737,26.6296475988569],[89.6195738403199,26.6296217936289],[89.6195327416674,26.6299846933826],[89.6196992780216,26.631364789114],[89.6196992568137,26.6322451907029],[89.6198419935397,26.6331969851983],[89.6200323330157,26.6340298004054],[89.6205557853791,26.6351243625674],[89.621245809058,26.6361475478428],[89.6218644480687,26.636956571343],[89.6226496472491,26.6377418180424],[89.6235300273461,26.638479466509],[89.6244104085896,26.6391695248907],[89.6251242308087,26.6398357899884],[89.6257428761247,26.6403830830192],[89.6261711624738,26.6409065723022]]]},"properties":{"compartment":"Jainti BL 9"},"id":"comptt.93"}
]}