{"type":"FeatureCollection", "features": [
{"type":"Feature","geometry":{"type":"Polygon","coordinates":[[[89.6436887692524,26.6384608188306],[89.6427179515828,26.6384607999338],[89.6409857143666,26.6385178763205],[89.6394628571085,26.6385559167484],[89.6373689275557,26.6387462363379],[89.6354272831671,26.6391221492284],[89.6341899592643,26.6394076656633],[89.6327860786317,26.6395741986404],[89.6318104981154,26.6396931498676],[89.6292168811795,26.6402403803775],[89.6261711624738,26.6409065723022],[89.6257428761247,26.6403830830192],[89.6251242308087,26.6398357899884],[89.6244104085896,26.6391695248907],[89.6235300273461,26.638479466509],[89.6226496472491,26.6377418180424],[89.6218644480687,26.636956571343],[89.621245809058,26.6361475478428],[89.6205557853791,26.6351243625674],[89.6200323330157,26.6340298004054],[89.6198419935397,26.6331969851983],[89.6196992568137,26.6322451907029],[89.6196992780216,26.631364789114],[89.6195327416674,26.6299846933826],[89.6195738403199,26.6296217936289],[89.6207404004795,26.6294976259989],[89.6260373959951,26.6291527284325],[89.6279793965374,26.6289357658236],[89.6319503993729,26.6284208421516],[89.6354763956565,26.6282229103963],[89.6365871918511,26.6282718311093],[89.6368393909339,26.6282829370251],[89.6383983855491,26.6283509674822],[89.6417523876605,26.6279290319751],[89.6447463885488,26.6275940896215],[89.646331389616,26.627392120094],[89.6478343837274,26.6274871495125],[89.6514651951041,26.6274845522574],[89.6519203740219,26.6274842290141],[89.6530789112631,26.6274837915055],[89.6495899884112,26.6316842213327],[89.6471914285653,26.6344062796175],[89.6436887692524,26.6384608188306]]]},"properties":{"compartment":"Jainti BL8"},"id":"comptt.92"}
]}