{"type":"FeatureCollection", "features": [
{"type":"Feature","geometry":{"type":"Polygon","coordinates":[[[89.6576517302283,26.6536223883759],[89.6563471172818,26.653459312668],[89.6533014076841,26.6537447938705],[89.6494466708507,26.6544109700112],[89.6473527378386,26.6547440498371],[89.6454967588505,26.6548867839503],[89.642260699739,26.6551722514455],[89.6386915002902,26.6555053125396],[89.6370734684468,26.6557432314603],[89.6364072143122,26.655981158917],[89.6355506106366,26.6562190926664],[89.6341705205196,26.6563618360479],[89.6316958773058,26.6567424985443],[89.6296926647889,26.657047290084],[89.6296971263917,26.6569804000497],[89.6297447415309,26.6559334390805],[89.6298875364389,26.6548864799647],[89.6302682742146,26.6536967552235],[89.6320291262028,26.6513649152849],[89.6349321529759,26.6478909455069],[89.6373116760894,26.645035636649],[89.641023717793,26.6412761520779],[89.6436887692524,26.6384608188306],[89.6466392985975,26.6381943757768],[89.649837300569,26.6377946872973],[89.6519312347319,26.6374140173613],[89.6541774485345,26.637033350389],[89.6564997998657,26.6367478550725],[89.6589363649645,26.6367098324323],[89.6606091222341,26.6370724156583],[89.6608711032422,26.6378344221543],[89.6615770651115,26.6393464386683],[89.6622200271522,26.6408574539552],[89.6623439932488,26.6422514589241],[89.6625339619825,26.6435294649657],[89.66246692853,26.644923466216],[89.6619458962067,26.6463154586219],[89.6609688579763,26.6479974426782],[89.6600598209802,26.6496214279504],[89.659017787122,26.6511284104165],[89.6576517302283,26.6536223883759]]]},"properties":{"compartment":"Jainti BL6A"},"id":"comptt.103"}
]}