{"type":"FeatureCollection", "features": [
{"type":"Feature","geometry":{"type":"Polygon","coordinates":[[[89.545898324291,26.7231293347251],[89.5441502941863,26.7245543031272],[89.540305240369,26.7271762327154],[89.5365511733136,26.7303361650084],[89.5347231325985,26.732208132616],[89.5336940959522,26.7338291153708],[89.5320670164894,26.7372810896512],[89.5321819556374,26.7397830962625],[89.5320558902743,26.7424960985389],[89.5306828302636,26.7451170763144],[89.5294843486947,26.7470411875302],[89.5291535761208,26.7462728784815],[89.5289679931813,26.7455875936641],[89.5286682074424,26.74461676612],[89.528482630378,26.7436887708799],[89.5282970508928,26.7428607158144],[89.5280258351019,26.7414758581071],[89.5277260611306,26.7396055889968],[89.5274976835193,26.7378781015293],[89.5273406650136,26.736593186226],[89.5271122718678,26.7350941191572],[89.527040955271,26.7324814632127],[89.527055296378,26.7299544690887],[89.5265699715266,26.726485203576],[89.5263503078803,26.7258319581532],[89.5269554578252,26.7257713698512],[89.5291112462083,26.7256143616268],[89.5308672835263,26.7255430157548],[89.5326518863009,26.7252432400413],[89.5339225196761,26.7249720043521],[89.5360354819781,26.7246579550181],[89.5377772538319,26.7244010085434],[89.5393619750452,26.7241868890801],[89.5412607858205,26.7239584957184],[89.5430453782659,26.7236729900286],[89.545415336504,26.7230876952307],[89.545898324291,26.7231293347251]]]},"properties":{"compartment":"Raimatang BL5"},"id":"comptt.182"}
]}