{"type":"FeatureCollection", "features": [
{"type":"Feature","geometry":{"type":"Polygon","coordinates":[[[89.4874975514284,26.7611452610484],[89.486552554301,26.7611262425668],[89.4848285601333,26.7610672088091],[89.4824015623387,26.7612321617115],[89.4797745662236,26.7613491106278],[89.4799135946462,26.7601611113088],[89.4802896571698,26.7575401141641],[89.480512694212,26.7559871158593],[89.4817179153896,26.7467251235217],[89.4823280733047,26.74013612414],[89.4824801076409,26.7387011246474],[89.4823713068495,26.7304781084374],[89.4826013506678,26.7286421097777],[89.4826583505224,26.7286421108893],[89.4837353418265,26.7288881323131],[89.4859363321293,26.7290571755248],[89.4886783258718,26.7290272289466],[89.4914663224302,26.7288762830584],[89.4938943209499,26.728682330076],[89.4960517867442,26.7286287711907],[89.495775579876,26.7297694786373],[89.4955614138438,26.7304547556404],[89.4948475366319,26.7320680244944],[89.4942764442523,26.7330531050509],[89.4936625243984,26.7339382545993],[89.4932342137435,26.7344236570799],[89.4930200090197,26.7367079368311],[89.4926630329252,26.739063603919],[89.4922917854987,26.7410623501135],[89.4919062777794,26.7426613453415],[89.4917920300581,26.7442317858124],[89.4917348956667,26.7452454364404],[89.4916634978772,26.7459878263235],[89.4915349771215,26.7468587153128],[89.491392202623,26.747472613582],[89.4913636333635,26.747858083687],[89.4912065813203,26.7483720415056],[89.4910638016598,26.7487860694309],[89.4907068645945,26.7495284537411],[89.4905069868077,26.7498710904292],[89.4903642102578,26.7501566281334],[89.4901357728893,26.7504849842394],[89.489750296612,26.7507847972314],[89.4893219918269,26.7510274892894],[89.4890935579152,26.7512130851499],[89.4890221611834,26.7514986142469],[89.4890649800115,26.7519554758672],[89.4890221342178,26.7526122061588],[89.4888793642099,26.7530405141078],[89.4887651351664,26.7534259825403],[89.4886223586159,26.7537115102438],[89.488422480482,26.7540684269555],[89.4881654907647,26.7544967326747],[89.4878942193554,26.7549964082377],[89.4873516924413,26.7553390382363],[89.4867092295582,26.755938656725],[89.4863665842088,26.7561956304777],[89.4860382039818,26.7566524848516],[89.4858954281222,26.7569094625055],[89.4858240362016,26.757409151969],[89.4857811928247,26.7579659420876],[89.4857811776089,26.7585941231648],[89.4858668283989,26.7589653154734],[89.4861237984051,26.759350801151],[89.4864093269551,26.7597933874841],[89.4867091247768,26.760264524145],[89.4870945837631,26.7606785523805],[89.4874975514284,26.7611452610484]]]},"properties":{"compartment":"Raimatong BL1"},"id":"comptt.186"}
]}