{"type":"FeatureCollection", "features": [
{"type":"Feature","geometry":{"type":"Polygon","coordinates":[[[89.5042943242966,26.7468487545047],[89.5044698715122,26.7473851986451],[89.5048029758939,26.7484083769139],[89.5051122797584,26.7494553447598],[89.5054215888074,26.750288162236],[89.5057546831853,26.7513113405058],[89.5061829627105,26.7525248709633],[89.5065160565091,26.7535718492753],[89.5067063912445,26.7545950247597],[89.5069681173252,26.7551423008153],[89.5072298439817,26.7556657868299],[89.5075391553296,26.756403434144],[89.5077294946727,26.7572362493005],[89.507967419659,26.7578311149745],[89.5080625786653,26.7586877283141],[89.5079911786696,26.7595205383607],[89.5078245871847,26.760424736672],[89.5075390383069,26.7612337424957],[89.5072772834037,26.7618761984957],[89.5064682533481,26.7623758635624],[89.5058257992123,26.7626138014288],[89.5051119592942,26.7626851676134],[89.5044694997719,26.7627327451508],[89.5031693896116,26.7628755700112],[89.5028974717318,26.7628165645998],[89.501301490882,26.7621935323617],[89.4984724939793,26.762362477416],[89.4963464977169,26.7624314360247],[89.4936005150549,26.7620043816756],[89.4909365606329,26.7611970108197],[89.490221548476,26.7609803139454],[89.4880635497173,26.7611562721172],[89.4874975514284,26.7611452610484],[89.4870945837631,26.7606785523805],[89.4867091247768,26.760264524145],[89.4864093269551,26.7597933874841],[89.4861237984051,26.759350801151],[89.4858668283989,26.7589653154734],[89.4857811776089,26.7585941231648],[89.4857811928247,26.7579659420876],[89.4858240362016,26.757409151969],[89.4858954281222,26.7569094625055],[89.4860382039818,26.7566524848516],[89.4863665842088,26.7561956304777],[89.4867092295582,26.755938656725],[89.4873516924413,26.7553390382363],[89.4878942193554,26.7549964082377],[89.4881654907647,26.7544967326747],[89.488422480482,26.7540684269555],[89.4886223586159,26.7537115102438],[89.4887651351664,26.7534259825403],[89.4888793642099,26.7530405141078],[89.4890221342178,26.7526122061588],[89.4890649800115,26.7519554758672],[89.4890221611834,26.7514986142469],[89.4890935579152,26.7512130851499],[89.4893219918269,26.7510274892894],[89.489750296612,26.7507847972314],[89.4901357728893,26.7504849842394],[89.4903642102578,26.7501566281334],[89.4905069868077,26.7498710904292],[89.4907068645945,26.7495284537411],[89.4910638016598,26.7487860694309],[89.4912065813203,26.7483720415056],[89.4913636333635,26.747858083687],[89.491392202623,26.747472613582],[89.4915349771215,26.7468587153128],[89.4916634978772,26.7459878263235],[89.4917348956667,26.7452454364404],[89.4917920300581,26.7442317858124],[89.4919062777794,26.7426613453415],[89.4922917854987,26.7410623501135],[89.4926630329252,26.739063603919],[89.4930200090197,26.7367079368311],[89.4932342137435,26.7344236570799],[89.4936625243984,26.7339382545993],[89.4942764442523,26.7330531050509],[89.4948475366319,26.7320680244944],[89.4955614138438,26.7304547556404],[89.495775579876,26.7297694786373],[89.4960517867442,26.7286287711907],[89.4966313156426,26.7286143833372],[89.4966873164195,26.7285763843639],[89.4972713176943,26.7284623955571],[89.4978543189719,26.7283484067307],[89.4990843199629,26.728178430426],[89.5002513225177,26.7279504527925],[89.5003827926223,26.7279236942818],[89.5004244710289,26.7284072969576],[89.5004490243802,26.7299198500459],[89.5005560520898,26.7316568551301],[89.5006512039295,26.7328108989772],[89.5008058390709,26.7338221737382],[89.5012221938962,26.7360588757197],[89.5014006289727,26.7370701609458],[89.5016504386848,26.7382955879343],[89.501864565606,26.7396399844323],[89.5022571412083,26.7410200844741],[89.5025426477347,26.7419599816674],[89.5030423047894,26.7432686936767],[89.5040416042833,26.7460764880264],[89.5042943242966,26.7468487545047]]]},"properties":{"compartment":"Raimatong BL2"},"id":"comptt.187"}
]}