{"type":"FeatureCollection", "features": [
{"type":"Feature","geometry":{"type":"Polygon","coordinates":[[[89.5282970508928,26.7428607158144],[89.5269550335537,26.7433032703939],[89.5257272273112,26.7436887171025],[89.5245565247284,26.7439171246518],[89.5233715525284,26.7441312518976],[89.5221723000199,26.7443596588894],[89.5202449400402,26.7445594916211],[89.5182461892066,26.744802163034],[89.5168899002111,26.7449020667376],[89.5155478832547,26.7449163205711],[89.5126782567048,26.7450733148397],[89.5111934752754,26.745287436234],[89.5101798236924,26.7454587367485],[89.5088092519769,26.7456728603714],[89.5077242109226,26.7458298794678],[89.5069389884182,26.7460154644647],[89.5060538251306,26.746243877585],[89.5051972203886,26.7465294013613],[89.5042943242966,26.7468487545047],[89.5040416042833,26.7460764880264],[89.5030423047894,26.7432686936767],[89.5025426477347,26.7419599816674],[89.5022571412083,26.7410200844741],[89.501864565606,26.7396399844323],[89.5016504386848,26.7382955879343],[89.5014006289727,26.7370701609458],[89.5012221938962,26.7360588757197],[89.5008058390709,26.7338221737382],[89.5006512039295,26.7328108989772],[89.5005560520898,26.7316568551301],[89.5004490243802,26.7299198500459],[89.5004244710289,26.7284072969576],[89.5003827926223,26.7279236942818],[89.5019363265423,26.7276074850629],[89.5032313273487,26.7274385100273],[89.5049813255775,26.7273285439674],[89.5067283252436,26.7271595777472],[89.508800325445,26.7269346177687],[89.5113273272819,26.7265946664652],[89.5129463258536,26.7264846978508],[89.5151473229349,26.7263757405897],[89.5170253180528,26.7263817772286],[89.5186443166565,26.7262708086132],[89.5202623124349,26.7262768401819],[89.5222053102033,26.7261668778881],[89.525053308432,26.7259439330501],[89.5263583064572,26.7258899584103],[89.5263503078803,26.7258319581532],[89.5265699715266,26.726485203576],[89.527055296378,26.7299544690887],[89.527040955271,26.7324814632127],[89.5271122718678,26.7350941191572],[89.5273406650136,26.736593186226],[89.5274976835193,26.7378781015293],[89.5277260611306,26.7396055889968],[89.5280258351019,26.7414758581071],[89.5282970508928,26.7428607158144]]]},"properties":{"compartment":"Raimatong BL4"},"id":"comptt.181"}
]}