{"type":"FeatureCollection", "features": [
{"type":"Feature","geometry":{"type":"Polygon","coordinates":[[[89.5220376679746,26.7527169207965],[89.5211036617803,26.7530699031763],[89.5194416353089,26.7543358729293],[89.5169125975115,26.7561598267213],[89.5151675546574,26.7581107960357],[89.5143095067473,26.7601777828666],[89.5132804736838,26.761649765325],[89.5110064410097,26.7632357236671],[89.510824437642,26.7633937203866],[89.5080484408733,26.7635506664499],[89.5065474432749,26.7636086372398],[89.505487451538,26.7633786161438],[89.5031693896116,26.7628755700112],[89.5044694997719,26.7627327451508],[89.5051119592942,26.7626851676134],[89.5058257992123,26.7626138014288],[89.5064682533481,26.7623758635624],[89.5072772834037,26.7618761984957],[89.5075390383069,26.7612337424957],[89.5078245871847,26.760424736672],[89.5079911786696,26.7595205383607],[89.5080625786653,26.7586877283141],[89.507967419659,26.7578311149745],[89.5077294946727,26.7572362493005],[89.5075391553296,26.756403434144],[89.5072298439817,26.7556657868299],[89.5069681173252,26.7551423008153],[89.5067063912445,26.7545950247597],[89.5065160565091,26.7535718492753],[89.5061829627105,26.7525248709633],[89.5057546831853,26.7513113405058],[89.5054215888074,26.750288162236],[89.5051122797584,26.7494553447598],[89.5048029758939,26.7484083769139],[89.5044698715122,26.7473851986451],[89.5042943242966,26.7468487545047],[89.5051972203886,26.7465294013613],[89.5060538251306,26.746243877585],[89.5069389884182,26.7460154644647],[89.5077242109226,26.7458298794678],[89.5088092519769,26.7456728603714],[89.5101798236924,26.7454587367485],[89.5111934752754,26.745287436234],[89.5126782567048,26.7450733148397],[89.5155478832547,26.7449163205711],[89.5168899002111,26.7449020667376],[89.5182461892066,26.744802163034],[89.5202449400402,26.7445594916211],[89.5221723000199,26.7443596588894],[89.5233715525284,26.7441312518976],[89.5245565247284,26.7439171246518],[89.5257272273112,26.7436887171025],[89.5269550335537,26.7433032703939],[89.5282970508928,26.7428607158144],[89.528482630378,26.7436887708799],[89.5286682074424,26.74461676612],[89.5289679931813,26.7455875936641],[89.5291535761208,26.7462728784815],[89.5294843486947,26.7470411875302],[89.5292377777176,26.7474370521552],[89.529045770645,26.7477490489513],[89.5272207281575,26.7496930167142],[89.5270057203189,26.75003901312],[89.5241746821336,26.7519099611116],[89.5220376679746,26.7527169207965]]]},"properties":{"compartment":"Raimatong BL3"},"id":"comptt.189"}
]}