{"type":"FeatureCollection", "features": [
{"type":"Feature","geometry":{"type":"Polygon","coordinates":[[[89.6514651951041,26.6274845522574],[89.6478343837274,26.6274871495125],[89.646331389616,26.627392120094],[89.6447463885488,26.6275940896215],[89.6417523876605,26.6279290319751],[89.6383983855491,26.6283509674822],[89.6368393909339,26.6282829370251],[89.6365871918511,26.6282718311093],[89.637069477244,26.6238460134413],[89.6371647343675,26.6206337394584],[89.6367365310659,26.6166600239104],[89.6363796829464,26.6137094816106],[89.6362943274675,26.6131196400938],[89.6365567573376,26.613093903936],[89.6394097572772,26.6128119589061],[89.64055275675,26.6127199809671],[89.6421447560622,26.6125900116908],[89.64332768227,26.6138761770379],[89.6452073661158,26.6176833605326],[89.6464684192418,26.6199200791393],[89.6473487775985,26.6215619292589],[89.6491333091458,26.6242269688386],[89.6499660804739,26.6257498378207],[89.6514651951041,26.6274845522574]]]},"properties":{"compartment":"Panbari BL3"},"id":"comptt.78"}
]}