{"type":"FeatureCollection", "features": [
{"type":"Feature","geometry":{"type":"Polygon","coordinates":[[[89.6187746501929,26.6297066476049],[89.6176534000463,26.6298255665321],[89.6125714114655,26.6298624677291],[89.609435420325,26.6298104066269],[89.6071424239416,26.6298913621647],[89.6054244275136,26.6299163287883],[89.6036414272724,26.6301062944439],[89.6023274277955,26.6302172690813],[89.5979304343352,26.6303901838565],[89.5943464398226,26.6305251143802],[89.5888254521009,26.6305750070756],[89.588805454269,26.6304870065296],[89.5882705257694,26.6275719909227],[89.587913570534,26.6257489807274],[89.5873706371497,26.6230369653303],[89.587136697489,26.6205539563518],[89.5872587609213,26.6179059540015],[89.589786765986,26.61743900232],[89.5909527728627,26.6170350242691],[89.5919007789005,26.6166880420811],[89.592053779875,26.6166320449558],[89.5934777749105,26.6166940727533],[89.5965797643437,26.61681913329],[89.5988447572654,26.6168841774465],[89.6007197525836,26.6168892139131],[89.6024017497698,26.6168362465235],[89.6049237504779,26.6165522950529],[89.6075127482128,26.6163853450954],[89.6102927468864,26.6161603987481],[89.6127517491358,26.6158194459502],[89.6151093517702,26.6154729111703],[89.6149883109464,26.6163502703979],[89.6149882943373,26.6170403216412],[89.6150596572457,26.6181586650446],[89.6151072259377,26.6190390675564],[89.6152737689232,26.6197291220391],[89.6154403113355,26.6204429665647],[89.6157258305948,26.621275783619],[89.6160113404263,26.6220848006305],[89.6162730591684,26.6229414172654],[89.6165109954153,26.6234887028802],[89.6167489305162,26.624083568581],[89.6171772122912,26.6247974181992],[89.6175579087644,26.6253209065488],[89.6182955217678,26.6263678827861],[89.6188189483537,26.628533206876],[89.6187746501929,26.6297066476049]]]},"properties":{"compartment":"Panbari BL1"},"id":"comptt.82"}
]}