{"type":"FeatureCollection", "features": [
{"type":"Feature","geometry":{"type":"Polygon","coordinates":[[[89.6530789112631,26.6274837915055],[89.6519203740219,26.6274842290141],[89.6514651951041,26.6274845522574],[89.6499660804739,26.6257498378207],[89.6491333091458,26.6242269688386],[89.6473487775985,26.6215619292589],[89.6464684192418,26.6199200791393],[89.6452073661158,26.6176833605326],[89.64332768227,26.6138761770379],[89.6421447560622,26.6125900116908],[89.6446602185972,26.6122343699626],[89.65115613936,26.611972755818],[89.6553915824215,26.6114255671909],[89.6622444172391,26.6113781103856],[89.6671597015931,26.6115426562899],[89.6675016582642,26.6141395077114],[89.6673996464445,26.6146405066473],[89.6672046124054,26.6160735054854],[89.6672635791327,26.6174495091599],[89.6672585418677,26.6189975119052],[89.6677015049076,26.6204885232622],[89.6681414472137,26.6228405361431],[89.6686443921332,26.6250775500401],[89.6688313571673,26.6265105563117],[89.6689153478369,26.6268895586427],[89.6666953712805,26.626135514056],[89.666065371888,26.6261725018641],[89.6634253744383,26.6263274507747],[89.6588363705365,26.6269433626037],[89.6544383680274,26.6274832780097],[89.6530789112631,26.6274837915055]]]},"properties":{"compartment":"Panbari BL4"},"id":"comptt.76"}
]}