{"type":"FeatureCollection", "features": [
{"type":"Feature","geometry":{"type":"Polygon","coordinates":[[[89.6671597015931,26.6115426562899],[89.6622444172391,26.6113781103856],[89.6553915824215,26.6114255671909],[89.65115613936,26.611972755818],[89.6446602185972,26.6122343699626],[89.6421447560622,26.6125900116908],[89.6413567833191,26.6115359944487],[89.6391658516013,26.6089169470806],[89.6367179344725,26.6057168936686],[89.6350029882936,26.6036508565755],[89.6375639881856,26.6033999059071],[89.6406679861564,26.6031749658425],[89.6428669835353,26.6030650083935],[89.6461009811852,26.602841070859],[89.649979973093,26.6027921461847],[89.6532139679716,26.6026842088639],[89.6556079621182,26.6026902554207],[89.6571599625097,26.6025202852852],[89.6592949670971,26.6021183260601],[89.6615539727165,26.6016613691448],[89.6625559578707,26.6021793895765],[89.6630909183658,26.6037684028926],[89.6633128663184,26.6059094111356],[89.6632277834421,26.6093614158127],[89.6670647392025,26.6108204931165],[89.6671507232553,26.6114744959901],[89.6671597015931,26.6115426562899]]]},"properties":{"compartment":"Panbari BL5"},"id":"comptt.64"}
]}