{"type":"FeatureCollection", "features": [
{"type":"Feature","geometry":{"type":"Polygon","coordinates":[[[89.6195738403199,26.6296217936289],[89.6193314002737,26.6296475988569],[89.6187746501929,26.6297066476049],[89.6188189483537,26.628533206876],[89.6182955217678,26.6263678827861],[89.6175579087644,26.6253209065488],[89.6171772122912,26.6247974181992],[89.6167489305162,26.624083568581],[89.6165109954153,26.6234887028802],[89.6162730591684,26.6229414172654],[89.6160113404263,26.6220848006305],[89.6157258305948,26.621275783619],[89.6154403113355,26.6204429665647],[89.6152737689232,26.6197291220391],[89.6151072259377,26.6190390675564],[89.6150596572457,26.6181586650446],[89.6149882943373,26.6170403216412],[89.6149883109464,26.6163502703979],[89.6151093517702,26.6154729111703],[89.6154047521004,26.6154294968363],[89.6158597525882,26.615363505565],[89.6187697523633,26.6150805616412],[89.621746753356,26.6147406189175],[89.6237537553721,26.6144556574305],[89.6261467550652,26.6142287035545],[89.6302857573951,26.6137177831176],[89.635396757356,26.6132088815864],[89.6361897573526,26.6131298968644],[89.6362943274675,26.6131196400938],[89.6363796829464,26.6137094816106],[89.6367365310659,26.6166600239104],[89.6371647343675,26.6206337394584],[89.637069477244,26.6238460134413],[89.6365871918511,26.6282718311093],[89.6354763956565,26.6282229103963],[89.6319503993729,26.6284208421516],[89.6279793965374,26.6289357658236],[89.6260373959951,26.6291527284325],[89.6207404004795,26.6294976259989],[89.6195738403199,26.6296217936289]]]},"properties":{"compartment":"Panbari BL2"},"id":"comptt.80"}
]}