{"type":"FeatureCollection", "features": [
{"type":"Feature","geometry":{"type":"Polygon","coordinates":[[[89.7534674086914,26.6989823410822],[89.7533071322377,26.6996776892693],[89.7533166231958,26.7008769417238],[89.7531357382398,26.7027519517405],[89.7529929478395,26.7036085605735],[89.7527740093222,26.7048077985678],[89.7524503680513,26.7061307747515],[89.7521362352359,26.7079296520204],[89.751898274591,26.7088052890299],[89.7515841484529,26.7103281357757],[89.7514318348412,26.711317994673],[89.7512890465972,26.7124982041161],[89.751184306739,26.7141543152018],[89.7511652474228,26.7149538163411],[89.7510890919266,26.7156010260774],[89.7510890813238,26.7160388469049],[89.75118425073,26.7164671495734],[89.7513270118693,26.7168193130277],[89.7516410893832,26.7173047300802],[89.7519170846799,26.717885326569],[89.7520598402859,26.7184659204555],[89.752202599119,26.7189132640901],[89.7522311398313,26.7192939753677],[89.7522120988094,26.7197508358597],[89.7521359381506,26.720198175218],[89.7519170136736,26.7208168321114],[89.7517361632577,26.7212641694244],[89.751574353028,26.7217019870913],[89.7513935035339,26.722111254332],[89.7511841031841,26.722558581087],[89.7510793905152,26.723091580049],[89.7510889010391,26.7234818109725],[89.7511745529997,26.7238054232576],[89.7513458631469,26.7241956573422],[89.7515647638749,26.7245573423027],[89.751793183197,26.7249761375574],[89.7518788323897,26.7254139600587],[89.7518502663131,26.7260802107604],[89.7517931377655,26.7268511511019],[89.7517074648186,26.7273936704538],[89.7515456527407,26.7279076282639],[89.7512600965681,26.7286024239978],[89.7508983996493,26.7293352983156],[89.7503558715366,26.7301347892254],[89.7499751367376,26.7307819930086],[89.7497181453408,26.7312769189218],[89.7493469423644,26.7318479827469],[89.7490276109571,26.7323493174536],[89.7474186334655,26.7315752845498],[89.7473486344526,26.7315412831177],[89.7455336576605,26.7307582461738],[89.7435576830146,26.7299022059485],[89.7414246966693,26.7295441635967],[89.7390527040525,26.7294681171074],[89.7362857209664,26.7290370622341],[89.7346267386844,26.7284660287479],[89.7330477682338,26.7273989958947],[89.7310717936018,26.7265429556845],[89.7290178139942,26.7258999143529],[89.7276748309526,26.7253298870493],[89.726728845236,26.7248318676367],[89.7256218599461,26.7243318450762],[89.7243578629624,26.7243298203825],[89.7237118619605,26.7244338079588],[89.7234878616146,26.7244698036508],[89.7231588361623,26.724726797705],[89.7231826261036,26.7243140873971],[89.7230969755269,26.7239333650114],[89.7229922933807,26.7236192723786],[89.7229161516284,26.7232861502678],[89.7227258165994,26.7226865154278],[89.7226496762298,26.7222962832102],[89.7224974177953,26.7214206385975],[89.7224879118789,26.7208400473252],[89.7225735829722,26.7203736781254],[89.7228591448901,26.7194409319565],[89.7232017997584,26.7187937274368],[89.7238775886844,26.7179466490483],[89.7242963766898,26.7175754565316],[89.7247532446057,26.7172042747583],[89.7254099809005,26.7168806769771],[89.7264855026663,26.7162905868743],[89.7275324835778,26.715738576285],[89.7284176555607,26.7151580024817],[89.7290839134479,26.7147677847601],[89.7298643838333,26.7142633490541],[89.7306924415727,26.7138636144736],[89.7316347144364,26.7136542424804],[89.732662648944,26.7133687320168],[89.7333003427525,26.7131498240578],[89.7338904589764,26.7128357549909],[89.7344329750816,26.7125311950121],[89.7350230917672,26.712198075909],[89.7356512783638,26.711864967549],[89.7363080125899,26.7116270299253],[89.7371360689507,26.7112844054498],[89.7377166661203,26.7109322561241],[89.7381449745673,26.7105420337529],[89.7384210022179,26.7101993884977],[89.7385447413757,26.7098091601792],[89.738687523484,26.7092952019996],[89.7388969263584,26.7087431650489],[89.7391253668838,26.7082863186491],[89.7396298364414,26.7074297168856],[89.7401247853293,26.7066016749896],[89.7404769647801,26.7057641102876],[89.7407053992206,26.705145453582],[89.7410195050736,26.7044601684231],[89.7412955357169,26.7039938029332],[89.7417809639338,26.703194310903],[89.7421045817019,26.7028421565569],[89.7425519330972,26.702328204321],[89.7429421718618,26.7019284611852],[89.743427596623,26.7012717394229],[89.7437131390858,26.7007292239738],[89.7440367639928,26.7000820190703],[89.7441853267749,26.6995394609468],[89.7447654164483,26.6994971721902],[89.7460774157188,26.6994011976191],[89.748034413322,26.6993122356517],[89.7534674086914,26.6989823410822]]]},"properties":{"compartment":"Bhutanghat BL2"},"id":"comptt.173"}
]}