{"type":"FeatureCollection", "features": [
{"type":"Feature","geometry":{"type":"Polygon","coordinates":[[[89.7231588361623,26.724726797705],[89.7228528510918,26.7249657921755],[89.7228498201401,26.7262437945085],[89.7222937870945,26.7276617863005],[89.7213407583967,26.7289387700722],[89.7201547337354,26.7300717490211],[89.7188087197487,26.7307797240483],[89.7173037079066,26.7314146958319],[89.7159587042428,26.7316966700814],[89.7135077015412,26.7320466228501],[89.7118456969338,26.7323985910365],[89.7103416919554,26.7327505623094],[89.7088366783792,26.7334575342234],[89.7073346631014,26.7342345063251],[89.7071436600636,26.7343785028615],[89.7069818452315,26.7267514855039],[89.7068538706283,26.725715481076],[89.7068109186621,26.7237364765536],[89.7067899575335,26.7221334731606],[89.7067509994226,26.7204074691872],[89.7067490014856,26.72032246899],[89.7073550000299,26.7203234808258],[89.7085290067498,26.7199315030219],[89.709919009789,26.7196705296796],[89.712320034539,26.7184145742248],[89.7146850333486,26.7182336200699],[89.7169590743379,26.7163196609018],[89.7193021271501,26.7139107021506],[89.7222971485587,26.7127357584315],[89.7253971644507,26.7117788171676],[89.7272112012282,26.710083849409],[89.7291042360299,26.7084628833279],[89.7304682585168,26.7074019079668],[89.7321692799257,26.7063529392056],[89.7331383235934,26.7044549545577],[89.734567363062,26.7026859791291],[89.7348623735037,26.702225984023],[89.7361083975978,26.7011100062465],[89.7362693971978,26.7011110093911],[89.7362934349348,26.6995490069221],[89.7407234284015,26.6993920930949],[89.7408634279059,26.6993990958407],[89.7438604169578,26.6995631546494],[89.7441853267749,26.6995394609468],[89.7440367639928,26.7000820190703],[89.7437131390858,26.7007292239738],[89.743427596623,26.7012717394229],[89.7429421718618,26.7019284611852],[89.7425519330972,26.702328204321],[89.7421045817019,26.7028421565569],[89.7417809639338,26.703194310903],[89.7412955357169,26.7039938029332],[89.7410195050736,26.7044601684231],[89.7407053992206,26.705145453582],[89.7404769647801,26.7057641102876],[89.7401247853293,26.7066016749896],[89.7396298364414,26.7074297168856],[89.7391253668838,26.7082863186491],[89.7388969263584,26.7087431650489],[89.738687523484,26.7092952019996],[89.7385447413757,26.7098091601792],[89.7384210022179,26.7101993884977],[89.7381449745673,26.7105420337529],[89.7377166661203,26.7109322561241],[89.7371360689507,26.7112844054498],[89.7363080125899,26.7116270299253],[89.7356512783638,26.711864967549],[89.7350230917672,26.712198075909],[89.7344329750816,26.7125311950121],[89.7338904589764,26.7128357549909],[89.7333003427525,26.7131498240578],[89.732662648944,26.7133687320168],[89.7316347144364,26.7136542424804],[89.7306924415727,26.7138636144736],[89.7298643838333,26.7142633490541],[89.7290839134479,26.7147677847601],[89.7284176555607,26.7151580024817],[89.7275324835778,26.715738576285],[89.7264855026663,26.7162905868743],[89.7254099809005,26.7168806769771],[89.7247532446057,26.7172042747583],[89.7242963766898,26.7175754565316],[89.7238775886844,26.7179466490483],[89.7232017997584,26.7187937274368],[89.7228591448901,26.7194409319565],[89.7225735829722,26.7203736781254],[89.7224879118789,26.7208400473252],[89.7224974177953,26.7214206385975],[89.7226496762298,26.7222962832102],[89.7227258165994,26.7226865154278],[89.7229161516284,26.7232861502678],[89.7229922933807,26.7236192723786],[89.7230969755269,26.7239333650114],[89.7231826261036,26.7243140873971],[89.7231588361623,26.724726797705]]]},"properties":{"compartment":"Bhutanghat BL1"},"id":"comptt.176"}
]}