{"type":"FeatureCollection", "features": [
{"type":"Feature","geometry":{"type":"Polygon","coordinates":[[[89.7693386126437,26.6671103502614],[89.7690887554577,26.6674315760001],[89.7687437273407,26.6678003899731],[89.7683986977868,26.6682286840592],[89.7680726975563,26.668683158566],[89.7676729365184,26.6691780717109],[89.767244624166,26.6697301044074],[89.7666449848487,26.6705867043413],[89.7662642491666,26.6712719782183],[89.7659501479305,26.6717669030329],[89.7653505099921,26.6725663928569],[89.7649316995663,26.6734515463701],[89.7645985584824,26.67435573159],[89.764274930596,26.6751266767421],[89.7637418996193,26.6764591688755],[89.7634849038785,26.6771349251458],[89.7631803147958,26.6779534607584],[89.7628852459207,26.6787624665384],[89.7624378850954,26.6796666595277],[89.7621332957808,26.6804947051573],[89.7618096632879,26.6814560006681],[89.7616002562831,26.6821793579554],[89.7614193936888,26.683131136233],[89.7613908189004,26.6841590676264],[89.7614193506531,26.6849109796101],[89.761552578941,26.6857961438897],[89.7616953269757,26.6866908283733],[89.7620664813613,26.6881280283441],[89.762275855326,26.6891845144356],[89.7625708740265,26.6904504025963],[89.762617161922,26.6909464144414],[89.7616534907676,26.6906727651144],[89.7609991491869,26.6903872118023],[89.7601544474708,26.6901254548205],[89.7589290280746,26.6898042002964],[89.7582865835896,26.689637627443],[89.7574775692024,26.6894829513619],[89.7566447617061,26.6894591350646],[89.7558000553884,26.6893877384451],[89.7550862222212,26.6891735741094],[89.7540392721279,26.6888642230933],[89.7533611391664,26.6886381594323],[89.7527067890272,26.6882931260106],[89.7519096806577,26.6878885996911],[89.7515408778425,26.6876268519995],[89.7506485911327,26.6871628337112],[89.7498395816406,26.6868058972508],[89.7491277193777,26.6865542328853],[89.7491197687218,26.6845142288752],[89.7491628069667,26.6829282267176],[89.7489608514819,26.6811062193345],[89.7484129259453,26.6780782029245],[89.7485999997552,26.675006200769],[89.7498111056823,26.670506215884],[89.7498311075204,26.6704282161266],[89.7499342446363,26.6701237975625],[89.7506138065825,26.6699780805392],[89.7513038572835,26.669882913816],[89.7521961569419,26.6698115410818],[89.753564348661,26.6696093173806],[89.7555987834399,26.6692167463115],[89.7571930260779,26.6689550369056],[89.7591323008557,26.6681579532127],[89.7598937388702,26.6677534572943],[89.7601911722074,26.6675869027785],[89.7607146661727,26.6673727625808],[89.7613214285091,26.6672181041197],[89.7624873586935,26.6670991566307],[89.766651407372,26.6671706179707],[89.7693386126437,26.6671103502614]]]},"properties":{"compartment":"N Rydak BL2"},"id":"comptt.136"}
]}