{"type":"FeatureCollection", "features": [
{"type":"Feature","geometry":{"type":"Polygon","coordinates":[[[89.4441738100233,26.6024649574234],[89.4443485204372,26.6011801486437],[89.4447165387583,26.6003781544318],[89.4452115632146,26.59930716223],[89.4458785819466,26.5984561737377],[89.4465476006491,26.5976061852854],[89.4473116252561,26.596500198243],[89.4485556670292,26.5946282192191],[89.4487146741387,26.5943152217752],[89.4486246845012,26.5938932193144],[89.4484587099918,26.5928492143262],[89.4483857210304,26.5923972121447],[89.4480418234913,26.5914982439497],[89.4538987261454,26.5915983177755],[89.4548027250895,26.5915463352304],[89.4571947173627,26.5916143817656],[89.4615257003621,26.5918634662398],[89.4621242701286,26.5919215492662],[89.4617873570735,26.5958943157074],[89.4612539114029,26.5981684788293],[89.4607959202187,26.6018797867017],[89.4606539817049,26.6018929163791],[89.4582126514058,26.6021641294449],[89.4563423927427,26.602306863379],[89.453415657464,26.6024210167553],[89.4475622007003,26.6024922932449],[89.4441738100233,26.6024649574234]]]},"properties":{"compartment":"Poro BL5"},"id":"comptt.218"}
]}