{"type":"FeatureCollection", "features": [
{"type":"Feature","geometry":{"type":"Polygon","coordinates":[[[89.4620190890986,26.6172525190142],[89.4566680886532,26.6178384160726],[89.4501070881046,26.6185582898559],[89.4456580885044,26.6190152042159],[89.4438470884082,26.619212169374],[89.443621092281,26.6190751647532],[89.4423471266067,26.6177831378282],[89.4399441802203,26.6158090878299],[89.4375892344057,26.6138060387219],[89.4385982570026,26.6127580565486],[89.4396513095486,26.610459073119],[89.4400363228827,26.6098630795892],[89.4408973574863,26.6083310937219],[89.4421353808392,26.6072271158945],[89.4430894049437,26.6061221325503],[89.443573446683,26.6043331389253],[89.4440644802098,26.6028851460111],[89.4441514861365,26.6026291472675],[89.4441738100233,26.6024649574234],[89.4475622007003,26.6024922932449],[89.453415657464,26.6024210167553],[89.4563423927427,26.602306863379],[89.4582126514058,26.6021641294449],[89.4606539817049,26.6018929163791],[89.4619246115576,26.6017644508283],[89.465222533856,26.601735964806],[89.4685061868858,26.6016789184594],[89.4691944469235,26.6016046316951],[89.4689154326404,26.6022286273427],[89.4686534180016,26.6028656233423],[89.4687133997097,26.6036206257949],[89.4691633761978,26.6045516361202],[89.4694823544352,26.6054236438016],[89.4694143364657,26.6061786437692],[89.4690213207386,26.6068746373251],[89.4681763020261,26.6077426223967],[89.466942273175,26.6090736007024],[89.4653862507664,26.6101705723544],[89.4643432214054,26.6115025543672],[89.4635571718228,26.613648542755],[89.4631621309764,26.6153895380459],[89.4623800995509,26.6167795252216],[89.4620190890986,26.6172525190142]]]},"properties":{"compartment":"Poro BL1"},"id":"comptt.71"}
]}