{"type":"FeatureCollection", "features": [
{"type":"Feature","geometry":{"type":"Polygon","coordinates":[[[89.4616433875935,26.5702972318281],[89.4613621830211,26.5717684288779],[89.4605101253615,26.5742624165951],[89.4599840835647,26.5760604094498],[89.4584809983246,26.5797723866037],[89.4575619366637,26.5824393733058],[89.4571658889047,26.5844713690737],[89.456376836645,26.586732357604],[89.4547487796042,26.5892813303401],[89.4542907501387,26.590557323617],[89.4538987261454,26.5915983177755],[89.4480418234913,26.5914982439497],[89.4478107585829,26.5908941984437],[89.4477018057204,26.5889421930263],[89.4474138945918,26.5852701812266],[89.4469199758137,26.5819381660071],[89.4462980655773,26.578263147727],[89.4459311409282,26.5751611353638],[89.44491918767,26.5733201126258],[89.4433942329843,26.5715930801351],[89.4433702388731,26.5713500792592],[89.4433304477089,26.5709858778724],[89.4448973736655,26.5709876482594],[89.4514646687423,26.5709116254805],[89.4571943927886,26.5709688466908],[89.4586601440841,26.5707594847602],[89.459840355194,26.5705881873568],[89.4609253965469,26.5704168781076],[89.4616433875935,26.5702972318281]]]},"properties":{"compartment":"Poro BL6"},"id":"comptt.41"}
]}