{"type":"FeatureCollection", "features": [
{"type":"Feature","geometry":{"type":"Polygon","coordinates":[[[89.4616433875935,26.5702972318281],[89.4609253965469,26.5704168781076],[89.459840355194,26.5705881873568],[89.4586601440841,26.5707594847602],[89.4571943927886,26.5709688466908],[89.4514646687423,26.5709116254805],[89.4448973736655,26.5709876482594],[89.4433304477089,26.5709858778724],[89.4432712608531,26.5704440758093],[89.4427773337396,26.567457061186],[89.4422804121363,26.5642400461181],[89.4419164984012,26.5606800330513],[89.4414256015092,26.5564300163597],[89.4413106623294,26.5539040098671],[89.4413136788297,26.5532150087622],[89.440941723814,26.5513769984512],[89.4443927449545,26.5501270632113],[89.4468227577818,26.549333108955],[89.4491237627019,26.54888315278],[89.4500207795825,26.5480831688062],[89.4505388222185,26.5462481757345],[89.4505448524537,26.544985173711],[89.4529708433152,26.5451092209247],[89.4565418256451,26.5454682907239],[89.4565948245285,26.5455092918204],[89.457559803731,26.5462753118196],[89.4592177856306,26.5468553449322],[89.4589567615712,26.5478873416288],[89.4586947319792,26.5491503386984],[89.4589657057284,26.5502173457636],[89.4592586646848,26.551899354301],[89.459249617407,26.553873357482],[89.4595025888949,26.5550363643628],[89.4602125745114,26.5555613790172],[89.4616345666139,26.5557404068847],[89.4627955621598,26.5558034294962],[89.4635065491408,26.5562714440748],[89.46356553231,26.5569674464036],[89.4626585151957,26.5577774302005],[89.461168510754,26.5581204019006],[89.4604565000969,26.5586403889829],[89.459736467192,26.560089377489],[89.4595364329168,26.5615403760784],[89.45965738248,26.5636313819789],[89.4602933376354,26.5654343973758],[89.4613852999499,26.5668904210261],[89.4618352750911,26.5678794314347],[89.4618282402873,26.5693314337693],[89.4616762216305,26.5701254321725],[89.4616433875935,26.5702972318281]]]},"properties":{"compartment":"Poro BL11"},"id":"comptt.22"}
]}