{"type":"FeatureCollection", "features": [
{"type":"Feature","geometry":{"type":"Polygon","coordinates":[[[89.5507907798579,26.6888968524593],[89.5503081387256,26.6889763606919],[89.5493979300626,26.6877723208404],[89.5483272060485,26.6863922075537],[89.5470661336552,26.6849645004773],[89.5458764247636,26.6837985452533],[89.5455909040906,26.6834416190646],[89.5454005589243,26.6828467443124],[89.5452340303543,26.681561828813],[89.5448295535231,26.6802293285956],[89.5445678354233,26.6793489219529],[89.5438778252801,26.6781829664678],[89.5433543672557,26.6773263447701],[89.542640554298,26.6762793690321],[89.5421408816193,26.6756131081328],[89.5417819317524,26.6752302104712],[89.5419981217355,26.6752085946434],[89.5434733938021,26.6749706829558],[89.5445917467593,26.6747327543173],[89.5466142851715,26.6745900234542],[89.5499217298195,26.6744711176563],[89.5535622930762,26.6743760083888],[89.5602009754713,26.6744237277663],[89.564293631325,26.6745903677717],[89.5648654472026,26.6747026191075],[89.5647243962431,26.6768286201196],[89.5647823456307,26.6789196249459],[89.5652882756544,26.6817666398366],[89.5658601998787,26.6848466564271],[89.5663651542487,26.6866846695175],[89.5631371480138,26.6872736076605],[89.5597701481934,26.6876115426513],[89.5567911459952,26.6880084853061],[89.5539431420546,26.6884644306172],[89.551352140283,26.6888043807311],[89.5507907798579,26.6888968524593]]]},"properties":{"compartment":"N RVBK BL11"},"id":"comptt.132"}
]}