{"type":"FeatureCollection", "features": [
{"type":"Feature","geometry":{"type":"Polygon","coordinates":[[[89.5417819317524,26.6752302104712],[89.5410463418105,26.6753037562753],[89.535787747224,26.6752084737046],[89.5345980173241,26.6753274307449],[89.5334320739216,26.6755891484978],[89.5323613202822,26.6758508681043],[89.5282924458668,26.6760411392037],[89.5259129895284,26.6761362730357],[89.5240265175948,26.6759978260608],[89.5236345620754,26.6741948152892],[89.5232076666026,26.6699057995103],[89.5232587284802,26.6673347960282],[89.5231347815046,26.6651487898095],[89.5230798564586,26.6620457833382],[89.5230778579101,26.6619857831948],[89.5308626032042,26.6617881943656],[89.5332570565454,26.66181641102],[89.5334086047984,26.6622879347939],[89.5338844718089,26.663192135637],[89.5344079286994,26.664096347407],[89.5348600097839,26.6648339874971],[89.5357165855126,26.6661665065024],[89.5362638311929,26.6671183088211],[89.5369538524989,26.6682366642116],[89.537596273348,26.6693788187182],[89.5380959471791,26.6699974895298],[89.5386194034886,26.6709254913466],[89.5393808063335,26.6719724780057],[89.5398804586818,26.6730670396523],[89.5408084222576,26.6740664294735],[89.5414270617703,26.6748516628969],[89.5417819317524,26.6752302104712]]]},"properties":{"compartment":"N RVBK BL16"},"id":"comptt.124"}
]}