{"type":"FeatureCollection", "features": [
{"type":"Feature","geometry":{"type":"Polygon","coordinates":[[[89.5648654472026,26.6747026191075],[89.564293631325,26.6745903677717],[89.5602009754713,26.6744237277663],[89.5535622930762,26.6743760083888],[89.5499217298195,26.6744711176563],[89.5466142851715,26.6745900234542],[89.5445917467593,26.6747327543173],[89.5434733938021,26.6749706829558],[89.5419981217355,26.6752085946434],[89.5417819317524,26.6752302104712],[89.5414270617703,26.6748516628969],[89.5408084222576,26.6740664294735],[89.5398804586818,26.6730670396523],[89.5393808063335,26.6719724780057],[89.5386194034886,26.6709254913466],[89.5380959471791,26.6699974895298],[89.537596273348,26.6693788187182],[89.5369538524989,26.6682366642116],[89.5362638311929,26.6671183088211],[89.5357165855126,26.6661665065024],[89.5348600097839,26.6648339874971],[89.5344079286994,26.664096347407],[89.5338844718089,26.663192135637],[89.5334086047984,26.6622879347939],[89.5332570565454,26.66181641102],[89.534907671958,26.6618358631818],[89.5409039016029,26.6616456295631],[89.5449489772757,26.661407757884],[89.5519445913771,26.6609320032229],[89.5548398082659,26.6607633992852],[89.5558118080278,26.660673418048],[89.5629107979863,26.6603615556932],[89.566604784233,26.6605536279464],[89.5693147588331,26.6613296820796],[89.5693097264317,26.6626736843625],[89.5694946699454,26.6649966920788],[89.5703926144197,26.6672067134796],[89.571679567724,26.669010741739],[89.5732905216017,26.6707577762108],[89.5741884773058,26.6725017967942],[89.5746733598968,26.6735381786413],[89.5749534359644,26.6741368145956],[89.5744454360818,26.674183804784],[89.57179143162,26.6746397538977],[89.5693974334969,26.6748067075634],[89.5664204410667,26.6747976495626],[89.5648654472026,26.6747026191075]]]},"properties":{"compartment":"N RVBK BL15"},"id":"comptt.123"}
]}