{"type":"FeatureCollection", "features": [
{"type":"Feature","geometry":{"type":"Polygon","coordinates":[[[89.5503081387256,26.6889763606919],[89.5492151401403,26.6890303394904],[89.5471451412354,26.6891982994533],[89.544360141387,26.6894792456838],[89.541640138558,26.6898771933857],[89.5389861369711,26.6902171422717],[89.5367211357945,26.6905000986369],[89.5351661398016,26.6904950683317],[89.5321251420229,26.6907180094735],[89.5281741410267,26.6911689332841],[89.5257811414478,26.6913998870651],[89.5257501646085,26.6904438847959],[89.5253722033898,26.6888768747026],[89.5253372455325,26.6871348709868],[89.5254792982345,26.6849368699244],[89.5249893756358,26.6817808548839],[89.5248724213711,26.679897849326],[89.5243024861889,26.6772708336515],[89.5240265175948,26.6759978260608],[89.5259129895284,26.6761362730357],[89.5282924458668,26.6760411392037],[89.5323613202822,26.6758508681043],[89.5334320739216,26.6755891484978],[89.5345980173241,26.6753274307449],[89.535787747224,26.6752084737046],[89.5410463418105,26.6753037562753],[89.5417819317524,26.6752302104712],[89.5421408816193,26.6756131081328],[89.542640554298,26.6762793690321],[89.5433543672557,26.6773263447701],[89.5438778252801,26.6781829664678],[89.5445678354233,26.6793489219529],[89.5448295535231,26.6802293285956],[89.5452340303543,26.681561828813],[89.5454005589243,26.6828467443124],[89.5455909040906,26.6834416190646],[89.5458764247636,26.6837985452533],[89.5470661336552,26.6849645004773],[89.5483272060485,26.6863922075537],[89.5493979300626,26.6877723208404],[89.5503081387256,26.6889763606919]]]},"properties":{"compartment":"N RVBK BL10"},"id":"comptt.138"}
]}