{"type":"FeatureCollection", "features": [
{"type":"Feature","geometry":{"type":"Polygon","coordinates":[[[89.5332570565454,26.66181641102],[89.5308626032042,26.6617881943656],[89.5230778579101,26.6619857831948],[89.5230588835848,26.6609227809749],[89.5230230100539,26.6556797711485],[89.5233170662654,26.6533167727558],[89.5234640893444,26.652343773922],[89.5238271211586,26.6509857786202],[89.5244691588747,26.6493537882682],[89.524655178238,26.6485307904533],[89.5247231779475,26.6485357917848],[89.5267301741585,26.6484848307403],[89.529252173255,26.6482608794135],[89.532359166657,26.6482129397753],[89.5333711647353,26.64818795942],[89.5334621645565,26.6481859611869],[89.5335060944733,26.6481848720396],[89.5333851162816,26.6493674417531],[89.5333850612384,26.6516517257449],[89.5334087975273,26.6542929308234],[89.5331945614582,26.6578859229343],[89.5330755261143,26.6601939946513],[89.5331944713968,26.6616216794616],[89.5332570565454,26.66181641102]]]},"properties":{"compartment":"S RVBK BL1"},"id":"comptt.109"}
]}