{"type":"FeatureCollection", "features": [
{"type":"Feature","geometry":{"type":"Polygon","coordinates":[[[89.5548398082659,26.6607633992852],[89.5519445913771,26.6609320032229],[89.5449489772757,26.661407757884],[89.5409039016029,26.6616456295631],[89.534907671958,26.6618358631818],[89.5332570565454,26.66181641102],[89.5331944713968,26.6616216794616],[89.5330755261143,26.6601939946513],[89.5331945614582,26.6578859229343],[89.5334087975273,26.6542929308234],[89.5333850612384,26.6516517257449],[89.5333851162816,26.6493674417531],[89.5335060944733,26.6481848720396],[89.5344281627265,26.6481619799385],[89.5368231621798,26.6479370261403],[89.5403171588071,26.6477160937309],[89.5438101512548,26.6476691616082],[89.5471771496155,26.6473902266279],[89.550671144876,26.647227294323],[89.5539061408363,26.6470623569763],[89.5561941377991,26.6469534013027],[89.5559690949806,26.6487534000972],[89.555701041082,26.651017398872],[89.5554329801871,26.6535713981568],[89.5552289191017,26.6561263986881],[89.555416885029,26.6575204048034],[89.5552838503747,26.658971404771],[89.5548398082659,26.6607633992852]]]},"properties":{"compartment":"S RVBK BL2"},"id":"comptt.108"}
]}