{"type":"FeatureCollection", "features": [
{"type":"Feature","geometry":{"type":"Polygon","coordinates":[[[89.6151093517702,26.6154729111703],[89.6127517491358,26.6158194459502],[89.6102927468864,26.6161603987481],[89.6075127482128,26.6163853450954],[89.6049237504779,26.6165522950529],[89.6024017497698,26.6168362465235],[89.6007197525836,26.6168892139131],[89.5988447572654,26.6168841774465],[89.5965797643437,26.61681913329],[89.5934777749105,26.6166940727533],[89.592053779875,26.6166320449558],[89.5919007789005,26.6166880420811],[89.5909527728627,26.6170350242691],[89.589786765986,26.61743900232],[89.5872587609213,26.6179059540015],[89.5872727675533,26.6176289537797],[89.5870368205173,26.6154519453089],[89.5869348456707,26.6144169414801],[89.5869609334712,26.6107649354728],[89.5871849836333,26.6086569360672],[89.5873100016571,26.6078949371376],[89.5872873652879,26.6077462864325],[89.5911910035779,26.6074214917254],[89.5969730906553,26.6069576032813],[89.6069668169854,26.6061011859989],[89.6123949653187,26.6056239206542],[89.6139892031787,26.6055525615154],[89.6140367667332,26.6066471144121],[89.6141319199023,26.6073371675052],[89.6142746763908,26.6078844412665],[89.6145126103584,26.6085269070498],[89.6147981253557,26.6091217736725],[89.6148695088856,26.609383515532],[89.6150836486349,26.6097880304243],[89.6154167529435,26.6104066980156],[89.6156071004597,26.6109063926172],[89.6156308737979,26.6115964343233],[89.6156070672504,26.6122864851045],[89.6154880757794,26.6131906744208],[89.6153928805486,26.6138331337279],[89.615321473542,26.6145469636261],[89.6151093517702,26.6154729111703]]]},"properties":{"compartment":"Panbari BL7"},"id":"comptt.70"}
]}