{"type":"FeatureCollection", "features": [
{"type":"Feature","geometry":{"type":"Polygon","coordinates":[[[89.6123949653187,26.6056239206542],[89.6069668169854,26.6061011859989],[89.5969730906553,26.6069576032813],[89.5911910035779,26.6074214917254],[89.5872873652879,26.6077462864325],[89.5872640090335,26.6075929357049],[89.5877150730636,26.6048849396398],[89.5885291209058,26.6028129517619],[89.5887841346639,26.60221495565],[89.5892091515897,26.6014679625756],[89.5899451898057,26.5998039739068],[89.5912272835444,26.5957749916207],[89.5910273722464,26.5921049811792],[89.5905633918585,26.5913359707919],[89.5903864019751,26.5909329666338],[89.5905244018793,26.5909229692967],[89.5916294010148,26.5908469906262],[89.5937644012499,26.5906210316964],[89.5951843989255,26.5905740591971],[89.5953803985931,26.5905680629939],[89.5994503967545,26.590233141459],[89.6014773971218,26.5900131804422],[89.6043013926763,26.589913235124],[89.6068663886003,26.5898242847946],[89.6095843916584,26.5894233368773],[89.6098989020069,26.5893771829043],[89.6099326177577,26.5895505838713],[89.609968298521,26.5899312952495],[89.6098969009729,26.5902525244404],[89.609551873801,26.5905856383365],[89.6094566897418,26.5907640968083],[89.6094209932509,26.5910377366071],[89.6094566651482,26.5917872686485],[89.6094923370348,26.592953211439],[89.6095042224302,26.5931435620124],[89.6095756082534,26.593310123699],[89.6097659540745,26.5934647976757],[89.6099087197249,26.5936313607494],[89.6100633853465,26.5937979240543],[89.6100990695399,26.5940358751758],[89.6100990635336,26.5942857156253],[89.610099056955,26.5945593561174],[89.6101585276581,26.5949400779581],[89.6102299111928,26.5952018198161],[89.6103012844414,26.5954754516954],[89.6103726676897,26.5957490935749],[89.6103607619976,26.5959870437718],[89.6103488545892,26.596296374097],[89.6101941840935,26.5967484719049],[89.6095754981291,26.5978906019371],[89.6091947618865,26.5986044358223],[89.6089925012191,26.5990684227261],[89.6088973131531,26.5994134414968],[89.6089091773613,26.600900614402],[89.6088972682344,26.6012813248552],[89.6089686400503,26.6016144468415],[89.6090281264726,26.6017572182544],[89.6092065817485,26.6019356820438],[89.6094921150482,26.6021855280427],[89.6098728152558,26.6025543561054],[89.6102535148912,26.6029469742113],[89.6107650910618,26.6034704650966],[89.6109554334468,26.6037679093316],[89.6112171639422,26.6041367250827],[89.6114313168418,26.6044103697379],[89.6115145912029,26.6046364217635],[89.6117287363919,26.6048148862472],[89.6119547818383,26.604981450941],[89.6121570276283,26.6051361251507],[89.6123116941059,26.6052669983928],[89.6123949653187,26.6056239206542]]]},"properties":{"compartment":"Panbari BL8"},"id":"comptt.55"}
]}