{"type":"FeatureCollection", "features": [
{"type":"Feature","geometry":{"type":"Polygon","coordinates":[[[89.6615539727165,26.6016613691448],[89.6592949670971,26.6021183260601],[89.6571599625097,26.6025202852852],[89.6556079621182,26.6026902554207],[89.6532139679716,26.6026842088639],[89.649979973093,26.6027921461847],[89.6461009811852,26.602841070859],[89.6428669835353,26.6030650083935],[89.6406679861564,26.6031749658425],[89.6375639881856,26.6033999059071],[89.6350029882936,26.6036508565755],[89.6342384358988,26.6025796197678],[89.633381860581,26.6012233006551],[89.6310976581782,26.5982251308175],[89.6294558758989,26.596404815609],[89.627623759808,26.5939301355208],[89.626243707453,26.5925024261181],[89.6251967854385,26.5910271331052],[89.6241736487887,26.589742200901],[89.6234493209072,26.5888945552948],[89.6236873713664,26.5888516098422],[89.6246873732615,26.5886726289477],[89.626891371468,26.5885266715055],[89.6272233712945,26.588500677909],[89.6286643706425,26.588383705695],[89.629110369883,26.5883707143369],[89.6330483528299,26.588686791425],[89.6374773331219,26.5890648781702],[89.6421493277529,26.5888229685142],[89.6455933224512,26.5887010352157],[89.6489503276083,26.5881530994505],[89.6496853157814,26.5885721144979],[89.6505153261581,26.5880581296888],[89.6510273262831,26.588002139536],[89.6515383374212,26.5874881485273],[89.6524963474936,26.5869741662044],[89.6529443615704,26.5863441737588],[89.6543473526268,26.5865772014476],[89.6557483299145,26.5873832301464],[89.6545333149699,26.5881252078922],[89.6548502990206,26.5887572152081],[89.6554212907606,26.5890442268295],[89.6559942700416,26.5898492394378],[89.6563752511978,26.5905952482071],[89.657010226218,26.5915712623343],[89.6571342148857,26.5920302655843],[89.6577681816342,26.5933502803228],[89.6588501652073,26.5939263024085],[89.6598721599621,26.5940433224881],[89.660446172353,26.5934713325974],[89.6610231902437,26.5926703423451],[89.6616621983437,26.5922703540323],[89.6622361914246,26.5925013656125],[89.663188150516,26.5941083870638],[89.6630581363465,26.5947103856408],[89.6630231178141,26.5954843863798],[89.6620960952676,26.596513370246],[89.6618680592721,26.5980323685981],[89.661515049792,26.5984613625218],[89.6611630196211,26.5997503580407],[89.6603010134444,26.6000923419084],[89.6598750009379,26.6006543346556],[89.6614829737516,26.6016253676984],[89.6615539727165,26.6016613691448]]]},"properties":{"compartment":"Panbari BL10"},"id":"comptt.52"}
]}