{"type":"FeatureCollection", "features": [
{"type":"Feature","geometry":{"type":"Polygon","coordinates":[[[89.6362943274675,26.6131196400938],[89.6361897573526,26.6131298968644],[89.635396757356,26.6132088815864],[89.6302857573951,26.6137177831176],[89.6261467550652,26.6142287035545],[89.6237537553721,26.6144556574305],[89.621746753356,26.6147406189175],[89.6187697523633,26.6150805616412],[89.6158597525882,26.615363505565],[89.6154047521004,26.6154294968363],[89.6151093517702,26.6154729111703],[89.615321473542,26.6145469636261],[89.6153928805486,26.6138331337279],[89.6154880757794,26.6131906744208],[89.6156070672504,26.6122864851045],[89.6156308737979,26.6115964343233],[89.6156071004597,26.6109063926172],[89.6154167529435,26.6104066980156],[89.6150836486349,26.6097880304243],[89.6148695088856,26.609383515532],[89.6147981253557,26.6091217736725],[89.6145126103584,26.6085269070498],[89.6142746763908,26.6078844412665],[89.6141319199023,26.6073371675052],[89.6140367667332,26.6066471144121],[89.6139892031787,26.6055525615154],[89.6198872909112,26.6050544752697],[89.6350029882936,26.6036508565755],[89.6367179344725,26.6057168936686],[89.6391658516013,26.6089169470806],[89.6413567833191,26.6115359944487],[89.6421447560622,26.6125900116908],[89.64055275675,26.6127199809671],[89.6394097572772,26.6128119589061],[89.6365567573376,26.613093903936],[89.6362943274675,26.6131196400938]]]},"properties":{"compartment":"Panbari BL6"},"id":"comptt.66"}
]}