{"type":"FeatureCollection", "features": [
{"type":"Feature","geometry":{"type":"Polygon","coordinates":[[[89.6296926647889,26.657047290084],[89.6254692250156,26.6574609785821],[89.6193659086015,26.6579248505622],[89.6142619697916,26.6583887520054],[89.6101145566117,26.65893832223],[89.6008632171059,26.6598518537191],[89.5970267187185,26.6601732195888],[89.5961477555011,26.6587371999041],[89.5953918084036,26.6566201813981],[89.5944608694199,26.654184158917],[89.5934089422484,26.6512701332294],[89.5914001133558,26.6443750818097],[89.5913860347066,26.6443056214842],[89.5911825998625,26.6433019556368],[89.5921686814307,26.6435471152875],[89.5941198280624,26.6439040738964],[89.596523079328,26.6440230908798],[89.5977603968825,26.6439993249174],[89.5988073577698,26.6438565750374],[89.5997591429043,26.6435472630066],[89.6015913358944,26.6432379681099],[89.6031855777462,26.6430000587099],[89.6073020469067,26.6426194181413],[89.6093721701551,26.6426908485591],[89.6110853748474,26.6427384619882],[89.6125844312086,26.6427384911643],[89.6139645230216,26.6425243676395],[89.6149163058746,26.6423102357784],[89.6159632684978,26.6420961057697],[89.6169864423264,26.6418343852119],[89.6184141234559,26.6416440526557],[89.619746620803,26.6416202885476],[89.621007730045,26.6415251329212],[89.6222926398042,26.6414061877152],[89.6239820608809,26.6411920702105],[89.6261711624738,26.6409065723022],[89.6292168811795,26.6402403803775],[89.6318104981154,26.6396931498676],[89.6327860786317,26.6395741986404],[89.6341899592643,26.6394076656633],[89.6354272831671,26.6391221492284],[89.6373689275557,26.6387462363379],[89.6394628571085,26.6385559167484],[89.6409857143666,26.6385178763205],[89.6427179515828,26.6384607999338],[89.6436887692524,26.6384608188306],[89.641023717793,26.6412761520779],[89.6373116760894,26.645035636649],[89.6349321529759,26.6478909455069],[89.6320291262028,26.6513649152849],[89.6302682742146,26.6536967552235],[89.6298875364389,26.6548864799647],[89.6297447415309,26.6559334390805],[89.6296971263917,26.6569804000497],[89.6296926647889,26.657047290084]]]},"properties":{"compartment":"Jainti BL5"},"id":"comptt.104"}
]}