{"type":"FeatureCollection", "features": [
{"type":"Feature","geometry":{"type":"Polygon","coordinates":[[[89.5309184931714,26.7753722844685],[89.5313937263652,26.7753285729144],[89.5320897177864,26.7751977162847],[89.5329165795998,26.77503712216],[89.5340884715558,26.774834884704],[89.5347368735309,26.7746861871131],[89.535754096166,26.774472056614],[89.5365155291566,26.7742698111377],[89.5372353138392,26.7740021347333],[89.5378182918953,26.7736095354371],[89.5383596271712,26.7733359055352],[89.5393352179921,26.7727886536387],[89.5404059884307,26.7722473436118],[89.5416433222025,26.7715513765675],[89.5424820907724,26.7711111921837],[89.5435647494527,26.7706412625123],[89.5447306993674,26.7701118543633],[89.5454683368944,26.7697252080963],[89.5465985856018,26.7692493393428],[89.5479489475094,26.7686188046175],[89.5486925340137,26.7682737985386],[89.5499417627147,26.7677860320871],[89.5505901668619,26.7675481043362],[89.5513278989909,26.7672943784451],[89.5513442350635,26.7675445190617],[89.5514461956985,26.7691575238897],[89.5516621440899,26.771263531812],[89.5516851129182,26.7725465345167],[89.5516990926566,26.7733805362564],[89.5498040374171,26.7758535035721],[89.5489420116562,26.7770044887485],[89.5487730062819,26.7772434858656],[89.5470499432801,26.7800184570639],[89.5468877099446,26.7809403552692],[89.5467689052389,26.781615454374],[89.5465558762932,26.7828304523426],[89.5450287832039,26.7868244294994],[89.544088739038,26.7887414144842],[89.5436177320169,26.7890794058688],[89.5433411584556,26.789278311606],[89.5427897996751,26.7888495192804],[89.5422425337548,26.7883260176647],[89.5416238888797,26.7877668345916],[89.5411956026601,26.7872433453027],[89.5408267948471,26.7867793372808],[89.5406364413884,26.7865294931224],[89.5404579884774,26.7862558491551],[89.5404104155258,26.7859703177252],[89.5405293910011,26.7857323696342],[89.5406721664163,26.7854944320084],[89.5407435543206,26.7851613028205],[89.5406959751219,26.7847211011197],[89.5405889078043,26.7842095181313],[89.5404342559873,26.783888284546],[89.5401249380229,26.7834242776879],[89.5397799307252,26.782936480091],[89.5392564696485,26.78221073859],[89.5386735155462,26.7816158561557],[89.5379240021506,26.7810090804461],[89.5374957133291,26.7805926713477],[89.5372339709143,26.7803071257332],[89.5368889587087,26.7800215784914],[89.5366272239846,26.7798312230437],[89.5363416996091,26.7796289571103],[89.5360204759006,26.7794029004378],[89.535699251326,26.7792125438277],[89.5353780221341,26.7792125375503],[89.5350092165253,26.7790697600938],[89.5344381543112,26.7788080084771],[89.5338670970034,26.7783439965076],[89.5333793177542,26.7779513762904],[89.5329510174896,26.777594447298],[89.5326892836312,26.7773684017889],[89.53233236655,26.7772851046694],[89.5320230410801,26.7771304383553],[89.5316661377501,26.7768924809662],[89.5312735294154,26.7764522725267],[89.5311188764413,26.7761786390274],[89.5309642215465,26.775571864947],[89.5309184931714,26.7753722844685]]]},"properties":{"compartment":"Adma BL5","division":"BTR_W","range":"Pana","beat":"Adma"},"id":"comptt.202"},
{"type":"Feature","geometry":{"type":"Polygon","coordinates":[[[89.5433411584556,26.789278311606],[89.5419937077462,26.7902473761663],[89.5396087080365,26.7904823299514],[89.5376676985493,26.7910742930408],[89.5364227134303,26.7905902678555],[89.5343917537604,26.7891392256173],[89.5324407586756,26.7891391874793],[89.5296177581727,26.7894531328439],[89.5268507573168,26.7897760793188],[89.5267827572944,26.7897840780035],[89.5266071171102,26.7889858231799],[89.5263787054721,26.7882529374389],[89.5258266967288,26.787434395224],[89.5250843280039,26.7866348793222],[89.5240849713133,26.7857782482992],[89.5231236915238,26.785045358237],[89.5225621567983,26.7844742762694],[89.5215247336667,26.7834748742575],[89.5207918819133,26.7827990987614],[89.5200780608044,26.7820947635884],[89.5199257864998,26.7818758502324],[89.5196497690451,26.7817996947064],[89.5192690553185,26.7815807768866],[89.518707521515,26.780971624856],[89.5180603288512,26.7803244010859],[89.5173465079721,26.779610545899],[89.5169182212911,26.7791060866551],[89.5161853597667,26.778420791147],[89.5152811898301,26.77768789221],[89.5149004809502,26.7772691040456],[89.5144626754465,26.7767170545349],[89.5142723418543,26.7760603196777],[89.5140629523089,26.7756510548776],[89.5136061145445,26.7751941851608],[89.5130350575306,26.7747182831801],[89.5122260518121,26.774213816502],[89.5113123526666,26.773861638043],[89.5100274553858,26.7734713822677],[89.5088758061528,26.7731477492113],[89.5076956053778,26.7728907457132],[89.5068675541713,26.7726147090613],[89.5060204843978,26.7722815719397],[89.505211472913,26.7720150556769],[89.5041740398538,26.7714249243942],[89.5033840745508,26.7709014280608],[89.5029272337869,26.7705682985629],[89.5021848472094,26.7700923932419],[89.5017089678784,26.7697021432743],[89.5010141802571,26.7692643089495],[89.5005955398495,26.7689114401945],[89.5011736089305,26.768889751417],[89.5022300855529,26.7689183220993],[89.5028011537555,26.7689326132769],[89.5034150608116,26.7689897253652],[89.5038433586854,26.769032563804],[89.504642857693,26.7689897493446],[89.5050140474423,26.7689612065448],[89.5058278295288,26.7687899021423],[89.5063560702643,26.768704252311],[89.5069842493624,26.7686757045304],[89.5074696577846,26.7686899940354],[89.5077980169515,26.7686900004485],[89.5081834938973,26.7687756681253],[89.5090615121894,26.7687542752368],[89.50941843388,26.7686472020225],[89.5098943258456,26.7685163410906],[89.5106438579831,26.7683497954413],[89.5112625181456,26.7682784174007],[89.5117384069399,26.7682784266953],[89.5124403489106,26.7681237801371],[89.512963829315,26.7680524102374],[89.5138442299697,26.7679334472264],[89.5152481098767,26.7677907143983],[89.5162474902322,26.7676717537111],[89.5175204970126,26.7676717785747],[89.5199832304994,26.7676837266966],[89.5206375762507,26.7677908196634],[89.5212919305604,26.7679573927338],[89.5217321251227,26.7681358616421],[89.5220771405024,26.7682905286501],[89.5229456319648,26.7685522860693],[89.5238379262517,26.7686950737468],[89.5251228289721,26.768861659135],[89.5259080429538,26.7690282347631],[89.5264791086293,26.7691472261252],[89.5270025818293,26.7693732867445],[89.5275141639059,26.7696469272145],[89.5278948677542,26.7698610950246],[89.5282636804789,26.7701228426853],[89.5289180170035,26.770610646318],[89.529215441639,26.7708010024602],[89.5295485664728,26.7709794692791],[89.5298816787104,26.7712650162846],[89.53010771891,26.7716457313644],[89.5303932331901,26.7722643980214],[89.5305835803056,26.7727759926326],[89.5306787505455,26.7731686051768],[89.5307501026693,26.7743107485634],[89.5308333657255,26.775000791394],[89.5309184931714,26.7753722844685],[89.5309642215465,26.775571864947],[89.5311188764413,26.7761786390274],[89.5312735294154,26.7764522725267],[89.5316661377501,26.7768924809662],[89.5320230410801,26.7771304383553],[89.53233236655,26.7772851046694],[89.5326892836312,26.7773684017889],[89.5329510174896,26.7775944472979],[89.5333793177542,26.7779513762904],[89.5338670970034,26.7783439965076],[89.5344381543112,26.7788080084771],[89.5350092165253,26.7790697600938],[89.5353780221341,26.7792125375503],[89.5356992513261,26.7792125438277],[89.5360204759006,26.7794029004378],[89.5363416996091,26.7796289571103],[89.5366272239846,26.7798312230437],[89.5368889587087,26.7800215784914],[89.5372339709143,26.7803071257332],[89.5374957133291,26.7805926713477],[89.5379240021506,26.7810090804461],[89.5386735155462,26.7816158561557],[89.5392564696485,26.78221073859],[89.5397799307252,26.782936480091],[89.5401249380229,26.7834242776879],[89.5404342559873,26.783888284546],[89.5405889078043,26.7842095181313],[89.5406959751219,26.7847211011197],[89.5407435543207,26.7851613028205],[89.5406721664163,26.7854944320084],[89.5405293910011,26.7857323696342],[89.5404104155258,26.7859703177252],[89.5404579884774,26.7862558491551],[89.5406364413884,26.7865294931224],[89.5408267948471,26.7867793372808],[89.5411956026601,26.7872433453027],[89.5416238888797,26.7877668345916],[89.5422425337548,26.7883260176647],[89.5427897996751,26.7888495192804],[89.5433411584556,26.789278311606]]]},"properties":{"compartment":"Adma BL3","division":"BTR_W","range":"Pana","beat":"Adma"},"id":"comptt.204"},
{"type":"Feature","geometry":{"type":"Polygon","coordinates":[[[89.4888017828684,26.8013586955502],[89.4879935750662,26.8013533397411],[89.487822575164,26.8013673364222],[89.486072577241,26.8014663023809],[89.4860096200779,26.7997082981356],[89.4857396557953,26.7982652903843],[89.4855286905579,26.7968552838431],[89.4849687777793,26.7933202668397],[89.4839148467673,26.790588241561],[89.4828819438797,26.7866942147066],[89.4834310205756,26.7834742199184],[89.4841770794168,26.7809692302011],[89.4854201244926,26.7789792510725],[89.4860931746112,26.7768412605531],[89.4865972078471,26.7754172679556],[89.4866592928434,26.7752418291862],[89.4868902271717,26.7745892722582],[89.4868762623581,26.7731392694978],[89.4870603208382,26.7707072689197],[89.4879533858616,26.767930281594],[89.4882964363848,26.7658092846517],[89.4881484759441,26.7641922789868],[89.4874975514284,26.7611452610484],[89.4880635497173,26.7611562721172],[89.490221548476,26.7609803139454],[89.4909365606329,26.7611970108197],[89.4910777621483,26.7615641716648],[89.4912871410071,26.7620019965051],[89.4919152986518,26.7628586102418],[89.4923911749856,26.7633725904169],[89.4929051275323,26.7640388515976],[89.4933238967789,26.7644386104618],[89.4936094314388,26.7646289663646],[89.4941043455652,26.7648193363558],[89.4946373377496,26.7650858472218],[89.4949418995933,26.7653904236929],[89.4958365662438,26.7658473019494],[89.4966754284081,26.7663013067079],[89.4965789382077,26.7665135675932],[89.496578931288,26.7667990980848],[89.4966741064324,26.7669894602712],[89.4968834954382,26.767008494393],[89.4972071027689,26.7670846508435],[89.4977972075763,26.7672369426296],[89.4984824756828,26.7676557467335],[89.4999101342885,26.7683886458776],[89.5003479455622,26.7687027449695],[89.5005955398495,26.7689114401945],[89.5010141802571,26.7692643089495],[89.5017089678784,26.7697021432743],[89.5021848472094,26.7700923932419],[89.5029272337869,26.7705682985629],[89.5033840745508,26.7709014280608],[89.5041740398538,26.7714249243942],[89.505211472913,26.7720150556769],[89.5060204843978,26.7722815719397],[89.5068675541713,26.7726147090613],[89.5076956053778,26.7728907457132],[89.5088758061528,26.7731477492113],[89.5100274553858,26.7734713822677],[89.5113123526666,26.773861638043],[89.5122260518121,26.774213816502],[89.5130350575306,26.7747182831801],[89.5136061145445,26.7751941851608],[89.5140629523089,26.7756510548776],[89.5142723418543,26.7760603196777],[89.5144626754465,26.7767170545349],[89.5149004809502,26.7772691040456],[89.5152811898301,26.77768789221],[89.5161853597667,26.778420791147],[89.5169182212911,26.7791060866551],[89.5173465079721,26.779610545899],[89.5180603288512,26.7803244010859],[89.518707521515,26.780971624856],[89.5192690553185,26.7815807768866],[89.5196497690451,26.7817996947064],[89.5199257864998,26.7818758502324],[89.5200780608044,26.7820947635884],[89.5207918819133,26.7827990987614],[89.5215247336667,26.7834748742575],[89.5225621567983,26.7844742762694],[89.5231236915238,26.785045358237],[89.5240849713133,26.7857782482992],[89.5250843280039,26.7866348793222],[89.5258266967288,26.787434395224],[89.5263787054721,26.7882529374389],[89.5266071171102,26.7889858231799],[89.5267827572944,26.7897840780035],[89.5261597477765,26.790241066621],[89.5260565155192,26.7903165541897],[89.5256077239948,26.7900422854843],[89.5252365293213,26.7898614379136],[89.524484623762,26.7897567230338],[89.5234947755706,26.7897852537349],[89.5221146874429,26.7898518568744],[89.5212295278339,26.7899279797047],[89.5202682244913,26.7901659113279],[89.5196019720198,26.7903372186025],[89.5183551243199,26.7907845350076],[89.5172415267459,26.7912128139836],[89.5156234867553,26.7917933733629],[89.5145003671288,26.7923073123003],[89.5133106265171,26.7928688500173],[89.5121684764787,26.7934018286145],[89.5109501896378,26.7938110655085],[89.5099317732144,26.7941822462432],[89.5085707162765,26.7946105203784],[89.5072477280882,26.7950863853396],[89.506372083615,26.7953623886996],[89.5047445143556,26.7959143978373],[89.5028790182458,26.7963616921425],[89.5016987924722,26.7967233496952],[89.5004233969423,26.7970850053872],[89.4998808848593,26.7972277650281],[89.4985483808632,26.7975323095047],[89.4973681567114,26.7978273369415],[89.4961118018305,26.7981604429554],[89.4952075965142,26.7984745158201],[89.4942558103959,26.79882665782],[89.4934848547405,26.7991407332891],[89.4925901775535,26.7995309464702],[89.4916859687742,26.7999877795792],[89.4908483928284,26.8003208937778],[89.4900584044512,26.8007491790698],[89.4892874574118,26.8011203646357],[89.4888017828684,26.8013586955502]]]},"properties":{"compartment":"Adma BL2","division":"BTR_W","range":"Pana","beat":"Adma"},"id":"comptt.208"},
{"type":"Feature","geometry":{"type":"Polygon","coordinates":[[[89.5260565155192,26.7903165541897],[89.525385735995,26.7908070524764],[89.5243546972181,26.7925120352887],[89.5231626222885,26.79572301757],[89.5219635673964,26.7981089982756],[89.5213845078946,26.800619991318],[89.5187824425825,26.8035809455795],[89.5168564072965,26.8052349107852],[89.5155483768309,26.8066258876175],[89.5140453406176,26.8082738610791],[89.5133653208232,26.8091598493147],[89.5118763708039,26.8072578169],[89.5104604159082,26.8055487862508],[89.5083274490882,26.8044057425635],[89.5063544749419,26.8035477025008],[89.5042984855171,26.8033276619195],[89.5016095046527,26.8028216084694],[89.499254517479,26.8025405619402],[89.4984395332026,26.8019785450375],[89.495758565366,26.8009354908265],[89.4926865623118,26.8013844315408],[89.4888017828684,26.8013586955502],[89.4892874574118,26.8011203646357],[89.4900584044512,26.8007491790698],[89.4908483928284,26.8003208937778],[89.4916859687742,26.7999877795792],[89.4925901775535,26.7995309464702],[89.4934848547405,26.7991407332891],[89.4942558103959,26.79882665782],[89.4952075965142,26.7984745158201],[89.4961118018305,26.7981604429554],[89.4973681567114,26.7978273369415],[89.4985483808632,26.7975323095047],[89.4998808848593,26.7972277650281],[89.5004233969423,26.7970850053872],[89.5016987924722,26.7967233496952],[89.5028790182458,26.7963616921425],[89.5047445143556,26.7959143978373],[89.506372083615,26.7953623886996],[89.5072477280882,26.7950863853396],[89.5085707162765,26.7946105203784],[89.5099317732144,26.7941822462432],[89.5109501896378,26.7938110655085],[89.5121684764787,26.7934018286145],[89.5133106265171,26.7928688500173],[89.5145003671288,26.7923073123003],[89.5156234867553,26.7917933733629],[89.5172415267459,26.7912128139836],[89.5183551243199,26.7907845350076],[89.5196019720198,26.7903372186025],[89.5202682244913,26.7901659113279],[89.5212295278339,26.7899279797047],[89.5221146874429,26.7898518568744],[89.5234947755706,26.7897852537349],[89.524484623762,26.7897567230338],[89.5252365293213,26.7898614379136],[89.5256077239948,26.7900422854843],[89.5260565155192,26.7903165541897]]]},"properties":{"compartment":"Adma BL1","division":"BTR_W","range":"Pana","beat":"Adma"},"id":"comptt.213"}
]}