{"type":"FeatureCollection", "features": [
{"type":"Feature","geometry":{"type":"Polygon","coordinates":[[[89.4048688848313,26.740674567446803],[89.40410221957221,26.7410288404104],[89.40361680301291,26.7413524414827],[89.4028077826952,26.7418663865607],[89.4023033231925,26.742313717466903],[89.4016275397631,26.7429418853324],[89.401342001069,26.7433321104124],[89.4011135626861,26.743703296574402],[89.4010564466175,26.743960285887702],[89.4010278884017,26.7443029259003],[89.4010469016366,26.7454069981062],[89.4010183304263,26.7458733683241],[89.4009707306471,26.746282638076],[89.40087555099251,26.7466919068998],[89.40073276961971,26.7471773149217],[89.4005328788572,26.7476436817979],[89.4002758852493,26.748233787765702],[89.4000474450216,26.748681124053203],[89.3997619031006,26.749204599353202],[89.3994573205384,26.749756624328903],[89.3990765877146,26.7503276878507],[89.3985055021645,26.7510319978803],[89.3979629674609,26.7516982384031],[89.3975156236593,26.7523168907035],[89.3971729641906,26.7527451947297],[89.3968493505249,26.7533448094116],[89.3966780219887,26.753716006685302],[89.3965447617399,26.7541538248119],[89.396373429978,26.7546582623063],[89.396249679934,26.7550865706026],[89.3962401549816,26.755705231443102],[89.39626869315491,26.756190642805002],[89.3963733808977,26.7566855656685],[89.3966208294175,26.7571329112386],[89.396849241765,26.7578372368637],[89.3970586210753,26.758256031643903],[89.3972679957764,26.758865176740002],[89.3973631612376,26.759455289576202],[89.3975535036828,26.7601596144592],[89.39772480756041,26.760806828876],[89.3978961086713,26.7615682634826],[89.3981435528088,26.762196449354],[89.3983910041797,26.762938845415302],[89.3984671250774,26.763719308196602],[89.3984879338284,26.76418149937],[89.3980003750024,26.763772979176903],[89.3976434642379,26.763430331643],[89.3973151002865,26.763216174879602],[89.39711523357761,26.7631019507897],[89.3965156131045,26.7627735785436],[89.39594455774301,26.762231046500002],[89.3952592951013,26.7615885820625],[89.39434321421851,26.7608985130429],[89.3935580112628,26.760279836696203],[89.39301075019141,26.759970495505403],[89.3923563947922,26.7598515125406],[89.3914522103384,26.759720624681602],[89.3906669973006,26.759518359026103],[89.3900840325792,26.7593636773957],[89.3896795259479,26.7592684893458],[89.3891084655162,26.758935357652803],[89.3884898180906,26.758483244834903],[89.3879425524932,26.757947853272302],[89.3869908000579,26.756912772993],[89.3866814821053,26.756448766191802],[89.3863483776712,26.755841998690702],[89.3858487056914,26.7551519378029],[89.38550370071161,26.754568970109702],[89.3851943856375,26.753985993113],[89.3847660914523,26.7533792237563],[89.3843735006283,26.7526296848606],[89.38421884996241,26.7522608612351],[89.3840523001914,26.7518563473187],[89.3838024658225,26.7512376814243],[89.38354073486211,26.7508926557499],[89.38326710537271,26.7504881397451],[89.38312435467451,26.7501193163522],[89.3830172884885,26.749560143341203],[89.38287452807761,26.749179429928603],[89.3827674793764,26.7483109164077],[89.38273178810711,26.747953995122803],[89.38262473738911,26.7471687717393],[89.3822797326915,26.746573904029702],[89.3818395525623,26.7458005641698],[89.38136367195061,26.745051023653602],[89.38092348606331,26.7445156341869],[89.3802701113911,26.743953230519],[89.3802791174396,26.7437022302808],[89.3804022005213,26.740254226996502],[89.38048325668561,26.737923224733702],[89.38267325628661,26.7377012670633],[89.3858022574364,26.7373133274255],[89.3891262538982,26.737098391875403],[89.39302125298231,26.7367134671772],[89.3954502532863,26.7364375140774],[89.39653425172641,26.736384535124202],[89.3982552304073,26.7370795698324],[89.4015661798192,26.738812637270602],[89.4043681333718,26.7404296945989],[89.404603129975,26.7405446993729],[89.4048688848313,26.740674567446803]]]},"properties":{"compartment":"Barnabari BL4","division":"BTR_W","range":"Hamiltonganj","beat":"Barnabari","DIVISION":"BTR_W","BEAT_NAME":"Barnabari"},"id":"comptt.192"},
{"type":"Feature","geometry":{"type":"Polygon","coordinates":[[[89.4035675248732,26.7656527209507],[89.4023975554002,26.7657575382905],[89.4015266811419,26.765614751056102],[89.401098376069,26.765457702435903],[89.4003131653908,26.765157876613003],[89.3997992122721,26.7649294362029],[89.3989711730899,26.76457249945],[89.3985286028964,26.7642155702203],[89.3984879338284,26.76418149937],[89.3984671250774,26.763719308196602],[89.3983910041797,26.762938845415302],[89.3981435528088,26.762196449354],[89.3978961086713,26.7615682634826],[89.39772480756041,26.760806828876],[89.3975535036828,26.7601596144592],[89.3973631612376,26.759455289576202],[89.3972679957764,26.758865176740002],[89.3970586210753,26.758256031643903],[89.396849241765,26.7578372368637],[89.3966208294175,26.7571329112386],[89.3963733808977,26.7566855656685],[89.39626869315491,26.756190642805002],[89.3962401549816,26.755705231443102],[89.396249679934,26.7550865706026],[89.396373429978,26.7546582623063],[89.3965447617399,26.7541538248119],[89.3966780219887,26.753716006685302],[89.3968493505249,26.7533448094116],[89.3971729641906,26.7527451947297],[89.3975156236593,26.7523168907035],[89.3979629674609,26.7516982384031],[89.3985055021645,26.7510319978803],[89.3990765877146,26.7503276878507],[89.3994573205384,26.749756624328903],[89.3997619031006,26.749204599353202],[89.4000474450216,26.748681124053203],[89.4002758852493,26.748233787765702],[89.4005328788572,26.7476436817979],[89.40073276961971,26.7471773149217],[89.40087555099251,26.7466919068998],[89.4009707306471,26.746282638076],[89.4010183304263,26.7458733683241],[89.4010469016366,26.7454069981062],[89.4010278884017,26.7443029259003],[89.4010564466175,26.743960285887702],[89.4011135626861,26.743703296574402],[89.401342001069,26.7433321104124],[89.4016275397631,26.7429418853324],[89.4023033231925,26.742313717466903],[89.4028077826952,26.7418663865607],[89.40361680301291,26.7413524414827],[89.40410221957221,26.7410288404104],[89.4048688848313,26.740674567446803],[89.4059701102401,26.7412127271431],[89.4068920927816,26.7418347461596],[89.4085060678294,26.7426917790645],[89.40986204594701,26.743449806774603],[89.4104660350783,26.743833819195302],[89.4083350051696,26.7452997800757],[89.407342932038,26.7484287659397],[89.4075338824773,26.7504557730423],[89.40638184240281,26.752235753533203],[89.4060568048104,26.7538237498367],[89.40525676761101,26.75544673693],[89.4040437426525,26.756608715196602],[89.4034197201224,26.7576067046813],[89.4024256937421,26.758803687276302],[89.40138168023,26.7594746680203],[89.4003686604135,26.7604026497952],[89.40051562999881,26.761642654723502],[89.4013055920834,26.763122672599],[89.4019095461025,26.764955687432803],[89.4020895437897,26.7650316910721],[89.4035675248732,26.7656527209507]]]},"properties":{"compartment":"Barnabari BL3","division":"BTR_W","range":"Hamiltonganj","beat":"Barnabari","DIVISION":"BTR_W","BEAT_NAME":"Barnabari"},"id":"comptt.193"},
{"type":"Feature","geometry":{"type":"Polygon","coordinates":[[[89.3984879338284,26.76418149937],[89.3985622536487,26.765832273561102],[89.3985622402765,26.766384314477403],[89.39865740665441,26.766936347251303],[89.3989809896654,26.7676026046732],[89.3992094038479,26.768230790174602],[89.3993307427768,26.7690874039655],[89.3993664090474,26.770062976281903],[89.3994615395042,26.7720974215176],[89.3994971965451,26.7734537244663],[89.399473377291,26.774250845325103],[89.39952094640721,26.7751074476764],[89.3996280073845,26.7758807810509],[89.3997707677828,26.7762614944704],[89.400020595593,26.7767373901385],[89.4002942201684,26.7773441564888],[89.40042507944361,26.777772469755302],[89.4006273162243,26.7782959545737],[89.40088904082991,26.7789027206922],[89.401162668576,26.779378616825802],[89.4013530188475,26.779759341175403],[89.4016623382298,26.7801638578876],[89.4019597547592,26.7806873445654],[89.4023166585364,26.781317902583],[89.4026616629209,26.781924680329002],[89.4028520120376,26.7823529847583],[89.403113737217,26.782935960838902],[89.403458741889,26.7835308285658],[89.40376805550011,26.7841732956751],[89.4040654688537,26.7848276525721],[89.404434273462,26.7854225207647],[89.404957737087,26.7860411920179],[89.4051956743456,26.786540887496603],[89.4053622215026,26.7870524816011],[89.4054454868583,26.7876473442175],[89.4055406536248,26.7881827269676],[89.4056239175368,26.7888370796832],[89.4057904519958,26.7898721546592],[89.4059688924824,26.7906573794521],[89.4060878483188,26.7912284527265],[89.4062306017835,26.7918947066245],[89.40633767024761,26.7923586994887],[89.4064090388048,26.792822701655503],[89.4065636939688,26.7934175656674],[89.406765930739,26.793941060490003],[89.4069324822206,26.7942741842987],[89.4071347263926,26.794904749300102],[89.407313170338,26.7955472038564],[89.40737219961011,26.7963954746852],[89.4072297699912,26.7963948436389],[89.4059977733206,26.796390819561303],[89.401654787952,26.796257734488503],[89.39705780884701,26.7958946440757],[89.3924598269718,26.7956465538389],[89.3877348538177,26.7950534605557],[89.3836478706021,26.7948063803127],[89.3804558904897,26.7943343171846],[89.37814590868061,26.7938362712445],[89.3788769975932,26.7900902793547],[89.379010076967,26.7868022765381],[89.3792531385824,26.784234277054303],[89.3790522674103,26.7789412644133],[89.3796684724185,26.7704132623915],[89.3799245837215,26.765790259771503],[89.38005968539001,26.761577255464402],[89.3800757583717,26.7585612508071],[89.3800797749207,26.757877249758202],[89.3802078292932,26.755617248531202],[89.3804559156781,26.752021247442702],[89.38013904215481,26.746829232703902],[89.3802190848409,26.7450562313422],[89.3802701113911,26.743953230519],[89.38092348606331,26.7445156341869],[89.38136367195061,26.745051023653602],[89.3818395525623,26.7458005641698],[89.3822797326915,26.746573904029702],[89.38262473738911,26.7471687717393],[89.38273178810711,26.747953995122803],[89.3827674793764,26.7483109164077],[89.38287452807761,26.749179429928603],[89.3830172884885,26.749560143341203],[89.38312435467451,26.7501193163522],[89.38326710537271,26.7504881397451],[89.38354073486211,26.7508926557499],[89.3838024658225,26.7512376814243],[89.3840523001914,26.7518563473187],[89.38421884996241,26.7522608612351],[89.3843735006283,26.7526296848606],[89.3847660914523,26.7533792237563],[89.3851943856375,26.753985993113],[89.38550370071161,26.754568970109702],[89.3858487056914,26.7551519378029],[89.3863483776712,26.755841998690702],[89.3866814821053,26.756448766191802],[89.3869908000579,26.756912772993],[89.3879425524932,26.757947853272302],[89.3884898180906,26.758483244834903],[89.3891084655162,26.758935357652803],[89.3896795259479,26.7592684893458],[89.3900840325792,26.7593636773957],[89.3906669973006,26.759518359026103],[89.3914522103384,26.759720624681602],[89.3923563947922,26.7598515125406],[89.39301075019141,26.759970495505403],[89.3935580112628,26.760279836696203],[89.39434321421851,26.7608985130429],[89.3952592951013,26.7615885820625],[89.39594455774301,26.762231046500002],[89.3965156131045,26.7627735785436],[89.39711523357761,26.7631019507897],[89.3973151002865,26.763216174879602],[89.3976434642379,26.763430331643],[89.3980003750024,26.763772979176903],[89.3984879338284,26.76418149937]]]},"properties":{"compartment":"Barnabari BL1","division":"BTR_W","range":"Hamiltonganj","beat":"Barnabari","DIVISION":"BTR_W","BEAT_NAME":"Barnabari"},"id":"comptt.209"},
{"type":"Feature","geometry":{"type":"Polygon","coordinates":[[[89.4035675248732,26.7656527209507],[89.4045744581588,26.768297745005402],[89.4054464178121,26.7698687646408],[89.4055884108981,26.7701387678621],[89.40621232852381,26.7734707855899],[89.4073392086045,26.7782968156297],[89.40808611195651,26.782202836722803],[89.4088299985639,26.7867988589108],[89.4096668840515,26.7914298829782],[89.4099498451767,26.7930018911271],[89.4102018221977,26.793921897584003],[89.4121127808001,26.795421937421903],[89.4120077569821,26.796414937027002],[89.40995776254731,26.7964068969594],[89.40737219961011,26.7963954746852],[89.407313170338,26.7955472038564],[89.4071347263926,26.794904749300102],[89.4069324822206,26.7942741842987],[89.406765930739,26.793941060490003],[89.4065636939688,26.7934175656674],[89.4064090388048,26.792822701655503],[89.40633767024761,26.7923586994887],[89.4062306017835,26.7918947066245],[89.4060878483188,26.7912284527265],[89.4059688924824,26.7906573794521],[89.4057904519958,26.7898721546592],[89.4056239175368,26.7888370796832],[89.4055406536248,26.7881827269676],[89.4054454868583,26.7876473442175],[89.4053622215026,26.7870524816011],[89.4051956743456,26.786540887496603],[89.404957737087,26.7860411920179],[89.404434273462,26.7854225207647],[89.4040654688537,26.7848276525721],[89.40376805550011,26.7841732956751],[89.403458741889,26.7835308285658],[89.403113737217,26.782935960838902],[89.4028520120376,26.7823529847583],[89.4026616629209,26.781924680329002],[89.4023166585364,26.781317902583],[89.4019597547592,26.7806873445654],[89.4016623382298,26.7801638578876],[89.4013530188475,26.779759341175403],[89.401162668576,26.779378616825802],[89.40088904082991,26.7789027206922],[89.4006273162243,26.7782959545737],[89.40042507944361,26.777772469755302],[89.4002942201684,26.7773441564888],[89.400020595593,26.7767373901385],[89.3997707677828,26.7762614944704],[89.3996280073845,26.7758807810509],[89.39952094640721,26.7751074476764],[89.399473377291,26.774250845325103],[89.3994971965451,26.7734537244663],[89.3994615395042,26.7720974215176],[89.3993664090474,26.770062976281903],[89.3993307427768,26.7690874039655],[89.3992094038479,26.768230790174602],[89.3989809896654,26.7676026046732],[89.39865740665441,26.766936347251303],[89.3985622402765,26.766384314477403],[89.3985622536487,26.765832273561102],[89.3984879338284,26.76418149937],[89.3985286028964,26.7642155702203],[89.3989711730899,26.76457249945],[89.3997992122721,26.7649294362029],[89.4003131653908,26.765157876613003],[89.401098376069,26.765457702435903],[89.4015266811419,26.765614751056102],[89.4023975554002,26.7657575382905],[89.4035675248732,26.7656527209507]]]},"properties":{"compartment":"Barnabari BL2","division":"BTR_W","range":"Hamiltonganj","beat":"Barnabari","DIVISION":"BTR_W","BEAT_NAME":"Barnabari"},"id":"comptt.210"}
]}
