{"type":"FeatureCollection", "features": [
{"type":"Feature","geometry":{"type":"Polygon","coordinates":[[[89.4414644375782,26.7991878766384],[89.441162747936,26.7992054207726],[89.4387077508467,26.7993483730406],[89.4362737462828,26.799797326234],[89.4347427671071,26.7991032951511],[89.432707831096,26.7966842513257],[89.4304148874073,26.7946092030439],[89.4274779204126,26.793564143915],[89.4241569600277,26.7922880769038],[89.4210919906127,26.7913570154767],[89.4190570518039,26.7890529718793],[89.4165060893429,26.787779919932],[89.4154891255112,26.7863978977651],[89.4147331915874,26.7837538785925],[89.4153872482449,26.7813458873467],[89.4145083285359,26.7781278648181],[89.4138753692069,26.776517849776],[89.412863430371,26.7741028259954],[89.4098075026447,26.7714497619265],[89.4077675248732,26.7707527209507],[89.4092260359507,26.7709633397677],[89.4098684919626,26.7710585224655],[89.4104276581926,26.7711537135377],[89.4108559613069,26.7713916722937],[89.4115935838999,26.7716177370675],[89.4121765471862,26.771831898803],[89.4127238097015,26.7720817499013],[89.4133067724115,26.7723197116769],[89.4140325056132,26.7725219761799],[89.4146987486825,26.7727361395419],[89.4151151452877,26.7728313278286],[89.4157813915281,26.7729146209726],[89.4166617863442,26.7730336183566],[89.4175183906468,26.7731763953162],[89.4187319040176,26.773319189243],[89.4196598887116,26.7734381775568],[89.4202666471274,26.7734381894013],[89.4210518756541,26.77341441469],[89.4220750350019,26.7733311545239],[89.4229316442086,26.7732716811465],[89.4241070908549,26.7732836041127],[89.4241451626842,26.7736167254137],[89.4242308127748,26.774016477755],[89.424478263135,26.7743876832073],[89.424601984971,26.7747112961645],[89.4246971580346,26.7749873084848],[89.4248303980004,26.7753870617555],[89.4249826769938,26.7758248854617],[89.4252586758949,26.7762532015676],[89.4254775774822,26.7765768063834],[89.4257059930472,26.7771478817997],[89.425915370276,26.7776523367328],[89.4261057166314,26.7781948613582],[89.426305582039,26.7787754562335],[89.4265720675031,26.7793465323937],[89.4270384136794,26.780279293063],[89.4272668333947,26.7806790381933],[89.4273715152776,26.7810026507799],[89.4275047540868,26.7814499941316],[89.4275428261431,26.7817736054176],[89.4275713638404,26.7822780468205],[89.427704605187,26.7826206899969],[89.4278188093517,26.78284912261],[89.4279520536975,26.7830680355792],[89.4281328883807,26.7832679194458],[89.428285169908,26.7836010429783],[89.4285802025252,26.7842863398892],[89.4287515128486,26.7846670538733],[89.4291893185545,26.7852095833336],[89.4294843704013,26.785514159607],[89.4297413418856,26.7858377751687],[89.4300268642187,26.7861233112242],[89.4304075758422,26.786427889171],[89.430664549634,26.7866563245733],[89.431616309154,26.787398734409],[89.4324633801001,26.7880935621209],[89.4330058841471,26.7886931937247],[89.4336054891993,26.7892452363643],[89.4342622015633,26.7899019902961],[89.4347856775055,26.7904254814016],[89.4352520363662,26.7908347511997],[89.4357564769744,26.7911678916141],[89.4361466974181,26.7915200598293],[89.4367272741347,26.7920054819877],[89.4375362617152,26.7928430692014],[89.4381453867411,26.7933951120307],[89.4388116156152,26.7941946263928],[89.43930652909,26.7948228171201],[89.4396681998379,26.7951654647635],[89.4398966181609,26.7956223299959],[89.4402202025419,26.7962314773444],[89.4406579996978,26.797126167406],[89.4408483439618,26.7977543521837],[89.4411338665925,26.7984396389177],[89.4414644375782,26.7991878766384]]]},"properties":{"compartment":"Bhutri BL1","division":"BTR_W","range":"Hamiltonganj","beat":"Bhutri"},"id":"comptt.207"},
{"type":"Feature","geometry":{"type":"Polygon","coordinates":[[[89.4368982777805,26.7695607475621],[89.4368894726298,26.7697742877495],[89.4369494540607,26.7705342901994],[89.4371034351015,26.7713002944944],[89.4374184134701,26.7721593020892],[89.4376843930796,26.7729723086504],[89.4380823746234,26.7736913176307],[89.4388813671942,26.7739123336023],[89.4395753272971,26.7754843497992],[89.4409972704565,26.7776773812591],[89.4419222305349,26.7792254019306],[89.4424902009663,26.7803844149764],[89.4428411672557,26.7817374241123],[89.4431961429151,26.7827034326743],[89.4438361240171,26.7834144463731],[89.4445501111825,26.7838674610825],[89.445121094063,26.7845124733234],[89.4456210802553,26.7850284839603],[89.446642055155,26.7859545054664],[89.4468781803856,26.7861673793241],[89.4470480452277,26.786320514015],[89.448476013325,26.7874835438739],[89.4491189975452,26.7880655574182],[89.4499039829498,26.7885835736287],[89.449974973404,26.7889695756684],[89.4502589586014,26.7895495821971],[89.4511149360113,26.7903896003407],[89.4517579187019,26.7910346139941],[89.4530438965268,26.7918116404343],[89.4543318821339,26.7922676663714],[89.4551158644354,26.7929136827838],[89.4556868488641,26.793494694925],[89.4559708371884,26.7939457012384],[89.4569008175349,26.7946567206157],[89.457686799806,26.7953037370714],[89.4583977682701,26.7965277530411],[89.4586087536511,26.7971077581482],[89.4590877298705,26.7980367690851],[89.457904743895,26.7975847451995],[89.4566297695868,26.7966617187186],[89.4552237705768,26.796770691428],[89.4526617690757,26.7971056419302],[89.4486917574459,26.7980085658782],[89.4457457458418,26.7988015096485],[89.4424177464477,26.7991324451736],[89.4414644375782,26.7991878766384],[89.4411338665925,26.7984396389177],[89.4408483439618,26.7977543521837],[89.4406579996978,26.797126167406],[89.4402202025419,26.7962314773444],[89.4398966181609,26.7956223299959],[89.4396681998379,26.7951654647635],[89.43930652909,26.7948228171201],[89.4388116156152,26.7941946263928],[89.4381453867411,26.7933951120307],[89.4375362617152,26.7928430692014],[89.4367272741347,26.7920054819877],[89.4361466974181,26.7915200598293],[89.4357564769744,26.7911678916141],[89.4352520363662,26.7908347511997],[89.4347856775055,26.7904254814016],[89.4342622015633,26.7899019902961],[89.4336054891993,26.7892452363643],[89.4330058841471,26.7886931937247],[89.4324633801001,26.7880935621209],[89.431616309154,26.787398734409],[89.430664549634,26.7866563245733],[89.4304075758422,26.786427889171],[89.4300268642187,26.7861233112242],[89.4297413418856,26.7858377751687],[89.4294843704013,26.785514159607],[89.4291893185545,26.7852095833336],[89.4287515128486,26.7846670538733],[89.4285802025252,26.7842863398892],[89.428285169908,26.7836010429783],[89.4281328883807,26.7832679194458],[89.4279520536975,26.7830680355792],[89.4278188093517,26.78284912261],[89.427704605187,26.7826206899969],[89.4275713638404,26.7822780468205],[89.4275428261431,26.7817736054176],[89.4275047540868,26.7814499941316],[89.4273715152776,26.7810026507799],[89.4272668333947,26.7806790381933],[89.4270384136794,26.780279293063],[89.4265720675031,26.7793465323937],[89.426305582039,26.7787754562335],[89.4261057166314,26.7781948613582],[89.425915370276,26.7776523367328],[89.4257059930472,26.7771478817997],[89.4254775774822,26.7765768063834],[89.4252586758949,26.7762532015676],[89.4249826769938,26.7758248854617],[89.4248303980004,26.7753870617555],[89.4246971580346,26.7749873084848],[89.424601984971,26.7747112961645],[89.424478263135,26.7743876832073],[89.4242308127748,26.774016477755],[89.4241451626842,26.7736167254137],[89.4241070908549,26.7732836041127],[89.4249089706668,26.773205099635],[89.4255514289923,26.7732051121769],[89.4262938167119,26.7732193966934],[89.4272360842572,26.7732194150881],[89.4280641338301,26.7731480511336],[89.4287351420828,26.773148064233],[89.429734511557,26.7730624235991],[89.4301913748652,26.7728768322065],[89.4307196179878,26.7726912422074],[89.4311193738662,26.772405719532],[89.4314049065827,26.7722629548665],[89.4318332068524,26.7722058531318],[89.4325042154532,26.7721915962072],[89.4333037144123,26.772148781743],[89.4337177499087,26.77187752937],[89.4342174358743,26.7715777286209],[89.4346885829522,26.7712350872424],[89.4355594772932,26.7705498230912],[89.4368982777805,26.7695607475621]]]},"properties":{"compartment":"Bhutri BL2","division":"BTR_W","range":"Hamiltonganj","beat":"Bhutri"},"id":"comptt.206"},
{"type":"Feature","geometry":{"type":"Polygon","coordinates":[[[89.4241070908549,26.7732836041127],[89.4229316442086,26.7732716811465],[89.4220750350019,26.7733311545239],[89.4210518756541,26.77341441469],[89.4202666471274,26.7734381894013],[89.4196598887116,26.7734381775568],[89.4187319040176,26.773319189243],[89.4175183906468,26.7731763953162],[89.4166617863442,26.7730336183566],[89.4157813915281,26.7729146209726],[89.4151151452877,26.7728313278286],[89.4146987486825,26.7727361395419],[89.4140325056132,26.7725219761799],[89.4133067724115,26.7723197116769],[89.4127238097015,26.7720817499013],[89.4121765471862,26.771831898803],[89.4115935838999,26.7716177370675],[89.4108559613069,26.7713916722937],[89.4104276581926,26.7711537135377],[89.4098684919626,26.7710585224655],[89.4092260359507,26.7709633397677],[89.4077675248732,26.7707527209507],[89.4062895437897,26.7701316910721],[89.4061095461025,26.7700556874328],[89.4055055920834,26.768222672599],[89.4047156299988,26.7667426547235],[89.4045686604135,26.7655026497952],[89.40558168023,26.7645746680203],[89.4066256937421,26.7639036872763],[89.4076197201224,26.7627067046813],[89.4082437426525,26.7617087151966],[89.409456767611,26.76054673693],[89.4102568048104,26.7589237498367],[89.4105818424028,26.7573357535332],[89.4117338824773,26.7555557730423],[89.411542932038,26.7535287659397],[89.4125350051696,26.7503997800757],[89.4146660350783,26.7489338191953],[89.4168330082732,26.7498078629197],[89.4187539930503,26.7502299010938],[89.4203969830558,26.7504659335358],[89.4228679665262,26.7508829824329],[89.4248099563151,26.7510960206714],[89.4252965689269,26.7509396401919],[89.4254091876367,26.7513901728534],[89.425466288504,26.7517613745892],[89.4257518063581,26.7522325109484],[89.4260658896666,26.7524752174822],[89.4266369543795,26.7526322788859],[89.4269653217976,26.7527036654114],[89.4271794653659,26.7529463799959],[89.4273507728254,26.7534460641757],[89.4276220203701,26.7539314802813],[89.4277362217788,26.754274133084],[89.4278218760267,26.7545025551381],[89.4279360884719,26.7548023778692],[89.4280502891893,26.7551735707198],[89.4282358804119,26.7555162149153],[89.4284785728683,26.7558017601293],[89.4286070552761,26.756101573139],[89.4290210600048,26.7571009628933],[89.4292351932025,26.7577719681972],[89.4294921535227,26.7585572045287],[89.4296777340277,26.7593424294676],[89.4299061426922,26.7601990353621],[89.4300346171469,26.7608272189235],[89.4303201373899,26.7616124458132],[89.4305770980518,26.7623834021219],[89.4307912326279,26.7629973073314],[89.4311909618801,26.7638110964989],[89.4313908189126,26.7643250612624],[89.4316763412268,26.7650246280096],[89.4320475205511,26.7658384166209],[89.4324329639586,26.7668949059187],[89.4328326928611,26.767722965112],[89.433161035407,26.7684082526724],[89.4334180015963,26.7689507786],[89.4338320166854,26.7695218576413],[89.4340889839117,26.7700215534975],[89.4344316167642,26.770692571314],[89.4346885829522,26.7712350872424],[89.4342174358743,26.7715777286209],[89.4337177499087,26.77187752937],[89.4333037144123,26.772148781743],[89.4325042154532,26.7721915962072],[89.4318332068524,26.7722058531318],[89.4314049065827,26.7722629548665],[89.4311193738662,26.772405719532],[89.4307196179878,26.7726912422074],[89.4301913748652,26.7728768322065],[89.429734511557,26.7730624235991],[89.4287351420828,26.773148064233],[89.4280641338301,26.7731480511336],[89.4272360842572,26.7732194150881],[89.4262938167119,26.7732193966934],[89.4255514289923,26.7732051121769],[89.4249089706668,26.773205099635],[89.4241070908549,26.7732836041127]]]},"properties":{"compartment":"Bhutri BL4","division":"BTR_W","range":"Hamiltonganj","beat":"Bhutri"},"id":"comptt.195"},
{"type":"Feature","geometry":{"type":"Polygon","coordinates":[[[89.4368982777805,26.7695607475621],[89.4355594772932,26.7705498230912],[89.4346885829522,26.7712350872424],[89.4344316167642,26.770692571314],[89.4340889839117,26.7700215534975],[89.4338320166854,26.7695218576413],[89.4334180015963,26.7689507786],[89.433161035407,26.7684082526724],[89.4328326928611,26.767722965112],[89.4324329639586,26.7668949059187],[89.4320475205511,26.7658384166209],[89.4316763412268,26.7650246280096],[89.4313908189126,26.7643250612624],[89.4311909618801,26.7638110964989],[89.4307912326279,26.7629973073314],[89.4305770980518,26.7623834021219],[89.4303201373899,26.7616124458132],[89.4300346171469,26.7608272189235],[89.4299061426922,26.7601990353621],[89.4296777340277,26.7593424294676],[89.4294921535227,26.7585572045287],[89.4292351932025,26.7577719681972],[89.4290210600048,26.7571009628933],[89.4286070552761,26.756101573139],[89.4284785728683,26.7558017601293],[89.4282358804119,26.7555162149153],[89.4280502891893,26.7551735707198],[89.4279360884719,26.7548023778692],[89.4278218760267,26.7545025551381],[89.4277362217788,26.754274133084],[89.4276220203701,26.7539314802813],[89.4273507728254,26.7534460641757],[89.4271794653659,26.7529463799959],[89.4269653217976,26.7527036654114],[89.4266369543795,26.7526322788859],[89.4260658896666,26.7524752174822],[89.4257518063581,26.7522325109484],[89.425466288504,26.7517613745892],[89.4254091876367,26.7513901728534],[89.4252965689269,26.7509396401919],[89.4272929691681,26.7502980677698],[89.4289599717074,26.7500140998114],[89.429146971778,26.7499911034205],[89.4293089645564,26.750272107052],[89.4290059601162,26.7504881015038],[89.4290959559374,26.7506511035328],[89.4292149516832,26.7508141061276],[89.4292149471088,26.7510031064446],[89.4292129392481,26.7513281069508],[89.4293619309705,26.7516541104043],[89.4292399227921,26.7520051086132],[89.4292389214877,26.7520591086842],[89.4292689201027,26.7521131093601],[89.4295089109105,26.7524671146359],[89.4298099061829,26.7526301207815],[89.4301409020066,26.7527671274688],[89.4302908976714,26.7529301306686],[89.4306518921101,26.7531211380319],[89.4308328903085,26.7531761416553],[89.4311938860544,26.7533131489281],[89.4314948813269,26.7534761550741],[89.4317948759243,26.7536671612476],[89.4319758734692,26.7537491649166],[89.4322768706782,26.7538321709284],[89.4323978684032,26.7539131734251],[89.4326678630785,26.7541041790136],[89.4329988556346,26.7543761859284],[89.4331478486874,26.7546471892907],[89.4332678431227,26.7548641919966],[89.4335688390247,26.7550011980994],[89.434047821997,26.7556532085409],[89.4341078198802,26.7557342098477],[89.4341068146293,26.7559512101929],[89.433984809063,26.7561942082209],[89.433983803812,26.756411208566],[89.4339828005461,26.7565462087734],[89.4339817959487,26.7567362090732],[89.4339517934119,26.7568442086693],[89.4339507914534,26.7569252087859],[89.434040787927,26.7570612107706],[89.4343407759624,26.7575232174008],[89.434551774761,26.7575502215633],[89.4346117739273,26.7575782227811],[89.4346717711567,26.7576862241334],[89.4347317696935,26.7577402253949],[89.4351247725474,26.7575802327945],[89.4351537692035,26.7577152335873],[89.4352427604255,26.7580682359174],[89.4352717544665,26.7583112368919],[89.4352717524811,26.7583932370298],[89.4352707505224,26.7584742371465],[89.4352397466803,26.7586362368139],[89.4351787428918,26.7587992358977],[89.4350797379913,26.759012234324],[89.4351777388266,26.7589672361606],[89.4352867408924,26.7588702381245],[89.4353807446921,26.758703239678],[89.4356117457391,26.7586352440712],[89.4356747439048,26.7587042454167],[89.4357667385812,26.758914247565],[89.435888733204,26.7591232502972],[89.4360107284803,26.759305252984],[89.4361647203321,26.7596252565274],[89.4362097154934,26.7598202577335],[89.4362417126983,26.7599322585463],[89.436393708599,26.7600852617699],[89.4365937026557,26.7603092660495],[89.4366706963777,26.7605602679744],[89.4367776890048,26.7608532705555],[89.4367606819777,26.7611452707149],[89.436838679741,26.7612292723784],[89.4370386748147,26.7614112765877],[89.4372386688711,26.7616352808678],[89.4373456625391,26.7618852833766],[89.4373746566758,26.7621242843447],[89.4373556501861,26.7623942844283],[89.4372016470013,26.7625422816718],[89.4373856377325,26.7629052858736],[89.4373676321845,26.7631362859111],[89.4374106223125,26.7635392874284],[89.4374296164504,26.7637792882031],[89.4374286100589,26.7640432886278],[89.4374196043419,26.7642802888509],[89.4374105957668,26.7646352892727],[89.4372365821213,26.7652172868558],[89.4372195746808,26.7655262870439],[89.4370815620799,26.7660612852506],[89.4370695520583,26.7664762857146],[89.4370575427149,26.7668632861315],[89.4370195275522,26.7674932864497],[89.4370225213671,26.7677482869372],[89.4370755054587,26.7683992890671],[89.4369184896104,26.7690702871312],[89.4369044814096,26.76941028743],[89.4368982777805,26.7695607475621]]]},"properties":{"compartment":"Bhutri BL5","division":"BTR_W","range":"Hamiltonganj","beat":"Bhutri"},"id":"comptt.194"}
]}