{"type":"FeatureCollection", "features": [
{"type":"Feature","geometry":{"type":"Polygon","coordinates":[[[89.5871860347066,26.6392056214842],[89.5837080617726,26.639695164601303],[89.5782448204778,26.640304199368803],[89.5754085019319,26.6405325745798],[89.5702879053378,26.6409131956101],[89.56630946054061,26.6411034685295],[89.5656589302981,26.6411799960064],[89.5656622669044,26.6400755341141],[89.5655480801199,26.6391237402057],[89.5653767839335,26.6381529151523],[89.56530066714241,26.636782341242903],[89.5653768316302,26.636173201645303],[89.56541491621151,26.6355640613069],[89.56549106703001,26.6351072019789],[89.5656623939454,26.634802634772303],[89.565928904295,26.6343457791476],[89.5662525208353,26.6340412149036],[89.566842627637,26.6336985857764],[89.56741370677851,26.6332607761099],[89.5680418934869,26.632918147723],[89.5686700824882,26.632480339167202],[89.569431527123,26.631795062764002],[89.56998358556851,26.6305577513072],[89.5703072277831,26.6291871851698],[89.5704785794529,26.627854686137102],[89.5705726698925,26.6269963264433],[89.5709174492766,26.626986743132402],[89.57449144939031,26.626617811993402],[89.57866544474581,26.6263858927692],[89.58100244629651,26.626083937689],[89.58462545210091,26.6254750070756],[89.5853393747806,26.6286130265648],[89.5858933168453,26.6309620415353],[89.58618526612041,26.6330380509225],[89.5865422007503,26.635715062648302],[89.5868271586084,26.6374350712653],[89.58698259986251,26.638201955636802],[89.5871860347066,26.6392056214842]]]},"properties":{"compartment":"S RVBK BL5","division":"BTR_W","range":"WestRajabhatkhawa","beat":"CentralRajabhatkhawa","DIVISION":"BTR_W","BEAT_NAME":"CentralRajabhatkhawa"},"id":"comptt.96"},
{"type":"Feature","geometry":{"type":"Polygon","coordinates":[[[89.5656589302981,26.6411799960064],[89.5650150300589,26.6412557336109],[89.562102575861,26.641312787038903],[89.5577624406084,26.641560163024103],[89.5545073436061,26.6417694900559],[89.5519941377991,26.6418534013027],[89.5520361460805,26.6415054015065],[89.55224422110031,26.6383704000274],[89.55303128903981,26.6354694102233],[89.55426733625501,26.633382430586],[89.5547303868211,26.631235435804],[89.5550614489057,26.6286234376327],[89.5551014795806,26.627345436155203],[89.555262479159,26.6273464392882],[89.5579144752144,26.6272384906752],[89.5595964709459,26.627243523397002],[89.561666468493,26.627133563462202],[89.5644484628461,26.6270836174819],[89.5671004561288,26.627091669077],[89.5703424503037,26.627002731976702],[89.5705726698925,26.6269963264433],[89.5704785794529,26.627854686137102],[89.5703072277831,26.6291871851698],[89.56998358556851,26.6305577513072],[89.569431527123,26.631795062764002],[89.5686700824882,26.632480339167202],[89.5680418934869,26.632918147723],[89.56741370677851,26.6332607761099],[89.566842627637,26.6336985857764],[89.5662525208353,26.6340412149036],[89.565928904295,26.6343457791476],[89.5656623939454,26.634802634772303],[89.56549106703001,26.6351072019789],[89.56541491621151,26.6355640613069],[89.5653768316302,26.636173201645303],[89.56530066714241,26.636782341242903],[89.5653767839335,26.6381529151523],[89.5655480801199,26.6391237402057],[89.5656622669044,26.6400755341141],[89.5656589302981,26.6411799960064]]]},"properties":{"compartment":"S RVBK BL6","division":"BTR_W","range":"WestRajabhatkhawa","beat":"CentralRajabhatkhawa","DIVISION":"BTR_W","BEAT_NAME":"CentralRajabhatkhawa"},"id":"comptt.98"},
{"type":"Feature","geometry":{"type":"Polygon","coordinates":[[[89.5871860347066,26.6392056214842],[89.5872001133558,26.6392750818097],[89.5892089422484,26.6461701332294],[89.59026086941991,26.649084158917002],[89.59119180840361,26.6515201813981],[89.5919477555011,26.6536371999041],[89.5928267187185,26.6550732195888],[89.5917337176746,26.655227198581102],[89.5906467200421,26.655239177436503],[89.5879287255563,26.655286124596],[89.5844787235598,26.655719058192002],[89.5814537275739,26.655859999542802],[89.5776677314624,26.656083926224902],[89.57489473516401,26.6562128724626],[89.5741107366089,26.6562328572334],[89.5730837403885,26.6561808371451],[89.5715037395003,26.6563788067341],[89.5665497453829,26.6566407107459],[89.56591275134251,26.656458698021503],[89.5659664814488,26.654790146110802],[89.5660807245779,26.6538193266144],[89.5661759305066,26.652734296544903],[89.5661949723935,26.6522393660385],[89.5660427019483,26.6518586523996],[89.5655668242335,26.650983001584603],[89.5652432355871,26.65054516451],[89.5649196461187,26.6497266267613],[89.5646531692622,26.6487938699222],[89.5644247760767,26.6472900428133],[89.56448191805511,26.645957541565203],[89.5645390421376,26.645367441631702],[89.5648436301983,26.644586976177003],[89.5649959263394,26.6439016979268],[89.5651101680789,26.6429879885312],[89.56539572535921,26.6418268120308],[89.5656589302981,26.6411799960064],[89.56630946054061,26.6411034685295],[89.5702879053378,26.6409131956101],[89.5754085019319,26.6405325745798],[89.5782448204778,26.640304199368803],[89.5837080617726,26.639695164601303],[89.5871860347066,26.6392056214842]]]},"properties":{"compartment":"S RVBK BL4","division":"BTR_W","range":"WestRajabhatkhawa","beat":"CentralRajabhatkhawa","DIVISION":"BTR_W","BEAT_NAME":"CentralRajabhatkhawa"},"id":"comptt.107"},
{"type":"Feature","geometry":{"type":"Polygon","coordinates":[[[89.5656589302981,26.6411799960064],[89.56539572535921,26.6418268120308],[89.5651101680789,26.6429879885312],[89.5649959263394,26.6439016979268],[89.5648436301983,26.644586976177003],[89.5645390421376,26.645367441631702],[89.56448191805511,26.645957541565203],[89.5644247760767,26.6472900428133],[89.5646531692622,26.6487938699222],[89.5649196461187,26.6497266267613],[89.5652432355871,26.65054516451],[89.5655668242335,26.650983001584603],[89.5660427019483,26.6518586523996],[89.5661949723935,26.6522393660385],[89.5661759305066,26.652734296544903],[89.5660807245779,26.6538193266144],[89.5659664814488,26.654790146110802],[89.56591275134251,26.656458698021503],[89.5651147588331,26.6562296820796],[89.562404784233,26.6554536279464],[89.55871079798631,26.6552615556932],[89.5516118080278,26.655573418048],[89.5506398082659,26.655663399285203],[89.55108385037471,26.653871404771],[89.551216885029,26.6524204048034],[89.5510289191017,26.651026398688103],[89.55123298018711,26.6484713981568],[89.551501041082,26.645917398872],[89.5517690949806,26.6436534000972],[89.5519941377991,26.6418534013027],[89.5545073436061,26.6417694900559],[89.5577624406084,26.641560163024103],[89.562102575861,26.641312787038903],[89.5650150300589,26.6412557336109],[89.5656589302981,26.6411799960064]]]},"properties":{"compartment":"S RVBK BL3","division":"BTR_W","range":"WestRajabhatkhawa","beat":"CentralRajabhatkhawa","DIVISION":"BTR_W","BEAT_NAME":"CentralRajabhatkhawa"},"id":"comptt.106"}
]}
