{"type":"FeatureCollection", "features": [
{"type":"Feature","geometry":{"type":"Polygon","coordinates":[[[89.5564059157103,26.5595602217738],[89.5537789929069,26.559529230747103],[89.55079039979981,26.5595482127921],[89.5449675237785,26.5595632098394],[89.5448021649222,26.5582821143771],[89.5448311928956,26.557113112883503],[89.5449952242767,26.5557881137343],[89.5449852579554,26.5543851110723],[89.544947297625,26.5527351074325],[89.5450263359715,26.551128106137902],[89.5450673725382,26.5495991042432],[89.5452794111265,26.547968105485502],[89.5453294427018,26.546646104129202],[89.54555248463781,26.544874105336],[89.54586054036061,26.5425181071626],[89.5464695934906,26.5402391149601],[89.54792064250701,26.5380451392304],[89.5484706434076,26.537951149728503],[89.5514106497244,26.537386205734602],[89.5534546527829,26.5370492447703],[89.5544776452876,26.5372572649721],[89.5546006443867,26.5372822674011],[89.5566376089755,26.538551309138903],[89.55708759811671,26.538958318583802],[89.5577825813121,26.5395883331738],[89.5585455463617,26.5409683504094],[89.55900700257911,26.541913251029502],[89.558652534128,26.5423019948431],[89.5581575921063,26.542854026221],[89.5576436187624,26.5434631573305],[89.5571106040956,26.5441293981713],[89.55684409197,26.5446623939448],[89.55672986718831,26.5452905728397],[89.5566655234845,26.5492047885099],[89.5564821541729,26.5554485059871],[89.5564059157103,26.5595602217738]]]},"properties":{"compartment":"Checko BL9","division":"BTR_W","range":"EastDamanpur","beat":"Checko","DIVISION":"BTR_W","BEAT_NAME":"Checko"},"id":"comptt.13"},
{"type":"Feature","geometry":{"type":"Polygon","coordinates":[[[89.55900700257911,26.541913251029502],[89.5590505203362,26.542002362031102],[89.55921851762301,26.5420983654589],[89.5594515172439,26.5420903699632],[89.56284741805611,26.5458804425343],[89.564212369656,26.5477594723392],[89.5646543539933,26.5483674819903],[89.5656783206213,26.5496545041353],[89.566262315691,26.549800515723103],[89.5682003155816,26.5496075529759],[89.56972931587481,26.549439582338902],[89.5713243091012,26.5495596134939],[89.5725993045257,26.5496206383368],[89.57432030020671,26.549625671732702],[89.576614297204,26.549517716044402],[89.5787202919052,26.549524756914],[89.5812052939391,26.5491878045239],[89.5826742984969,26.548848832418702],[89.5829982998917,26.5487578385422],[89.5829582825267,26.549485839065103],[89.5831092678148,26.550083843061802],[89.583108260117,26.5504048436152],[89.5833612396389,26.5512328500014],[89.583384230323,26.5516188511364],[89.5834772266183,26.551763853199702],[89.58427520716461,26.5524938699862],[89.5849051969961,26.5528538828531],[89.5856261813761,26.5534318978755],[89.586535132715,26.555367918972703],[89.5869171014557,26.5566319286441],[89.5872210562249,26.5584859378568],[89.58746601230891,26.5602909458374],[89.5851510117927,26.5605469013632],[89.5835150158688,26.5605428696036],[89.5803470197901,26.5607008083998],[89.57898702188,26.5607517820958],[89.5769820241284,26.5608617433789],[89.57565788946441,26.5607769664091],[89.5748514313657,26.5603600711366],[89.5735570081802,26.560207765744902],[89.570111558882,26.5601125187113],[89.5675988591383,26.5599411496455],[89.5659998771626,26.559769798312402],[89.5613171100051,26.5597125973416],[89.5569769856783,26.559503122753902],[89.5564059157103,26.5595602217738],[89.5564821541729,26.5554485059871],[89.5566655234845,26.5492047885099],[89.55672986718831,26.5452905728397],[89.55684409197,26.5446623939448],[89.5571106040956,26.5441293981713],[89.5576436187624,26.5434631573305],[89.5581575921063,26.542854026221],[89.558652534128,26.5423019948431],[89.55900700257911,26.541913251029502]]]},"properties":{"compartment":"Checko BL8","division":"BTR_W","range":"EastDamanpur","beat":"Checko","DIVISION":"BTR_W","BEAT_NAME":"Checko"},"id":"comptt.17"},
{"type":"Feature","geometry":{"type":"Polygon","coordinates":[[[89.57565788946441,26.5607769664091],[89.5755290299051,26.560768715014202],[89.5766929926239,26.5622037401588],[89.57737795598091,26.563660756047803],[89.5791278903313,26.566217794570303],[89.5802858319998,26.5685298211697],[89.5813957852812,26.5703628459867],[89.5827547355986,26.572293875816],[89.58402869459721,26.573871903368502],[89.5848797160439,26.575390772605402],[89.58343337199601,26.5752896043391],[89.5825624989189,26.5750897070717],[89.5813347097982,26.574761322645003],[89.5798356527121,26.57437581285],[89.5786078618793,26.5741188085521],[89.57740861686331,26.5740331251142],[89.57636641769321,26.5741044950054],[89.5758524562055,26.5742186952294],[89.5756912960276,26.5742371110032],[89.5748114358912,26.5743376452282],[89.5729673532546,26.5746350499519],[89.5716698208731,26.5748783067284],[89.5716912129045,26.5731139524712],[89.5716150877753,26.5720860191666],[89.5714628332878,26.5710390543504],[89.57119635176551,26.570296647858],[89.57085373134261,26.569516179820102],[89.5704730337543,26.5686214908407],[89.5701304078456,26.5680694532092],[89.56971163349401,26.5674603039985],[89.5692167284142,26.566889223378002],[89.5688550584387,26.5665084956819],[89.5687408432879,26.566318133127],[89.5687027784074,26.5661087420165],[89.5686837566791,26.565766101039003],[89.56872183344021,26.5654805612712],[89.56874087390321,26.5650427408636],[89.5687599239089,26.5646239604899],[89.5687408921799,26.5642813195123],[89.56868380328551,26.563824457593302],[89.5686267085028,26.5631962753701],[89.5683982964228,26.5624729196532],[89.56809374955391,26.5615401620872],[89.567922447333,26.560816797479102],[89.5675988591383,26.5599411496455],[89.570111558882,26.5601125187113],[89.5735570081802,26.560207765744902],[89.5748514313657,26.5603600711366],[89.57565788946441,26.5607769664091]]]},"properties":{"compartment":"Checko BL7","division":"BTR_W","range":"EastDamanpur","beat":"Checko","DIVISION":"BTR_W","BEAT_NAME":"Checko"},"id":"comptt.27"},
{"type":"Feature","geometry":{"type":"Polygon","coordinates":[[[89.5619672372076,26.576007778491302],[89.5613805678375,26.5760422774806],[89.55980060125991,26.5760612768386],[89.5581825715775,26.5762135356934],[89.5563361129162,26.5763467500798],[89.5545277250786,26.576441895138302],[89.5532713672562,26.5764799408137],[89.55268126322301,26.5767083597601],[89.5519578995186,26.5769367661191],[89.5508157618746,26.5769557839785],[89.5494071271744,26.576879616496402],[89.54849341354111,26.5767082784556],[89.5476748869309,26.576651152464102],[89.5467992536621,26.5764607751295],[89.54579037026531,26.576289435242],[89.54505973529291,26.5761551508217],[89.54502377906,26.5743361469234],[89.54491681536341,26.5728351422063],[89.5452749309826,26.5679821406184],[89.5455019976032,26.565183140099602],[89.5452810544003,26.5628391316873],[89.5449751200619,26.5601341209914],[89.5449871300855,26.559715120487102],[89.5449675237785,26.5595632098394],[89.55079039979981,26.5595482127921],[89.5537789929069,26.559529230747103],[89.5564059157103,26.5595602217738],[89.5569769856783,26.559503122753902],[89.5613171100051,26.5597125973416],[89.5659998771626,26.559769798312402],[89.5675988591383,26.5599411496455],[89.567922447333,26.560816797479102],[89.56809374955391,26.5615401620872],[89.5683982964228,26.5624729196532],[89.5686267085028,26.5631962753701],[89.56868380328551,26.563824457593302],[89.5687408921799,26.5642813195123],[89.5687599239089,26.5646239604899],[89.56874087390321,26.5650427408636],[89.56872183344021,26.5654805612712],[89.5686837566791,26.565766101039003],[89.5687027784074,26.5661087420165],[89.5687408432879,26.566318133127],[89.5688550584387,26.5665084956819],[89.5692167284142,26.566889223378002],[89.56971163349401,26.5674603039985],[89.5701304078456,26.5680694532092],[89.5704730337543,26.5686214908407],[89.57085373134261,26.569516179820102],[89.57119635176551,26.570296647858],[89.5714628332878,26.5710390543504],[89.5716150877753,26.5720860191666],[89.5716912129045,26.5731139524712],[89.5716698208731,26.5748783067284],[89.5701119973812,26.5751703654628],[89.5682524460758,26.5754142297904],[89.5665392370723,26.575547446763],[89.56554937629801,26.5756806777803],[89.5645404855711,26.575813908428],[89.56299859615271,26.5759471287271],[89.5619672372076,26.576007778491302]]]},"properties":{"compartment":"Checko BL6","division":"BTR_W","range":"EastDamanpur","beat":"Checko","DIVISION":"BTR_W","BEAT_NAME":"Checko"},"id":"comptt.30"},
{"type":"Feature","geometry":{"type":"Polygon","coordinates":[[[89.5667354307206,26.5866145902011],[89.5664774313533,26.586614585190002],[89.5633724433934,26.586430524555702],[89.56117344756831,26.586481481936],[89.5592324483016,26.5866494445345],[89.5568394473627,26.586933398559403],[89.5539944504013,26.5870983435955],[89.5516674507283,26.5873232987983],[89.5491434529634,26.5874892500714],[89.5474614530532,26.5876582177025],[89.5463604460881,26.588061197029102],[89.545192428116,26.5889291758719],[89.5438324050679,26.5900281513906],[89.5419513903262,26.5908351162754],[89.5417983900559,26.5908621133512],[89.5420994190849,26.5896231170207],[89.5452284809605,26.586726172696302],[89.5453015136954,26.5853561717043],[89.54550958587531,26.5823301704205],[89.54521863521,26.5803061612099],[89.5450826934989,26.577893154325203],[89.5450637287032,26.5764291513813],[89.54505973529291,26.5761551508217],[89.54579037026531,26.576289435242],[89.5467992536621,26.5764607751295],[89.5476748869309,26.576651152464102],[89.54849341354111,26.5767082784556],[89.5494071271744,26.576879616496402],[89.5508157618746,26.5769557839785],[89.5519578995186,26.5769367661191],[89.55268126322301,26.5767083597601],[89.5532713672562,26.5764799408137],[89.5545277250786,26.576441895138302],[89.5563361129162,26.5763467500798],[89.5581825715775,26.5762135356934],[89.55980060125991,26.5760612768386],[89.5613805678375,26.5760422774806],[89.5619672372076,26.576007778491302],[89.56279156434451,26.5768763063531],[89.5634768234608,26.5776758210746],[89.5641240135845,26.578437254990302],[89.5646189277387,26.5790464156798],[89.5657039284967,26.580569289448402],[89.5660846188142,26.581349758225002],[89.5665795247347,26.582301559523902],[89.5668079345091,26.583120095411502],[89.5669411686321,26.583767319147],[89.5670553577704,26.5846239228842],[89.5670363031802,26.5852330735946],[89.5669601583354,26.5854424624871],[89.56682689905661,26.5858422106078],[89.56671268339021,26.5860896688283],[89.5667354307206,26.5866145902011]]]},"properties":{"compartment":"Checko BL5","division":"BTR_W","range":"EastDamanpur","beat":"Checko","DIVISION":"BTR_W","BEAT_NAME":"Checko"},"id":"comptt.47"},
{"type":"Feature","geometry":{"type":"Polygon","coordinates":[[[89.57703470278621,26.5858991308781],[89.576728423152,26.585911783053803],[89.5745614263347,26.5859997411183],[89.5722964264451,26.586225697524903],[89.56983842705661,26.586450650181],[89.5678974277756,26.5866186127781],[89.5667531906733,26.5866146512264],[89.5667354307206,26.5866145902011],[89.56671268339021,26.5860896688283],[89.56682689905661,26.5858422106078],[89.5669601583354,26.5854424624871],[89.5670363031802,26.5852330735946],[89.5670553577704,26.5846239228842],[89.5669411686321,26.583767319147],[89.5668079345091,26.583120095411502],[89.5665795247347,26.582301559523902],[89.5660846188142,26.581349758225002],[89.5657039284967,26.580569289448402],[89.5646189277387,26.5790464156798],[89.5641240135845,26.578437254990302],[89.5634768234608,26.5776758210746],[89.56279156434451,26.5768763063531],[89.5619672372076,26.576007778491302],[89.56299859615271,26.5759471287271],[89.5645404855711,26.575813908428],[89.56554937629801,26.5756806777803],[89.5665392370723,26.575547446763],[89.5682524460758,26.5754142297904],[89.5701119973812,26.5751703654628],[89.5716698208731,26.5748783067284],[89.5729673532546,26.5746350499519],[89.5748114358912,26.5743376452282],[89.5756912960276,26.5742371110032],[89.57645919615051,26.5749920383868],[89.57670664274491,26.5755250341404],[89.5775251418819,26.577143092914902],[89.57777257612851,26.5781900595843],[89.5778677348611,26.579065702991702],[89.57800096395701,26.579922317104803],[89.5780199906484,26.5804743484575],[89.5779818970213,26.5810454187347],[89.57782960595941,26.581521316624702],[89.5777344179595,26.5818639553861],[89.5776011600524,26.582206593408202],[89.5774298313235,26.5825873007585],[89.5772204345167,26.5828918772339],[89.5770491076171,26.5831964444486],[89.57703470278621,26.5858991308781]]]},"properties":{"compartment":"Checko BL4","division":"BTR_W","range":"EastDamanpur","beat":"Checko","DIVISION":"BTR_W","BEAT_NAME":"Checko"},"id":"comptt.42"},
{"type":"Feature","geometry":{"type":"Polygon","coordinates":[[[89.5848797160439,26.575390772605402],[89.5849666521056,26.5755459245706],[89.5850086502018,26.575620925520102],[89.5849776443443,26.575867925359002],[89.58490763113521,26.5764249249941],[89.5847075678904,26.579077925846],[89.5851165147105,26.5812499376668],[89.5852284774828,26.582787942587903],[89.5854054488408,26.5839619481219],[89.5861864019751,26.585832966633802],[89.5858124022613,26.585858959415102],[89.5841304050863,26.5859119268361],[89.5821894071756,26.586021889328002],[89.57986341438951,26.5859578440315],[89.5797324148054,26.5859538414797],[89.5772124224499,26.585891792419503],[89.57703470278621,26.5858991308781],[89.5770491076171,26.5831964444486],[89.5772204345167,26.5828918772339],[89.5774298313235,26.5825873007585],[89.5776011600524,26.582206593408202],[89.5777344179595,26.5818639553861],[89.57782960595941,26.581521316624702],[89.5779818970213,26.5810454187347],[89.5780199906484,26.5804743484575],[89.57800096395701,26.579922317104803],[89.5778677348611,26.579065702991702],[89.57777257612851,26.5781900595843],[89.5775251418819,26.577143092914902],[89.57670664274491,26.5755250341404],[89.57645919615051,26.5749920383868],[89.5756912960276,26.5742371110032],[89.5758524562055,26.5742186952294],[89.57636641769321,26.5741044950054],[89.57740861686331,26.5740331251142],[89.5786078618793,26.5741188085521],[89.5798356527121,26.57437581285],[89.5813347097982,26.574761322645003],[89.5825624989189,26.5750897070717],[89.58343337199601,26.5752896043391],[89.5848797160439,26.575390772605402]]]},"properties":{"compartment":"Checko BL3","division":"BTR_W","range":"EastDamanpur","beat":"Checko","DIVISION":"BTR_W","BEAT_NAME":"Checko"},"id":"comptt.40"}
]}
