{"type":"FeatureCollection", "features": [
{"type":"Feature","geometry":{"type":"Polygon","coordinates":[[[89.5913860347066,26.6443056214842],[89.5879080617726,26.6447951646013],[89.5824448204778,26.6454041993688],[89.5796085019319,26.6456325745798],[89.5744879053378,26.6460131956101],[89.5705094605406,26.6462034685295],[89.5698589302981,26.6462799960064],[89.5698622669044,26.6451755341141],[89.5697480801199,26.6442237402057],[89.5695767839335,26.6432529151523],[89.5695006671424,26.6418823412429],[89.5695768316302,26.6412732016453],[89.5696149162115,26.6406640613069],[89.56969106703,26.6402072019789],[89.5698623939454,26.6399026347723],[89.570128904295,26.6394457791476],[89.5704525208353,26.6391412149036],[89.571042627637,26.6387985857764],[89.5716137067785,26.6383607761099],[89.5722418934869,26.638018147723],[89.5728700824882,26.6375803391672],[89.573631527123,26.636895062764],[89.5741835855685,26.6356577513072],[89.5745072277831,26.6342871851698],[89.5746785794529,26.6329546861371],[89.5747726698925,26.6320963264433],[89.5751174492766,26.6320867431324],[89.5786914493903,26.6317178119934],[89.5828654447458,26.6314858927692],[89.5852024462965,26.631183937689],[89.5888254521009,26.6305750070756],[89.5895393747806,26.6337130265648],[89.5900933168453,26.6360620415353],[89.5903852661204,26.6381380509225],[89.5907422007503,26.6408150626483],[89.5910271586084,26.6425350712653],[89.5911825998625,26.6433019556368],[89.5913860347066,26.6443056214842]]]},"properties":{"compartment":"S RVBK BL5","division":"BTR_W","range":"WestRajabhatkhawa","beat":"CRVK"},"id":"comptt.96"},
{"type":"Feature","geometry":{"type":"Polygon","coordinates":[[[89.5698589302981,26.6462799960064],[89.5692150300589,26.6463557336109],[89.566302575861,26.6464127870389],[89.5619624406084,26.6466601630241],[89.5587073436061,26.6468694900559],[89.5561941377991,26.6469534013027],[89.5562361460805,26.6466054015065],[89.5564442211003,26.6434704000274],[89.5572312890398,26.6405694102233],[89.558467336255,26.638482430586],[89.5589303868211,26.636335435804],[89.5592614489057,26.6337234376327],[89.5593014795806,26.6324454361552],[89.559462479159,26.6324464392882],[89.5621144752144,26.6323384906752],[89.5637964709459,26.632343523397],[89.565866468493,26.6322335634622],[89.5686484628461,26.6321836174819],[89.5713004561288,26.632191669077],[89.5745424503037,26.6321027319767],[89.5747726698925,26.6320963264433],[89.5746785794529,26.6329546861371],[89.5745072277831,26.6342871851698],[89.5741835855685,26.6356577513072],[89.573631527123,26.636895062764],[89.5728700824882,26.6375803391672],[89.5722418934869,26.638018147723],[89.5716137067785,26.6383607761099],[89.571042627637,26.6387985857764],[89.5704525208353,26.6391412149036],[89.570128904295,26.6394457791476],[89.5698623939454,26.6399026347723],[89.56969106703,26.6402072019789],[89.5696149162115,26.6406640613069],[89.5695768316302,26.6412732016453],[89.5695006671424,26.6418823412429],[89.5695767839335,26.6432529151523],[89.5697480801199,26.6442237402057],[89.5698622669044,26.6451755341141],[89.5698589302981,26.6462799960064]]]},"properties":{"compartment":"S RVBK BL6","division":"BTR_W","range":"WestRajabhatkhawa","beat":"CRVK"},"id":"comptt.98"},
{"type":"Feature","geometry":{"type":"Polygon","coordinates":[[[89.5913860347066,26.6443056214842],[89.5914001133558,26.6443750818097],[89.5934089422484,26.6512701332294],[89.5944608694199,26.654184158917],[89.5953918084036,26.6566201813981],[89.5961477555011,26.6587371999041],[89.5970267187185,26.6601732195888],[89.5959337176746,26.6603271985811],[89.5948467200421,26.6603391774365],[89.5921287255563,26.660386124596],[89.5886787235598,26.660819058192],[89.5856537275739,26.6609599995428],[89.5818677314624,26.6611839262249],[89.579094735164,26.6613128724626],[89.5783107366089,26.6613328572334],[89.5772837403885,26.6612808371451],[89.5757037395003,26.6614788067341],[89.5707497453829,26.6617407107459],[89.5701127513425,26.6615586980215],[89.5701664814488,26.6598901461108],[89.5702807245779,26.6589193266144],[89.5703759305066,26.6578342965449],[89.5703949723935,26.6573393660385],[89.5702427019483,26.6569586523996],[89.5697668242335,26.6560830015846],[89.5694432355871,26.65564516451],[89.5691196461187,26.6548266267613],[89.5688531692622,26.6538938699222],[89.5686247760767,26.6523900428133],[89.5686819180551,26.6510575415652],[89.5687390421376,26.6504674416317],[89.5690436301983,26.649686976177],[89.5691959263394,26.6490016979268],[89.5693101680789,26.6480879885312],[89.5695957253592,26.6469268120308],[89.5698589302981,26.6462799960064],[89.5705094605406,26.6462034685295],[89.5744879053378,26.6460131956101],[89.5796085019319,26.6456325745798],[89.5824448204778,26.6454041993688],[89.5879080617726,26.6447951646013],[89.5913860347066,26.6443056214842]]]},"properties":{"compartment":"S RVBK BL4","division":"BTR_W","range":"WestRajabhatkhawa","beat":"CRVK"},"id":"comptt.107"},
{"type":"Feature","geometry":{"type":"Polygon","coordinates":[[[89.5698589302981,26.6462799960064],[89.5695957253592,26.6469268120308],[89.5693101680789,26.6480879885312],[89.5691959263394,26.6490016979268],[89.5690436301983,26.649686976177],[89.5687390421376,26.6504674416317],[89.5686819180551,26.6510575415652],[89.5686247760767,26.6523900428133],[89.5688531692622,26.6538938699222],[89.5691196461187,26.6548266267613],[89.5694432355871,26.65564516451],[89.5697668242335,26.6560830015846],[89.5702427019483,26.6569586523996],[89.5703949723935,26.6573393660385],[89.5703759305066,26.6578342965449],[89.5702807245779,26.6589193266144],[89.5701664814488,26.6598901461108],[89.5701127513425,26.6615586980215],[89.5693147588331,26.6613296820796],[89.566604784233,26.6605536279464],[89.5629107979863,26.6603615556932],[89.5558118080278,26.660673418048],[89.5548398082659,26.6607633992852],[89.5552838503747,26.658971404771],[89.555416885029,26.6575204048034],[89.5552289191017,26.6561263986881],[89.5554329801871,26.6535713981568],[89.555701041082,26.651017398872],[89.5559690949806,26.6487534000972],[89.5561941377991,26.6469534013027],[89.5587073436061,26.6468694900559],[89.5619624406084,26.6466601630241],[89.566302575861,26.6464127870389],[89.5692150300589,26.6463557336109],[89.5698589302981,26.6462799960064]]]},"properties":{"compartment":"S RVBK BL3","division":"BTR_W","range":"WestRajabhatkhawa","beat":"CRVK"},"id":"comptt.106"}
]}