{"type":"FeatureCollection", "features": [
{"type":"Feature","geometry":{"type":"Polygon","coordinates":[[[89.5491675237785,26.5646632098394],[89.5463548007162,26.5646631552669],[89.5435755975776,26.5646631013458],[89.5394258246379,26.5647962710692],[89.5357329069279,26.5650817299241],[89.5330107981923,26.5653101075137],[89.531071237979,26.5655194402519],[89.5312861910955,26.5641167719705],[89.5314892476822,26.5617367717497],[89.531692300089,26.5595307718322],[89.5315733519211,26.5573817657687],[89.5310843985742,26.5554867529736],[89.5310494019699,26.5553487520537],[89.5310614727657,26.552394747125],[89.5327335483081,26.549070773736],[89.5341506134714,26.5462057961991],[89.5361966275121,26.5454088344715],[89.5397706266612,26.5450759031798],[89.5439856296809,26.5445159839178],[89.5487236369645,26.543725074389],[89.552120642507,26.5431451392304],[89.5506695934906,26.5453391149601],[89.5500605403606,26.5476181071626],[89.5497524846378,26.549974105336],[89.5495294427018,26.5517461041292],[89.5494794111265,26.5530681054855],[89.5492673725382,26.5546991042432],[89.5492263359715,26.5562281061379],[89.549147297625,26.5578351074325],[89.5491852579554,26.5594851110723],[89.5491952242767,26.5608881137343],[89.5490311928956,26.5622131128835],[89.5490021649222,26.5633821143771],[89.5491675237785,26.5646632098394]]]},"properties":{"compartment":"Damanpur BL8","division":"BTR_W","range":"EastDamanpur","beat":"Damanpur"},"id":"comptt.15"},
{"type":"Feature","geometry":{"type":"Polygon","coordinates":[[[89.5273107311308,26.5836927290104],[89.5271547305583,26.583732726052],[89.5277167416951,26.5832107360506],[89.528429757979,26.5824587485785],[89.5284327774923,26.581645747218],[89.5283108266054,26.5796127413022],[89.5284508806315,26.5773477400665],[89.5288509409419,26.5747937433715],[89.5289849782181,26.5732267432365],[89.5291830028055,26.5721817452543],[89.529511025653,26.5711957498974],[89.5301620476737,26.570210760809],[89.5303590666693,26.5693987632132],[89.5306921187735,26.5671927658208],[89.5310211499864,26.5658577698714],[89.5310391530366,26.5657287699952],[89.531071237979,26.5655194402519],[89.5330107981923,26.5653101075137],[89.5357329069279,26.5650817299241],[89.5394258246379,26.5647962710692],[89.5435755975776,26.5646631013458],[89.5463548007162,26.5646631552669],[89.5491675237785,26.5646632098394],[89.5491871300855,26.5648151204871],[89.5491751200619,26.5652341209914],[89.5494810544003,26.5679391316873],[89.5497019976032,26.5702831400996],[89.5494749309826,26.5730821406184],[89.5491168153634,26.5779351422063],[89.54922377906,26.5794361469234],[89.5492597352929,26.5812551508217],[89.5456960846982,26.5812299315965],[89.5434118076029,26.5813440974535],[89.5415082391126,26.5814773107347],[89.5396998490183,26.5816676359637],[89.5383102492606,26.5818008592223],[89.5372252082928,26.5819531184263],[89.5360830665531,26.5821434565885],[89.5338749251736,26.5824289542243],[89.531381251765,26.5828286565168],[89.5292111780146,26.5832093250573],[89.5280690358258,26.583418693252],[89.5273107311308,26.5836927290104]]]},"properties":{"compartment":"Damanpur BL7","division":"BTR_W","range":"EastDamanpur","beat":"Damanpur"},"id":"comptt.31"},
{"type":"Feature","geometry":{"type":"Polygon","coordinates":[[[89.5459983900559,26.5959621133512],[89.5421003766674,26.5960884278652],[89.5367763377223,26.5961775546202],[89.5316605032805,26.5964748857861],[89.5278533784618,26.5966532721617],[89.5245254264972,26.5966636975512],[89.5243475007489,26.5935916887423],[89.5240205408173,26.5919576795461],[89.5240336171449,26.5887786742603],[89.5250026858206,26.5858186879143],[89.527206728652,26.5838067271905],[89.5273107311308,26.5836927290104],[89.5280690358258,26.583418693252],[89.5292111780146,26.5832093250573],[89.531381251765,26.5828286565168],[89.5338749251736,26.5824289542243],[89.5360830665531,26.5821434565885],[89.5372252082928,26.5819531184263],[89.5383102492606,26.5818008592223],[89.5396998490183,26.5816676359637],[89.5415082391126,26.5814773107347],[89.5434118076029,26.5813440974535],[89.5456960846982,26.5812299315965],[89.5492597352929,26.5812551508217],[89.5492637287032,26.5815291513813],[89.5492826934989,26.5829931543252],[89.54941863521,26.5854061612099],[89.5497095858753,26.5874301704205],[89.5495015136954,26.5904561717043],[89.5494284809605,26.5918261726963],[89.5462994190849,26.5947231170207],[89.5459983900559,26.5959621133512]]]},"properties":{"compartment":"Damanpur BL4","division":"BTR_W","range":"EastDamanpur","beat":"Damanpur"},"id":"comptt.49"},
{"type":"Feature","geometry":{"type":"Polygon","coordinates":[[[89.5459983900559,26.5959621133512],[89.5459623867325,26.5961041129015],[89.5454603585835,26.5973271052992],[89.5453073170472,26.59907110539],[89.5457672872585,26.6002631164188],[89.5458842527399,26.6016871211927],[89.545991216128,26.603199125927],[89.5464971749434,26.6048601386752],[89.5466281155678,26.6073161455351],[89.546921065956,26.6093491548],[89.5470440518718,26.6099221581969],[89.5414150588448,26.6102120493263],[89.5332167669491,26.6107164489122],[89.5330470672431,26.610726887632],[89.5326480675862,26.6107538799265],[89.5282230714836,26.6110497944657],[89.5277110733844,26.6110237844724],[89.5273151077222,26.6096367743594],[89.5268201490603,26.6079687618336],[89.5262562000625,26.60590574728],[89.5253673179906,26.6010917216202],[89.5245994218917,26.5968476993089],[89.5245325583801,26.5966814367848],[89.5245254264972,26.5966636975512],[89.5278533784618,26.5966532721617],[89.5316605032805,26.5964748857861],[89.5367763377223,26.5961775546202],[89.5421003766674,26.5960884278652],[89.5459983900559,26.5959621133512]]]},"properties":{"compartment":"Damanpur BL3","division":"BTR_W","range":"EastDamanpur","beat":"Damanpur"},"id":"comptt.62"}
]}