{"type":"FeatureCollection", "features": [
{"type":"Feature","geometry":{"type":"Polygon","coordinates":[[[89.5230778579101,26.6619857831948],[89.5166171146321,26.6619639974172],[89.5090623378831,26.6622018008049],[89.5067423730064,26.6622314957086],[89.506331051839,26.6623228878622],[89.5063402489018,26.6620289375327],[89.5063830884302,26.6616291876748],[89.5064116483386,26.6612151575143],[89.5065258818164,26.6606440887492],[89.5066543807842,26.6602586205828],[89.5068542647338,26.6596590034348],[89.5069684978666,26.6591022046941],[89.5072540388473,26.6586167994103],[89.5074681938138,26.6583883731819],[89.5077680078763,26.6581885086698],[89.5081534934439,26.6579172557009],[89.5084961394636,26.6576317218736],[89.5087245764584,26.6573176457746],[89.5089672844497,26.656960729879],[89.509210002097,26.6566180840081],[89.5094527135286,26.6561184078651],[89.5098239280776,26.6554759539748],[89.5099952545277,26.6551904268135],[89.5102236928984,26.6548192306149],[89.510437852681,26.6543909340394],[89.5105378041266,26.653905525143],[89.5106377441958,26.6534772263452],[89.5107377032091,26.6526777269043],[89.5107234493884,26.6515926847467],[89.5107377393277,26.6511786643071],[89.510666372922,26.6506218619538],[89.5105664465874,26.6500650690451],[89.5103951476548,26.6492084542285],[89.510238114558,26.6485231699864],[89.5101096358864,26.6480663066957],[89.5099526059107,26.6476665529487],[89.5097812994097,26.6471240286767],[89.5096385400852,26.6466957251579],[89.5094386812481,26.6462531405039],[89.5093244718513,26.6458248375406],[89.5092816515874,26.6454250860153],[89.5092531133506,26.6449396746195],[89.5092531274486,26.6443543236059],[89.5093530864526,26.643554824165],[89.5094530268602,26.6431122453421],[89.509524425964,26.6427267760629],[89.5095958154116,26.6423270267587],[89.509724313684,26.6419701086395],[89.5099099283452,26.6413419311608],[89.510152640112,26.6408279749903],[89.5104667475436,26.6400713097873],[89.5107951342512,26.6393432049113],[89.5111092396193,26.6386721998562],[89.5115518315709,26.6381296875221],[89.51179454093,26.6377156715237],[89.5118802120584,26.6372445323726],[89.5119230522626,26.636816232463],[89.5119088001716,26.6360738408986],[89.5118517033757,26.6355313188478],[89.5117467662836,26.6350065762544],[89.5144045317735,26.6349165674172],[89.5167425289958,26.634788612654],[89.5189655256922,26.6346946557144],[89.5208895231646,26.6345996929596],[89.522207521385,26.6345367184776],[89.5229615210647,26.6344717330255],[89.5229605194542,26.6345387331226],[89.5231475108013,26.6348787373507],[89.5238604755291,26.6362697536371],[89.5244064550709,26.6370627656357],[89.5248784079238,26.63897177814],[89.5255183028141,26.6432697980755],[89.5253402424136,26.6457957990142],[89.5248111943268,26.6478467922966],[89.524655178238,26.6485307904533],[89.5244691588747,26.6493537882682],[89.5238271211586,26.6509857786202],[89.5234640893444,26.652343773922],[89.5233170662654,26.6533167727558],[89.5230230100539,26.6556797711485],[89.5230588835848,26.6609227809749],[89.5230778579101,26.6619857831948]]]},"properties":{"compartment":"Dima BL4","division":"BTR_W","range":"WestRajabhatkhawa","beat":"Dima"},"id":"comptt.110"},
{"type":"Feature","geometry":{"type":"Polygon","coordinates":[[[89.506331051839,26.6623228878622],[89.5059393007271,26.6624099403892],[89.5052551959975,26.6626776175392],[89.5045116092672,26.6630345236858],[89.5032029003772,26.6635401290913],[89.502013161188,26.6640457468115],[89.5008431732784,26.6644962748203],[89.5008288704289,26.6637863533165],[89.5007029651407,26.6598703441062],[89.5021730619535,26.655699365507],[89.5029141480812,26.6520473736152],[89.5029431517907,26.6518903739081],[89.5038072652454,26.6470903824211],[89.5049833344682,26.6440934001131],[89.5047054137692,26.6408293890641],[89.5037405227355,26.6364043626519],[89.5045605246928,26.6362373783065],[89.5062595300737,26.6358364106465],[89.509201533033,26.6354064671034],[89.5113175358574,26.6350685076593],[89.5116895363684,26.6350085147882],[89.5117467662836,26.6350065762544],[89.5118517033757,26.6355313188478],[89.5119088001716,26.6360738408986],[89.5119230522626,26.636816232463],[89.5118802120584,26.6372445323726],[89.51179454093,26.6377156715237],[89.5115518315709,26.6381296875221],[89.5111092396193,26.6386721998562],[89.5107951342512,26.6393432049113],[89.5104667475436,26.6400713097873],[89.510152640112,26.6408279749903],[89.5099099283452,26.6413419311608],[89.509724313684,26.6419701086395],[89.5095958154116,26.6423270267587],[89.509524425964,26.6427267760629],[89.5094530268602,26.6431122453421],[89.5093530864526,26.643554824165],[89.5092531274486,26.6443543236059],[89.5092531133506,26.6449396746195],[89.5092816515874,26.6454250860153],[89.5093244718513,26.6458248375406],[89.5094386812481,26.6462531405039],[89.5096385400852,26.6466957251579],[89.5097812994097,26.6471240286767],[89.5099526059107,26.6476665529487],[89.5101096358864,26.6480663066957],[89.510238114558,26.6485231699864],[89.5103951476548,26.6492084542285],[89.5105664465874,26.6500650690451],[89.510666372922,26.6506218619538],[89.5107377393277,26.6511786643071],[89.5107234493884,26.6515926847467],[89.5107377032091,26.6526777269043],[89.5106377441958,26.6534772263452],[89.5105378041266,26.653905525143],[89.510437852681,26.6543909340394],[89.5102236928984,26.6548192306149],[89.5099952545277,26.6551904268135],[89.5098239280776,26.6554759539748],[89.5094527135286,26.6561184078651],[89.509210002097,26.6566180840081],[89.5089672844497,26.656960729879],[89.5087245764584,26.6573176457746],[89.5084961394636,26.6576317218736],[89.5081534934439,26.6579172557009],[89.5077680078763,26.6581885086698],[89.5074681938138,26.6583883731819],[89.5072540388473,26.6586167994103],[89.5069684978666,26.6591022046941],[89.5068542647338,26.6596590034348],[89.5066543807842,26.6602586205828],[89.5065258818164,26.6606440887492],[89.5064116483386,26.6612151575143],[89.5063830884302,26.6616291876748],[89.5063402489018,26.6620289375327],[89.506331051839,26.6623228878622]]]},"properties":{"compartment":"Dima BL3","division":"BTR_W","range":"WestRajabhatkhawa","beat":"Dima"},"id":"comptt.112"},
{"type":"Feature","geometry":{"type":"Polygon","coordinates":[[[89.5230778579101,26.6619857831948],[89.5230798564586,26.6620457833382],[89.5231347815046,26.6651487898095],[89.5232587284802,26.6673347960282],[89.5232076666026,26.6699057995103],[89.5236345620754,26.6741948152892],[89.5240265175948,26.6759978260608],[89.5243024861889,26.6772708336515],[89.5248724213711,26.679897849326],[89.5249893756358,26.6817808548839],[89.5254792982345,26.6849368699244],[89.5253372455325,26.6871348709868],[89.5253722033898,26.6888768747026],[89.5257501646085,26.6904438847959],[89.5257811414478,26.6913998870651],[89.525883060658,26.6947348948618],[89.5246431136602,26.6926688671038],[89.5230691815235,26.6900218318315],[89.5215012739134,26.6863577949131],[89.5198543386817,26.6838457584662],[89.5190334061945,26.6811337377637],[89.5182164769692,26.6782857169057],[89.5177725206207,26.6765227051978],[89.5171735450445,26.6755726918849],[89.5157435781892,26.674347661916],[89.5142416098498,26.6731916306675],[89.5128876280889,26.6725766032408],[89.5113036370908,26.6723685720433],[89.5110858969647,26.6723922675505],[89.5109656635267,26.6721369950624],[89.5108800054642,26.6720656032711],[89.5106658584134,26.671965668929],[89.5103803215425,26.6718657231973],[89.5101661741475,26.67178005888],[89.5098663676569,26.6716658428458],[89.5096807715675,26.6715230689855],[89.5093809695532,26.6712232526301],[89.5090240597488,26.6708377650147],[89.5087385276984,26.6705379489373],[89.5084672869893,26.6701810230394],[89.508124645771,26.6698526558011],[89.507710636454,26.6694528970504],[89.5074393871217,26.6690388610539],[89.5072252479894,26.6686105561445],[89.5070253788212,26.668182241513],[89.5069111804695,26.667711108475],[89.5067684201239,26.6673256350294],[89.5064971711347,26.666897329009],[89.5063829696843,26.6665546761934],[89.5063115884699,26.6661977541866],[89.5062544958426,26.6658979425569],[89.5062116762769,26.6654696409826],[89.50619740423,26.6651412701368],[89.5061545853523,26.6646844185132],[89.506168877019,26.6641990079516],[89.5062259933962,26.6635137178777],[89.5062688404971,26.6627998774767],[89.5063259579249,26.662485788045],[89.506331051839,26.6623228878622],[89.5067423730064,26.6622314957086],[89.5090623378831,26.6622018008049],[89.5166171146321,26.6619639974172],[89.5230778579101,26.6619857831948]]]},"properties":{"compartment":"Dima BL2","division":"BTR_W","range":"WestRajabhatkhawa","beat":"Dima"},"id":"comptt.143"},
{"type":"Feature","geometry":{"type":"Polygon","coordinates":[[[89.5110858969647,26.6723922675505],[89.5107156370269,26.6724325607071],[89.5094946368928,26.6725655371675],[89.5077566299823,26.6730335041429],[89.5066986131111,26.6738434849472],[89.506389573076,26.6755354818577],[89.5064575304225,26.6772964862271],[89.5062984883375,26.6790574861765],[89.5059904466487,26.6808174832224],[89.5060604186744,26.6819694865774],[89.5063563884632,26.6831904944528],[89.50657534867,26.6848165015296],[89.5063463296503,26.6856284984739],[89.5060423173599,26.6861694934886],[89.5052832915425,26.6873184806924],[89.5045232722441,26.6881974674091],[89.5036152533676,26.6890744512388],[89.5030112467585,26.6894114400563],[89.50230329622,26.6874364228563],[89.5018373300776,26.6860824114431],[89.4987153434246,26.6858563502521],[89.4981404704077,26.6806543300869],[89.5006295337927,26.677766373568],[89.5012236364988,26.6734463776769],[89.5009487253644,26.6697903660139],[89.5008498452798,26.6648273555217],[89.5008431732784,26.6644962748203],[89.502013161188,26.6640457468115],[89.5032029003772,26.6635401290913],[89.5045116092672,26.6630345236858],[89.5052551959975,26.6626776175392],[89.5059393007271,26.6624099403892],[89.506331051839,26.6623228878622],[89.5063259579249,26.662485788045],[89.5062688404971,26.6627998774767],[89.5062259933962,26.6635137178777],[89.506168877019,26.6641990079516],[89.5061545853523,26.6646844185132],[89.50619740423,26.6651412701368],[89.5062116762769,26.6654696409826],[89.5062544958426,26.6658979425569],[89.5063115884699,26.6661977541866],[89.5063829696843,26.6665546761934],[89.5064971711347,26.666897329009],[89.5067684201239,26.6673256350294],[89.5069111804695,26.667711108475],[89.5070253788212,26.668182241513],[89.5072252479894,26.6686105561445],[89.5074393871217,26.6690388610539],[89.507710636454,26.6694528970504],[89.508124645771,26.6698526558011],[89.5084672869893,26.6701810230394],[89.5087385276984,26.6705379489373],[89.5090240597488,26.6708377650147],[89.5093809695532,26.6712232526301],[89.5096807715675,26.6715230689855],[89.5098663676569,26.6716658428458],[89.5101661741475,26.67178005888],[89.5103803215425,26.6718657231973],[89.5106658584134,26.671965668929],[89.5108800054642,26.6720656032711],[89.5109656635267,26.6721369950624],[89.5110858969647,26.6723922675505]]]},"properties":{"compartment":"Dima BL1","division":"BTR_W","range":"WestRajabhatkhawa","beat":"Dima"},"id":"comptt.134"}
]}