{"type":"FeatureCollection", "features": [
{"type":"Feature","geometry":{"type":"Polygon","coordinates":[[[89.5449675237785,26.5595632098394],[89.5421548007162,26.5595631552669],[89.5393755975776,26.559563101345802],[89.5352258246379,26.5596962710692],[89.53153290692791,26.5599817299241],[89.5288107981923,26.5602101075137],[89.52687123797901,26.560419440251902],[89.5270861910955,26.5590167719705],[89.5272892476822,26.5566367717497],[89.52749230008901,26.5544307718322],[89.5273733519211,26.5522817657687],[89.5268843985742,26.5503867529736],[89.5268494019699,26.5502487520537],[89.5268614727657,26.547294747125],[89.5285335483081,26.543970773736],[89.5299506134714,26.5411057961991],[89.5319966275121,26.5403088344715],[89.5355706266612,26.5399759031798],[89.5397856296809,26.539415983917802],[89.5445236369645,26.538625074389],[89.54792064250701,26.5380451392304],[89.5464695934906,26.5402391149601],[89.54586054036061,26.5425181071626],[89.54555248463781,26.544874105336],[89.5453294427018,26.546646104129202],[89.5452794111265,26.547968105485502],[89.5450673725382,26.5495991042432],[89.5450263359715,26.551128106137902],[89.544947297625,26.5527351074325],[89.5449852579554,26.5543851110723],[89.5449952242767,26.5557881137343],[89.5448311928956,26.557113112883503],[89.5448021649222,26.5582821143771],[89.5449675237785,26.5595632098394]]]},"properties":{"compartment":"Damanpur BL8","division":"BTR_W","range":"EastDamanpur","beat":"EastDamanpur","DIVISION":"BTR_W","BEAT_NAME":"EastDamanpur"},"id":"comptt.15"},
{"type":"Feature","geometry":{"type":"Polygon","coordinates":[[[89.5231107311308,26.578592729010403],[89.5229547305583,26.578632726052],[89.5235167416951,26.5781107360506],[89.524229757979,26.5773587485785],[89.5242327774923,26.576545747218002],[89.52411082660541,26.5745127413022],[89.5242508806315,26.5722477400665],[89.5246509409419,26.569693743371502],[89.52478497821811,26.5681267432365],[89.5249830028055,26.567081745254303],[89.525311025653,26.5660957498974],[89.5259620476737,26.565110760809002],[89.52615906666931,26.564298763213202],[89.5264921187735,26.5620927658208],[89.5268211499864,26.5607577698714],[89.5268391530366,26.5606287699952],[89.52687123797901,26.560419440251902],[89.5288107981923,26.5602101075137],[89.53153290692791,26.5599817299241],[89.5352258246379,26.5596962710692],[89.5393755975776,26.559563101345802],[89.5421548007162,26.5595631552669],[89.5449675237785,26.5595632098394],[89.5449871300855,26.559715120487102],[89.5449751200619,26.5601341209914],[89.5452810544003,26.5628391316873],[89.5455019976032,26.565183140099602],[89.5452749309826,26.5679821406184],[89.54491681536341,26.5728351422063],[89.54502377906,26.5743361469234],[89.54505973529291,26.5761551508217],[89.54149608469821,26.5761299315965],[89.5392118076029,26.5762440974535],[89.5373082391126,26.576377310734703],[89.53549984901831,26.576567635963702],[89.5341102492606,26.576700859222303],[89.5330252082928,26.5768531184263],[89.5318830665531,26.577043456588502],[89.52967492517361,26.577328954224303],[89.527181251765,26.5777286565168],[89.52501117801461,26.5781093250573],[89.5238690358258,26.578318693252],[89.5231107311308,26.578592729010403]]]},"properties":{"compartment":"Damanpur BL7","division":"BTR_W","range":"EastDamanpur","beat":"EastDamanpur","DIVISION":"BTR_W","BEAT_NAME":"EastDamanpur"},"id":"comptt.31"},
{"type":"Feature","geometry":{"type":"Polygon","coordinates":[[[89.5417983900559,26.5908621133512],[89.53790037666741,26.590988427865202],[89.5325763377223,26.591077554620203],[89.52746050328051,26.591374885786102],[89.5236533784618,26.5915532721617],[89.52032542649721,26.5915636975512],[89.5201475007489,26.5884916887423],[89.5198205408173,26.5868576795461],[89.5198336171449,26.5836786742603],[89.5208026858206,26.580718687914302],[89.523006728652,26.5787067271905],[89.5231107311308,26.578592729010403],[89.5238690358258,26.578318693252],[89.52501117801461,26.5781093250573],[89.527181251765,26.5777286565168],[89.52967492517361,26.577328954224303],[89.5318830665531,26.577043456588502],[89.5330252082928,26.5768531184263],[89.5341102492606,26.576700859222303],[89.53549984901831,26.576567635963702],[89.5373082391126,26.576377310734703],[89.5392118076029,26.5762440974535],[89.54149608469821,26.5761299315965],[89.54505973529291,26.5761551508217],[89.5450637287032,26.5764291513813],[89.5450826934989,26.577893154325203],[89.54521863521,26.5803061612099],[89.54550958587531,26.5823301704205],[89.5453015136954,26.5853561717043],[89.5452284809605,26.586726172696302],[89.5420994190849,26.5896231170207],[89.5417983900559,26.5908621133512]]]},"properties":{"compartment":"Damanpur BL4","division":"BTR_W","range":"EastDamanpur","beat":"EastDamanpur","DIVISION":"BTR_W","BEAT_NAME":"EastDamanpur"},"id":"comptt.49"},
{"type":"Feature","geometry":{"type":"Polygon","coordinates":[[[89.5417983900559,26.5908621133512],[89.5417623867325,26.5910041129015],[89.5412603585835,26.5922271052992],[89.5411073170472,26.59397110539],[89.5415672872585,26.595163116418803],[89.5416842527399,26.5965871211927],[89.541791216128,26.598099125927],[89.5422971749434,26.5997601386752],[89.5424281155678,26.602216145535102],[89.542721065956,26.6042491548],[89.5428440518718,26.6048221581969],[89.53721505884481,26.6051120493263],[89.5290167669491,26.6056164489122],[89.5288470672431,26.605626887632003],[89.5284480675862,26.6056538799265],[89.5240230714836,26.6059497944657],[89.5235110733844,26.605923784472402],[89.5231151077222,26.604536774359403],[89.5226201490603,26.6028687618336],[89.52205620006251,26.600805747280003],[89.5211673179906,26.5959917216202],[89.5203994218917,26.5917476993089],[89.5203325583801,26.5915814367848],[89.52032542649721,26.5915636975512],[89.5236533784618,26.5915532721617],[89.52746050328051,26.591374885786102],[89.5325763377223,26.591077554620203],[89.53790037666741,26.590988427865202],[89.5417983900559,26.5908621133512]]]},"properties":{"compartment":"Damanpur BL3","division":"BTR_W","range":"EastDamanpur","beat":"EastDamanpur","DIVISION":"BTR_W","BEAT_NAME":"EastDamanpur"},"id":"comptt.62"}
]}
