{"type":"FeatureCollection", "features": [
{"type":"Feature","geometry":{"type":"Polygon","coordinates":[[[89.62783468650551,26.5714668797439],[89.6272302282488,26.5714546579818],[89.6265996797618,26.5714546457353],[89.6262308580748,26.5715617087661],[89.6259810141014,26.5717520642587],[89.62564788004251,26.5719543081551],[89.6250649208703,26.571978096875903],[89.6245652346425,26.571871006977002],[89.6241488302152,26.5716806485447],[89.62357394899911,26.5713147888938],[89.6234944917899,26.5712642250821],[89.62291153376461,26.570824012963],[89.6223047903687,26.5701934400379],[89.6219359826858,26.5697175420139],[89.62154338277361,26.5693368237005],[89.6211269840603,26.569324915592603],[89.6205083258334,26.5693130035568],[89.619734995407,26.569408168711202],[89.6183787055263,26.5695390126092],[89.6178314259861,26.569574692045702],[89.617450712616,26.569753144975],[89.6172955517472,26.5698048620553],[89.61705810041771,26.569884007587103],[89.6166298003058,26.5699315893556],[89.6161063124234,26.569895889125302],[89.6156304249984,26.569836389776402],[89.6155114592855,26.569669827165303],[89.6154757782294,26.569301015806403],[89.6154638839731,26.569063065145702],[89.6153449219747,26.5687418322555],[89.6150712914914,26.568373016276002],[89.6146905921231,26.5679684981531],[89.6143455700975,26.5676710509166],[89.6139291813864,26.567242742058202],[89.6134889918755,26.5668501228023],[89.6129774113936,26.566505092246402],[89.6125491169972,26.566314723586903],[89.6120732310012,26.5661957441322],[89.61158544332,26.5661481445753],[89.6106931469004,26.566088637143],[89.6103838190747,26.566029151029802],[89.6100388039068,26.5658625740307],[89.6097889696518,26.565648418794],[89.609562928196,26.5653152938049],[89.6093130873689,26.564958368311],[89.6091584343125,26.5646847248154],[89.6089918789993,26.5645062612601],[89.6087539292878,26.5645181566618],[89.6084326977777,26.5646133305966],[89.6081828560954,26.5647085059174],[89.60801629392671,26.5648155728765],[89.6072548574807,26.5651605787145],[89.606422037208,26.565672153466203],[89.60560110747831,26.566159928405302],[89.6045898236385,26.5668380499907],[89.6041139290751,26.5670759911788],[89.6039333473436,26.567166277835],[89.6035967947211,26.566892920809103],[89.6033683811015,26.5666502059379],[89.6029258134844,26.5661790664983],[89.6023404813544,26.5654937739024],[89.6019407504891,26.5647370947819],[89.6017694439289,26.564194570481302],[89.6016552410006,26.563495007007102],[89.601498218518,26.562781162676302],[89.6012269725408,26.5622243664103],[89.6009842851235,26.5617246708015],[89.60072731774041,26.561224974915703],[89.600513169225,26.560768119938203],[89.5999564014769,26.5598972175667],[89.59961377361441,26.5594260800702],[89.5993568055445,26.5589549442365],[89.59914265805611,26.558455249182803],[89.5989999069681,26.5580983257714],[89.59881431941,26.557598631272302],[89.5987715138409,26.556584978621903],[89.5986858838554,26.555342904730402],[89.5986287938644,26.5545148421361],[89.5987287452705,26.5540294332045],[89.5989286278047,26.5534869261095],[89.5993283912256,26.5528873027907],[89.5999249420754,26.5523749934473],[89.6003371668273,26.552552181765],[89.6017201506227,26.5530882095662],[89.6042011238241,26.553955259272602],[89.6043941178628,26.554184263430002],[89.6056010997341,26.554818287995403],[89.6070680864501,26.555224317198],[89.60865906874061,26.555802349118],[89.6102520593077,26.5560353804568],[89.6119730523046,26.556154414075202],[89.6121510518517,26.556155417532],[89.6136950480374,26.5561594475081],[89.6147150551585,26.5557604665861],[89.6162910526147,26.555708497082403],[89.61777906547701,26.555023524726902],[89.617649050645,26.5556545233438],[89.6180940371665,26.5561715329159],[89.6185360236948,26.556688542430003],[89.6192380192233,26.5568045562663],[89.6201950182201,26.5567505747453],[89.6202890137217,26.556928576891902],[89.62101797906101,26.5582995935235],[89.6214629655574,26.558817603099403],[89.621716955297,26.5592196087578],[89.62228693601911,26.559965621173802],[89.622419932795,26.5600866239748],[89.6232399130124,26.5608286412378],[89.6241329039304,26.5611176590985],[89.6248348953313,26.561405673249503],[89.6247658693256,26.5624956738847],[89.6252738570857,26.5629546845797],[89.6259098458831,26.5633576976588],[89.6266108303945,26.5639327123122],[89.62622482032221,26.5643907056475],[89.6264777949328,26.5654227124309],[89.6264767866499,26.565767713036802],[89.62621675701351,26.567027710272],[89.6254527520019,26.5673126959523],[89.6250007173241,26.5688016898726],[89.6259546943297,26.569663709961702],[89.6270366778977,26.570239732019303],[89.62741566180691,26.5708717405261],[89.62783468650551,26.5714668797439]]]},"properties":{"compartment":"Gadadhar BL4","division":"BTR_W","range":"EastRajabhatkhawa","beat":"Gadadhar","DIVISION":"BTR_W","BEAT_NAME":"Gadadhar"},"id":"comptt.25"},
{"type":"Feature","geometry":{"type":"Polygon","coordinates":[[[89.6172955517472,26.5698048620553],[89.6171560347012,26.5705285306536],[89.6167848277626,26.5712709147861],[89.6163279489723,26.5720989574092],[89.6158139723766,26.5728413487681],[89.6150001699866,26.5738549847932],[89.6142577649699,26.574554531637002],[89.6136438558173,26.574997100512203],[89.61298962837671,26.5753724584828],[89.61233397571,26.5747167745656],[89.6114631101042,26.5737887659782],[89.6106208054575,26.5728179278695],[89.6098070607411,26.571847090316503],[89.60896475197771,26.5710475725187],[89.60810816290551,26.5702623344702],[89.6076941514489,26.5699482358652],[89.6072944082436,26.569705517665803],[89.6067804490856,26.569305756966102],[89.6063949896173,26.568905998761903],[89.6061237415869,26.568434862647003],[89.6056240693084,26.568163592456703],[89.6051243914869,26.567706731932603],[89.6045676103751,26.567392630557002],[89.6042392445972,26.5672498539246],[89.6039333473436,26.567166277835],[89.6041139290751,26.5670759911788],[89.6045898236385,26.5668380499907],[89.60560110747831,26.566159928405302],[89.606422037208,26.565672153466203],[89.6072548574807,26.5651605787145],[89.60801629392671,26.5648155728765],[89.6081828560954,26.5647085059174],[89.6084326977777,26.5646133305966],[89.6087539292878,26.5645181566618],[89.6089918789993,26.5645062612601],[89.6091584343125,26.5646847248154],[89.6093130873689,26.564958368311],[89.609562928196,26.5653152938049],[89.6097889696518,26.565648418794],[89.6100388039068,26.5658625740307],[89.6103838190747,26.566029151029802],[89.6106931469004,26.566088637143],[89.61158544332,26.5661481445753],[89.6120732310012,26.5661957441322],[89.6125491169972,26.566314723586903],[89.6129774113936,26.566505092246402],[89.6134889918755,26.5668501228023],[89.6139291813864,26.567242742058202],[89.6143455700975,26.5676710509166],[89.6146905921231,26.5679684981531],[89.6150712914914,26.568373016276002],[89.6153449219747,26.5687418322555],[89.6154638839731,26.569063065145702],[89.6154757782294,26.569301015806403],[89.6155114592855,26.569669827165303],[89.6156304249984,26.569836389776402],[89.6161063124234,26.569895889125302],[89.6166298003058,26.5699315893556],[89.61705810041771,26.569884007587103],[89.6172955517472,26.5698048620553]]]},"properties":{"compartment":"Gadadhar BL5","division":"BTR_W","range":"EastRajabhatkhawa","beat":"Gadadhar","DIVISION":"BTR_W","BEAT_NAME":"Gadadhar"},"id":"comptt.26"},
{"type":"Feature","geometry":{"type":"Polygon","coordinates":[[[89.6172955517472,26.5698048620553],[89.617450712616,26.569753144975],[89.6178314259861,26.569574692045702],[89.6183787055263,26.5695390126092],[89.619734995407,26.569408168711202],[89.6205083258334,26.5693130035568],[89.6211269840603,26.569324915592603],[89.62154338277361,26.5693368237005],[89.6219359826858,26.5697175420139],[89.6223047903687,26.5701934400379],[89.62291153376461,26.570824012963],[89.6234944917899,26.5712642250821],[89.62357394899911,26.5713147888938],[89.6235948228111,26.571627967689402],[89.6237661334825,26.571999171689],[89.6240516538797,26.5723703679068],[89.6242657927331,26.5728129528677],[89.624551313183,26.573598179836],[89.6247654438035,26.574383415417902],[89.62490819390881,26.5751971896652],[89.6249795589872,26.5758110921639],[89.62492240795821,26.5775243141583],[89.6248224631034,26.578152483355],[89.6245797372185,26.5788377698814],[89.6242656287599,26.579637265227802],[89.62383731400641,26.5802939880963],[89.623451824346,26.5811505821586],[89.623194819915,26.5821927890528],[89.62302337129451,26.583400677909],[89.62269137146801,26.583426671505503],[89.6204873732615,26.5835726289477],[89.6194873713664,26.583751609842203],[89.6192493209072,26.5837945552948],[89.61811587544321,26.5820551501291],[89.6174448876466,26.5811985355454],[89.6169023898827,26.580327643432803],[89.6164455488241,26.5795852332169],[89.6157460059481,26.5789427684674],[89.6152320646829,26.5782146371691],[89.6144325892509,26.5772723599386],[89.6136616768364,26.576201583032002],[89.6130763460841,26.5754591803236],[89.61298962837671,26.5753724584828],[89.6136438558173,26.574997100512203],[89.6142577649699,26.574554531637002],[89.6150001699866,26.5738549847932],[89.6158139723766,26.5728413487681],[89.6163279489723,26.5720989574092],[89.6167848277626,26.5712709147861],[89.6171560347012,26.5705285306536],[89.6172955517472,26.5698048620553]]]},"properties":{"compartment":"Gadadhar BL5","division":"BTR_W","range":"EastRajabhatkhawa","beat":"Gadadhar","DIVISION":"BTR_W","BEAT_NAME":"Gadadhar"},"id":"comptt.34"},
{"type":"Feature","geometry":{"type":"Polygon","coordinates":[[[89.5976213576207,26.5698572995205],[89.5971301516978,26.5701691611351],[89.5961188681491,26.5708353926939],[89.5956667618165,26.571144714469902],[89.5952979424248,26.5715730080761],[89.5949647995174,26.572144072630902],[89.5942985337032,26.5728698009939],[89.59359657997621,26.573512238514102],[89.59244252791851,26.574130877212102],[89.59156212119801,26.5744996807758],[89.590657927108,26.5747614036858],[89.589670443221,26.575023124978102],[89.5888019410461,26.5752015684319],[89.5881713817224,26.5752372462509],[89.5872671933502,26.575261028735103],[89.5860298755041,26.5752966947717],[89.58524465627241,26.5753442696089],[89.5848797160439,26.575390772605402],[89.58402869459721,26.573871903368502],[89.5827547355986,26.572293875816],[89.5813957852812,26.5703628459867],[89.5802858319998,26.5685298211697],[89.5791278903313,26.566217794570303],[89.57737795598091,26.563660756047803],[89.5766929926239,26.5622037401588],[89.5755290299051,26.560768715014202],[89.57565788946441,26.5607769664091],[89.5769820241284,26.5608617433789],[89.57898702188,26.5607517820958],[89.5803470197901,26.5607008083998],[89.5835150158688,26.5605428696036],[89.5851510117927,26.5605469013632],[89.58746601230891,26.5602909458374],[89.5872210562249,26.5584859378568],[89.5869171014557,26.5566319286441],[89.586535132715,26.555367918972703],[89.5856261813761,26.5534318978755],[89.5849051969961,26.5528538828531],[89.58427520716461,26.5524938699862],[89.5834772266183,26.551763853199702],[89.583384230323,26.5516188511364],[89.5833612396389,26.5512328500014],[89.583108260117,26.5504048436152],[89.5831092678148,26.550083843061802],[89.5829582825267,26.549485839065103],[89.5829982998917,26.5487578385422],[89.5847163071566,26.548280871021102],[89.5863113128039,26.5478839012559],[89.5879673072718,26.547946933496],[89.5895623142906,26.5474929636285],[89.5907092976923,26.548068986912],[89.592172274787,26.5488760167411],[89.5935072563426,26.5495100437786],[89.5945892371443,26.5502010660107],[89.595670216557,26.550950088328403],[89.5973901999172,26.5514701226362],[89.5986631857522,26.551932148167403],[89.5992991800388,26.552106160821403],[89.5995321770759,26.5522061655223],[89.5999249420754,26.5523749934473],[89.5993283912256,26.5528873027907],[89.5989286278047,26.5534869261095],[89.5987287452705,26.5540294332045],[89.5986287938644,26.5545148421361],[89.5986858838554,26.555342904730402],[89.5987715138409,26.556584978621903],[89.59881431941,26.557598631272302],[89.5989999069681,26.5580983257714],[89.59914265805611,26.558455249182803],[89.5993568055445,26.5589549442365],[89.59961377361441,26.5594260800702],[89.5999564014769,26.5598972175667],[89.600513169225,26.560768119938203],[89.60072731774041,26.561224974915703],[89.6009842851235,26.5617246708015],[89.6012269725408,26.5622243664103],[89.601498218518,26.562781162676302],[89.6016552410006,26.563495007007102],[89.6017694439289,26.564194570481302],[89.6019407504891,26.5647370947819],[89.6023404813544,26.5654937739024],[89.6029258134844,26.5661790664983],[89.6033683811015,26.5666502059379],[89.6035967947211,26.566892920809103],[89.6039333473436,26.567166277835],[89.6036380345117,26.5673139323668],[89.60292419195301,26.5674923688276],[89.60219845856581,26.567706515121802],[89.6016273745193,26.5679325544398],[89.6010800989871,26.5682180743268],[89.60039004580061,26.568420311291902],[89.59949774796141,26.568836704714602],[89.59858164046621,26.569241197653103],[89.5978796913099,26.5696932848349],[89.5976213576207,26.5698572995205]]]},"properties":{"compartment":"Gadadhar BL2","division":"BTR_W","range":"EastRajabhatkhawa","beat":"Gadadhar","DIVISION":"BTR_W","BEAT_NAME":"Gadadhar"},"id":"comptt.28"},
{"type":"Feature","geometry":{"type":"Polygon","coordinates":[[[89.62783468650551,26.5714668797439],[89.6283056293076,26.572135760104203],[89.62849362859241,26.572146763775702],[89.6292616242044,26.5722527788847],[89.6302796148211,26.572541799182],[89.6306605973789,26.5732298078312],[89.6313585791045,26.5739208226438],[89.6318065821395,26.5737498310354],[89.6323795669757,26.5743238432082],[89.6335255558936,26.5746708660998],[89.6343535524696,26.5747308822929],[89.635119554721,26.574560896863503],[89.63620355481851,26.5744489177169],[89.63690254072391,26.574965932236],[89.63658152632941,26.5755969271483],[89.6368355078197,26.5763419334381],[89.6373414817854,26.577374945147902],[89.6379144693603,26.5778349571172],[89.638680464717,26.577951972211903],[89.6398264550322,26.578240995003],[89.640907427574,26.5792760178911],[89.6410944009527,26.5803650235088],[89.64275037070101,26.5814590576798],[89.64427533528091,26.582781089724],[89.6447503276083,26.583053099450503],[89.64139332245121,26.5836010352157],[89.6379493277529,26.583722968514202],[89.6332773331219,26.5839648781702],[89.6288483528299,26.583586791425002],[89.624910369883,26.5832707143369],[89.6244643706425,26.583283705695003],[89.62302337129451,26.583400677909],[89.623194819915,26.5821927890528],[89.623451824346,26.5811505821586],[89.62383731400641,26.5802939880963],[89.6242656287599,26.579637265227802],[89.6245797372185,26.5788377698814],[89.6248224631034,26.578152483355],[89.62492240795821,26.5775243141583],[89.6249795589872,26.5758110921639],[89.62490819390881,26.5751971896652],[89.6247654438035,26.574383415417902],[89.624551313183,26.573598179836],[89.6242657927331,26.5728129528677],[89.6240516538797,26.5723703679068],[89.6237661334825,26.571999171689],[89.6235948228111,26.571627967689402],[89.62357394899911,26.5713147888938],[89.6241488302152,26.5716806485447],[89.6245652346425,26.571871006977002],[89.6250649208703,26.571978096875903],[89.62564788004251,26.5719543081551],[89.6259810141014,26.5717520642587],[89.6262308580748,26.5715617087661],[89.6265996797618,26.5714546457353],[89.6272302282488,26.5714546579818],[89.62783468650551,26.5714668797439]]]},"properties":{"compartment":"Gadadhar BL6","division":"BTR_W","range":"EastRajabhatkhawa","beat":"Gadadhar","DIVISION":"BTR_W","BEAT_NAME":"Gadadhar"},"id":"comptt.35"},
{"type":"Feature","geometry":{"type":"Polygon","coordinates":[[[89.6192493209072,26.5837945552948],[89.61890537024411,26.583856598724303],[89.6173083726971,26.583914567801102],[89.61625437439601,26.5839495473863],[89.613962377952,26.584031503003903],[89.61228437692981,26.5842424707837],[89.6060043923455,26.5842323487585],[89.6056989020069,26.5842771829043],[89.6051236951487,26.58378828085],[89.60464780636511,26.5833694908518],[89.6042861427302,26.583141053415],[89.6040386792763,26.5828935881627],[89.603791225365,26.5826651529449],[89.6035247301273,26.582493827459903],[89.6030488440243,26.58237959801],[89.60261102599941,26.5823415194366],[89.602211277425,26.582322471637102],[89.6017924911839,26.582208253296702],[89.6014308138897,26.5821321061341],[89.6009929986101,26.5819798073559],[89.6008597516775,26.581865594562302],[89.6007265074896,26.5816371615638],[89.6005932655889,26.5813135483944],[89.6005552025423,26.581028017142202],[89.6005171413255,26.580666335753403],[89.6005171481867,26.5803807952407],[89.6005171527605,26.5801904448989],[89.6006884787489,26.5799239477481],[89.6009169104826,26.579828772014203],[89.601050163819,26.5796764843289],[89.6010692092613,26.579448064288602],[89.6009740345232,26.5792386620638],[89.60082174809381,26.5791054088665],[89.600536223359,26.5789150529788],[89.6002697272062,26.578781797563302],[89.60013648164541,26.578610474667702],[89.5999841997895,26.578286861128902],[89.5999651794399,26.5778871100416],[89.59990807872491,26.577506398249],[89.5998890465457,26.5771827872983],[89.59983195445861,26.5768591756085],[89.5997558128746,26.5765165335144],[89.5995845033506,26.5760977394355],[89.5995749927481,26.575707508550103],[89.59955596965341,26.5754219776681],[89.5995369367875,26.575126916768802],[89.5994798442422,26.5748223451132],[89.59941322057661,26.574565363358],[89.59933708876301,26.5742322412815],[89.5992609474065,26.5738800791706],[89.599118195983,26.5735374257834],[89.5989373651083,26.5731757516225],[89.5987470142569,26.5728140672769],[89.5985471518279,26.5725190128663],[89.598318730154,26.572195397850003],[89.5979475383688,26.5718908200955],[89.5977857421899,26.5717480466976],[89.5976715254384,26.5716243142577],[89.5976049122291,26.571348292469],[89.59761443883511,26.5710722721588],[89.59761444363531,26.5708724018002],[89.5976144527787,26.5704916811174],[89.5976213576207,26.5698572995205],[89.5978796913099,26.5696932848349],[89.59858164046621,26.569241197653103],[89.59949774796141,26.568836704714602],[89.60039004580061,26.568420311291902],[89.6010800989871,26.5682180743268],[89.6016273745193,26.5679325544398],[89.60219845856581,26.567706515121802],[89.60292419195301,26.5674923688276],[89.6036380345117,26.5673139323668],[89.6039333473436,26.567166277835],[89.6042392445972,26.5672498539246],[89.6045676103751,26.567392630557002],[89.6051243914869,26.567706731932603],[89.6056240693084,26.568163592456703],[89.6061237415869,26.568434862647003],[89.6063949896173,26.568905998761903],[89.6067804490856,26.569305756966102],[89.6072944082436,26.569705517665803],[89.6076941514489,26.5699482358652],[89.60810816290551,26.5702623344702],[89.60896475197771,26.5710475725187],[89.6098070607411,26.571847090316503],[89.6106208054575,26.5728179278695],[89.6114631101042,26.5737887659782],[89.61233397571,26.5747167745656],[89.61298962837671,26.5753724584828],[89.6130763460841,26.5754591803236],[89.6136616768364,26.576201583032002],[89.6144325892509,26.5772723599386],[89.6152320646829,26.5782146371691],[89.6157460059481,26.5789427684674],[89.6164455488241,26.5795852332169],[89.6169023898827,26.580327643432803],[89.6174448876466,26.5811985355454],[89.61811587544321,26.5820551501291],[89.6192493209072,26.5837945552948]]]},"properties":{"compartment":"Gadadhar BL3","division":"BTR_W","range":"EastRajabhatkhawa","beat":"Gadadhar","DIVISION":"BTR_W","BEAT_NAME":"Gadadhar"},"id":"comptt.37"},
{"type":"Feature","geometry":{"type":"Polygon","coordinates":[[[89.6056989020069,26.5842771829043],[89.6053843916584,26.5843233368773],[89.6026663886003,26.5847242847946],[89.60010139267631,26.584813235124003],[89.5972773971218,26.5849131804422],[89.59525039675451,26.585133141459],[89.5911803985931,26.5854680629939],[89.5909843989255,26.5854740591971],[89.5895644012499,26.585521031696402],[89.5874294010148,26.585746990626202],[89.58632440187931,26.5858229692967],[89.5861864019751,26.585832966633802],[89.5854054488408,26.5839619481219],[89.5852284774828,26.582787942587903],[89.5851165147105,26.5812499376668],[89.5847075678904,26.579077925846],[89.58490763113521,26.5764249249941],[89.5849776443443,26.575867925359002],[89.5850086502018,26.575620925520102],[89.5849666521056,26.5755459245706],[89.5848797160439,26.575390772605402],[89.58524465627241,26.5753442696089],[89.5860298755041,26.5752966947717],[89.5872671933502,26.575261028735103],[89.5881713817224,26.5752372462509],[89.5888019410461,26.5752015684319],[89.589670443221,26.575023124978102],[89.590657927108,26.5747614036858],[89.59156212119801,26.5744996807758],[89.59244252791851,26.574130877212102],[89.59359657997621,26.573512238514102],[89.5942985337032,26.5728698009939],[89.5949647995174,26.572144072630902],[89.5952979424248,26.5715730080761],[89.5956667618165,26.571144714469902],[89.5961188681491,26.5708353926939],[89.5971301516978,26.5701691611351],[89.5976213576207,26.5698572995205],[89.5976144527787,26.5704916811174],[89.59761444363531,26.5708724018002],[89.59761443883511,26.5710722721588],[89.5976049122291,26.571348292469],[89.5976715254384,26.5716243142577],[89.5977857421899,26.5717480466976],[89.5979475383688,26.5718908200955],[89.598318730154,26.572195397850003],[89.5985471518279,26.5725190128663],[89.5987470142569,26.5728140672769],[89.5989373651083,26.5731757516225],[89.599118195983,26.5735374257834],[89.5992609474065,26.5738800791706],[89.59933708876301,26.5742322412815],[89.59941322057661,26.574565363358],[89.5994798442422,26.5748223451132],[89.5995369367875,26.575126916768802],[89.59955596965341,26.5754219776681],[89.5995749927481,26.575707508550103],[89.5995845033506,26.5760977394355],[89.5997558128746,26.5765165335144],[89.59983195445861,26.5768591756085],[89.5998890465457,26.5771827872983],[89.59990807872491,26.577506398249],[89.5999651794399,26.5778871100416],[89.5999841997895,26.578286861128902],[89.60013648164541,26.578610474667702],[89.6002697272062,26.578781797563302],[89.600536223359,26.5789150529788],[89.60082174809381,26.5791054088665],[89.6009740345232,26.5792386620638],[89.6010692092613,26.579448064288602],[89.601050163819,26.5796764843289],[89.6009169104826,26.579828772014203],[89.6006884787489,26.5799239477481],[89.6005171527605,26.5801904448989],[89.6005171481867,26.5803807952407],[89.6005171413255,26.580666335753403],[89.6005552025423,26.581028017142202],[89.6005932655889,26.5813135483944],[89.6007265074896,26.5816371615638],[89.6008597516775,26.581865594562302],[89.6009929986101,26.5819798073559],[89.6014308138897,26.5821321061341],[89.6017924911839,26.582208253296702],[89.602211277425,26.582322471637102],[89.60261102599941,26.5823415194366],[89.6030488440243,26.58237959801],[89.6035247301273,26.582493827459903],[89.603791225365,26.5826651529449],[89.6040386792763,26.5828935881627],[89.6042861427302,26.583141053415],[89.60464780636511,26.5833694908518],[89.6051236951487,26.58378828085],[89.6056989020069,26.5842771829043]]]},"properties":{"compartment":"Gadadhar BL1","division":"BTR_W","range":"EastRajabhatkhawa","beat":"Gadadhar","DIVISION":"BTR_W","BEAT_NAME":"Gadadhar"},"id":"comptt.39"}
]}
