{"type":"FeatureCollection", "features": [
{"type":"Feature","geometry":{"type":"Polygon","coordinates":[[[89.5312782034834,26.7019239425378],[89.529591485527,26.7020142698212],[89.528830056286,26.702061845064],[89.5277117039167,26.7022759736409],[89.5269978613958,26.7024544200393],[89.5261769474195,26.7027042444751],[89.5255939742835,26.7028945934447],[89.5253492980741,26.702763118447],[89.5250066510037,26.7026774516196],[89.5244831746176,26.7025822612515],[89.5240977065053,26.7025441836726],[89.5236694112599,26.7023918950602],[89.523193518089,26.7021586953796],[89.5226272192841,26.7017541736389],[89.5219562233863,26.7012401996679],[89.520837906545,26.700397846409],[89.519933727211,26.6996363974651],[89.5195672970984,26.6992651996793],[89.5190009988681,26.6988368778996],[89.5184061479506,26.6985227757626],[89.5179302642052,26.6983133761257],[89.5174067759819,26.6982943358921],[89.5170308243992,26.6983990187482],[89.5168166699954,26.6986036549306],[89.5165216030368,26.6989224897345],[89.5161075738486,26.6993460324019],[89.5156792656161,26.6997314947249],[89.5154793819812,26.6999028111272],[89.5148940259834,26.7002121302574],[89.5140469390357,26.7005880744028],[89.5132950225386,26.7009354603527],[89.5131813914065,26.7009813474503],[89.5125526171676,26.7012352564054],[89.5121338329353,26.7014541586239],[89.511662699065,26.7016635398058],[89.5110821061606,26.7018443688051],[89.5103777869026,26.7018871851541],[89.5097305681904,26.7019014525665],[89.5085694021554,26.7018585998649],[89.5078508048889,26.7018205157958],[89.5072226294638,26.7016967733408],[89.5065135549332,26.70154446926],[89.5058663497866,26.7014112064181],[89.5052001048035,26.701273183197],[89.5044719892872,26.7011637188199],[89.5038723726421,26.7010875570044],[89.5035392562429,26.7009733403161],[89.5032489597354,26.7008591244623],[89.5027635533767,26.7007591748313],[89.5025351255637,26.7006925402653],[89.5020830396956,26.7005688012427],[89.5017737136964,26.7004355449854],[89.5015645362526,26.7003516107648],[89.5017080048537,26.6995664322047],[89.5026190364096,26.6981644475343],[89.5029050462884,26.6977254523485],[89.5037171059831,26.6951684637521],[89.5045991615829,26.6927734767966],[89.5039471813373,26.6920234627999],[89.5030112467585,26.6894114400563],[89.5036152533676,26.6890744512388],[89.5045232722441,26.6881974674091],[89.5052832915425,26.6873184806924],[89.5060423173599,26.6861694934886],[89.5063463296503,26.6856284984739],[89.50657534867,26.6848165015296],[89.5063563884632,26.6831904944528],[89.5060604186744,26.6819694865774],[89.5059904466487,26.6808174832224],[89.5062984883375,26.6790574861765],[89.5064575304225,26.6772964862271],[89.506389573076,26.6755354818577],[89.5066986131111,26.6738434849472],[89.5077566299823,26.6730335041429],[89.5094946368928,26.6725655371675],[89.5107156370269,26.6724325607071],[89.5110858969647,26.6723922675505],[89.5113036370908,26.6723685720433],[89.5128876280889,26.6725766032408],[89.5142416098498,26.6731916306675],[89.5157435781892,26.674347661916],[89.5171735450445,26.6755726918849],[89.5177725206207,26.6765227051978],[89.5182164769692,26.6782857169057],[89.5190334061945,26.6811337377637],[89.5198543386817,26.6838457584662],[89.5215012739134,26.6863577949131],[89.5230691815235,26.6900218318315],[89.5246431136602,26.6926688671038],[89.525883060658,26.6947348948618],[89.5275349757491,26.6980789328792],[89.5288869405948,26.699393961519],[89.5303678990522,26.7009599931135],[89.5311028784147,26.701738008796],[89.5311678765848,26.7018070101833],[89.5312782034834,26.7019239425378]]]},"properties":{"compartment":"Raimatong BL10","division":"BTR_W","range":"Pana","beat":"Gangutia"},"id":"comptt.151"},
{"type":"Feature","geometry":{"type":"Polygon","coordinates":[[[89.5131813914065,26.7009813474503],[89.5131569925389,26.7017777891235],[89.513014185823,26.7033125390016],[89.5128594966677,26.7041215573896],[89.512669129614,26.7048472849377],[89.5124668594884,26.7052874817586],[89.5120147605676,26.7057038836691],[89.5113841808858,26.7065842729047],[89.5107060130486,26.7073932810885],[89.5100635456962,26.7081784899262],[89.5091474275343,26.7094395842532],[89.5086715109106,26.7101772062535],[89.5084692493456,26.7106768931758],[89.5083383581116,26.7115691921686],[89.5082431610996,26.7122830315482],[89.508064689761,26.7127708189133],[89.5080291282812,26.7128885988094],[89.5076839791416,26.712836241605],[89.5074103415583,26.7127648561472],[89.507017733413,26.7127291584321],[89.5062919958227,26.7127053442436],[89.505780417116,26.7127053342711],[89.5052450427829,26.7125268635263],[89.5047215687072,26.7123365029931],[89.5038768674573,26.7120628460545],[89.503329594305,26.7118367849962],[89.5026990548139,26.7114679520684],[89.5023897301969,26.7112775957103],[89.5018186668178,26.7110634242094],[89.5014141638795,26.7108135758937],[89.5007955160834,26.7103733630756],[89.500545673041,26.7101116177542],[89.5002482481066,26.7099331516492],[89.4998913359104,26.7096476042],[89.4993797669805,26.7092430935316],[89.4989514664025,26.7088980545889],[89.4984144901391,26.7083858432402],[89.4987488064793,26.7080883892429],[89.5000668660791,26.7054834104371],[89.5010959264529,26.7028764259919],[89.5015389829402,26.7004914305083],[89.5015645362526,26.7003516107648],[89.5017737136964,26.7004355449854],[89.5020830396956,26.7005688012427],[89.5025351255637,26.7006925402653],[89.5027635533767,26.7007591748313],[89.5032489597354,26.7008591244623],[89.5035392562429,26.7009733403161],[89.5038723726421,26.7010875570044],[89.5044719892872,26.7011637188199],[89.5052001048035,26.701273183197],[89.5058663497866,26.7014112064181],[89.5065135549332,26.70154446926],[89.5072226294638,26.7016967733408],[89.5078508048889,26.7018205157958],[89.5085694021554,26.7018585998649],[89.5097305681904,26.7019014525665],[89.5103777869026,26.7018871851541],[89.5110821061606,26.7018443688051],[89.511662699065,26.7016635398058],[89.5121338329353,26.7014541586239],[89.5125526171676,26.7012352564054],[89.5131813914065,26.7009813474503]]]},"properties":{"compartment":"Raimatong BL8","division":"BTR_W","range":"Pana","beat":"Gangutia"},"id":"comptt.159"},
{"type":"Feature","geometry":{"type":"Polygon","coordinates":[[[89.5411126051721,26.7120082218894],[89.5408406053441,26.7120292166226],[89.5393826056042,26.7121691884395],[89.5377006050244,26.7123671559904],[89.5348826052605,26.7126491015385],[89.5332646052279,26.7128180702866],[89.5320346049019,26.7129590465508],[89.5312586055176,26.7130140315168],[89.5299286068465,26.7130970057301],[89.5286346094886,26.7131219805443],[89.5275986100582,26.7132059604918],[89.5265306114344,26.7132599397631],[89.5256226109833,26.7133729222568],[89.5227527833277,26.7134469306727],[89.5197319466922,26.7133567034261],[89.5177028993189,26.7135158443966],[89.5154095198595,26.7134469306728],[89.5097257361601,26.7130829578673],[89.5080302454193,26.7128882943589],[89.5080586634498,26.7127746222371],[89.5082405388445,26.7122943575228],[89.5083456855572,26.7114972317692],[89.508467883088,26.7106773715912],[89.5086682302026,26.7101786351571],[89.509154178523,26.7094283991536],[89.5100635554969,26.7081751640115],[89.5108137915003,26.7072544198255],[89.5113906775181,26.7065780707012],[89.5120101905815,26.70570847897],[89.5124705626745,26.7052850503165],[89.5126694888876,26.7048474126478],[89.5128542060854,26.7041255946748],[89.5130161888588,26.7033043135953],[89.5131525954049,26.7018038415885],[89.5131813908624,26.7009813616233],[89.513188117943,26.7009785975258],[89.513197509214,26.7009748232562],[89.5132102751261,26.7009696502866],[89.5148593201462,26.700219791711],[89.5154788332088,26.6999071933767],[89.5161324479079,26.6993274655566],[89.5168258478496,26.6985942803724],[89.5170247740623,26.6983896705535],[89.5173998920636,26.6982930492502],[89.517934151035,26.6983101000684],[89.5183859977183,26.6985104471827],[89.5187724829317,26.6987164779031],[89.5190040898794,26.6988386754338],[89.5195639250782,26.6992592622836],[89.5199333594734,26.6996365116371],[89.519950765517,26.6996500102016],[89.520001207521,26.6996922820218],[89.5201038676558,26.6997789570145],[89.5201976471561,26.699858882725],[89.520326593969,26.6999672264659],[89.5204253466246,26.7000499939794],[89.5205450575777,26.7001512332127],[89.5208359871639,26.700397404401],[89.5213034637639,26.7007483670764],[89.521770940364,26.7011007506533],[89.5226121140636,26.7017401563373],[89.5231932627853,26.7021593222856],[89.523673527499,26.7023937710364],[89.5240969561519,26.702545807499],[89.5244820204637,26.702581330037],[89.525004912223,26.7026751095373],[89.5253544539969,26.7027632054315],[89.5255939742835,26.7028945934447],[89.5261769474195,26.7027042444751],[89.5269978613958,26.7024544200393],[89.5277117039167,26.7022759736409],[89.528830056286,26.702061845064],[89.529591485527,26.7020142698212],[89.5312782034834,26.7019239425378],[89.5318538573016,26.7025340248227],[89.5357987719394,26.7056581071762],[89.5411126051721,26.7120082218894]]]},"properties":{"compartment":"Raimatong BL9","division":"BTR_W","range":"Pana","beat":"Gangutia"},"id":"comptt.160"},
{"type":"Feature","geometry":{"type":"Polygon","coordinates":[[[89.5411126051721,26.7120082218894],[89.5413845966115,26.712334227764],[89.5432055113587,26.7156722691229],[89.5438524504267,26.7181252860413],[89.5444403744695,26.7212053029108],[89.5453173414161,26.7224813222551],[89.545898324291,26.7231293347251],[89.545415336504,26.7230876952307],[89.5430453782659,26.7236729900286],[89.5412607858205,26.7239584957184],[89.5393619750452,26.7241868890801],[89.5377772538319,26.7244010085434],[89.5360354819781,26.7246579550181],[89.5339225196761,26.7249720043521],[89.5326518863009,26.7252432400413],[89.5308672835263,26.7255430157548],[89.5291112462083,26.7256143616268],[89.5269554578252,26.7257713698512],[89.5263503078803,26.7258319581532],[89.5261613462822,26.7242639517357],[89.5259103933015,26.7223459434998],[89.525791446973,26.7201389373354],[89.5256024909974,26.7183379305134],[89.5256155653593,26.7152609254083],[89.5256226109833,26.7133729222568],[89.5265306114344,26.7132599397631],[89.5275986100582,26.7132059604918],[89.5286346094886,26.7131219805443],[89.5299286068465,26.7130970057301],[89.5312586055176,26.7130140315168],[89.5320346049019,26.7129590465508],[89.5332646052279,26.7128180702866],[89.5348826052605,26.7126491015385],[89.5377006050244,26.7123671559904],[89.5393826056042,26.7121691884395],[89.5408406053441,26.7120292166226],[89.5411126051721,26.7120082218894]]]},"properties":{"compartment":"Raimatong BL5","division":"BTR_W","range":"Pana","beat":"Gangutia"},"id":"comptt.168"},
{"type":"Feature","geometry":{"type":"Polygon","coordinates":[[[89.5263503078803,26.7258319581532],[89.5263583064572,26.7258899584103],[89.525053308432,26.7259439330501],[89.5222053102033,26.7261668778881],[89.5202623124349,26.7262768401819],[89.5186443166565,26.7262708086132],[89.5170253180528,26.7263817772286],[89.5151473229349,26.7263757405897],[89.5129463258536,26.7264846978508],[89.5113273272819,26.7265946664652],[89.508800325445,26.7269346177687],[89.5067283252436,26.7271595777472],[89.5049813255775,26.7273285439674],[89.5032313273487,26.7274385100273],[89.5019363265423,26.7276074850629],[89.5003827926223,26.7279236942818],[89.5002513225177,26.7279504527925],[89.4990843199629,26.728178430426],[89.4978543189719,26.7283484067307],[89.4982348077328,26.7275328227453],[89.4988820409515,26.7265049135956],[89.4997767417009,26.7255531394021],[89.5002336117185,26.724677506801],[89.5006714517837,26.7238018738283],[89.5011854398141,26.7230023824714],[89.5018707461555,26.7218412138303],[89.502567961545,26.720718125486],[89.5031033485991,26.7199567046102],[89.5041860386492,26.718600433377],[89.5047809146891,26.7178747037213],[89.5052330238995,26.7174464117956],[89.5057327252904,26.7169229406331],[89.5060777533337,26.7165541267222],[89.5063395024503,26.7161496211258],[89.5067083356099,26.7155666573083],[89.5071366552331,26.7147100641769],[89.5075768722377,26.7139605414622],[89.5078743150017,26.7134013662931],[89.5080291282812,26.7128885988094],[89.5097259581752,26.7130831798832],[89.5154095642627,26.7134469306728],[89.517705741122,26.7135151339458],[89.5197291048892,26.7133559929754],[89.5227527833277,26.7134469306728],[89.5256400552202,26.7133787273997],[89.5256024909974,26.7183379305134],[89.525791446973,26.7201389373354],[89.5259103933015,26.7223459434998],[89.5261613462822,26.7242639517357],[89.5263503078803,26.7258319581532]]]},"properties":{"compartment":"Raimatong BL6","division":"BTR_W","range":"Pana","beat":"Gangutia"},"id":"comptt.170"},
{"type":"Feature","geometry":{"type":"Polygon","coordinates":[[[89.4978543189719,26.7283484067307],[89.4972713176943,26.7284623955571],[89.4966873164195,26.7285763843639],[89.4966313156426,26.7286143833372],[89.4960517867442,26.7286287711907],[89.4938943209499,26.728682330076],[89.4914663224302,26.7288762830584],[89.4886783258718,26.7290272289466],[89.4859363321293,26.7290571755248],[89.4837353418265,26.7288881323131],[89.4826583505224,26.7286421108893],[89.4826013506678,26.7286421097777],[89.483510523487,26.7213991150921],[89.4841235638198,26.7196661240726],[89.4822516203427,26.7175250839113],[89.4848357542208,26.7117131243168],[89.4939397497113,26.7109423004309],[89.4952497651872,26.7101643246244],[89.4972887787677,26.7093883630283],[89.4982497970155,26.708532380283],[89.4984144901391,26.7083858432402],[89.4989514664025,26.7088980545889],[89.4993797669805,26.7092430935316],[89.4998913359104,26.7096476042],[89.5002482481066,26.7099331516492],[89.500545673041,26.7101116177542],[89.5007955160834,26.7103733630756],[89.5014141638795,26.7108135758937],[89.5018186668178,26.7110634242094],[89.5023897301969,26.7112775957103],[89.5026990548139,26.7114679520684],[89.503329594305,26.7118367849962],[89.5038768674573,26.7120628460545],[89.5047215687072,26.7123365029931],[89.5052450427829,26.7125268635263],[89.505780417116,26.7127053342711],[89.5062919958227,26.7127053442436],[89.507017733413,26.7127291584321],[89.5074103415583,26.7127648561472],[89.5076839791416,26.712836241605],[89.5080291282812,26.7128885988094],[89.5078743150017,26.7134013662931],[89.5075768722377,26.7139605414622],[89.5071366552331,26.7147100641769],[89.5067083356099,26.7155666573083],[89.5063395024503,26.7161496211258],[89.5060777533337,26.7165541267222],[89.5057327252904,26.7169229406331],[89.5052330238995,26.7174464117956],[89.5047809146891,26.7178747037213],[89.5041860386492,26.718600433377],[89.5031033485991,26.7199567046102],[89.502567961545,26.720718125486],[89.5018707461555,26.7218412138303],[89.5011854398141,26.7230023824714],[89.5006714517837,26.7238018738283],[89.5002336117185,26.724677506801],[89.4997767417009,26.7255531394021],[89.4988820409515,26.7265049135956],[89.4982348077328,26.7275328227453],[89.4978543189719,26.7283484067307]]]},"properties":{"compartment":"Raimatong BL7","division":"BTR_W","range":"Pana","beat":"Gangutia"},"id":"comptt.171"}
]}