{"type":"FeatureCollection", "features": [
{"type":"Feature","geometry":{"type":"Polygon","coordinates":[[[89.52687123797901,26.560419440251902],[89.52588417801991,26.5605197912782],[89.5244755387759,26.56063398415],[89.5226100377004,26.560871888374802],[89.5210110468785,26.5610717377034],[89.5196690256481,26.561262072000503],[89.5182984533487,26.5614999858264],[89.5169849902238,26.561766460809903],[89.5160236864518,26.562023422608302],[89.51437709141901,26.5624041113274],[89.5130541053538,26.5627943163404],[89.51177870917131,26.5631845222764],[89.5103986125661,26.5636032862302],[89.5093611680761,26.563898316616303],[89.5083617821218,26.564250457839503],[89.50736240982201,26.564450308798403],[89.5057538906434,26.5645835278245],[89.5044785022325,26.564650133197702],[89.5038809537229,26.5646502716058],[89.5039941526633,26.5630153309694],[89.5023172089589,26.5608432946789],[89.5035332681839,26.55824731377],[89.5040213032982,26.556732320610802],[89.5037923662191,26.5541323116664],[89.5021103965345,26.5530432771635],[89.5013154273892,26.5518392596639],[89.5041194266155,26.551579313585602],[89.5068014197035,26.5515883656081],[89.510375413235,26.5514864347365],[89.51382139611441,26.551842502180403],[89.5163733895473,26.5518515516863],[89.5199503858814,26.5516336206758],[89.5230153862786,26.5512996795342],[89.5260813866814,26.550965738412],[89.5268843985742,26.5503867529736],[89.5273733519211,26.5522817657687],[89.52749230008901,26.5544307718322],[89.5272892476822,26.5566367717497],[89.5270861910955,26.5590167719705],[89.52687123797901,26.560419440251902]]]},"properties":{"compartment":"Damanpur BL9","division":"BTR_W","range":"WestDamanpur","beat":"Garam-East","DIVISION":"BTR_W","BEAT_NAME":"Garam-East"},"id":"comptt.19"},
{"type":"Feature","geometry":{"type":"Polygon","coordinates":[[[89.5229547305583,26.578632726052],[89.52233017012631,26.5787154040725],[89.5211737468328,26.5789723620727],[89.52031714793651,26.5790151755195],[89.5187466912195,26.5794577258057],[89.51743322523551,26.579843170980702],[89.5161054816883,26.580128685704],[89.5147349051642,26.5805426798192],[89.5125077249511,26.581199367727603],[89.510623176286,26.5817561321124],[89.50938109081811,26.582113028620903],[89.50771070265121,26.5826269570872],[89.5061259753009,26.583098057141402],[89.5037845729897,26.583854683001],[89.5027138077854,26.584183032783603],[89.5020428026092,26.5844685502521],[89.5015145615328,26.584568480170603],[89.49930166673741,26.584582717238103],[89.4978136492318,26.5846342484419],[89.4978112085346,26.5846161385168],[89.4974077225549,26.5816232353597],[89.4983847928539,26.578593249087202],[89.5015238211422,26.5770873074037],[89.5032198687477,26.5749273365792],[89.5046779325713,26.572116360004202],[89.5044479955689,26.5695153510358],[89.50373706496771,26.566697332360402],[89.5038581058613,26.5649803317344],[89.5038809537229,26.5646502716058],[89.5044785022325,26.564650133197702],[89.5057538906434,26.5645835278245],[89.50736240982201,26.564450308798403],[89.5083617821218,26.564250457839503],[89.5093611680761,26.563898316616303],[89.5103986125661,26.5636032862302],[89.51177870917131,26.5631845222764],[89.5130541053538,26.5627943163404],[89.51437709141901,26.5624041113274],[89.5160236864518,26.562023422608302],[89.5169849902238,26.561766460809903],[89.5182984533487,26.5614999858264],[89.5196690256481,26.561262072000503],[89.5210110468785,26.5610717377034],[89.5226100377004,26.560871888374802],[89.5244755387759,26.56063398415],[89.52588417801991,26.5605197912782],[89.52687123797901,26.560419440251902],[89.5268391530366,26.5606287699952],[89.5268211499864,26.5607577698714],[89.5264921187735,26.5620927658208],[89.52615906666931,26.564298763213202],[89.5259620476737,26.565110760809002],[89.525311025653,26.5660957498974],[89.5249830028055,26.567081745254303],[89.52478497821811,26.5681267432365],[89.5246509409419,26.569693743371502],[89.5242508806315,26.5722477400665],[89.52411082660541,26.5745127413022],[89.5242327774923,26.576545747218002],[89.524229757979,26.5773587485785],[89.5235167416951,26.5781107360506],[89.5229547305583,26.578632726052]]]},"properties":{"compartment":"Damanpur BL6","division":"BTR_W","range":"WestDamanpur","beat":"Garam-East","DIVISION":"BTR_W","BEAT_NAME":"Garam-East"},"id":"comptt.38"},
{"type":"Feature","geometry":{"type":"Polygon","coordinates":[[[89.51031229187261,26.5919576210361],[89.5064093868037,26.592164778362],[89.5010222916119,26.5925263543828],[89.4975958733496,26.592811828344303],[89.49116181488691,26.5934208444657],[89.4901868832781,26.593589915827103],[89.4898834868781,26.592223107581603],[89.491580498367,26.5915671393996],[89.4939995441236,26.5894091826435],[89.4969036042032,26.5866042341795],[89.4978746381277,26.585090250413902],[89.4978136492318,26.5846342484419],[89.49930166673741,26.584582717238103],[89.5015145615328,26.584568480170603],[89.5020428026092,26.5844685502521],[89.5027138077854,26.584183032783603],[89.5037845729897,26.583854683001],[89.5061259753009,26.583098057141402],[89.50771070265121,26.5826269570872],[89.50938109081811,26.582113028620903],[89.510623176286,26.5817561321124],[89.5125077249511,26.581199367727603],[89.5147349051642,26.5805426798192],[89.5161054816883,26.580128685704],[89.51743322523551,26.579843170980702],[89.5187466912195,26.5794577258057],[89.52031714793651,26.5790151755195],[89.5211737468328,26.5789723620727],[89.52233017012631,26.5787154040725],[89.5229547305583,26.578632726052],[89.5231107311308,26.578592729010403],[89.523006728652,26.5787067271905],[89.5208026858206,26.580718687914302],[89.5198336171449,26.5836786742603],[89.5198205408173,26.5868576795461],[89.5201475007489,26.5884916887423],[89.52032542649721,26.5915636975512],[89.5203325583801,26.5915814367848],[89.5183257107539,26.591593938770302],[89.5139094394863,26.5916890331756],[89.5107114515304,26.591936431504703],[89.51031229187261,26.5919576210361]]]},"properties":{"compartment":"Damanpur BL5","division":"BTR_W","range":"WestDamanpur","beat":"Garam-East","DIVISION":"BTR_W","BEAT_NAME":"Garam-East"},"id":"comptt.50"},
{"type":"Feature","geometry":{"type":"Polygon","coordinates":[[[89.5203325583801,26.5915814367848],[89.5203994218917,26.5917476993089],[89.5211673179906,26.5959917216202],[89.52205620006251,26.600805747280003],[89.5226201490603,26.6028687618336],[89.5231151077222,26.604536774359403],[89.5235110733844,26.605923784472402],[89.5225900768097,26.6058767664959],[89.5187450801712,26.6061356922415],[89.5129430902645,26.6063185798344],[89.5087210946495,26.606575498255],[89.505178098934,26.6067664297537],[89.50476609881291,26.606814421832702],[89.5046402889926,26.6068291612799],[89.5046149956412,26.6040505741094],[89.5046864114993,26.6025515128998],[89.5049005918493,26.601266604834002],[89.5052147116039,26.5999959687338],[89.5056715934498,26.5990394359501],[89.5060428148234,26.598111451551702],[89.5068708967176,26.5966980651841],[89.5075847640931,26.5954845569435],[89.5084985030259,26.594185382434702],[89.509112420701,26.5933858929694],[89.5099690542866,26.5923151477459],[89.51031229187261,26.5919576210361],[89.5107114515304,26.591936431504703],[89.5139094394863,26.5916890331756],[89.5183257107539,26.591593938770302],[89.5203325583801,26.5915814367848]]]},"properties":{"compartment":"Damanpur BL2","division":"BTR_W","range":"WestDamanpur","beat":"Garam-East","DIVISION":"BTR_W","BEAT_NAME":"Garam-East"},"id":"comptt.63"},
{"type":"Feature","geometry":{"type":"Polygon","coordinates":[[[89.5046402889926,26.6068291612799],[89.5001240973812,26.6073583325924],[89.49492209622271,26.6079502325558],[89.4916800981559,26.6082091700213],[89.4915750991898,26.608177167926403],[89.4917561438854,26.6062991682061],[89.4915922213917,26.603092159494],[89.4915342486026,26.601966156427203],[89.49058030315891,26.5997961341602],[89.4898653466782,26.5980601172847],[89.48991334838371,26.5979841180859],[89.4913214001304,26.5956831414638],[89.4903634338727,26.594379120615002],[89.4902224493397,26.5937501167937],[89.4901868832781,26.593589915827103],[89.49116181488691,26.5934208444657],[89.4975958733496,26.592811828344303],[89.5010222916119,26.5925263543828],[89.5064093868037,26.592164778362],[89.51031229187261,26.5919576210361],[89.5099690542866,26.5923151477459],[89.509112420701,26.5933858929694],[89.5084985030259,26.594185382434702],[89.5075847640931,26.5954845569435],[89.5068708967176,26.5966980651841],[89.5060428148234,26.598111451551702],[89.5056715934498,26.5990394359501],[89.5052147116039,26.5999959687338],[89.5049005918493,26.601266604834002],[89.5046864114993,26.6025515128998],[89.5046149956412,26.6040505741094],[89.5046402889926,26.6068291612799]]]},"properties":{"compartment":"Damanpur BL1","division":"BTR_W","range":"WestDamanpur","beat":"Garam-East","DIVISION":"BTR_W","BEAT_NAME":"Garam-East"},"id":"comptt.65"}
]}
