{"type":"FeatureCollection", "features": [
{"type":"Feature","geometry":{"type":"Polygon","coordinates":[[[89.5080809537229,26.5697502716058],[89.50284851622,26.5697750801438],[89.4982442820427,26.5695965305207],[89.4931403474256,26.569489361332],[89.4898122633346,26.5691749062365],[89.4899521848307,26.5686809781007],[89.4905432320597,26.5666499860699],[89.4910002615141,26.5653739927378],[89.4910022712461,26.564967992078],[89.4910072949037,26.5639809904767],[89.4906283390688,26.5621789800264],[89.4902483887948,26.5601449691586],[89.4900654421918,26.557936961812],[89.4903324888186,26.5559639635947],[89.4906625199663,26.5546299676975],[89.4908705342329,26.5540129706683],[89.4913525311047,26.5540929801504],[89.4955625063962,26.5546830627868],[89.4973495017717,26.5546890974433],[89.4996454820672,26.5552711429634],[89.5015564578399,26.5560821814166],[89.504744427591,26.5570112448383],[89.5055154273892,26.5569392596639],[89.5063103965345,26.5581432771635],[89.5079923662191,26.5592323116664],[89.5082213032982,26.5618323206108],[89.5077332681839,26.56334731377],[89.5065172089589,26.5659432946789],[89.5081941526633,26.5681153309694],[89.5080809537229,26.5697502716058]]]},"properties":{"compartment":"Poro BL9","division":"BTR_W","range":"WestDamanpur","beat":"Garam-West"},"id":"comptt.20"},
{"type":"Feature","geometry":{"type":"Polygon","coordinates":[[[89.5020112085346,26.5897161385168],[89.4979225628235,26.5900123395075],[89.4941749128172,26.5904048774377],[89.4885355933038,26.5909758389561],[89.4851448541411,26.5912970036918],[89.4816226513894,26.5917818561567],[89.4822256823323,26.590429865543],[89.4834037629146,26.586949882438],[89.4851048588483,26.5827749082835],[89.4859569165615,26.5802809205339],[89.4868749796695,26.5775549336635],[89.4877220220733,26.5756989469075],[89.487856044003,26.5747709479124],[89.4886410907324,26.5727409596518],[89.489426141632,26.5705369710898],[89.4896561605083,26.5697259741566],[89.4898122633346,26.5691749062365],[89.4931403474256,26.569489361332],[89.4982442820427,26.5695965305207],[89.50284851622,26.5697750801438],[89.5080809537229,26.5697502716058],[89.5080581058613,26.5700803317344],[89.5079370649677,26.5717973323604],[89.5086479955689,26.5746153510358],[89.5088779325713,26.5772163600042],[89.5074198687477,26.5800273365792],[89.5057238211422,26.5821873074037],[89.5025847928539,26.5836932490872],[89.5016077225549,26.5867232353597],[89.5020112085346,26.5897161385168]]]},"properties":{"compartment":"Poro BL8","division":"BTR_W","range":"WestDamanpur","beat":"Garam-West"},"id":"comptt.43"},
{"type":"Feature","geometry":{"type":"Polygon","coordinates":[[[89.4943868832781,26.5986899158271],[89.4915473147174,26.598927591102],[89.4898341044617,26.5991179181652],[89.4852084192108,26.5998221495625],[89.4822578893472,26.6001266627978],[89.4809444253504,26.600431207818],[89.4793454220774,26.6007357472939],[89.478787439283,26.6009108167601],[89.4788814469733,26.6005808180201],[89.4791464811612,26.5991298206807],[89.4800005472694,26.5962878323925],[89.4811156252456,26.5929238482729],[89.4816226513894,26.5917818561567],[89.4851448541411,26.5912970036918],[89.4885355933038,26.5909758389561],[89.4941749128172,26.5904048774377],[89.4979225628235,26.5900123395075],[89.5020112085346,26.5897161385168],[89.5020136492318,26.5897342484419],[89.5020746381277,26.5901902504139],[89.5011036042032,26.5917042341795],[89.4981995441236,26.5945091826435],[89.495780498367,26.5966671393996],[89.4940834868781,26.5973231075816],[89.4943868832781,26.5986899158271]]]},"properties":{"compartment":"Poro BL4","division":"BTR_W","range":"WestDamanpur","beat":"Garam-West"},"id":"comptt.51"},
{"type":"Feature","geometry":{"type":"Polygon","coordinates":[[[89.4943868832781,26.5986899158271],[89.4944224493397,26.5988501167937],[89.4945634338727,26.599479120615],[89.4955214001304,26.6007831414638],[89.4941133483837,26.6030841180859],[89.4940653466782,26.6031601172847],[89.4947803031589,26.6048961341602],[89.4957342486026,26.6070661564272],[89.4957922213917,26.608192159494],[89.4959561438854,26.6113991682061],[89.4957750991898,26.6132771679264],[89.4956541003601,26.6132411655137],[89.4950521003137,26.613306153931],[89.4933910964928,26.6136391222374],[89.4876590853729,26.6147030127159],[89.4821520786167,26.6155629072123],[89.4808120751797,26.6158468816682],[89.4802431196085,26.6140588675522],[89.4799301748518,26.6117938575929],[89.4791692578293,26.6084218370383],[89.4784693266523,26.6056318186677],[89.4784133742524,26.6036568141994],[89.4784874242815,26.6015668120584],[89.4787484361623,26.6010448162323],[89.478787439283,26.6009108167601],[89.4793454220774,26.6007357472939],[89.4809444253504,26.600431207818],[89.4822578893472,26.6001266627978],[89.4852084192108,26.5998221495625],[89.4898341044617,26.5991179181652],[89.4915473147174,26.598927591102],[89.4943868832781,26.5986899158271]]]},"properties":{"compartment":"Poro BL3","division":"BTR_W","range":"WestDamanpur","beat":"Garam-West"},"id":"comptt.67"}
]}