{"type":"FeatureCollection", "features": [
{"type":"Feature","geometry":{"type":"Polygon","coordinates":[[[89.4114471241439,26.68888868634],[89.4100137052949,26.6889956286183],[89.4091095156407,26.6890788911581],[89.4082172153821,26.689185953969],[89.407491477273,26.6891859398435],[89.4067538474736,26.6892573056054],[89.4054689382405,26.6893643607748],[89.404100750948,26.6894000242047],[89.4026492833004,26.6894594860535],[89.402304263627,26.6894832693779],[89.4016975017672,26.6896260278056],[89.4008527899553,26.6897925716416],[89.4004363755901,26.6900186139121],[89.4000080712562,26.6902446559511],[89.3992704305561,26.6907681224628],[89.3988778041203,26.691077445334],[89.3984732925497,26.6916009183291],[89.3981758444301,26.6919697331511],[89.3977594328904,26.692493205914],[89.3976047555454,26.6928144334359],[89.3974857752368,26.6932546318497],[89.3974024848347,26.6936948309583],[89.397402476798,26.6940279515103],[89.3974024635941,26.6945752324173],[89.3973310577063,26.6952414821318],[89.3972358822142,26.6954794206735],[89.3968075644357,26.695848232947],[89.3965339282621,26.6961337680935],[89.3960104287235,26.6965858486518],[89.3955226293785,26.6970260398851],[89.3948563756201,26.6976684879791],[89.3939164757366,26.6981800505288],[89.3933097895745,26.6985012492497],[89.3932143193303,26.6981073167393],[89.3922703458845,26.6971092967116],[89.3914073773647,26.6958982779101],[89.3913813880969,26.6954562766733],[89.3913364083842,26.6946202744152],[89.3918144242124,26.6939122825486],[89.3922894349097,26.6934172909755],[89.3935564348726,26.6932813154116],[89.3946634404424,26.6929303363773],[89.3949834567086,26.692221341432],[89.394988477248,26.6913693401188],[89.3948375118952,26.6899493348288],[89.3953185397251,26.6887433421931],[89.3959595739121,26.6872563522048],[89.3961995886951,26.6866173558168],[89.3961256077231,26.6858363530831],[89.3952636528765,26.684057333363],[89.3945616992952,26.6822083166423],[89.3943317255738,26.6811433104042],[89.394972759795,26.6796543204101],[89.3966408014789,26.6777443496972],[89.3979898234822,26.6766853741856],[89.3995758448434,26.6756274032845],[89.4012398608928,26.6747814342508],[89.4031388660159,26.674363470498],[89.4047208685695,26.6740865008126],[89.4065378568229,26.6743775366432],[89.408354846766,26.6745985723586],[89.4098548427186,26.6746046015497],[89.4109618380076,26.6746806232123],[89.4124628288265,26.6748996527788],[89.4138828164587,26.6752596810054],[89.4151427942142,26.6760467068328],[89.4157697668392,26.6771147208148],[89.4157647429122,26.6781077223753],[89.4153647165862,26.679242716487],[89.4146466842854,26.6806597048809],[89.4133716449185,26.6824296830231],[89.4119395991333,26.6844826585789],[89.4113785629935,26.6860416502594],[89.4113675097414,26.6882506537268],[89.4113665065117,26.6883846539306],[89.4114471241439,26.68888868634]]]},"properties":{"compartment":"Godamdabri BL4","division":"BTR_W","range":"Hamiltonganj","beat":"Godamdabri"},"id":"comptt.145"},
{"type":"Feature","geometry":{"type":"Polygon","coordinates":[[[89.4131064697493,26.7091943725074],[89.4124224215314,26.7091943591838],[89.411280283933,26.7092181369777],[89.4097812149682,26.7093370779781],[89.4088770256027,26.709408440486],[89.4069734548238,26.7096463538061],[89.4059026941715,26.7097891031885],[89.4049033227594,26.7099556440008],[89.4040229204625,26.7101459871697],[89.403190106893,26.7103839113445],[89.4026666225152,26.7106218515439],[89.4018575994589,26.7108359861422],[89.4011437613256,26.7108359722388],[89.4005964933313,26.7108121715403],[89.4000254199964,26.7105980000623],[89.399716095402,26.7104076437219],[89.3993591955289,26.7100269161393],[89.3992164322224,26.7097651729247],[89.3989784920375,26.7093844576591],[89.3984788062177,26.7092654777302],[89.3980029197612,26.7091702883043],[89.3973128769716,26.709360625181],[89.3968607752825,26.7094795965733],[89.3962897027563,26.7096461457275],[89.395932776797,26.7099316692492],[89.3957186198889,26.7102409955908],[89.3954568702326,26.7106693012024],[89.3951475329994,26.7110024157294],[89.3943147182869,26.7112879399821],[89.3930536004437,26.7113355054993],[89.392006640891,26.7114306652662],[89.3911976218642,26.7114782295885],[89.3903770048608,26.7114432835486],[89.3899150626927,26.7090982706766],[89.3901621117289,26.7070402720863],[89.3904071401991,26.7058342748642],[89.3910411521747,26.7052692862756],[89.3919941667176,26.7045633036648],[89.3930231690653,26.7043543233552],[89.3946841662583,26.7042903555914],[89.3959511765301,26.7037273793295],[89.3957961940734,26.7030173751357],[89.3950142253253,26.7018073579062],[89.3940702535972,26.7007383377575],[89.3935242876548,26.6993863248903],[89.3933097895745,26.6985012492497],[89.3939164757366,26.6981800505288],[89.3948563756201,26.6976684879791],[89.3955226293785,26.6970260398851],[89.3960104287235,26.6965858486518],[89.3965339282621,26.6961337680935],[89.3968075644357,26.695848232947],[89.3972358822142,26.6954794206735],[89.3973310577063,26.6952414821318],[89.3974024635941,26.6945752324173],[89.397402476798,26.6940279515103],[89.3974024848347,26.6936948309583],[89.3974857752368,26.6932546318497],[89.3976047555454,26.6928144334359],[89.3977594328904,26.692493205914],[89.3981758444301,26.6919697331511],[89.3984732925497,26.6916009183291],[89.3988778041203,26.691077445334],[89.3992704305561,26.6907681224628],[89.4000080712562,26.6902446559511],[89.4004363755901,26.6900186139121],[89.4008527899553,26.6897925716416],[89.4016975017672,26.6896260278056],[89.402304263627,26.6894832693779],[89.4026492833004,26.6894594860535],[89.404100750948,26.6894000242047],[89.4054689382405,26.6893643607748],[89.4067538474736,26.6892573056054],[89.407491477273,26.6891859398435],[89.4082172153821,26.689185953969],[89.4091095156407,26.6890788911581],[89.4100137052949,26.6889956286183],[89.4114471241439,26.68888868634],[89.4116734594215,26.6903036631043],[89.4125584128248,26.6921396833919],[89.4133513848972,26.6932117006165],[89.4142723534746,26.6944147205527],[89.4140933511894,26.6945287172582],[89.4137203481784,26.6946937102718],[89.4129453435352,26.6949696956444],[89.4121093343699,26.6954396801525],[89.4118753241204,26.695889676347],[89.4119013122767,26.6963776776665],[89.4118972957326,26.6970636787321],[89.4120212760794,26.6978646824814],[89.4118052638027,26.6983966791626],[89.4117592482834,26.699044679347],[89.4117562354273,26.6995776801769],[89.4118382177394,26.7003016829801],[89.4123452025646,26.7008756938091],[89.4124681884618,26.701446697156],[89.4128041764833,26.7019067044657],[89.4134361426117,26.7032417189989],[89.4131771313365,26.7037367147806],[89.413005111578,26.7045737128267],[89.4134250902047,26.7054137224069],[89.4137180737727,26.7060627291955],[89.413500053214,26.7069377264091],[89.4134960339081,26.7077377276653],[89.4134530211502,26.7082707277166],[89.4131080064258,26.7089177220759],[89.4131064697493,26.7091943725074]]]},"properties":{"compartment":"Godamdabri BL3","division":"BTR_W","range":"Hamiltonganj","beat":"Godamdabri"},"id":"comptt.155"},
{"type":"Feature","geometry":{"type":"Polygon","coordinates":[[[89.4091165202257,26.7290592478716],[89.4081127396554,26.7291912985276],[89.4073988997951,26.7292626747337],[89.4049956543525,26.7293340080136],[89.4034252084607,26.7293339774063],[89.4022592855378,26.7291673944067],[89.4005698739869,26.7290008012053],[89.3999036291827,26.7288580179843],[89.3989042652515,26.7287152282714],[89.3982618103857,26.7285724455143],[89.397657570543,26.7286314538366],[89.3974605816695,26.7281924492701],[89.3971666014361,26.7274064422386],[89.3972576413864,26.7257434412568],[89.3970296780373,26.7242514343423],[89.3966437202699,26.7225454239953],[89.3958607635636,26.7208384059129],[89.3941348248588,26.7184883683974],[89.3927478771433,26.7164743380466],[89.3921718987975,26.7156403254476],[89.3909959465858,26.7137892994814],[89.3903770048608,26.7114432835486],[89.3911976218642,26.7114782295885],[89.392006640891,26.7114306652662],[89.3930536004437,26.7113355054993],[89.3943147182869,26.7112879399821],[89.3951475329994,26.7110024157294],[89.3954568702326,26.7106693012024],[89.3957186198889,26.7102409955908],[89.395932776797,26.7099316692492],[89.3962897027563,26.7096461457275],[89.3968607752825,26.7094795965733],[89.3973128769716,26.709360625181],[89.3980029197612,26.7091702883043],[89.3984788062177,26.7092654777302],[89.3989784920375,26.7093844576591],[89.3992164322224,26.7097651729247],[89.3993591955289,26.7100269161393],[89.399716095402,26.7104076437219],[89.4000254199964,26.7105980000623],[89.4005964933313,26.7108121715403],[89.4011437613256,26.7108359722388],[89.4018575994589,26.7108359861422],[89.4026666225152,26.7106218515439],[89.403190106893,26.7103839113445],[89.4040229204625,26.7101459871697],[89.4049033227594,26.7099556440008],[89.4059026941715,26.7097891031885],[89.4069734548238,26.7096463538061],[89.4088770256027,26.709408440486],[89.4097812149682,26.7093370779781],[89.411280283933,26.7092181369777],[89.4124224215314,26.7091943591838],[89.4131064697493,26.7091943725074],[89.4131039889773,26.7096407232035],[89.4126799781527,26.7101347157685],[89.4121659639157,26.7107797068319],[89.411951950684,26.7113507036151],[89.4121139171265,26.7127227090575],[89.411684898947,26.7135217020321],[89.4114698820448,26.7142446990486],[89.4112128680293,26.7148526950551],[89.4109118568818,26.7153466900142],[89.410569846759,26.7158026841112],[89.4104838322724,26.7164116834502],[89.4100988167536,26.7170956770887],[89.4100958029435,26.7176676779829],[89.4100067847914,26.7184286775161],[89.4099607720105,26.7189626775091],[89.4098717547754,26.7196856769789],[89.4095697307504,26.7207126728047],[89.4096097168254,26.7212846745364],[89.4098166950946,26.7221616800301],[89.4101506711706,26.723115688127],[89.4099356505874,26.7239906853944],[89.4094656426313,26.7243706768683],[89.4090416345794,26.7247496692367],[89.4090386189514,26.7253966702551],[89.4089066036597,26.7260436687597],[89.4090325904249,26.726577672104],[89.4088575724892,26.7273386699601],[89.4089395547519,26.7280636727649],[89.4089355391238,26.7287106737638],[89.4090375340715,26.7289086760814],[89.4091165202257,26.7290592478716]]]},"properties":{"compartment":"Godamdabri BL2","division":"BTR_W","range":"Hamiltonganj","beat":"Godamdabri"},"id":"comptt.172"},
{"type":"Feature","geometry":{"type":"Polygon","coordinates":[[[89.4091165202257,26.7290592478716],[89.4093145205853,26.729436682359],[89.4091825062332,26.7300446807983],[89.4093484790636,26.7311506858749],[89.4090864567577,26.7321016823511],[89.4089154424813,26.7327106800315],[89.4088674177287,26.7337396808084],[89.4089074029,26.7343486826017],[89.4093673795261,26.7352656930952],[89.4104603286718,26.7372507177081],[89.4110563180949,26.7376237299488],[89.4123533024715,26.7381297560785],[89.4140842822821,26.7387777909078],[89.4159382611204,26.7394528281823],[89.4167412542134,26.7396518441714],[89.4172682467202,26.7399048548693],[89.417453240167,26.7401558588957],[89.4176362289024,26.7406018632087],[89.4177872183983,26.7410198668512],[89.4180642061867,26.7414948730458],[89.4182481949187,26.7419408773787],[89.4184961895312,26.7421368825421],[89.4187391843985,26.7423228875914],[89.4193621696154,26.7428669006492],[89.4198401467186,26.7437619114664],[89.4195031246865,26.744708906477],[89.4193521251041,26.7447079035306],[89.4192321247637,26.7447349012355],[89.4189601222307,26.7448688961548],[89.4185671200133,26.7450028887145],[89.4184761195973,26.7450298869849],[89.4180531154985,26.7452448790947],[89.4175391142743,26.7453508692477],[89.417328112889,26.7454308652664],[89.4171151056058,26.7457548616534],[89.4173550977458,26.7460538668331],[89.4177170954468,26.7461098739866],[89.418290093251,26.74613888521],[89.4184410947929,26.7460588880212],[89.418502097247,26.7459508890305],[89.418653101426,26.7457618916596],[89.4187441031485,26.7456808932991],[89.4189861031709,26.7456538979735],[89.419648096776,26.7458469112067],[89.4197090959637,26.7458739124415],[89.4197690964606,26.7458469135665],[89.419951100535,26.7456589168018],[89.4203441040595,26.745470924152],[89.4203441027529,26.7455249242423],[89.4204940984185,26.7456879274402],[89.4207950969569,26.7457159333573],[89.4209160972706,26.7456899356736],[89.4209760977676,26.7456629367986],[89.4211281019445,26.745473939447],[89.4211891024388,26.7454469405915],[89.421309101473,26.7454739429771],[89.4213690993328,26.7455559442843],[89.4214280952354,26.7457189457076],[89.4215170871402,26.7460439479869],[89.4216370835371,26.7461799505547],[89.4217270800121,26.7463159525375],[89.4219070729863,26.7465869565013],[89.4220260674258,26.7468039591853],[89.4221770643952,26.7469129623127],[89.4224170604553,26.7470499672228],[89.4225370555454,26.7472399698812],[89.4226860472935,26.747564973331],[89.4227740359093,26.7480259758188],[89.4229240322278,26.7481619789721],[89.4230150306842,26.7482159808374],[89.4232860273167,26.7483259863073],[89.4234360255953,26.748380989325],[89.4235270253584,26.7483809910999],[89.4237980252821,26.7483549963423],[89.4241000244718,26.7483560022345],[89.4246430243169,26.7483040127386],[89.424824024475,26.7482780162254],[89.4248840243189,26.7482780173958],[89.4252770252322,26.7481980249272],[89.4254880253124,26.7481720289992],[89.4256390248953,26.7481730319462],[89.4257000260434,26.7481190330455],[89.4259110254703,26.7481200371628],[89.426212022703,26.7482020431713],[89.4263630222861,26.7482030461182],[89.426544021162,26.7482300496938],[89.4270860190264,26.748260060316],[89.427358018295,26.7482610656232],[89.4276590155281,26.7483430716317],[89.4279900106989,26.7485070783631],[89.4282600047215,26.7487250839951],[89.4283500018739,26.7488330859318],[89.4285309981123,26.7489690896904],[89.4288909892631,26.749296097261],[89.4289509858401,26.7494310986579],[89.4289799792063,26.7497020996782],[89.429146971778,26.7499911034205],[89.4289599717074,26.7500140998114],[89.4272929691681,26.7502980677698],[89.4252965689269,26.7509396401919],[89.4248099563151,26.7510960206714],[89.4228679665262,26.7508829824329],[89.4203969830558,26.7504659335358],[89.4187539930503,26.7502299010938],[89.4168330082732,26.7498078629197],[89.4146660350783,26.7489338191953],[89.414062045947,26.7485498067746],[89.4127060678294,26.7477917790645],[89.4110920927816,26.7469347461596],[89.4101701102401,26.7463127271431],[89.4090688848313,26.7457745674468],[89.408803129975,26.7456446993729],[89.4085681333718,26.7455296945989],[89.4057661798192,26.7439126372706],[89.4024552304073,26.7421795698324],[89.4007342517264,26.7414845351242],[89.3996502532863,26.7415375140774],[89.3972212529823,26.7418134671772],[89.3933262538982,26.7421983918754],[89.3900022574364,26.7424133274255],[89.3868732562866,26.7428012670633],[89.3846832566856,26.7430232247337],[89.3847392970938,26.7413462230613],[89.3847533566874,26.7388802192695],[89.3861364026113,26.7368302428473],[89.3900394391495,26.7348943157268],[89.3918784788464,26.7330523485261],[89.3946355160369,26.7312143992191],[89.3975065479535,26.7295824524696],[89.3976235675143,26.7287604533878],[89.397682569124,26.7286874544166],[89.397657570543,26.7286314538366],[89.3982618103857,26.7285724455143],[89.3989042652515,26.7287152282714],[89.3999036291827,26.7288580179843],[89.4005698739869,26.7290008012053],[89.4022592855378,26.7291673944067],[89.4034252084607,26.7293339774063],[89.4049956543525,26.7293340080136],[89.4073988997951,26.7292626747337],[89.4081127396554,26.7291912985276],[89.4091165202257,26.7290592478716]]]},"properties":{"compartment":"Godamdabri BL1","division":"BTR_W","range":"Hamiltonganj","beat":"Godamdabri"},"id":"comptt.183"}
]}