{"type":"FeatureCollection", "features": [
{"type":"Feature","geometry":{"type":"Polygon","coordinates":[[[89.4519478993892,26.6264841792999],[89.4492242732306,26.6266138165928],[89.4466306612788,26.6269706867977],[89.4439180779202,26.6273989348112],[89.43958745986241,26.6277795713024],[89.4379932188013,26.6279936906852],[89.4297127060769,26.6281600900664],[89.425152817086,26.628190561518],[89.4252817931922,26.6279229135744],[89.4258578224504,26.6266449226195],[89.4266228532165,26.625283935196002],[89.4273868758064,26.624262948323302],[89.4282509104279,26.6227309625332],[89.42929994454771,26.6211999803369],[89.42939896273761,26.62043298097],[89.4296909886301,26.619324984778302],[89.4303680565454,26.616427993054202],[89.4304680767962,26.6155749935611],[89.43086013728261,26.6130169968694],[89.4315301621468,26.6119110080194],[89.4326802185371,26.609442026194102],[89.43338923440571,26.608706038721902],[89.4357441802203,26.6107090878299],[89.43814712660671,26.612683137828203],[89.43942109228101,26.6139751647532],[89.43964708840821,26.614112169374],[89.4414580885044,26.6139152042159],[89.4459070881046,26.613458289855902],[89.4524680886532,26.612738416072602],[89.4578190890986,26.612152519014202],[89.4570730675576,26.6131275061817],[89.4563530345527,26.6145764946591],[89.4558279954458,26.6162584873193],[89.4558199507608,26.6181174903231],[89.4554899097309,26.619858486870402],[89.4545748702383,26.6215974720469],[89.4536618377381,26.623045456766203],[89.45275381638591,26.6240294407934],[89.4522277884282,26.6252474326396],[89.4519997647843,26.6262544299178],[89.4519478993892,26.6264841792999]]]},"properties":{"compartment":"Nimati BL7","division":"BTR_W","range":"Nimati","beat":"Nimati-West","DIVISION":"BTR_W","BEAT_NAME":"Nimati-West"},"id":"comptt.86"},
{"type":"Feature","geometry":{"type":"Polygon","coordinates":[[[89.4508004174254,26.640814431311302],[89.44931910239221,26.641180903133],[89.4474393326222,26.6413712269092],[89.4456785319775,26.641585343038702],[89.4434656307761,26.6418708404993],[89.4409433998,26.6421801219862],[89.4380404569432,26.642608366272203],[89.4344474595668,26.6432983375837],[89.4322583525966,26.643821775906602],[89.4311513922375,26.643955054610302],[89.4312654088214,26.643254055647002],[89.4315444492231,26.641546058196102],[89.431301502375,26.6393640498],[89.4310645455169,26.6375970422195],[89.43036357028271,26.6366430269893],[89.4294226138353,26.634934005825702],[89.4282936681675,26.6327969802912],[89.4268726863377,26.6321939516634],[89.4260287358148,26.6302279319601],[89.42499277962371,26.6285179089582],[89.42505578249241,26.6283919099708],[89.425152817086,26.628190561518],[89.4297127060769,26.6281600900664],[89.4379932188013,26.6279936906852],[89.43958745986241,26.6277795713024],[89.4439180779202,26.6273989348112],[89.4466306612788,26.6269706867977],[89.4492242732306,26.6266138165928],[89.4519478993892,26.6264841792999],[89.4518997543816,26.6266974287262],[89.4516347257297,26.627916425644703],[89.4511096838085,26.6297144184918],[89.45025863994991,26.631627405196703],[89.4497315896516,26.633773398592],[89.44965855070281,26.6353993999295],[89.44984451525251,26.636852406008302],[89.450286462341,26.6390034182475],[89.4508004174254,26.640814431311302]]]},"properties":{"compartment":"Nimati BL2","division":"BTR_W","range":"Nimati","beat":"Nimati-West","DIVISION":"BTR_W","BEAT_NAME":"Nimati-West"},"id":"comptt.101"},
{"type":"Feature","geometry":{"type":"Polygon","coordinates":[[[89.4508004174254,26.640814431311302],[89.4510764176824,26.6407744366094],[89.4486223720759,26.642929392550602],[89.44750535261531,26.6438563724028],[89.4449383024357,26.646213326479803],[89.4452412712661,26.6474753345069],[89.44600920756571,26.6500383537793],[89.4466941379267,26.6528563718716],[89.4479540405396,26.6567644029972],[89.44870496109131,26.659981423056102],[89.4457659716661,26.6598553656673],[89.4430839787922,26.659845313475902],[89.4383569913758,26.659827221491],[89.43656599615271,26.659820186639703],[89.4340099941312,26.660177137521202],[89.4338819940272,26.660195135061603],[89.4333639943737,26.6602361250544],[89.4333399971585,26.660123124397302],[89.433121021964,26.6591171184433],[89.43305002939981,26.6588161165553],[89.4322931654952,26.6532480924574],[89.4326272498046,26.649712092999202],[89.43164135440131,26.6454740666933],[89.4311513922375,26.643955054610302],[89.4322583525966,26.643821775906602],[89.4344474595668,26.6432983375837],[89.4380404569432,26.642608366272203],[89.4409433998,26.6421801219862],[89.4434656307761,26.6418708404993],[89.4456785319775,26.641585343038702],[89.4474393326222,26.6413712269092],[89.44931910239221,26.641180903133],[89.4508004174254,26.640814431311302]]]},"properties":{"compartment":"Nimati BL1","division":"BTR_W","range":"Nimati","beat":"Nimati-West","DIVISION":"BTR_W","BEAT_NAME":"Nimati-West"},"id":"comptt.113"}
]}
