{"type":"FeatureCollection", "features": [
{"type":"Feature","geometry":{"type":"Polygon","coordinates":[[[89.48283485128731,26.6314535381223],[89.4814495632404,26.6315180113024],[89.477595573339,26.631503936356403],[89.474626577931,26.631625878849203],[89.472920578385,26.6317868459612],[89.4722525785405,26.631850833085203],[89.4702875763826,26.632147795395003],[89.4695815781524,26.6321487816727],[89.4681335732644,26.632504754133002],[89.4651265599972,26.6333736971625],[89.4630835458464,26.6341776588187],[89.4614175055829,26.6360266295815],[89.4601074739442,26.6374796065878],[89.4601044715203,26.637580606701402],[89.4589504260242,26.6395925876893],[89.4582134244138,26.6397375736069],[89.45680142327511,26.6399345464893],[89.45386842022201,26.6403724902095],[89.4510764176824,26.6407744366094],[89.4508004174254,26.640814431311302],[89.450286462341,26.6390034182475],[89.44984451525251,26.636852406008302],[89.44965855070281,26.6353993999295],[89.4497315896516,26.633773398592],[89.45025863994991,26.631627405196703],[89.4511096838085,26.6297144184918],[89.4516347257297,26.627916425644703],[89.4518997543816,26.6266974287262],[89.4519478993892,26.6264841792999],[89.45351226032611,26.626279189351703],[89.4563105109698,26.625955633180002],[89.4584044306675,26.625746283515202],[89.4601366808323,26.625555966854503],[89.4634108193646,26.625270489995902],[89.466875308796,26.624927916739402],[89.4697496956142,26.624756652307802],[89.4731380552577,26.624414067572403],[89.47496547611911,26.6241856826964],[89.478715508068,26.6237098547617],[89.48073330074641,26.6233862934221],[89.4821800112085,26.623215001244702],[89.482899002939,26.6230675249651],[89.4828399172798,26.6233089442314],[89.4827090413131,26.6235706821374],[89.48261385668711,26.6237729406348],[89.4825543611125,26.6240108798872],[89.4825067620721,26.6243915996159],[89.48248296325781,26.624760409786802],[89.4825781324247,26.6252006123925],[89.482661404198,26.6255337445832],[89.4828755396282,26.6261167097466],[89.4830896793523,26.626521224603803],[89.483291921683,26.6268186690458],[89.48348227404381,26.6271161032567],[89.4836964151992,26.627461128012],[89.4838153851633,26.6278656410196],[89.4838272665434,26.6282225618638],[89.48382725938511,26.6285199923748],[89.4838153613978,26.628853112715902],[89.4837201741936,26.629162441397],[89.4836130850147,26.6295550599898],[89.4834108232131,26.630066636936903],[89.48327994695781,26.6303402748628],[89.4831133682156,26.6307209822785],[89.4829943922165,26.6309827204152],[89.4828873144688,26.6313158489057],[89.48283485128731,26.6314535381223]]]},"properties":{"compartment":"Nimati Bl3","Division":"BTR_W","Range":"Nimati","Beat":"Nimati-East","DIVISION":"BTR_W","BEAT_NAME":"Nimati-East"},"id":"comptt.95"},
{"type":"Feature","geometry":{"type":"Polygon","coordinates":[[[89.4959965779727,26.6219008075149],[89.4959167521952,26.6221492763923],[89.495293707395,26.6240762676084],[89.4964886469417,26.6264632949567],[89.49912656708351,26.629505351494203],[89.4995115259139,26.6311753618652],[89.4995405227355,26.6313043626519],[89.4993605247291,26.631240359041602],[89.4965835478006,26.6305723038965],[89.4925805582498,26.630557226045703],[89.4905725539997,26.630944187674302],[89.4884965496359,26.631343148001],[89.4854555575841,26.6313320888619],[89.4829315611509,26.631449039994703],[89.48283485128731,26.6314535381223],[89.4828873144688,26.6313158489057],[89.4829943922165,26.6309827204152],[89.4831133682156,26.6307209822785],[89.48327994695781,26.6303402748628],[89.4834108232131,26.630066636936903],[89.4836130850147,26.6295550599898],[89.4837201741936,26.629162441397],[89.4838153613978,26.628853112715902],[89.48382725938511,26.6285199923748],[89.4838272665434,26.6282225618638],[89.4838153851633,26.6278656410196],[89.4836964151992,26.627461128012],[89.48348227404381,26.6271161032567],[89.483291921683,26.6268186690458],[89.4830896793523,26.626521224603803],[89.4828755396282,26.6261167097466],[89.482661404198,26.6255337445832],[89.4825781324247,26.6252006123925],[89.48248296325781,26.624760409786802],[89.4825067620721,26.6243915996159],[89.4825543611125,26.6240108798872],[89.48261385668711,26.6237729406348],[89.4827090413131,26.6235706821374],[89.4828399172798,26.6233089442314],[89.482899002939,26.6230675249651],[89.4836647947827,26.622910449578402],[89.4857777558551,26.622644000186],[89.4877003678704,26.6223584970612],[89.4885379394204,26.6222062230775],[89.49188821280211,26.622130148060602],[89.4959965779727,26.6219008075149]]]},"properties":{"compartment":"Nimati BL4","Division":"BTR_W","Range":"Nimati","Beat":"Nimati-East","DIVISION":"BTR_W","BEAT_NAME":"Nimati-East"},"id":"comptt.89"},
{"type":"Feature","geometry":{"type":"Polygon","coordinates":[[[89.4959965779727,26.6219008075149],[89.49188821280211,26.622130148060602],[89.4885379394204,26.6222062230775],[89.4877003678704,26.6223584970612],[89.4857777558551,26.622644000186],[89.4836647947827,26.622910449578402],[89.482899002939,26.6230675249651],[89.4827685515051,26.6223095711279],[89.4826852866,26.6216909084471],[89.4826496078533,26.6212269069567],[89.4825187502053,26.620727223555402],[89.4822213344095,26.6201680368153],[89.4818644253291,26.6197516291646],[89.4813409612491,26.6191448479506],[89.48073420594831,26.6185975652207],[89.4801155535233,26.6183477027705],[89.4793422394863,26.6181811274581],[89.4786997842602,26.6180502447501],[89.4781763098778,26.617871774272402],[89.4778550952695,26.6176814177045],[89.4773673188095,26.6171698173497],[89.4771888655567,26.616908073433702],[89.4771412822586,26.6166344320401],[89.47709370096331,26.616277510503803],[89.4771056083728,26.615968180205],[89.47722458551111,26.615658851986502],[89.477379250556,26.615432804604],[89.4775577178294,26.6151115875208],[89.4777599864735,26.614730870798002],[89.47784327599041,26.6143263717227],[89.4777600039263,26.614005139554102],[89.47755775101881,26.6137314951556],[89.47731981534051,26.613576820267802],[89.4769034112582,26.6133745618314],[89.476736857974,26.613112818147002],[89.4766416890864,26.6126607155233],[89.47661790944551,26.612232414327302],[89.4766179197442,26.6118041135936],[89.4766536188082,26.611423393634603],[89.4766536262459,26.6111140631046],[89.4766120751797,26.610746881668202],[89.47795207861671,26.610462907212302],[89.4834590853729,26.6096030127159],[89.4891910964928,26.608539122237403],[89.4908521003137,26.608206153931],[89.4914541003601,26.6081411655137],[89.4915750991898,26.608177167926403],[89.491504082033,26.6088981677895],[89.4912459941435,26.612580169121102],[89.492446964976,26.6136671943295],[89.4950879007693,26.616060249774],[89.4950758382794,26.6186592540251],[89.4962707778192,26.6210472813706],[89.4959965779727,26.6219008075149]]]},"properties":{"compartment":"Nimati BL5","Division":"BTR_W","Range":"Nimati","Beat":"Nimati-East","DIVISION":"BTR_W","BEAT_NAME":"Nimati-East"},"id":"comptt.77"},
{"type":"Feature","geometry":{"type":"Polygon","coordinates":[[[89.482899002939,26.6230675249651],[89.4821800112085,26.623215001244702],[89.48073330074641,26.6233862934221],[89.478715508068,26.6237098547617],[89.47496547611911,26.6241856826964],[89.4731380552577,26.624414067572403],[89.4697496956142,26.624756652307802],[89.466875308796,26.624927916739402],[89.4634108193646,26.625270489995902],[89.4601366808323,26.625555966854503],[89.4584044306675,26.625746283515202],[89.4563105109698,26.625955633180002],[89.45351226032611,26.626279189351703],[89.4519478993892,26.6264841792999],[89.4519997647843,26.6262544299178],[89.4522277884282,26.6252474326396],[89.45275381638591,26.6240294407934],[89.4536618377381,26.623045456766203],[89.4545748702383,26.6215974720469],[89.4554899097309,26.619858486870402],[89.4558199507608,26.6181174903231],[89.4558279954458,26.6162584873193],[89.4563530345527,26.6145764946591],[89.4570730675576,26.6131275061817],[89.4578190890986,26.612152519014202],[89.4602350893179,26.611887565492],[89.4643060867287,26.611564644018703],[89.4690550791387,26.6113787359503],[89.47237307695,26.611119799961003],[89.4750880763457,26.610858852255003],[89.4759640740552,26.6108618692772],[89.47606707377031,26.610862871279803],[89.4766120751797,26.610746881668202],[89.4766536262459,26.6111140631046],[89.4766536188082,26.611423393634603],[89.4766179197442,26.6118041135936],[89.47661790944551,26.612232414327302],[89.4766416890864,26.6126607155233],[89.476736857974,26.613112818147002],[89.4769034112582,26.6133745618314],[89.47731981534051,26.613576820267802],[89.47755775101881,26.6137314951556],[89.4777600039263,26.614005139554102],[89.47784327599041,26.6143263717227],[89.4777599864735,26.614730870798002],[89.4775577178294,26.6151115875208],[89.477379250556,26.615432804604],[89.47722458551111,26.615658851986502],[89.4771056083728,26.615968180205],[89.47709370096331,26.616277510503803],[89.4771412822586,26.6166344320401],[89.4771888655567,26.616908073433702],[89.4773673188095,26.6171698173497],[89.4778550952695,26.6176814177045],[89.4781763098778,26.617871774272402],[89.4786997842602,26.6180502447501],[89.4793422394863,26.6181811274581],[89.4801155535233,26.6183477027705],[89.48073420594831,26.6185975652207],[89.4813409612491,26.6191448479506],[89.4818644253291,26.6197516291646],[89.4822213344095,26.6201680368153],[89.4825187502053,26.620727223555402],[89.4826496078533,26.6212269069567],[89.4826852866,26.6216909084471],[89.4827685515051,26.6223095711279],[89.482899002939,26.6230675249651]]]},"properties":{"compartment":"Nimati BL6","Division":"BTR_W","Range":"Nimati","Beat":"Nimati-East","DIVISION":"BTR_W","BEAT_NAME":"Nimati-East"},"id":"comptt.83"}
]}
