{"type":"FeatureCollection", "features": [
{"type":"Feature","geometry":{"type":"Polygon","coordinates":[[[89.5648654472026,26.6747026191075],[89.564293631325,26.6745903677717],[89.5602009754713,26.6744237277663],[89.5535622930762,26.6743760083888],[89.5499217298195,26.6744711176563],[89.5466142851715,26.6745900234542],[89.5445917467593,26.6747327543173],[89.5434733938021,26.6749706829558],[89.5419981217355,26.6752085946434],[89.5417819317524,26.6752302104712],[89.5414270617703,26.6748516628969],[89.5408084222576,26.6740664294735],[89.5398804586818,26.6730670396523],[89.5393808063335,26.6719724780057],[89.5386194034886,26.6709254913466],[89.5380959471791,26.6699974895298],[89.537596273348,26.6693788187182],[89.5369538524989,26.6682366642116],[89.5362638311929,26.6671183088211],[89.5357165855126,26.6661665065024],[89.5348600097839,26.6648339874971],[89.5344079286994,26.664096347407],[89.5338844718089,26.663192135637],[89.5334086047984,26.6622879347939],[89.5332570565454,26.66181641102],[89.534907671958,26.6618358631818],[89.5409039016029,26.6616456295631],[89.5449489772757,26.661407757884],[89.5519445913771,26.6609320032229],[89.5548398082659,26.6607633992852],[89.5558118080278,26.660673418048],[89.5629107979863,26.6603615556932],[89.566604784233,26.6605536279464],[89.5693147588331,26.6613296820796],[89.5693097264317,26.6626736843625],[89.5694946699454,26.6649966920788],[89.5703926144197,26.6672067134796],[89.571679567724,26.669010741739],[89.5732905216017,26.6707577762108],[89.5741884773058,26.6725017967942],[89.5746733598968,26.6735381786413],[89.5749534359644,26.6741368145956],[89.5744454360818,26.674183804784],[89.57179143162,26.6746397538977],[89.5693974334969,26.6748067075634],[89.5664204410667,26.6747976495626],[89.5648654472026,26.6747026191075]]]},"properties":{"compartment":"N RVBK BL15","division":"BTR_W","range":"WestRajabhatkhawa","beat":"NRVK"},"id":"comptt.123"},
{"type":"Feature","geometry":{"type":"Polygon","coordinates":[[[89.5417819317524,26.6752302104712],[89.5410463418105,26.6753037562753],[89.535787747224,26.6752084737046],[89.5345980173241,26.6753274307449],[89.5334320739216,26.6755891484978],[89.5323613202822,26.6758508681043],[89.5282924458668,26.6760411392037],[89.5259129895284,26.6761362730357],[89.5240265175948,26.6759978260608],[89.5236345620754,26.6741948152892],[89.5232076666026,26.6699057995103],[89.5232587284802,26.6673347960282],[89.5231347815046,26.6651487898095],[89.5230798564586,26.6620457833382],[89.5230778579101,26.6619857831948],[89.5308626032042,26.6617881943656],[89.5332570565454,26.66181641102],[89.5334086047984,26.6622879347939],[89.5338844718089,26.663192135637],[89.5344079286994,26.664096347407],[89.5348600097839,26.6648339874971],[89.5357165855126,26.6661665065024],[89.5362638311929,26.6671183088211],[89.5369538524989,26.6682366642116],[89.537596273348,26.6693788187182],[89.5380959471791,26.6699974895298],[89.5386194034886,26.6709254913466],[89.5393808063335,26.6719724780057],[89.5398804586818,26.6730670396523],[89.5408084222576,26.6740664294735],[89.5414270617703,26.6748516628969],[89.5417819317524,26.6752302104712]]]},"properties":{"compartment":"N RVBK BL16","division":"BTR_W","range":"WestRajabhatkhawa","beat":"NRVK"},"id":"comptt.124"},
{"type":"Feature","geometry":{"type":"Polygon","coordinates":[[[89.5648654472026,26.6747026191075],[89.5647243962431,26.6768286201196],[89.5647823456307,26.6789196249459],[89.5652882756544,26.6817666398366],[89.5658601998787,26.6848466564271],[89.5663651542487,26.6866846695175],[89.5631371480138,26.6872736076605],[89.5597701481934,26.6876115426513],[89.5567911459952,26.6880084853061],[89.5539431420546,26.6884644306172],[89.551352140283,26.6888043807311],[89.5507907798579,26.6888968524593],[89.5503081387256,26.6889763606919],[89.5493979300626,26.6877723208404],[89.5483272060485,26.6863922075537],[89.5470661336552,26.6849645004773],[89.5458764247636,26.6837985452533],[89.5455909040906,26.6834416190646],[89.5454005589243,26.6828467443124],[89.5452340303543,26.681561828813],[89.5448295535231,26.6802293285956],[89.5445678354233,26.6793489219529],[89.5438778252801,26.6781829664678],[89.5433543672557,26.6773263447701],[89.542640554298,26.6762793690321],[89.5421408816193,26.6756131081328],[89.5417819317524,26.6752302104712],[89.5419981217355,26.6752085946434],[89.5434733938021,26.6749706829558],[89.5445917467593,26.6747327543173],[89.5466142851715,26.6745900234542],[89.5499217298195,26.6744711176563],[89.5535622930762,26.6743760083888],[89.5602009754713,26.6744237277663],[89.564293631325,26.6745903677717],[89.5648654472026,26.6747026191075]]]},"properties":{"compartment":"N RVBK BL11","division":"BTR_W","range":"WestRajabhatkhawa","beat":"NRVK"},"id":"comptt.132"},
{"type":"Feature","geometry":{"type":"Polygon","coordinates":[[[89.5503081387256,26.6889763606919],[89.5492151401403,26.6890303394904],[89.5471451412354,26.6891982994533],[89.544360141387,26.6894792456838],[89.541640138558,26.6898771933857],[89.5389861369711,26.6902171422717],[89.5367211357945,26.6905000986369],[89.5351661398016,26.6904950683317],[89.5321251420229,26.6907180094735],[89.5281741410267,26.6911689332841],[89.5257811414478,26.6913998870651],[89.5257501646085,26.6904438847959],[89.5253722033898,26.6888768747026],[89.5253372455325,26.6871348709868],[89.5254792982345,26.6849368699244],[89.5249893756358,26.6817808548839],[89.5248724213711,26.679897849326],[89.5243024861889,26.6772708336515],[89.5240265175948,26.6759978260608],[89.5259129895284,26.6761362730357],[89.5282924458668,26.6760411392037],[89.5323613202822,26.6758508681043],[89.5334320739216,26.6755891484978],[89.5345980173241,26.6753274307449],[89.535787747224,26.6752084737046],[89.5410463418105,26.6753037562753],[89.5417819317524,26.6752302104712],[89.5421408816193,26.6756131081328],[89.542640554298,26.6762793690321],[89.5433543672557,26.6773263447701],[89.5438778252801,26.6781829664678],[89.5445678354233,26.6793489219529],[89.5448295535231,26.6802293285956],[89.5452340303543,26.681561828813],[89.5454005589243,26.6828467443124],[89.5455909040906,26.6834416190646],[89.5458764247636,26.6837985452533],[89.5470661336552,26.6849645004773],[89.5483272060485,26.6863922075537],[89.5493979300626,26.6877723208404],[89.5503081387256,26.6889763606919]]]},"properties":{"compartment":"N RVBK BL10","division":"BTR_W","range":"WestRajabhatkhawa","beat":"NRVK"},"id":"comptt.138"},
{"type":"Feature","geometry":{"type":"Polygon","coordinates":[[[89.5548398082659,26.6607633992852],[89.5519445913771,26.6609320032229],[89.5449489772757,26.661407757884],[89.5409039016029,26.6616456295631],[89.534907671958,26.6618358631818],[89.5332570565454,26.66181641102],[89.5331944713968,26.6616216794616],[89.5330755261143,26.6601939946513],[89.5331945614582,26.6578859229343],[89.5334087975273,26.6542929308234],[89.5333850612384,26.6516517257449],[89.5333851162816,26.6493674417531],[89.5335060944733,26.6481848720396],[89.5344281627265,26.6481619799385],[89.5368231621798,26.6479370261403],[89.5403171588071,26.6477160937309],[89.5438101512548,26.6476691616082],[89.5471771496155,26.6473902266279],[89.550671144876,26.647227294323],[89.5539061408363,26.6470623569763],[89.5561941377991,26.6469534013027],[89.5559690949806,26.6487534000972],[89.555701041082,26.651017398872],[89.5554329801871,26.6535713981568],[89.5552289191017,26.6561263986881],[89.555416885029,26.6575204048034],[89.5552838503747,26.658971404771],[89.5548398082659,26.6607633992852]]]},"properties":{"compartment":"S RVBK BL2","division":"BTR_W","range":"WestRajabhatkhawa","beat":"NRVK"},"id":"comptt.108"},
{"type":"Feature","geometry":{"type":"Polygon","coordinates":[[[89.5332570565454,26.66181641102],[89.5308626032042,26.6617881943656],[89.5230778579101,26.6619857831948],[89.5230588835848,26.6609227809749],[89.5230230100539,26.6556797711485],[89.5233170662654,26.6533167727558],[89.5234640893444,26.652343773922],[89.5238271211586,26.6509857786202],[89.5244691588747,26.6493537882682],[89.524655178238,26.6485307904533],[89.5247231779475,26.6485357917848],[89.5267301741585,26.6484848307403],[89.529252173255,26.6482608794135],[89.532359166657,26.6482129397753],[89.5333711647353,26.64818795942],[89.5334621645565,26.6481859611869],[89.5335060944733,26.6481848720396],[89.5333851162816,26.6493674417531],[89.5333850612384,26.6516517257449],[89.5334087975273,26.6542929308234],[89.5331945614582,26.6578859229343],[89.5330755261143,26.6601939946513],[89.5331944713968,26.6616216794616],[89.5332570565454,26.66181641102]]]},"properties":{"compartment":"S RVBK BL1","division":"BTR_W","range":"WestRajabhatkhawa","beat":"NRVK"},"id":"comptt.109"}
]}