{"type":"FeatureCollection", "features": [
{"type":"Feature","geometry":{"type":"Polygon","coordinates":[[[89.4866592928434,26.7752418291862],[89.4854483332609,26.7757275560479],[89.4846868965548,26.7760844617873],[89.4835804398665,26.7764770508486],[89.4823669117226,26.7769410179403],[89.4806417911401,26.7775596453036],[89.4797732864417,26.777845168828],[89.4781909404007,26.7782615386328],[89.4772629455682,26.7785589610151],[89.4754664354645,26.7791656869609],[89.4744075669316,26.7796296570705],[89.472480196591,26.7802601804992],[89.4715759937212,26.7804743132025],[89.4710168214075,26.7806289725439],[89.4705171260569,26.7809025932497],[89.46991036127,26.7811643218437],[89.4691132361071,26.78146174678],[89.4682923204293,26.7817829512919],[89.4675665721989,26.7821993478245],[89.466686166675,26.7825205611738],[89.4655083316291,26.7828536587331],[89.4643542871,26.7831629667164],[89.4634961251487,26.783334580245],[89.4634001323804,26.7830465578803],[89.4631717242018,26.78217091193],[89.4626958585062,26.7812191110173],[89.4624864733537,26.7806289959246],[89.4622770958928,26.780134070994],[89.4619534968803,26.779715273962],[89.4616870031052,26.779486838369],[89.4613634094774,26.7792584016608],[89.461134988373,26.7789157566175],[89.4606400785694,26.7781352856262],[89.4604116583875,26.7777545705186],[89.4601261401986,26.7772977041668],[89.4597739949497,26.7767266263201],[89.4595455773051,26.7762412110353],[89.459336198919,26.7757843461709],[89.4589554974338,26.7750609875088],[89.4585272169937,26.7742995478533],[89.4583844501302,26.7741853248716],[89.4582131368005,26.7739283410904],[89.458070373397,26.7736713578667],[89.4579085798118,26.7734238942875],[89.4577277492745,26.7730526901269],[89.45751836858,26.7726910054249],[89.4572042929992,26.7721294483398],[89.456585661812,26.7710063243562],[89.4561002763587,26.7700450132494],[89.4559194465116,26.7696452590412],[89.455707810001,26.7691110840037],[89.4627234695417,26.7671457876356],[89.4739985316227,26.763388001353],[89.4797615634225,26.7614661105741],[89.4797745662236,26.7613491106278],[89.4824015623387,26.7612321617115],[89.4848285601333,26.7610672088091],[89.486552554301,26.7611262425668],[89.4874975514284,26.7611452610484],[89.4881484759441,26.7641922789868],[89.4882964363848,26.7658092846517],[89.4879533858616,26.767930281594],[89.4870603208382,26.7707072689197],[89.4868762623581,26.7731392694978],[89.4868902271717,26.7745892722582],[89.4866592928434,26.7752418291862]]]},"properties":{"compartment":"Pana BL3","division":"BTR_W","range":"Pana","beat":"Pana"},"id":"comptt.200"},
{"type":"Feature","geometry":{"type":"Polygon","coordinates":[[[89.4634961251487,26.783334580245],[89.4632240445302,26.7833889950227],[89.4621532818081,26.7836150244908],[89.4614989291673,26.783793472012],[89.4600474565634,26.7840551841037],[89.4586673655079,26.7842455174683],[89.4573824519005,26.7845310228536],[89.455121958218,26.7849235893634],[89.4544319179816,26.7850068560254],[89.4526592156398,26.7852923618818],[89.4514456832968,26.7855183885598],[89.4500418028903,26.7856849214189],[89.4490781219226,26.7858276728363],[89.4480668510789,26.7859704233241],[89.4472816310933,26.7860536881269],[89.4468781803856,26.7861673793241],[89.446642055155,26.7859545054664],[89.4456210802553,26.7850284839603],[89.445121094063,26.7845124733234],[89.4445501111825,26.7838674610825],[89.4438361240171,26.7834144463731],[89.4431961429151,26.7827034326743],[89.4428411672557,26.7817374241123],[89.4424902009663,26.7803844149764],[89.4419222305349,26.7792254019306],[89.4409972704565,26.7776773812591],[89.4395753272971,26.7754843497992],[89.4388813671942,26.7739123336023],[89.4404233812468,26.7731673624534],[89.4432593977388,26.7721834161638],[89.4452464002246,26.7718684544256],[89.4469514076114,26.771381486891],[89.4484654110605,26.771077515936],[89.4495984147938,26.7708025375913],[89.449948415367,26.7707415443214],[89.4539884327703,26.7695926212517],[89.4555594393767,26.7691526511775],[89.455707810001,26.7691110840037],[89.4559194465116,26.7696452590412],[89.4561002763587,26.7700450132494],[89.456585661812,26.7710063243562],[89.4572042929992,26.7721294483398],[89.45751836858,26.7726910054249],[89.4577277492745,26.7730526901269],[89.4579085798118,26.7734238942875],[89.458070373397,26.7736713578667],[89.4582131368005,26.7739283410904],[89.4583844501302,26.7741853248716],[89.4585272169937,26.7742995478533],[89.4589554974338,26.7750609875088],[89.459336198919,26.7757843461709],[89.4595455773051,26.7762412110353],[89.4597739949497,26.7767266263201],[89.4601261401986,26.7772977041668],[89.4604116583875,26.7777545705186],[89.4606400785694,26.7781352856262],[89.461134988373,26.7789157566175],[89.4613634094774,26.7792584016608],[89.4616870031052,26.779486838369],[89.4619534968803,26.779715273962],[89.4622770958928,26.780134070994],[89.4624864733537,26.7806289959246],[89.4626958585062,26.7812191110173],[89.4631717242018,26.78217091193],[89.4634001323804,26.7830465578803],[89.4634961251487,26.783334580245]]]},"properties":{"compartment":"Pana BL4","division":"BTR_W","range":"Pana","beat":"Pana"},"id":"comptt.201"},
{"type":"Feature","geometry":{"type":"Polygon","coordinates":[[[89.4866592928434,26.7752418291862],[89.4865972078471,26.7754172679556],[89.4860931746112,26.7768412605531],[89.4854201244926,26.7789792510725],[89.4841770794168,26.7809692302011],[89.4834310205756,26.7834742199184],[89.4828819438797,26.7866942147066],[89.4839148467673,26.790588241561],[89.4849687777793,26.7933202668397],[89.4855286905579,26.7968552838431],[89.4857396557953,26.7982652903843],[89.4860096200779,26.7997082981356],[89.486072577241,26.8014663023809],[89.4859035774553,26.8014752990926],[89.4834735783163,26.8016962519672],[89.4811695816266,26.8018032071102],[89.478738590875,26.801679159376],[89.4763362333037,26.8014212619742],[89.4759917603167,26.8011688048094],[89.4757252637738,26.8010545894049],[89.4753731088373,26.8008832622287],[89.47500192626,26.8006167545181],[89.4746878430741,26.8003692779562],[89.4741263046823,26.7999504862652],[89.4737931820071,26.799683979299],[89.4733173020092,26.7993222893802],[89.472841419701,26.799055779624],[89.4722989128773,26.7985703581925],[89.4720229014412,26.7982467422458],[89.4714994394188,26.7975614508463],[89.4710997036132,26.7970189221088],[89.4707665974048,26.7964859146899],[89.4705001077912,26.7960861588003],[89.4703287963156,26.7957530348845],[89.469919546769,26.794953525524],[89.4687869733314,26.7931546303265],[89.4681397803988,26.7921076458967],[89.4672546559279,26.7907370562676],[89.4662458123938,26.788928643478],[89.4656938080563,26.7879292609926],[89.4650561406329,26.7866538563648],[89.4643328118126,26.785445070178],[89.4640663365792,26.784864483985],[89.4638188808352,26.7843029181962],[89.4634961251487,26.783334580245],[89.4643542871,26.7831629667164],[89.4655083316291,26.7828536587331],[89.466686166675,26.7825205611738],[89.4675665721989,26.7821993478245],[89.4682923204293,26.7817829512919],[89.4691132361071,26.78146174678],[89.46991036127,26.7811643218437],[89.4705171260569,26.7809025932497],[89.4710168214075,26.7806289725439],[89.4715759937212,26.7804743132025],[89.472480196591,26.7802601804992],[89.4744075669316,26.7796296570705],[89.4754664354645,26.7791656869609],[89.4772629455682,26.7785589610151],[89.4781909404007,26.7782615386328],[89.4797732864417,26.777845168828],[89.4806417911401,26.7775596453036],[89.4823669117226,26.7769410179403],[89.4835804398665,26.7764770508486],[89.4846868965548,26.7760844617873],[89.4854483332609,26.7757275560479],[89.4866592928434,26.7752418291862]]]},"properties":{"compartment":"Pana BL2","division":"BTR_W","range":"Pana","beat":"Pana"},"id":"comptt.211"},
{"type":"Feature","geometry":{"type":"Polygon","coordinates":[[[89.4763362333037,26.8014212619742],[89.4759156054804,26.8013761036747],[89.4754156080517,26.8013230938105],[89.4731116114017,26.8014290489545],[89.46965461503,26.8016459817505],[89.4669686166085,26.8018659296228],[89.4646696478266,26.8008238829141],[89.4643786512953,26.8007118770359],[89.4619886800569,26.7997808287416],[89.4603297151363,26.7985117941637],[89.4590877298705,26.7980367690851],[89.4586087536511,26.7971077581482],[89.4583977682701,26.7965277530411],[89.457686799806,26.7953037370714],[89.4569008175349,26.7946567206157],[89.4559708371884,26.7939457012384],[89.4556868488641,26.793494694925],[89.4551158644354,26.7929136827838],[89.4543318821339,26.7922676663714],[89.4530438965268,26.7918116404343],[89.4517579187019,26.7910346139941],[89.4511149360113,26.7903896003407],[89.4502589586014,26.7895495821971],[89.449974973404,26.7889695756684],[89.4499039829498,26.7885835736287],[89.4491189975452,26.7880655574182],[89.448476013325,26.7874835438739],[89.4470480452277,26.786320514015],[89.4468781803856,26.7861673793241],[89.4472816310933,26.7860536881269],[89.4480668510789,26.7859704233241],[89.4490781219226,26.7858276728363],[89.4500418028903,26.7856849214189],[89.4514456832968,26.7855183885598],[89.4526592156398,26.7852923618818],[89.4544319179816,26.7850068560254],[89.455121958218,26.7849235893634],[89.4573824519005,26.7845310228536],[89.4586673655079,26.7842455174683],[89.4600474565634,26.7840551841037],[89.4614989291673,26.783793472012],[89.4621532818081,26.7836150244908],[89.4632240445302,26.7833889950227],[89.4634961251487,26.783334580245],[89.4638188808352,26.7843029181962],[89.4640663365792,26.784864483985],[89.4643328118126,26.785445070178],[89.4650561406329,26.7866538563648],[89.4656938080563,26.7879292609926],[89.4662458123938,26.788928643478],[89.4672546559279,26.7907370562676],[89.4681397803988,26.7921076458967],[89.4687869733314,26.7931546303265],[89.469919546769,26.794953525524],[89.4703287963156,26.7957530348845],[89.4705001077912,26.7960861588003],[89.4707665974048,26.7964859146899],[89.4710997036132,26.7970189221088],[89.4714994394188,26.7975614508463],[89.4720229014412,26.7982467422458],[89.4722989128773,26.7985703581925],[89.472841419701,26.799055779624],[89.4733173020092,26.7993222893802],[89.4737931820071,26.799683979299],[89.4741263046823,26.7999504862652],[89.4746878430741,26.8003692779562],[89.47500192626,26.8006167545181],[89.4753731088373,26.8008832622287],[89.4757252637738,26.8010545894049],[89.4759917603167,26.8011688048094],[89.4763362333037,26.8014212619742]]]},"properties":{"compartment":"Pana BL1","division":"BTR_W","range":"Pana","beat":"Pana"},"id":"comptt.212"}
]}