{"type":"FeatureCollection", "features": [
{"type":"Feature","geometry":{"type":"Polygon","coordinates":[[[89.6192493209072,26.5837945552948],[89.6194873713664,26.583751609842203],[89.6204873732615,26.5835726289477],[89.62269137146801,26.583426671505503],[89.62302337129451,26.583400677909],[89.6244643706425,26.583283705695003],[89.624910369883,26.5832707143369],[89.6288483528299,26.583586791425002],[89.6332773331219,26.5839648781702],[89.6379493277529,26.583722968514202],[89.64139332245121,26.5836010352157],[89.6447503276083,26.583053099450503],[89.6454853157814,26.5834721144979],[89.6463153261581,26.5829581296888],[89.6468273262831,26.582902139536],[89.6473383374212,26.5823881485273],[89.6482963474936,26.5818741662044],[89.64874436157041,26.5812441737588],[89.6501473526268,26.5814772014476],[89.6515483299145,26.582283230146402],[89.6503333149699,26.583025207892202],[89.6506502990206,26.583657215208103],[89.6512212907606,26.5839442268295],[89.6517942700416,26.5847492394378],[89.6521752511978,26.585495248207103],[89.65281022621801,26.5864712623343],[89.6529342148857,26.5869302655843],[89.6535681816342,26.5882502803228],[89.6546501652073,26.588826302408503],[89.65567215996211,26.588943322488102],[89.65624617235301,26.5883713325974],[89.6568231902437,26.587570342345103],[89.65746219834371,26.587170354032303],[89.6580361914246,26.5874013656125],[89.65898815051601,26.589008387063803],[89.65885813634651,26.5896103856408],[89.65882311781411,26.5903843863798],[89.6578960952676,26.591413370246002],[89.6576680592721,26.592932368598102],[89.657315049792,26.5933613625218],[89.6569630196211,26.594650358040703],[89.6561010134444,26.5949923419084],[89.6556750009379,26.595554334655603],[89.6572829737516,26.5965253676984],[89.6573539727165,26.5965613691448],[89.6550949670971,26.597018326060102],[89.6529599625097,26.5974202852852],[89.6514079621182,26.5975902554207],[89.6490139679716,26.5975842088639],[89.645779973093,26.597692146184702],[89.6419009811852,26.597741070859],[89.6386669835353,26.5979650083935],[89.6364679861564,26.5980749658425],[89.63336398818561,26.5982999059071],[89.63080298829361,26.5985508565755],[89.6300384358988,26.5974796197678],[89.629181860581,26.5961233006551],[89.62689765817821,26.5931251308175],[89.6252558758989,26.591304815609],[89.623423759808,26.5888301355208],[89.622043707453,26.5874024261181],[89.6209967854385,26.5859271331052],[89.6199736487887,26.584642200901],[89.6192493209072,26.5837945552948]]]},"properties":{"compartment":"Panbari BL10","division":"BTR_W","range":"EastRajabhatkhawa","beat":"Panbari-South","DIVISION":"BTR_W","BEAT_NAME":"Panbari-South"},"id":"comptt.52"},
{"type":"Feature","geometry":{"type":"Polygon","coordinates":[[[89.6097892031787,26.6004525615154],[89.6081949653187,26.6005239206542],[89.6081116941059,26.6001669983928],[89.6079570276283,26.6000361251507],[89.60775478183831,26.599881450941],[89.6075287363919,26.599714886247202],[89.60731459120291,26.599536421763503],[89.6072313168418,26.5993103697379],[89.6070171639422,26.5990367250827],[89.6067554334468,26.598667909331603],[89.6065650910618,26.5983704650966],[89.6060535148912,26.5978469742113],[89.6056728152558,26.597454356105402],[89.6052921150482,26.5970855280427],[89.6050065817485,26.5968356820438],[89.6048281264726,26.5966572182544],[89.60476864005031,26.5965144468415],[89.6046972682344,26.596181324855202],[89.6047091773613,26.595800614402002],[89.6046973131531,26.5943134414968],[89.60479250121911,26.5939684227261],[89.6049947618865,26.5935044358223],[89.6053754981291,26.5927906019371],[89.6059941840935,26.5916484719049],[89.60614885458921,26.591196374097002],[89.6061607619976,26.5908870437718],[89.6061726676897,26.5906490935749],[89.60610128444141,26.5903754516954],[89.6060299111928,26.590101819816102],[89.6059585276581,26.5898400779581],[89.605899056955,26.589459356117402],[89.6058990635336,26.5891857156253],[89.6058990695399,26.5889358751758],[89.60586338534651,26.5886979240543],[89.6057087197249,26.5885313607494],[89.6055659540745,26.588364797675702],[89.6053756082534,26.588210123699],[89.6053042224302,26.588043562012402],[89.6052923370348,26.587853211439],[89.6052566651482,26.5866872686485],[89.6052209932509,26.5859377366071],[89.60525668974181,26.5856640968083],[89.605351873801,26.5854856383365],[89.6056969009729,26.585152524440403],[89.605768298521,26.5848312952495],[89.60573261775771,26.584450583871302],[89.6056989020069,26.5842771829043],[89.6060043923455,26.5842323487585],[89.61228437692981,26.5842424707837],[89.613962377952,26.584031503003903],[89.61625437439601,26.5839495473863],[89.6173083726971,26.583914567801102],[89.61890537024411,26.583856598724303],[89.6192493209072,26.5837945552948],[89.6199736487887,26.584642200901],[89.6209967854385,26.5859271331052],[89.622043707453,26.5874024261181],[89.623423759808,26.5888301355208],[89.6252558758989,26.591304815609],[89.62689765817821,26.5931251308175],[89.629181860581,26.5961233006551],[89.6300384358988,26.5974796197678],[89.63080298829361,26.5985508565755],[89.6156872909112,26.5999544752697],[89.6097892031787,26.6004525615154]]]},"properties":{"compartment":"Panbari BL9","division":"BTR_W","range":"EastRajabhatkhawa","beat":"Panbari-South","DIVISION":"BTR_W","BEAT_NAME":"Panbari-South"},"id":"comptt.53"},
{"type":"Feature","geometry":{"type":"Polygon","coordinates":[[[89.6081949653187,26.6005239206542],[89.60276681698541,26.6010011859989],[89.5927730906553,26.601857603281303],[89.58699100357791,26.6023214917254],[89.58308736528791,26.602646286432503],[89.5830640090335,26.602492935704902],[89.58351507306361,26.5997849396398],[89.5843291209058,26.597712951761903],[89.5845841346639,26.59711495565],[89.5850091515897,26.596367962575602],[89.5857451898057,26.5947039739068],[89.5870272835444,26.590674991620702],[89.5868273722464,26.587004981179202],[89.5863633918585,26.5862359707919],[89.5861864019751,26.585832966633802],[89.58632440187931,26.5858229692967],[89.5874294010148,26.585746990626202],[89.5895644012499,26.585521031696402],[89.5909843989255,26.5854740591971],[89.5911803985931,26.5854680629939],[89.59525039675451,26.585133141459],[89.5972773971218,26.5849131804422],[89.60010139267631,26.584813235124003],[89.6026663886003,26.5847242847946],[89.6053843916584,26.5843233368773],[89.6056989020069,26.5842771829043],[89.60573261775771,26.584450583871302],[89.605768298521,26.5848312952495],[89.6056969009729,26.585152524440403],[89.605351873801,26.5854856383365],[89.60525668974181,26.5856640968083],[89.6052209932509,26.5859377366071],[89.6052566651482,26.5866872686485],[89.6052923370348,26.587853211439],[89.6053042224302,26.588043562012402],[89.6053756082534,26.588210123699],[89.6055659540745,26.588364797675702],[89.6057087197249,26.5885313607494],[89.60586338534651,26.5886979240543],[89.6058990695399,26.5889358751758],[89.6058990635336,26.5891857156253],[89.605899056955,26.589459356117402],[89.6059585276581,26.5898400779581],[89.6060299111928,26.590101819816102],[89.60610128444141,26.5903754516954],[89.6061726676897,26.5906490935749],[89.6061607619976,26.5908870437718],[89.60614885458921,26.591196374097002],[89.6059941840935,26.5916484719049],[89.6053754981291,26.5927906019371],[89.6049947618865,26.5935044358223],[89.60479250121911,26.5939684227261],[89.6046973131531,26.5943134414968],[89.6047091773613,26.595800614402002],[89.6046972682344,26.596181324855202],[89.60476864005031,26.5965144468415],[89.6048281264726,26.5966572182544],[89.6050065817485,26.5968356820438],[89.6052921150482,26.5970855280427],[89.6056728152558,26.597454356105402],[89.6060535148912,26.5978469742113],[89.6065650910618,26.5983704650966],[89.6067554334468,26.598667909331603],[89.6070171639422,26.5990367250827],[89.6072313168418,26.5993103697379],[89.60731459120291,26.599536421763503],[89.6075287363919,26.599714886247202],[89.60775478183831,26.599881450941],[89.6079570276283,26.6000361251507],[89.6081116941059,26.6001669983928],[89.6081949653187,26.6005239206542]]]},"properties":{"compartment":"Panbari BL8","division":"BTR_W","range":"EastRajabhatkhawa","beat":"Panbari-South","DIVISION":"BTR_W","BEAT_NAME":"Panbari-South"},"id":"comptt.55"},
{"type":"Feature","geometry":{"type":"Polygon","coordinates":[[[89.6109093517702,26.610372911170302],[89.6085517491358,26.610719445950203],[89.6060927468864,26.6110603987481],[89.6033127482128,26.6112853450954],[89.6007237504779,26.611452295052903],[89.5982017497698,26.611736246523503],[89.5965197525836,26.611789213913102],[89.5946447572654,26.611784177446502],[89.5923797643437,26.611719133290002],[89.5892777749105,26.611594072753302],[89.587853779875,26.6115320449558],[89.5877007789005,26.611588042081102],[89.58675277286271,26.6119350242691],[89.58558676598601,26.612339002320002],[89.5830587609213,26.6128059540015],[89.5830727675533,26.6125289537797],[89.5828368205173,26.610351945308903],[89.5827348456707,26.609316941480103],[89.5827609334712,26.605664935472802],[89.58298498363331,26.6035569360672],[89.5831100016571,26.602794937137602],[89.58308736528791,26.602646286432503],[89.58699100357791,26.6023214917254],[89.5927730906553,26.601857603281303],[89.60276681698541,26.6010011859989],[89.6081949653187,26.6005239206542],[89.6097892031787,26.6004525615154],[89.6098367667332,26.601547114412103],[89.60993191990231,26.6022371675052],[89.61007467639081,26.6027844412665],[89.6103126103584,26.6034269070498],[89.61059812535571,26.6040217736725],[89.61066950888561,26.604283515532],[89.6108836486349,26.604688030424303],[89.6112167529435,26.6053066980156],[89.6114071004597,26.6058063926172],[89.6114308737979,26.6064964343233],[89.6114070672504,26.607186485104503],[89.6112880757794,26.6080906744208],[89.6111928805486,26.608733133727902],[89.611121473542,26.6094469636261],[89.6109093517702,26.610372911170302]]]},"properties":{"compartment":"Panbari BL7","division":"BTR_W","range":"EastRajabhatkhawa","beat":"Panbari-South","DIVISION":"BTR_W","BEAT_NAME":"Panbari-South"},"id":"comptt.70"},
{"type":"Feature","geometry":{"type":"Polygon","coordinates":[[[89.63080298829361,26.5985508565755],[89.6325179344725,26.6006168936686],[89.63496585160131,26.603816947080603],[89.6371567833191,26.606435994448702],[89.6379447560622,26.6074900116908],[89.63635275675,26.6076199809671],[89.63520975727721,26.6077119589061],[89.6323567573376,26.607993903936002],[89.6320943274675,26.6080196400938],[89.6319897573526,26.6080298968644],[89.63119675735601,26.6081088815864],[89.6260857573951,26.6086177831176],[89.6219467550652,26.6091287035545],[89.61955375537211,26.609355657430502],[89.61754675335601,26.609640618917503],[89.61456975236331,26.6099805616412],[89.6116597525882,26.610263505565],[89.6112047521004,26.6103294968363],[89.6109093517702,26.610372911170302],[89.611121473542,26.6094469636261],[89.6111928805486,26.608733133727902],[89.6112880757794,26.6080906744208],[89.6114070672504,26.607186485104503],[89.6114308737979,26.6064964343233],[89.6114071004597,26.6058063926172],[89.6112167529435,26.6053066980156],[89.6108836486349,26.604688030424303],[89.61066950888561,26.604283515532],[89.61059812535571,26.6040217736725],[89.6103126103584,26.6034269070498],[89.61007467639081,26.6027844412665],[89.60993191990231,26.6022371675052],[89.6098367667332,26.601547114412103],[89.6097892031787,26.6004525615154],[89.6156872909112,26.5999544752697],[89.63080298829361,26.5985508565755]]]},"properties":{"compartment":"Panbari BL6","division":"BTR_W","range":"EastRajabhatkhawa","beat":"Panbari-South","DIVISION":"BTR_W","BEAT_NAME":"Panbari-South"},"id":"comptt.66"}
]}
