{"type":"FeatureCollection", "features": [
{"type":"Feature","geometry":{"type":"Polygon","coordinates":[[[89.66295970159311,26.6064426562899],[89.6580444172391,26.606278110385603],[89.6511915824215,26.6063255671909],[89.64695613936,26.606872755818003],[89.6404602185972,26.6071343699626],[89.6379447560622,26.6074900116908],[89.6371567833191,26.606435994448702],[89.63496585160131,26.603816947080603],[89.6325179344725,26.6006168936686],[89.63080298829361,26.5985508565755],[89.63336398818561,26.5982999059071],[89.6364679861564,26.5980749658425],[89.6386669835353,26.5979650083935],[89.6419009811852,26.597741070859],[89.645779973093,26.597692146184702],[89.6490139679716,26.5975842088639],[89.6514079621182,26.5975902554207],[89.6529599625097,26.5974202852852],[89.6550949670971,26.597018326060102],[89.6573539727165,26.5965613691448],[89.6583559578707,26.5970793895765],[89.6588909183658,26.598668402892603],[89.65911286631841,26.6008094111356],[89.6590277834421,26.6042614158127],[89.6628647392025,26.6057204931165],[89.6629507232553,26.606374495990103],[89.66295970159311,26.6064426562899]]]},"properties":{"compartment":"Panbari BL5","division":"BTR_W","range":"EastRajabhatkhawa","beat":"Panbari-North","DIVISION":"BTR_W","BEAT_NAME":"Panbari-North"},"id":"comptt.64"},
{"type":"Feature","geometry":{"type":"Polygon","coordinates":[[[89.66295970159311,26.6064426562899],[89.6633016582642,26.6090395077114],[89.6631996464445,26.609540506647303],[89.6630046124054,26.6109735054854],[89.6630635791327,26.612349509159902],[89.6630585418677,26.6138975119052],[89.6635015049076,26.6153885232622],[89.6639414472137,26.617740536143103],[89.6644443921332,26.6199775500401],[89.66463135716731,26.6214105563117],[89.6647153478369,26.6217895586427],[89.6624953712805,26.621035514056],[89.661865371888,26.621072501864102],[89.65922537443831,26.6212274507747],[89.65463637053651,26.621843362603702],[89.6502383680274,26.6223832780097],[89.6488789112631,26.622383791505502],[89.6477203740219,26.622384229014102],[89.6472651951041,26.6223845522574],[89.6457660804739,26.6206498378207],[89.6449333091458,26.6191269688386],[89.6431487775985,26.6164619292589],[89.6422684192418,26.6148200791393],[89.6410073661158,26.6125833605326],[89.63912768227,26.6087761770379],[89.6379447560622,26.6074900116908],[89.6404602185972,26.6071343699626],[89.64695613936,26.606872755818003],[89.6511915824215,26.6063255671909],[89.6580444172391,26.606278110385603],[89.66295970159311,26.6064426562899]]]},"properties":{"compartment":"Panbari BL4","division":"BTR_W","range":"EastRajabhatkhawa","beat":"Panbari-North","DIVISION":"BTR_W","BEAT_NAME":"Panbari-North"},"id":"comptt.76"},
{"type":"Feature","geometry":{"type":"Polygon","coordinates":[[[89.6472651951041,26.6223845522574],[89.6436343837274,26.6223871495125],[89.642131389616,26.622292120094002],[89.6405463885488,26.6224940896215],[89.6375523876605,26.6228290319751],[89.6341983855491,26.6232509674822],[89.6326393909339,26.623182937025103],[89.63238719185111,26.6231718311093],[89.632869477244,26.618746013441303],[89.6329647343675,26.6155337394584],[89.63253653106591,26.6115600239104],[89.6321796829464,26.6086094816106],[89.6320943274675,26.6080196400938],[89.6323567573376,26.607993903936002],[89.63520975727721,26.6077119589061],[89.63635275675,26.6076199809671],[89.6379447560622,26.6074900116908],[89.63912768227,26.6087761770379],[89.6410073661158,26.6125833605326],[89.6422684192418,26.6148200791393],[89.6431487775985,26.6164619292589],[89.6449333091458,26.6191269688386],[89.6457660804739,26.6206498378207],[89.6472651951041,26.6223845522574]]]},"properties":{"compartment":"Panbari BL3","division":"BTR_W","range":"EastRajabhatkhawa","beat":"Panbari-North","DIVISION":"BTR_W","BEAT_NAME":"Panbari-North"},"id":"comptt.78"},
{"type":"Feature","geometry":{"type":"Polygon","coordinates":[[[89.63238719185111,26.6231718311093],[89.6312763956565,26.6231229103963],[89.6277503993729,26.6233208421516],[89.6237793965374,26.6238357658236],[89.6218373959951,26.624052728432503],[89.61654040047951,26.624397625998903],[89.6153738403199,26.6245217936289],[89.6151314002737,26.6245475988569],[89.6145746501929,26.6246066476049],[89.61461894835371,26.623433206876],[89.61409552176781,26.6212678827861],[89.6133579087644,26.620220906548802],[89.6129772122912,26.619697418199202],[89.6125489305162,26.618983568581],[89.6123109954153,26.6183887028802],[89.61207305916841,26.617841417265403],[89.6118113404263,26.6169848006305],[89.6115258305948,26.616175783619003],[89.61124031133551,26.6153429665647],[89.6110737689232,26.6146291220391],[89.61090722593771,26.6139390675564],[89.6108596572457,26.6130586650446],[89.6107882943373,26.6119403216412],[89.6107883109464,26.6112502703979],[89.6109093517702,26.610372911170302],[89.6112047521004,26.6103294968363],[89.6116597525882,26.610263505565],[89.61456975236331,26.6099805616412],[89.61754675335601,26.609640618917503],[89.61955375537211,26.609355657430502],[89.6219467550652,26.6091287035545],[89.6260857573951,26.6086177831176],[89.63119675735601,26.6081088815864],[89.6319897573526,26.6080298968644],[89.6320943274675,26.6080196400938],[89.6321796829464,26.6086094816106],[89.63253653106591,26.6115600239104],[89.6329647343675,26.6155337394584],[89.632869477244,26.618746013441303],[89.63238719185111,26.6231718311093]]]},"properties":{"compartment":"Panbari BL2","division":"BTR_W","range":"EastRajabhatkhawa","beat":"Panbari-North","DIVISION":"BTR_W","BEAT_NAME":"Panbari-North"},"id":"comptt.80"},
{"type":"Feature","geometry":{"type":"Polygon","coordinates":[[[89.6145746501929,26.6246066476049],[89.6134534000463,26.624725566532103],[89.6083714114655,26.624762467729102],[89.605235420325,26.6247104066269],[89.6029424239416,26.6247913621647],[89.6012244275136,26.624816328788302],[89.5994414272724,26.625006294443903],[89.5981274277955,26.6251172690813],[89.5937304343352,26.6252901838565],[89.5901464398226,26.625425114380203],[89.58462545210091,26.6254750070756],[89.58460545426901,26.6253870065296],[89.5840705257694,26.6224719909227],[89.583713570534,26.620648980727402],[89.5831706371497,26.6179369653303],[89.582936697489,26.6154539563518],[89.5830587609213,26.6128059540015],[89.58558676598601,26.612339002320002],[89.58675277286271,26.6119350242691],[89.5877007789005,26.611588042081102],[89.587853779875,26.6115320449558],[89.5892777749105,26.611594072753302],[89.5923797643437,26.611719133290002],[89.5946447572654,26.611784177446502],[89.5965197525836,26.611789213913102],[89.5982017497698,26.611736246523503],[89.6007237504779,26.611452295052903],[89.6033127482128,26.6112853450954],[89.6060927468864,26.6110603987481],[89.6085517491358,26.610719445950203],[89.6109093517702,26.610372911170302],[89.6107883109464,26.6112502703979],[89.6107882943373,26.6119403216412],[89.6108596572457,26.6130586650446],[89.61090722593771,26.6139390675564],[89.6110737689232,26.6146291220391],[89.61124031133551,26.6153429665647],[89.6115258305948,26.616175783619003],[89.6118113404263,26.6169848006305],[89.61207305916841,26.617841417265403],[89.6123109954153,26.6183887028802],[89.6125489305162,26.618983568581],[89.6129772122912,26.619697418199202],[89.6133579087644,26.620220906548802],[89.61409552176781,26.6212678827861],[89.61461894835371,26.623433206876],[89.6145746501929,26.6246066476049]]]},"properties":{"compartment":"Panbari BL1","division":"BTR_W","range":"EastRajabhatkhawa","beat":"Panbari-North","DIVISION":"BTR_W","BEAT_NAME":"Panbari-North"},"id":"comptt.82"}
]}
