{"type":"FeatureCollection", "features": [
{"type":"Feature","geometry":{"type":"Polygon","coordinates":[[[89.4856122633346,26.564074906236502],[89.48451821952361,26.5639316247696],[89.48259562481981,26.5639125474461],[89.4781032156834,26.5639315003456],[89.4733062259634,26.5640075474386],[89.4713455604604,26.564026549445103],[89.4676336084781,26.5640835775527],[89.4643975421056,26.564273875118403],[89.46055233500431,26.564559331034],[89.45910562593541,26.564673523172402],[89.4585345532758,26.5648448323893],[89.45790636939181,26.565073250595702],[89.4574433875935,26.5651972318281],[89.4574762216305,26.5650254321725],[89.4576282402873,26.5642314337693],[89.4576352750911,26.562779431434702],[89.4571852999499,26.5617904210261],[89.45609333763541,26.5603343973758],[89.45545738248,26.558531381978902],[89.45533643291681,26.556440376078402],[89.455536467192,26.554989377489],[89.4562565000969,26.553540388982903],[89.45696851075401,26.5530204019006],[89.4584585151957,26.5526774302005],[89.45936553231,26.5518674464036],[89.4593065491408,26.5511714440748],[89.4585955621598,26.550703429496203],[89.4574345666139,26.5506404068847],[89.4560125745114,26.5504613790172],[89.45530258889491,26.5499363643628],[89.455049617407,26.548773357482002],[89.4550586646848,26.546799354301],[89.4547657057284,26.5451173457636],[89.4551287028187,26.5452003529394],[89.4583166862041,26.5455564153279],[89.46112567331261,26.5457974701781],[89.4645686505327,26.5463845379086],[89.4671206355966,26.5467385879757],[89.4706936207472,26.546981657645002],[89.4722256112487,26.5472166877421],[89.4732466085767,26.547220707539402],[89.4772005817606,26.547923785388303],[89.4792425764255,26.5479318249855],[89.4829425585588,26.5482888973239],[89.4866705342329,26.5489129706683],[89.48646251996631,26.549529967697502],[89.4861324888186,26.5508639635947],[89.48586544219181,26.552836961812],[89.4860483887948,26.5550449691586],[89.48642833906881,26.5570789800264],[89.4868072949037,26.558880990476702],[89.4868022712461,26.559867992078],[89.4868002615141,26.5602739927378],[89.4863432320597,26.561549986069902],[89.4857521848307,26.563580978100703],[89.4856122633346,26.564074906236502]]]},"properties":{"compartment":"Poro BL10","division":"BTR_W","range":"WestDamanpur","beat":"Poro-East","DIVISION":"BTR_W","BEAT_NAME":"Poro-East"},"id":"comptt.21"},
{"type":"Feature","geometry":{"type":"Polygon","coordinates":[[[89.4774226513894,26.5866818561567],[89.4769826515646,26.5867208476832],[89.4761436481856,26.586949831790402],[89.4751716451675,26.5871778133143],[89.474329645976,26.587232797065102],[89.4708376523152,26.5873367294639],[89.4669596638936,26.5872636540699],[89.4632736777345,26.5870765822104],[89.4602996869677,26.5870065243715],[89.4573257003621,26.586763466239802],[89.4529947173627,26.5865143817656],[89.4506027250895,26.586446335230402],[89.4496987261454,26.5864983177755],[89.4500907501387,26.585457323617],[89.4505487796042,26.5841813303401],[89.45217683664501,26.581632357604],[89.4529658889047,26.5793713690737],[89.4533619366637,26.5773393733058],[89.4542809983246,26.5746723866037],[89.45578408356471,26.5709604094498],[89.4563101253615,26.569162416595102],[89.4571621830211,26.5666684288779],[89.4574433875935,26.5651972318281],[89.45790636939181,26.565073250595702],[89.4585345532758,26.5648448323893],[89.45910562593541,26.564673523172402],[89.46055233500431,26.564559331034],[89.4643975421056,26.564273875118403],[89.4676336084781,26.5640835775527],[89.4713455604604,26.564026549445103],[89.4733062259634,26.5640075474386],[89.4781032156834,26.5639315003456],[89.48259562481981,26.5639125474461],[89.48451821952361,26.5639316247696],[89.4856122633346,26.564074906236502],[89.4854561605083,26.564625974156602],[89.485226141632,26.565436971089802],[89.4844410907324,26.5676409596518],[89.483656044003,26.5696709479124],[89.4835220220733,26.570598946907502],[89.4826749796695,26.5724549336635],[89.48175691656151,26.575180920533903],[89.4809048588483,26.5776749082835],[89.47920376291461,26.581849882438],[89.4780256823323,26.585329865543002],[89.4774226513894,26.5866818561567]]]},"properties":{"compartment":"Poro BL7","division":"BTR_W","range":"WestDamanpur","beat":"Poro-East","DIVISION":"BTR_W","BEAT_NAME":"Poro-East"},"id":"comptt.44"},
{"type":"Feature","geometry":{"type":"Polygon","coordinates":[[[89.474587439283,26.5958108167601],[89.47454843616231,26.5959448162323],[89.4742874242815,26.596466812058402],[89.4742133742524,26.5985568141994],[89.4742693266523,26.6005318186677],[89.4749692578293,26.6033218370383],[89.4757301748518,26.6066938575929],[89.4760431196085,26.6089588675522],[89.4766120751797,26.610746881668202],[89.47606707377031,26.610862871279803],[89.4759640740552,26.6108618692772],[89.4750880763457,26.610858852255003],[89.47237307695,26.611119799961003],[89.4690550791387,26.6113787359503],[89.4643060867287,26.611564644018703],[89.4602350893179,26.611887565492],[89.4578190890986,26.612152519014202],[89.4581800995509,26.6116795252216],[89.4589621309764,26.6102895380459],[89.4593571718228,26.608548542755003],[89.4601432214054,26.6064025543672],[89.4611862507664,26.6050705723544],[89.462742273175,26.6039736007024],[89.4639763020261,26.6026426223967],[89.46482132073861,26.6017746373251],[89.4652143364657,26.601078643769203],[89.4652823544352,26.6003236438016],[89.4649633761978,26.5994516361202],[89.4645133997097,26.5985206257949],[89.4644534180016,26.5977656233423],[89.4647154326404,26.597128627342702],[89.4649944469235,26.5965046316951],[89.4658204451872,26.596489647706303],[89.4685364366638,26.596557700553902],[89.4711884366933,26.5962767515635],[89.4739054337533,26.596112804035503],[89.474587439283,26.5958108167601]]]},"properties":{"compartment":"Poro BL2","division":"BTR_W","range":"WestDamanpur","beat":"Poro-East","DIVISION":"BTR_W","BEAT_NAME":"Poro-East"},"id":"comptt.68"},
{"type":"Feature","geometry":{"type":"Polygon","coordinates":[[[89.4649944469235,26.5965046316951],[89.4643061868858,26.5965789184594],[89.461022533856,26.596635964806],[89.45772461155761,26.5966644508283],[89.4565959202187,26.596779786701703],[89.45705391140291,26.593068478829302],[89.4575873570735,26.590794315707402],[89.4579242701286,26.5868215492662],[89.4602996869677,26.5870065243715],[89.4632736777345,26.5870765822104],[89.4669596638936,26.5872636540699],[89.4708376523152,26.5873367294639],[89.474329645976,26.587232797065102],[89.4751716451675,26.5871778133143],[89.4761436481856,26.586949831790402],[89.4769826515646,26.5867208476832],[89.4774226513894,26.5866818561567],[89.4769156252456,26.5878238482729],[89.4758005472694,26.5911878323925],[89.4749464811612,26.594029820680703],[89.4746814469733,26.5954808180201],[89.474587439283,26.5958108167601],[89.4739054337533,26.596112804035503],[89.4711884366933,26.5962767515635],[89.4685364366638,26.596557700553902],[89.4658204451872,26.596489647706303],[89.4649944469235,26.5965046316951]]]},"properties":{"compartment":"Poro5","division":"BTR_W","range":"WestDamanpur","beat":"Poro-East","DIVISION":"BTR_W","BEAT_NAME":"Poro-East"},"id":"comptt.219"}
]}
