{"type":"FeatureCollection", "features": [
{"type":"Feature","geometry":{"type":"Polygon","coordinates":[[[89.4616433875935,26.5702972318281],[89.4609253965469,26.5704168781076],[89.459840355194,26.5705881873568],[89.4586601440841,26.5707594847602],[89.4571943927886,26.5709688466908],[89.4514646687423,26.5709116254805],[89.4448973736655,26.5709876482594],[89.4433304477089,26.5709858778724],[89.4432712608531,26.5704440758093],[89.4427773337396,26.567457061186],[89.4422804121363,26.5642400461181],[89.4419164984012,26.5606800330513],[89.4414256015092,26.5564300163597],[89.4413106623294,26.5539040098671],[89.4413136788297,26.5532150087622],[89.440941723814,26.5513769984512],[89.4443927449545,26.5501270632113],[89.4468227577818,26.549333108955],[89.4491237627019,26.54888315278],[89.4500207795825,26.5480831688062],[89.4505388222185,26.5462481757345],[89.4505448524537,26.544985173711],[89.4529708433152,26.5451092209247],[89.4565418256451,26.5454682907239],[89.4565948245285,26.5455092918204],[89.457559803731,26.5462753118196],[89.4592177856306,26.5468553449322],[89.4589567615712,26.5478873416288],[89.4586947319792,26.5491503386984],[89.4589657057284,26.5502173457636],[89.4592586646848,26.551899354301],[89.459249617407,26.553873357482],[89.4595025888949,26.5550363643628],[89.4602125745114,26.5555613790172],[89.4616345666139,26.5557404068847],[89.4627955621598,26.5558034294962],[89.4635065491408,26.5562714440748],[89.46356553231,26.5569674464036],[89.4626585151957,26.5577774302005],[89.461168510754,26.5581204019006],[89.4604565000969,26.5586403889829],[89.459736467192,26.560089377489],[89.4595364329168,26.5615403760784],[89.45965738248,26.5636313819789],[89.4602933376354,26.5654343973758],[89.4613852999499,26.5668904210261],[89.4618352750911,26.5678794314347],[89.4618282402873,26.5693314337693],[89.4616762216305,26.5701254321725],[89.4616433875935,26.5702972318281]]]},"properties":{"compartment":"Poro BL11","division":"BTR_W","range":"Nimati","beat":"Poro-West"},"id":"comptt.22"},
{"type":"Feature","geometry":{"type":"Polygon","coordinates":[[[89.4616433875935,26.5702972318281],[89.4613621830211,26.5717684288779],[89.4605101253615,26.5742624165951],[89.4599840835647,26.5760604094498],[89.4584809983246,26.5797723866037],[89.4575619366637,26.5824393733058],[89.4571658889047,26.5844713690737],[89.456376836645,26.586732357604],[89.4547487796042,26.5892813303401],[89.4542907501387,26.590557323617],[89.4538987261454,26.5915983177755],[89.4480418234913,26.5914982439497],[89.4478107585829,26.5908941984437],[89.4477018057204,26.5889421930263],[89.4474138945918,26.5852701812266],[89.4469199758137,26.5819381660071],[89.4462980655773,26.578263147727],[89.4459311409282,26.5751611353638],[89.44491918767,26.5733201126258],[89.4433942329843,26.5715930801351],[89.4433702388731,26.5713500792592],[89.4433304477089,26.5709858778724],[89.4448973736655,26.5709876482594],[89.4514646687423,26.5709116254805],[89.4571943927886,26.5709688466908],[89.4586601440841,26.5707594847602],[89.459840355194,26.5705881873568],[89.4609253965469,26.5704168781076],[89.4616433875935,26.5702972318281]]]},"properties":{"compartment":"Poro BL6","division":"BTR_W","range":"Nimati","beat":"Poro-West"},"id":"comptt.41"},
{"type":"Feature","geometry":{"type":"Polygon","coordinates":[[[89.4606539817049,26.6018929163791],[89.4619246115576,26.6017644508283],[89.465222533856,26.601735964806],[89.4685061868858,26.6016789184594],[89.4691944469235,26.6016046316951],[89.4689154326404,26.6022286273427],[89.4686534180016,26.6028656233423],[89.4687133997097,26.6036206257949],[89.4691633761978,26.6045516361202],[89.4694823544352,26.6054236438016],[89.4694143364657,26.6061786437692],[89.4690213207386,26.6068746373251],[89.4681763020261,26.6077426223967],[89.466942273175,26.6090736007024],[89.4653862507664,26.6101705723544],[89.4643432214054,26.6115025543672],[89.4635571718228,26.613648542755],[89.4631621309764,26.6153895380459],[89.4623800995509,26.6167795252216],[89.4620190890986,26.6172525190142],[89.4566680886532,26.6178384160726],[89.4501070881046,26.6185582898559],[89.4456580885044,26.6190152042159],[89.4438470884082,26.619212169374],[89.443621092281,26.6190751647532],[89.4423471266067,26.6177831378282],[89.4399441802203,26.6158090878299],[89.4375892344057,26.6138060387219],[89.4385982570026,26.6127580565486],[89.4396513095486,26.610459073119],[89.4400363228827,26.6098630795892],[89.4408973574863,26.6083310937219],[89.4421353808392,26.6072271158945],[89.4430894049437,26.6061221325503],[89.443573446683,26.6043331389253],[89.4440644802098,26.6028851460111],[89.4441514861365,26.6026291472675],[89.4441738100233,26.6024649574234],[89.4475622007003,26.6024922932449],[89.453415657464,26.6024210167553],[89.4563423927427,26.602306863379],[89.4582126514058,26.6021641294449],[89.4606539817049,26.6018929163791]]]},"properties":{"compartment":"Poro BL1","division":"BTR_W","range":"Nimati","beat":"Poro-West"},"id":"comptt.71"},
{"type":"Feature","geometry":{"type":"Polygon","coordinates":[[[89.4441738100233,26.6024649574234],[89.4443485204372,26.6011801486437],[89.4447165387583,26.6003781544318],[89.4452115632146,26.59930716223],[89.4458785819466,26.5984561737377],[89.4465476006491,26.5976061852854],[89.4473116252561,26.596500198243],[89.4485556670292,26.5946282192191],[89.4487146741387,26.5943152217752],[89.4486246845012,26.5938932193144],[89.4484587099918,26.5928492143262],[89.4483857210304,26.5923972121447],[89.4480418234913,26.5914982439497],[89.4538987261454,26.5915983177755],[89.4548027250895,26.5915463352304],[89.4571947173627,26.5916143817656],[89.4615257003621,26.5918634662398],[89.4621242701286,26.5919215492662],[89.4617873570735,26.5958943157074],[89.4612539114029,26.5981684788293],[89.4607959202187,26.6018797867017],[89.4606539817049,26.6018929163791],[89.4582126514058,26.6021641294449],[89.4563423927427,26.602306863379],[89.453415657464,26.6024210167553],[89.4475622007003,26.6024922932449],[89.4441738100233,26.6024649574234]]]},"properties":{"compartment":"Poro BL5","division":"BTR_W","range":"Nimati","beat":"Poro-West"},"id":"comptt.218"}
]}