{"type":"FeatureCollection", "features": [
{"type":"Feature","geometry":{"type":"Polygon","coordinates":[[[89.48329755142841,26.756045261048403],[89.482352554301,26.7560262425668],[89.4806285601333,26.7559672088091],[89.4782015623387,26.756132161711502],[89.4755745662236,26.756249110627802],[89.47571359464621,26.7550611113088],[89.47608965716981,26.752440114164102],[89.476312694212,26.7508871158593],[89.4775179153896,26.7416251235217],[89.4781280733047,26.735036124140002],[89.4782801076409,26.7336011246474],[89.4781713068495,26.7253781084374],[89.47840135066781,26.7235421097777],[89.4784583505224,26.7235421108893],[89.4795353418265,26.7237881323131],[89.4817363321293,26.723957175524802],[89.4844783258718,26.7239272289466],[89.4872663224302,26.723776283058402],[89.48969432094991,26.723582330076002],[89.4918517867442,26.7235287711907],[89.491575579876,26.724669478637303],[89.4913614138438,26.725354755640403],[89.4906475366319,26.7269680244944],[89.49007644425231,26.7279531050509],[89.4894625243984,26.7288382545993],[89.48903421374351,26.729323657079902],[89.4888200090197,26.7316079368311],[89.4884630329252,26.733963603919],[89.4880917854987,26.7359623501135],[89.48770627777941,26.7375613453415],[89.4875920300581,26.7391317858124],[89.4875348956667,26.7401454364404],[89.4874634978772,26.7408878263235],[89.4873349771215,26.741758715312802],[89.487192202623,26.742372613582003],[89.48716363336351,26.742758083687],[89.4870065813203,26.743272041505602],[89.48686380165981,26.7436860694309],[89.4865068645945,26.7444284537411],[89.4863069868077,26.7447710904292],[89.4861642102578,26.7450566281334],[89.4859357728893,26.7453849842394],[89.485550296612,26.7456847972314],[89.4851219918269,26.7459274892894],[89.4848935579152,26.7461130851499],[89.4848221611834,26.7463986142469],[89.48486498001151,26.7468554758672],[89.48482213421781,26.747512206158802],[89.4846793642099,26.7479405141078],[89.4845651351664,26.7483259825403],[89.4844223586159,26.7486115102438],[89.484222480482,26.7489684269555],[89.4839654907647,26.7493967326747],[89.4836942193554,26.749896408237703],[89.4831516924413,26.750239038236302],[89.4825092295582,26.750838656725],[89.4821665842088,26.7510956304777],[89.48183820398181,26.7515524848516],[89.48169542812221,26.751809462505502],[89.48162403620161,26.752309151969],[89.4815811928247,26.752865942087602],[89.4815811776089,26.753494123164803],[89.4816668283989,26.7538653154734],[89.4819237984051,26.754250801151002],[89.4822093269551,26.7546933874841],[89.4825091247768,26.755164524145002],[89.4828945837631,26.755578552380502],[89.48329755142841,26.756045261048403]]]},"properties":{"compartment":"Raimatong BL1","Division":"BTR_W","Range":"Pana","Beat":"Raimatong","DIVISION":"BTR_W","BEAT_NAME":"Raimatong"},"id":"comptt.186"},
{"type":"Feature","geometry":{"type":"Polygon","coordinates":[[[89.5000943242966,26.7417487545047],[89.5002698715122,26.742285198645103],[89.5006029758939,26.7433083769139],[89.5009122797584,26.7443553447598],[89.5012215888074,26.745188162236],[89.5015546831853,26.746211340505802],[89.5019829627105,26.7474248709633],[89.5023160565091,26.7484718492753],[89.50250639124451,26.7494950247597],[89.5027681173252,26.750042300815302],[89.50302984398171,26.750565786829902],[89.5033391553296,26.751303434144003],[89.5035294946727,26.752136249300502],[89.503767419659,26.7527311149745],[89.5038625786653,26.753587728314102],[89.5037911786696,26.7544205383607],[89.5036245871847,26.755324736672],[89.5033390383069,26.756133742495702],[89.5030772834037,26.7567761984957],[89.5022682533481,26.757275863562402],[89.5016257992123,26.7575138014288],[89.5009119592942,26.757585167613403],[89.5002694997719,26.7576327451508],[89.4989693896116,26.7577755700112],[89.4986974717318,26.7577165645998],[89.497101490882,26.7570935323617],[89.49427249397931,26.757262477416003],[89.4921464977169,26.7573314360247],[89.4894005150549,26.7569043816756],[89.4867365606329,26.7560970108197],[89.486021548476,26.7558803139454],[89.4838635497173,26.756056272117203],[89.48329755142841,26.756045261048403],[89.4828945837631,26.755578552380502],[89.4825091247768,26.755164524145002],[89.4822093269551,26.7546933874841],[89.4819237984051,26.754250801151002],[89.4816668283989,26.7538653154734],[89.4815811776089,26.753494123164803],[89.4815811928247,26.752865942087602],[89.48162403620161,26.752309151969],[89.48169542812221,26.751809462505502],[89.48183820398181,26.7515524848516],[89.4821665842088,26.7510956304777],[89.4825092295582,26.750838656725],[89.4831516924413,26.750239038236302],[89.4836942193554,26.749896408237703],[89.4839654907647,26.7493967326747],[89.484222480482,26.7489684269555],[89.4844223586159,26.7486115102438],[89.4845651351664,26.7483259825403],[89.4846793642099,26.7479405141078],[89.48482213421781,26.747512206158802],[89.48486498001151,26.7468554758672],[89.4848221611834,26.7463986142469],[89.4848935579152,26.7461130851499],[89.4851219918269,26.7459274892894],[89.485550296612,26.7456847972314],[89.4859357728893,26.7453849842394],[89.4861642102578,26.7450566281334],[89.4863069868077,26.7447710904292],[89.4865068645945,26.7444284537411],[89.48686380165981,26.7436860694309],[89.4870065813203,26.743272041505602],[89.48716363336351,26.742758083687],[89.487192202623,26.742372613582003],[89.4873349771215,26.741758715312802],[89.4874634978772,26.7408878263235],[89.4875348956667,26.7401454364404],[89.4875920300581,26.7391317858124],[89.48770627777941,26.7375613453415],[89.4880917854987,26.7359623501135],[89.4884630329252,26.733963603919],[89.4888200090197,26.7316079368311],[89.48903421374351,26.729323657079902],[89.4894625243984,26.7288382545993],[89.49007644425231,26.7279531050509],[89.4906475366319,26.7269680244944],[89.4913614138438,26.725354755640403],[89.491575579876,26.724669478637303],[89.4918517867442,26.7235287711907],[89.4924313156426,26.7235143833372],[89.4924873164195,26.723476384363902],[89.4930713176943,26.7233623955571],[89.4936543189719,26.7232484067307],[89.4948843199629,26.723078430426],[89.4960513225177,26.7228504527925],[89.4961827926223,26.7228236942818],[89.4962244710289,26.7233072969576],[89.4962490243802,26.7248198500459],[89.49635605208981,26.726556855130102],[89.4964512039295,26.7277108989772],[89.49660583907091,26.728722173738202],[89.4970221938962,26.7309588757197],[89.4972006289727,26.731970160945803],[89.49745043868481,26.7331955879343],[89.497664565606,26.734539984432303],[89.4980571412083,26.735920084474103],[89.4983426477347,26.7368599816674],[89.4988423047894,26.738168693676702],[89.4998416042833,26.7409764880264],[89.5000943242966,26.7417487545047]]]},"properties":{"compartment":"Raimatong BL2","Division":"BTR_W","Range":"Pana","Beat":"Raimatong","DIVISION":"BTR_W","BEAT_NAME":"Raimatong"},"id":"comptt.187"},
{"type":"Feature","geometry":{"type":"Polygon","coordinates":[[[89.5252843486947,26.7419411875302],[89.5250377777176,26.7423370521552],[89.524845770645,26.7426490489513],[89.5230207281575,26.7445930167142],[89.5228057203189,26.74493901312],[89.51997468213361,26.7468099611116],[89.5178376679746,26.747616920796503],[89.5169036617803,26.7479699031763],[89.5152416353089,26.7492358729293],[89.51271259751151,26.751059826721303],[89.5109675546574,26.753010796035703],[89.5101095067473,26.7550777828666],[89.50908047368381,26.756549765325],[89.5068064410097,26.758135723667102],[89.506624437642,26.7582937203866],[89.5038484408733,26.7584506664499],[89.5023474432749,26.7585086372398],[89.501287451538,26.7582786161438],[89.4989693896116,26.7577755700112],[89.5002694997719,26.7576327451508],[89.5009119592942,26.757585167613403],[89.5016257992123,26.7575138014288],[89.5022682533481,26.757275863562402],[89.5030772834037,26.7567761984957],[89.5033390383069,26.756133742495702],[89.5036245871847,26.755324736672],[89.5037911786696,26.7544205383607],[89.5038625786653,26.753587728314102],[89.503767419659,26.7527311149745],[89.5035294946727,26.752136249300502],[89.5033391553296,26.751303434144003],[89.50302984398171,26.750565786829902],[89.5027681173252,26.750042300815302],[89.50250639124451,26.7494950247597],[89.5023160565091,26.7484718492753],[89.5019829627105,26.7474248709633],[89.5015546831853,26.746211340505802],[89.5012215888074,26.745188162236],[89.5009122797584,26.7443553447598],[89.5006029758939,26.7433083769139],[89.5002698715122,26.742285198645103],[89.5000943242966,26.7417487545047],[89.5009972203886,26.7414294013613],[89.50185382513061,26.741143877585003],[89.5027389884182,26.740915464464702],[89.5035242109226,26.7407298794678],[89.5046092519769,26.7405728603714],[89.5059798236924,26.7403587367485],[89.50699347527541,26.740187436234002],[89.5084782567048,26.739973314839702],[89.5113478832547,26.7398163205711],[89.5126899002111,26.7398020667376],[89.5140461892066,26.739702163034],[89.5160449400402,26.7394594916211],[89.5179723000199,26.739259658889402],[89.5191715525284,26.7390312518976],[89.5203565247284,26.738817124651803],[89.5215272273112,26.738588717102502],[89.52275503355371,26.7382032703939],[89.5240970508928,26.7377607158144],[89.524282630378,26.7385887708799],[89.5244682074424,26.73951676612],[89.5247679931813,26.740487593664103],[89.52495357612081,26.7411728784815],[89.5252843486947,26.7419411875302]]]},"properties":{"compartment":"Raimatong BL3","Division":"BTR_W","Range":"Pana","Beat":"Raimatong","DIVISION":"BTR_W","BEAT_NAME":"Raimatong"},"id":"comptt.189"},
{"type":"Feature","geometry":{"type":"Polygon","coordinates":[[[89.5240970508928,26.7377607158144],[89.52275503355371,26.7382032703939],[89.5215272273112,26.738588717102502],[89.5203565247284,26.738817124651803],[89.5191715525284,26.7390312518976],[89.5179723000199,26.739259658889402],[89.5160449400402,26.7394594916211],[89.5140461892066,26.739702163034],[89.5126899002111,26.7398020667376],[89.5113478832547,26.7398163205711],[89.5084782567048,26.739973314839702],[89.50699347527541,26.740187436234002],[89.5059798236924,26.7403587367485],[89.5046092519769,26.7405728603714],[89.5035242109226,26.7407298794678],[89.5027389884182,26.740915464464702],[89.50185382513061,26.741143877585003],[89.5009972203886,26.7414294013613],[89.5000943242966,26.7417487545047],[89.4998416042833,26.7409764880264],[89.4988423047894,26.738168693676702],[89.4983426477347,26.7368599816674],[89.4980571412083,26.735920084474103],[89.497664565606,26.734539984432303],[89.49745043868481,26.7331955879343],[89.4972006289727,26.731970160945803],[89.4970221938962,26.7309588757197],[89.49660583907091,26.728722173738202],[89.4964512039295,26.7277108989772],[89.49635605208981,26.726556855130102],[89.4962490243802,26.7248198500459],[89.4962244710289,26.7233072969576],[89.4961827926223,26.7228236942818],[89.49773632654231,26.722507485062902],[89.4990313273487,26.722338510027303],[89.5007813255775,26.7222285439674],[89.5025283252436,26.722059577747203],[89.504600325445,26.7218346177687],[89.5071273272819,26.7214946664652],[89.50874632585361,26.7213846978508],[89.5109473229349,26.7212757405897],[89.5128253180528,26.7212817772286],[89.51444431665651,26.721170808613202],[89.5160623124349,26.7211768401819],[89.5180053102033,26.721066877888102],[89.52085330843201,26.7208439330501],[89.5221583064572,26.7207899584103],[89.52215030788031,26.720731958153202],[89.5223699715266,26.721385203576002],[89.522855296378,26.7248544690887],[89.52284095527101,26.7273814632127],[89.5229122718678,26.7299941191572],[89.5231406650136,26.731493186226],[89.5232976835193,26.732778101529302],[89.5235260611306,26.7345055889968],[89.5238258351019,26.736375858107102],[89.5240970508928,26.7377607158144]]]},"properties":{"compartment":"Raimatong BL4","Division":"BTR_W","Range":"Pana","Beat":"Raimatong","DIVISION":"BTR_W","BEAT_NAME":"Raimatong"},"id":"comptt.181"},
{"type":"Feature","geometry":{"type":"Polygon","coordinates":[[[89.541698324291,26.718029334725102],[89.54121533650401,26.7179876952307],[89.5388453782659,26.7185729900286],[89.5370607858205,26.7188584957184],[89.5351619750452,26.719086889080103],[89.53357725383191,26.7193010085434],[89.5318354819781,26.7195579550181],[89.5297225196761,26.7198720043521],[89.5284518863009,26.720143240041303],[89.52666728352631,26.7204430157548],[89.5249112462083,26.7205143616268],[89.5227554578252,26.7206713698512],[89.52215030788031,26.720731958153202],[89.5219613462822,26.719163951735702],[89.5217103933015,26.7172459434998],[89.521591446973,26.7150389373354],[89.5214024909974,26.7132379305134],[89.5214155653593,26.710160925408303],[89.52142261098331,26.7082729222568],[89.5223306114344,26.7081599397631],[89.52339861005821,26.7081059604918],[89.52443460948861,26.708021980544302],[89.5257286068465,26.7079970057301],[89.52705860551761,26.7079140315168],[89.5278346049019,26.7078590465508],[89.5290646052279,26.7077180702866],[89.53068260526051,26.7075491015385],[89.5335006050244,26.7072671559904],[89.5351826056042,26.7070691884395],[89.5366406053441,26.7069292166226],[89.5369126051721,26.7069082218894],[89.5371845966115,26.707234227764],[89.53900551135871,26.710572269122903],[89.5396524504267,26.7130252860413],[89.5402403744695,26.7161053029108],[89.5411173414161,26.7173813222551],[89.541698324291,26.718029334725102]]]},"properties":{"compartment":"Raimatong BL5","Division":"BTR_W","Range":"Pana","Beat":"Raimatong","DIVISION":"BTR_W","BEAT_NAME":"Raimatong"},"id":"comptt.168"},
{"type":"Feature","geometry":{"type":"Polygon","coordinates":[[[89.4989693896116,26.7577755700112],[89.4977280321002,26.7582156665318],[89.495862515162,26.7591103116482],[89.4935782105275,26.7603666192084],[89.4925693078721,26.760994780589503],[89.4924754284081,26.7612013067079],[89.4916365662438,26.7607473019494],[89.4907418995933,26.7602904236929],[89.4904373377496,26.759985847221802],[89.48990434556521,26.7597193363558],[89.4894094314388,26.759528966364602],[89.4891238967789,26.7593386104618],[89.4887051275323,26.758938851597602],[89.4881911749856,26.7582725904169],[89.4877152986518,26.7577586102418],[89.48708714100711,26.7569019965051],[89.4868777621483,26.756464171664803],[89.4867365606329,26.7560970108197],[89.4894005150549,26.7569043816756],[89.4921464977169,26.7573314360247],[89.49427249397931,26.757262477416003],[89.497101490882,26.7570935323617],[89.4986974717318,26.7577165645998],[89.4989693896116,26.7577755700112]]]},"properties":{"compartment":"Raimatang BL2","Division":"BTR_W","Range":"Pana","Beat":"Raimatong","DIVISION":"BTR_W","BEAT_NAME":"Raimatong"},"id":"comptt.191"},
{"type":"Feature","geometry":{"type":"Polygon","coordinates":[[[89.541698324291,26.718029334725102],[89.5399502941863,26.7194543031272],[89.536105240369,26.722076232715402],[89.5323511733136,26.7252361650084],[89.5305231325985,26.727108132616003],[89.5294940959522,26.7287291153708],[89.52786701648941,26.732181089651203],[89.5279819556374,26.7346830962625],[89.5278558902743,26.737396098538902],[89.5264828302636,26.740017076314402],[89.5252843486947,26.7419411875302],[89.52495357612081,26.7411728784815],[89.5247679931813,26.740487593664103],[89.5244682074424,26.73951676612],[89.524282630378,26.7385887708799],[89.5240970508928,26.7377607158144],[89.5238258351019,26.736375858107102],[89.5235260611306,26.7345055889968],[89.5232976835193,26.732778101529302],[89.5231406650136,26.731493186226],[89.5229122718678,26.7299941191572],[89.52284095527101,26.7273814632127],[89.522855296378,26.7248544690887],[89.5223699715266,26.721385203576002],[89.52215030788031,26.720731958153202],[89.5227554578252,26.7206713698512],[89.5249112462083,26.7205143616268],[89.52666728352631,26.7204430157548],[89.5284518863009,26.720143240041303],[89.5297225196761,26.7198720043521],[89.5318354819781,26.7195579550181],[89.53357725383191,26.7193010085434],[89.5351619750452,26.719086889080103],[89.5370607858205,26.7188584957184],[89.5388453782659,26.7185729900286],[89.54121533650401,26.7179876952307],[89.541698324291,26.718029334725102]]]},"properties":{"compartment":"Raimatang BL5","Division":"BTR_W","Range":"Pana","Beat":"Raimatong","DIVISION":"BTR_W","BEAT_NAME":"Raimatong"},"id":"comptt.182"}
]}
