{
  "type": "FeatureCollection",
  "features": [

    {
      "type": "Feature",
      "geometry": {
        "type": "Polygon",
        "coordinates": [[[89.4290859888028,26.8202369500637],[89.4295202600351,26.8205512290822],[89.4320682057239,26.8225132821976],[89.4344961796391,26.8233263310435],[89.4370481420827,26.8245983830898],[89.4394771160016,26.8254114319629],[89.4398591038055,26.8258724402102],[89.4394660630342,26.8275924354189],[89.4398460396876,26.8285124444003],[89.4420170198672,26.829095487848],[89.4422180173026,26.8291794919212],[89.4455939739847,26.8306005603573],[89.4491729503925,26.8311886313652],[89.4504769648961,26.8304526556315],[89.4506729626859,26.8305226595842],[89.4508839603153,26.8305976638388],[89.4511879569011,26.8307056699687],[89.4540579245649,26.8317297278491],[89.4508048407,26.8355266706266],[89.4476327820541,26.838277613208],[89.4438007223318,26.8411435430578],[89.440604714242,26.8418184816525],[89.4347467853041,26.8395243631662],[89.4339337951587,26.8392063467245],[89.4311298438149,26.8375062890094],[89.4254189686953,26.8329831697066],[89.4201670700587,26.8293780609525],[89.4192270866159,26.8287980415998],[89.419063087386,26.8287840383689],[89.418779087426,26.8288130328631],[89.4186380871154,26.8288410301523],[89.4182502616094,26.8286979223286],[89.4208816575948,26.8265214401535],[89.4218524944758,26.8257219578025],[89.4239083807143,26.8240087851399],[89.4265924590109,26.8221433345018],[89.4280011216856,26.8210583202281],[89.4290859888028,26.8202369500637]]]
      },
      "properties": {
        "compartment": "BL1",
        "division": "BTR_W",
        "range": "Hamiltonganj",
        "beat": "Rangamati"
      },
      "id": "comptt.217"
    },

    {
      "type": "Feature",
      "geometry": {
        "type": "Polygon",
        "coordinates": [[[89.4290859888028,26.8202369500637],[89.4280011216856,26.8210583202281],[89.4265924590109,26.8221433345018],[89.4239083807143,26.8240087851399],[89.4218524944758,26.8257219578025],[89.4208816575948,26.8265214401535],[89.4182502616094,26.8286979223286],[89.4176840981701,26.8284890109074],[89.4149771295452,26.8274899563022],[89.4101791950362,26.8253128588529],[89.4074412524443,26.8232458018799],[89.4033263110969,26.8212767181577],[89.400583348558,26.8200316624689],[89.3947714473179,26.8165955431714],[89.39389595218,26.8160785652042],[89.3952456825855,26.815503220633],[89.399842815417,26.8144753787815],[89.4024031193018,26.8140376080966],[89.4059437506136,26.8135998565719],[89.4117305995038,26.8130193787131],[89.41458595594,26.8128576342541],[89.4207059191486,26.812477033242],[89.4233077350827,26.8123641739106],[89.4221354612773,26.8130590721584],[89.4226414264473,26.8144390843573],[89.4242953801617,26.816167119582],[89.4269683115626,26.8187041760886],[89.4285902788108,26.8198782097696],[89.4290859888028,26.8202369500637]]]
      },
      "properties": {
        "compartment": "BL2",
        "division": "BTR_W",
        "range": "Hamiltonganj",
        "beat": "Rangamati"
      },
      "id": "comptt.216"
    },

    {
      "type": "Feature",
      "geometry": {
        "type": "Polygon",
        "coordinates": [[[89.4233077350827,26.8123641739106],[89.4207059191486,26.812477033242],[89.41458595594,26.8128576342541],[89.4117305995038,26.8130193787131],[89.4059437506136,26.8135998565719],[89.4024031193018,26.8140376080966],[89.399842815417,26.8144753787815],[89.3952456825855,26.815503220633],[89.39389595218,26.8160785652042],[89.3937434647686,26.815988522075],[89.3927054824401,26.8153735007709],[89.3893915314213,26.8137164332665],[89.3852826025819,26.8112323488729],[89.3835736446983,26.8096833129275],[89.3828986989251,26.807522296181],[89.3822267830521,26.8041282774656],[89.3824718447003,26.8015602780248],[89.3822528976486,26.7994012701933],[89.3823459086806,26.7989362712445],[89.3846558904897,26.7994343171846],[89.3878478706021,26.7999063803127],[89.3919348538177,26.8001534605557],[89.3966598269718,26.8007465538389],[89.401257808847,26.8009946440757],[89.405854787952,26.8013577344885],[89.4101977733206,26.8014908195613],[89.4114297699912,26.8014948436389],[89.4115721996101,26.8014954746852],[89.4141577625473,26.8015068969594],[89.4162077569821,26.801514937027],[89.4161787505312,26.8017839369091],[89.4169367038983,26.8036239547902],[89.4184586328844,26.8063859891424],[89.4197295959906,26.8077690162913],[89.4208725511039,26.8094950415141],[89.4228675210758,26.8105170822156],[89.4238075069166,26.8109991013951],[89.4237765002245,26.811278101256],[89.4236764793887,26.8121471007552],[89.4235524779649,26.8122190984518],[89.4233077350827,26.8123641739106]]]
      },
      "properties": {
        "compartment": "BL3",
        "division": "BTR_W",
        "range": "Hamiltonganj",
        "beat": "Rangamati"
      },
      "id": "comptt.215"
    }

  ]
}