{"type":"FeatureCollection", "features": [
{"type":"Feature","geometry":{"type":"Polygon","coordinates":[[[89.5872587609213,26.6179059540015],[89.586277485466,26.6178167347636],[89.5842252011784,26.6182033655509],[89.5812508705836,26.6185304783048],[89.5780980875705,26.6189765678007],[89.5761052845831,26.6193037096376],[89.5737772259067,26.619486044699],[89.5735818257915,26.6190952202063],[89.573115483734,26.6179816191636],[89.5727918983472,26.6169917511164],[89.5724302453424,26.6159067121607],[89.572021007262,26.6146217919261],[89.5717355006325,26.6136795147048],[89.571440482039,26.6124041167084],[89.5709741347797,26.6110906453148],[89.5707076558099,26.6102435486335],[89.5704792488061,26.6093107925405],[89.5704433737978,26.6091069114819],[89.571647571569,26.6090766748316],[89.5779293471541,26.6086199461075],[89.5820600862008,26.6082393057138],[89.5844776162423,26.6079918922598],[89.5872873652879,26.6077462864325],[89.5873100016571,26.6078949371376],[89.5871849836333,26.6086569360672],[89.5869609334712,26.6107649354728],[89.5869348456707,26.6144169414801],[89.5870368205173,26.6154519453089],[89.5872727675533,26.6176289537797],[89.5872587609213,26.6179059540015]]]},"properties":{"compartment":"S RVBK BL13","Division":"BTR_W","Range":"EastDamanpur","Beat":"SouthRajabhatkhawa","beat":"SouthRajabhatkhawa"},"id":"comptt.72"},
{"type":"Feature","geometry":{"type":"Polygon","coordinates":[[[89.5737772259067,26.619486044699],[89.5696509982641,26.6198092150509],[89.5668848779095,26.6201066018001],[89.5615608259916,26.6207310993986],[89.5583782966837,26.6210284780525],[89.5564217538875,26.621345360575],[89.5557607975105,26.6196003446489],[89.5541578868103,26.6160533072391],[89.5522319853113,26.6121562629437],[89.5506700472065,26.6097432283425],[89.5540966915035,26.6096283747281],[89.5620345687953,26.609342988482],[89.5678594785845,26.6091717813802],[89.5704433737978,26.6091069114819],[89.5704792488061,26.6093107925405],[89.5707076558099,26.6102435486335],[89.5709741347797,26.6110906453148],[89.571440482039,26.6124041167084],[89.5717355006325,26.6136795147048],[89.572021007262,26.6146217919261],[89.5724302453424,26.6159067121607],[89.5727918983472,26.6169917511164],[89.573115483734,26.6179816191636],[89.5735818257915,26.6190952202063],[89.5737772259067,26.619486044699]]]},"properties":{"compartment":"S RVBK BL14","Division":"BTR_W","Range":"EastDamanpur","Beat":"SouthRajabhatkhawa","beat":"SouthRajabhatkhawa"},"id":"comptt.73"},
{"type":"Feature","geometry":{"type":"Polygon","coordinates":[[[89.5872587609213,26.6179059540015],[89.587136697489,26.6205539563518],[89.5873706371497,26.6230369653303],[89.587913570534,26.6257489807274],[89.5882705257694,26.6275719909227],[89.588805454269,26.6304870065296],[89.5888254521009,26.6305750070756],[89.5852024462965,26.631183937689],[89.5828654447458,26.6314858927692],[89.5786914493903,26.6317178119934],[89.5751174492766,26.6320867431324],[89.5747726698925,26.6320963264433],[89.5747902949688,26.6314684556712],[89.574914033145,26.6311162974527],[89.5749996986642,26.6308783586963],[89.5751139166343,26.6305357203094],[89.5752566947634,26.630183562461],[89.5753899540616,26.6297838143429],[89.575428032906,26.6294126144242],[89.5754661151875,26.6288986542521],[89.5754851819522,26.6277850626451],[89.5755042585682,26.6262622003114],[89.5754947791462,26.624577547135],[89.5753520312619,26.6236733427533],[89.575256861576,26.623254550159],[89.5751045913425,26.6228643165051],[89.5749047303891,26.62209337125],[89.5746667960923,26.6214651855082],[89.5740672050522,26.6203230318226],[89.5738863803848,26.6197043672087],[89.5737772259067,26.619486044699],[89.5761052845831,26.6193037096376],[89.5780980875705,26.6189765678007],[89.5812508705836,26.6185304783048],[89.5842252011784,26.6182033655509],[89.586277485466,26.6178167347636],[89.5872587609213,26.6179059540015]]]},"properties":{"compartment":"S RVBK BL12","Division":"BTR_W","Range":"EastDamanpur","Beat":"SouthRajabhatkhawa","beat":"SouthRajabhatkhawa"},"id":"comptt.84"},
{"type":"Feature","geometry":{"type":"Polygon","coordinates":[[[89.5747726698925,26.6320963264433],[89.5745424503037,26.6321027319767],[89.5713004561288,26.632191669077],[89.5686484628461,26.6321836174819],[89.565866468493,26.6322335634622],[89.5637964709459,26.632343523397],[89.5621144752144,26.6323384906752],[89.559462479159,26.6324464392882],[89.5593014795806,26.6324454361552],[89.5593365088453,26.6312264346845],[89.558443596396,26.6276814110634],[89.5571027088395,26.623147376992],[89.5564217538875,26.621345360575],[89.5583782966837,26.6210284780525],[89.5615608259916,26.6207310993986],[89.5668848779095,26.6201066018001],[89.5696509982641,26.6198092150509],[89.5737772259067,26.619486044699],[89.5738863803848,26.6197043672087],[89.5740672050522,26.6203230318226],[89.5746667960923,26.6214651855082],[89.5749047303891,26.62209337125],[89.5751045913425,26.6228643165051],[89.575256861576,26.623254550159],[89.5753520312619,26.6236733427533],[89.5754947791462,26.624577547135],[89.5755042585682,26.6262622003114],[89.5754851819522,26.6277850626451],[89.5754661151875,26.6288986542521],[89.575428032906,26.6294126144242],[89.5753899540616,26.6297838143429],[89.5752566947634,26.630183562461],[89.5751139166343,26.6305357203094],[89.5749996986642,26.6308783586963],[89.574914033145,26.6311162974527],[89.5747902949688,26.6314684556712],[89.5747726698925,26.6320963264433]]]},"properties":{"compartment":"S RVBK BL11","Division":"BTR_W","Range":"EastDamanpur","Beat":"SouthRajabhatkhawa","beat":"SouthRajabhatkhawa"},"id":"comptt.85"},
{"type":"Feature","geometry":{"type":"Polygon","coordinates":[[[89.5872873652879,26.6077462864325],[89.5844776162423,26.6079918922598],[89.5820600862008,26.6082393057138],[89.5779293471541,26.6086199461075],[89.571647571569,26.6090766748316],[89.5704433737978,26.6091069114819],[89.5702698879348,26.6081210563625],[89.5702794388132,26.6068361442701],[89.5703270460918,26.6061127939127],[89.5705364568636,26.6052276364127],[89.5708315260511,26.6043995906783],[89.5710504515342,26.6037333437508],[89.5711456427436,26.6032574447564],[89.5711456548726,26.602753003862],[89.571098138901,26.5996787374865],[89.5709364340162,26.5957383373567],[89.5709531906733,26.5917146512264],[89.5720974277756,26.5917186127781],[89.5740384270566,26.591550650181],[89.5764964264451,26.5913256975249],[89.5787614263347,26.5910997411183],[89.580928423152,26.5910117830538],[89.5812347027862,26.5909991308781],[89.5814124224499,26.5909917924195],[89.5839324148054,26.5910538414797],[89.5840634143895,26.5910578440315],[89.5863894071756,26.591121889328],[89.5883304050863,26.5910119268361],[89.5900124022613,26.5909589594151],[89.5903864019751,26.5909329666338],[89.5905633918585,26.5913359707919],[89.5910273722464,26.5921049811792],[89.5912272835444,26.5957749916207],[89.5899451898057,26.5998039739068],[89.5892091515897,26.6014679625756],[89.5887841346639,26.60221495565],[89.5885291209058,26.6028129517619],[89.5877150730636,26.6048849396398],[89.5872640090335,26.6075929357049],[89.5872873652879,26.6077462864325]]]},"properties":{"compartment":"Cheko BL2","Division":"BTR_W","Range":"EastDamanpur","Beat":"SouthRajabhatkhawa","beat":"SouthRajabhatkhawa"},"id":"comptt.57"},
{"type":"Feature","geometry":{"type":"Polygon","coordinates":[[[89.5506700472065,26.6097432283425],[89.5483500476298,26.6099641836487],[89.5475970511765,26.6098941688935],[89.5470440518718,26.6099221581969],[89.546921065956,26.6093491548],[89.5466281155678,26.6073161455351],[89.5464971749434,26.6048601386752],[89.545991216128,26.603199125927],[89.5458842527399,26.6016871211927],[89.5457672872585,26.6002631164188],[89.5453073170472,26.59907110539],[89.5454603585835,26.5973271052992],[89.5459623867325,26.5961041129015],[89.5459983900559,26.5959621133512],[89.5461513903262,26.5959351162754],[89.5480324050679,26.5951281513906],[89.549392428116,26.5940291758719],[89.5505604460881,26.5931611970291],[89.5516614530532,26.5927582177025],[89.5533434529634,26.5925892500714],[89.5558674507283,26.5924232987983],[89.5581944504013,26.5921983435955],[89.5610394473627,26.5920333985594],[89.5634324483016,26.5917494445345],[89.5653734475683,26.591581481936],[89.5675724433934,26.5915305245557],[89.5706774313533,26.59171458519],[89.5709354307206,26.5917145902011],[89.5709531906733,26.5917146512264],[89.5709364340162,26.5957383373567],[89.571098138901,26.5996787374865],[89.5711456548726,26.602753003862],[89.5711456427436,26.6032574447564],[89.5710504515342,26.6037333437508],[89.5708315260511,26.6043995906783],[89.5705364568636,26.6052276364127],[89.5703270460918,26.6061127939127],[89.5702794388132,26.6068361442701],[89.5702698879348,26.6081210563625],[89.5704433737978,26.6091069114819],[89.5678594785845,26.6091717813802],[89.5620345687953,26.609342988482],[89.5540966915035,26.6096283747281],[89.5506700472065,26.6097432283425]]]},"properties":{"compartment":"Cheko BL1","Division":"BTR_W","Range":"EastDamanpur","Beat":"SouthRajabhatkhawa","beat":"SouthRajabhatkhawa"},"id":"comptt.60"}
]}