{"type":"FeatureCollection", "features": [
{"type":"Feature","geometry":{"type":"Polygon","coordinates":[[[89.6234493209072,26.5888945552948],[89.6236873713664,26.5888516098422],[89.6246873732615,26.5886726289477],[89.626891371468,26.5885266715055],[89.6272233712945,26.588500677909],[89.6286643706425,26.588383705695],[89.629110369883,26.5883707143369],[89.6330483528299,26.588686791425],[89.6374773331219,26.5890648781702],[89.6421493277529,26.5888229685142],[89.6455933224512,26.5887010352157],[89.6489503276083,26.5881530994505],[89.6496853157814,26.5885721144979],[89.6505153261581,26.5880581296888],[89.6510273262831,26.588002139536],[89.6515383374212,26.5874881485273],[89.6524963474936,26.5869741662044],[89.6529443615704,26.5863441737588],[89.6543473526268,26.5865772014476],[89.6557483299145,26.5873832301464],[89.6545333149699,26.5881252078922],[89.6548502990206,26.5887572152081],[89.6554212907606,26.5890442268295],[89.6559942700416,26.5898492394378],[89.6563752511978,26.5905952482071],[89.657010226218,26.5915712623343],[89.6571342148857,26.5920302655843],[89.6577681816342,26.5933502803228],[89.6588501652073,26.5939263024085],[89.6598721599621,26.5940433224881],[89.660446172353,26.5934713325974],[89.6610231902437,26.5926703423451],[89.6616621983437,26.5922703540323],[89.6622361914246,26.5925013656125],[89.663188150516,26.5941083870638],[89.6630581363465,26.5947103856408],[89.6630231178141,26.5954843863798],[89.6620960952676,26.596513370246],[89.6618680592721,26.5980323685981],[89.661515049792,26.5984613625218],[89.6611630196211,26.5997503580407],[89.6603010134444,26.6000923419084],[89.6598750009379,26.6006543346556],[89.6614829737516,26.6016253676984],[89.6615539727165,26.6016613691448],[89.6592949670971,26.6021183260601],[89.6571599625097,26.6025202852852],[89.6556079621182,26.6026902554207],[89.6532139679716,26.6026842088639],[89.649979973093,26.6027921461847],[89.6461009811852,26.602841070859],[89.6428669835353,26.6030650083935],[89.6406679861564,26.6031749658425],[89.6375639881856,26.6033999059071],[89.6350029882936,26.6036508565755],[89.6342384358988,26.6025796197678],[89.633381860581,26.6012233006551],[89.6310976581782,26.5982251308175],[89.6294558758989,26.596404815609],[89.627623759808,26.5939301355208],[89.626243707453,26.5925024261181],[89.6251967854385,26.5910271331052],[89.6241736487887,26.589742200901],[89.6234493209072,26.5888945552948]]]},"properties":{"compartment":"Panbari BL10","division":"BTR_W","range":"EastRajabhatkhawa","beat":"SouthPanbari"},"id":"comptt.52"},
{"type":"Feature","geometry":{"type":"Polygon","coordinates":[[[89.6139892031787,26.6055525615154],[89.6123949653187,26.6056239206542],[89.6123116941059,26.6052669983928],[89.6121570276283,26.6051361251507],[89.6119547818383,26.604981450941],[89.6117287363919,26.6048148862472],[89.6115145912029,26.6046364217635],[89.6114313168418,26.6044103697379],[89.6112171639422,26.6041367250827],[89.6109554334468,26.6037679093316],[89.6107650910618,26.6034704650966],[89.6102535148912,26.6029469742113],[89.6098728152558,26.6025543561054],[89.6094921150482,26.6021855280427],[89.6092065817485,26.6019356820438],[89.6090281264726,26.6017572182544],[89.6089686400503,26.6016144468415],[89.6088972682344,26.6012813248552],[89.6089091773613,26.600900614402],[89.6088973131531,26.5994134414968],[89.6089925012191,26.5990684227261],[89.6091947618865,26.5986044358223],[89.6095754981291,26.5978906019371],[89.6101941840935,26.5967484719049],[89.6103488545892,26.596296374097],[89.6103607619976,26.5959870437718],[89.6103726676897,26.5957490935749],[89.6103012844414,26.5954754516954],[89.6102299111928,26.5952018198161],[89.6101585276581,26.5949400779581],[89.610099056955,26.5945593561174],[89.6100990635336,26.5942857156253],[89.6100990695399,26.5940358751758],[89.6100633853465,26.5937979240543],[89.6099087197249,26.5936313607494],[89.6097659540745,26.5934647976757],[89.6095756082534,26.593310123699],[89.6095042224302,26.5931435620124],[89.6094923370348,26.592953211439],[89.6094566651482,26.5917872686485],[89.6094209932509,26.5910377366071],[89.6094566897418,26.5907640968083],[89.609551873801,26.5905856383365],[89.6098969009729,26.5902525244404],[89.609968298521,26.5899312952495],[89.6099326177577,26.5895505838713],[89.6098989020069,26.5893771829043],[89.6102043923455,26.5893323487585],[89.6164843769298,26.5893424707837],[89.618162377952,26.5891315030039],[89.620454374396,26.5890495473863],[89.6215083726971,26.5890145678011],[89.6231053702441,26.5889565987243],[89.6234493209072,26.5888945552948],[89.6241736487887,26.589742200901],[89.6251967854385,26.5910271331052],[89.626243707453,26.5925024261181],[89.627623759808,26.5939301355208],[89.6294558758989,26.596404815609],[89.6310976581782,26.5982251308175],[89.633381860581,26.6012233006551],[89.6342384358988,26.6025796197678],[89.6350029882936,26.6036508565755],[89.6198872909112,26.6050544752697],[89.6139892031787,26.6055525615154]]]},"properties":{"compartment":"Panbari BL9","division":"BTR_W","range":"EastRajabhatkhawa","beat":"SouthPanbari"},"id":"comptt.53"},
{"type":"Feature","geometry":{"type":"Polygon","coordinates":[[[89.6123949653187,26.6056239206542],[89.6069668169854,26.6061011859989],[89.5969730906553,26.6069576032813],[89.5911910035779,26.6074214917254],[89.5872873652879,26.6077462864325],[89.5872640090335,26.6075929357049],[89.5877150730636,26.6048849396398],[89.5885291209058,26.6028129517619],[89.5887841346639,26.60221495565],[89.5892091515897,26.6014679625756],[89.5899451898057,26.5998039739068],[89.5912272835444,26.5957749916207],[89.5910273722464,26.5921049811792],[89.5905633918585,26.5913359707919],[89.5903864019751,26.5909329666338],[89.5905244018793,26.5909229692967],[89.5916294010148,26.5908469906262],[89.5937644012499,26.5906210316964],[89.5951843989255,26.5905740591971],[89.5953803985931,26.5905680629939],[89.5994503967545,26.590233141459],[89.6014773971218,26.5900131804422],[89.6043013926763,26.589913235124],[89.6068663886003,26.5898242847946],[89.6095843916584,26.5894233368773],[89.6098989020069,26.5893771829043],[89.6099326177577,26.5895505838713],[89.609968298521,26.5899312952495],[89.6098969009729,26.5902525244404],[89.609551873801,26.5905856383365],[89.6094566897418,26.5907640968083],[89.6094209932509,26.5910377366071],[89.6094566651482,26.5917872686485],[89.6094923370348,26.592953211439],[89.6095042224302,26.5931435620124],[89.6095756082534,26.593310123699],[89.6097659540745,26.5934647976757],[89.6099087197249,26.5936313607494],[89.6100633853465,26.5937979240543],[89.6100990695399,26.5940358751758],[89.6100990635336,26.5942857156253],[89.610099056955,26.5945593561174],[89.6101585276581,26.5949400779581],[89.6102299111928,26.5952018198161],[89.6103012844414,26.5954754516954],[89.6103726676897,26.5957490935749],[89.6103607619976,26.5959870437718],[89.6103488545892,26.596296374097],[89.6101941840935,26.5967484719049],[89.6095754981291,26.5978906019371],[89.6091947618865,26.5986044358223],[89.6089925012191,26.5990684227261],[89.6088973131531,26.5994134414968],[89.6089091773613,26.600900614402],[89.6088972682344,26.6012813248552],[89.6089686400503,26.6016144468415],[89.6090281264726,26.6017572182544],[89.6092065817485,26.6019356820438],[89.6094921150482,26.6021855280427],[89.6098728152558,26.6025543561054],[89.6102535148912,26.6029469742113],[89.6107650910618,26.6034704650966],[89.6109554334468,26.6037679093316],[89.6112171639422,26.6041367250827],[89.6114313168418,26.6044103697379],[89.6115145912029,26.6046364217635],[89.6117287363919,26.6048148862472],[89.6119547818383,26.604981450941],[89.6121570276283,26.6051361251507],[89.6123116941059,26.6052669983928],[89.6123949653187,26.6056239206542]]]},"properties":{"compartment":"Panbari BL8","division":"BTR_W","range":"EastRajabhatkhawa","beat":"SouthPanbari"},"id":"comptt.55"},
{"type":"Feature","geometry":{"type":"Polygon","coordinates":[[[89.6151093517702,26.6154729111703],[89.6127517491358,26.6158194459502],[89.6102927468864,26.6161603987481],[89.6075127482128,26.6163853450954],[89.6049237504779,26.6165522950529],[89.6024017497698,26.6168362465235],[89.6007197525836,26.6168892139131],[89.5988447572654,26.6168841774465],[89.5965797643437,26.61681913329],[89.5934777749105,26.6166940727533],[89.592053779875,26.6166320449558],[89.5919007789005,26.6166880420811],[89.5909527728627,26.6170350242691],[89.589786765986,26.61743900232],[89.5872587609213,26.6179059540015],[89.5872727675533,26.6176289537797],[89.5870368205173,26.6154519453089],[89.5869348456707,26.6144169414801],[89.5869609334712,26.6107649354728],[89.5871849836333,26.6086569360672],[89.5873100016571,26.6078949371376],[89.5872873652879,26.6077462864325],[89.5911910035779,26.6074214917254],[89.5969730906553,26.6069576032813],[89.6069668169854,26.6061011859989],[89.6123949653187,26.6056239206542],[89.6139892031787,26.6055525615154],[89.6140367667332,26.6066471144121],[89.6141319199023,26.6073371675052],[89.6142746763908,26.6078844412665],[89.6145126103584,26.6085269070498],[89.6147981253557,26.6091217736725],[89.6148695088856,26.609383515532],[89.6150836486349,26.6097880304243],[89.6154167529435,26.6104066980156],[89.6156071004597,26.6109063926172],[89.6156308737979,26.6115964343233],[89.6156070672504,26.6122864851045],[89.6154880757794,26.6131906744208],[89.6153928805486,26.6138331337279],[89.615321473542,26.6145469636261],[89.6151093517702,26.6154729111703]]]},"properties":{"compartment":"Panbari BL7","division":"BTR_W","range":"EastRajabhatkhawa","beat":"SouthPanbari"},"id":"comptt.70"},
{"type":"Feature","geometry":{"type":"Polygon","coordinates":[[[89.6350029882936,26.6036508565755],[89.6367179344725,26.6057168936686],[89.6391658516013,26.6089169470806],[89.6413567833191,26.6115359944487],[89.6421447560622,26.6125900116908],[89.64055275675,26.6127199809671],[89.6394097572772,26.6128119589061],[89.6365567573376,26.613093903936],[89.6362943274675,26.6131196400938],[89.6361897573526,26.6131298968644],[89.635396757356,26.6132088815864],[89.6302857573951,26.6137177831176],[89.6261467550652,26.6142287035545],[89.6237537553721,26.6144556574305],[89.621746753356,26.6147406189175],[89.6187697523633,26.6150805616412],[89.6158597525882,26.615363505565],[89.6154047521004,26.6154294968363],[89.6151093517702,26.6154729111703],[89.615321473542,26.6145469636261],[89.6153928805486,26.6138331337279],[89.6154880757794,26.6131906744208],[89.6156070672504,26.6122864851045],[89.6156308737979,26.6115964343233],[89.6156071004597,26.6109063926172],[89.6154167529435,26.6104066980156],[89.6150836486349,26.6097880304243],[89.6148695088856,26.609383515532],[89.6147981253557,26.6091217736725],[89.6145126103584,26.6085269070498],[89.6142746763908,26.6078844412665],[89.6141319199023,26.6073371675052],[89.6140367667332,26.6066471144121],[89.6139892031787,26.6055525615154],[89.6198872909112,26.6050544752697],[89.6350029882936,26.6036508565755]]]},"properties":{"compartment":"Panbari BL6","division":"BTR_W","range":"EastRajabhatkhawa","beat":"SouthPanbari"},"id":"comptt.66"}
]}