{"type":"FeatureCollection", "features": [
{"type":"Feature","geometry":{"type":"Polygon","coordinates":[[[89.55222175388751,26.616245360575],[89.5505895468665,26.616289088921],[89.5474772166591,26.616617398994602],[89.54544991720951,26.616802949910102],[89.543308396672,26.617045618705703],[89.5397534848333,26.617488130376202],[89.53724076419721,26.617773612030803],[89.5325294369694,26.6181447210963],[89.5275182984459,26.6186014844844],[89.5256480417314,26.618658548229103],[89.5245128220937,26.6187610663413],[89.52460470568211,26.6181868271251],[89.5248474240088,26.6178156311951],[89.5250901316483,26.617472995314802],[89.5257611564643,26.616787727161302],[89.5262323066262,26.6163165954963],[89.52706037517291,26.615460010095102],[89.52793127086551,26.6147176257249],[89.5286594024483,26.6141608489038],[89.5292733081332,26.6138610503113],[89.5300014238779,26.6135469739136],[89.5304297345297,26.6134756021132],[89.53078664501591,26.6134184989502],[89.5308437607127,26.6131757896356],[89.53081522005671,26.6127903184065],[89.5307438391637,26.6124191263699],[89.530672471705,26.6119051540837],[89.530529717514,26.611262700185403],[89.5303013018186,26.610691624747503],[89.5300157866082,26.6101062681751],[89.52967315535841,26.6097778909424],[89.5289307651029,26.6094495159414],[89.5284882010114,26.6092496269917],[89.5281455573578,26.609021199934002],[89.5279314157883,26.6086928251989],[89.5278457652721,26.608307352860802],[89.52798854590431,26.6078504948369],[89.52815987200171,26.6075792376919],[89.5283312008456,26.6071937703474],[89.5285025303763,26.606779742952803],[89.5285739280952,26.6064513837661],[89.5287452576256,26.606037356371402],[89.5289165833792,26.6057803792511],[89.5290167669491,26.6056164489122],[89.53721505884481,26.6051120493263],[89.5428440518718,26.6048221581969],[89.5433970511765,26.604794168893502],[89.5441500476298,26.6048641836487],[89.5464700472065,26.6046432283425],[89.5480319853113,26.6070562629437],[89.5499578868103,26.6109533072391],[89.5515607975105,26.614500344648903],[89.55222175388751,26.616245360575]]]},"properties":{"compartment":"S RVBK BL15","division":"BTR_W","range":"WestRajabhatkhawa","beat":"WestRajabhatkhawa","DIVISION":"BTR_W","BEAT_NAME":"WestRajabhatkhawa"},"id":"comptt.74"},
{"type":"Feature","geometry":{"type":"Polygon","coordinates":[[[89.5551014795806,26.627345436155203],[89.5541451341349,26.627669668128],[89.5533884635979,26.6277695835882],[89.5492482059279,26.6280978736461],[89.545707574006,26.628126354838702],[89.5417529117465,26.628211938081602],[89.5375698290363,26.6283403469595],[89.5343147347201,26.628440223835],[89.53051712038871,26.6285972002618],[89.52896904206611,26.628687640316702],[89.52894458436491,26.6285946896786],[89.5289017706262,26.627923677673202],[89.5287875822202,26.6270385139056],[89.5288018614642,26.626653043509503],[89.52873049126521,26.626253291423],[89.5285020755811,26.625682215983602],[89.5283735962111,26.625253912736902],[89.52824511684071,26.6248256094904],[89.52774544629891,26.6240689284533],[89.52731716076781,26.623512119153702],[89.5269602533403,26.6230267013669],[89.5265319623106,26.6226983324668],[89.5261893314113,26.622355675207203],[89.5257324838887,26.621884535503202],[89.5254469576569,26.6213420090052],[89.52511861428,26.6206852714758],[89.52477599093821,26.6200285336691],[89.52454757593681,26.6194289081824],[89.5244904787903,26.6189006661506],[89.5245128220937,26.6187610663413],[89.5256480417314,26.618658548229103],[89.5275182984459,26.6186014844844],[89.5325294369694,26.6181447210963],[89.53724076419721,26.617773612030803],[89.5397534848333,26.617488130376202],[89.543308396672,26.617045618705703],[89.54544991720951,26.616802949910102],[89.5474772166591,26.616617398994602],[89.5505895468665,26.616289088921],[89.55222175388751,26.616245360575],[89.5529027088395,26.618047376992003],[89.554243596396,26.6225814110634],[89.55513650884531,26.6261264346845],[89.5551014795806,26.627345436155203]]]},"properties":{"compartment":"S RVBK BL10","division":"BTR_W","range":"WestRajabhatkhawa","beat":"WestRajabhatkhawa","DIVISION":"BTR_W","BEAT_NAME":"WestRajabhatkhawa"},"id":"comptt.87"},
{"type":"Feature","geometry":{"type":"Polygon","coordinates":[[[89.5187615210647,26.6293717330255],[89.518007521385,26.629436718477603],[89.5166895231646,26.6294996929596],[89.5147655256922,26.629594655714403],[89.51254252899581,26.629688612654],[89.5102045317735,26.6298165674172],[89.5075467662836,26.629906576254402],[89.5074895363684,26.6299085147882],[89.5071175358574,26.629968507659303],[89.50500153303301,26.630306467103402],[89.50205953007371,26.630736410646502],[89.50036052469281,26.6311373783065],[89.4995405227355,26.6313043626519],[89.4995115259139,26.6311753618652],[89.49912656708351,26.629505351494203],[89.4964886469417,26.6264632949567],[89.495293707395,26.6240762676084],[89.4959167521952,26.6221492763923],[89.4959965779727,26.6219008075149],[89.4970516763957,26.6218559979446],[89.4990646957975,26.621670436749802],[89.50104916630501,26.621442044926102],[89.5025053957379,26.621313583008103],[89.50550351782961,26.6209138905899],[89.5068312575903,26.6207854261745],[89.5090441582255,26.6205284887412],[89.5107288177831,26.6203714812139],[89.5132129784339,26.620085989003602],[89.5147976992781,26.6198861494594],[89.5160826108743,26.6196862940874],[89.5181812918124,26.619429354433702],[89.5196660825695,26.6192437829717],[89.5234351424387,26.618858385562902],[89.5245128220937,26.6187610663413],[89.5244904787903,26.6189006661506],[89.52454757593681,26.6194289081824],[89.52477599093821,26.6200285336691],[89.52511861428,26.6206852714758],[89.5254469576569,26.6213420090052],[89.5257324838887,26.621884535503202],[89.5261893314113,26.622355675207203],[89.5265319623106,26.6226983324668],[89.5269602533403,26.6230267013669],[89.52731716076781,26.623512119153702],[89.52774544629891,26.6240689284533],[89.52824511684071,26.6248256094904],[89.5283735962111,26.625253912736902],[89.5285020755811,26.625682215983602],[89.52873049126521,26.626253291423],[89.5288018614642,26.626653043509503],[89.5287875822202,26.6270385139056],[89.5289017706262,26.627923677673202],[89.52894458436491,26.6285946896786],[89.52896904206611,26.628687640316702],[89.5283185027716,26.628725647733102],[89.5260484980864,26.628739873617203],[89.5223222742907,26.628868291385402],[89.5198381177459,26.6289824632813],[89.5187615210647,26.6293717330255]]]},"properties":{"compartment":"S RVBK BL9","division":"BTR_W","range":"WestRajabhatkhawa","beat":"WestRajabhatkhawa","DIVISION":"BTR_W","BEAT_NAME":"WestRajabhatkhawa"},"id":"comptt.88"},
{"type":"Feature","geometry":{"type":"Polygon","coordinates":[[[89.5293060944733,26.6430848720396],[89.5292621645565,26.6430859611869],[89.5291711647353,26.64308795942],[89.528159166657,26.6431129397753],[89.525052173255,26.6431608794135],[89.5225301741585,26.643384830740303],[89.5205231779475,26.6434357917848],[89.52045517823801,26.6434307904533],[89.5206111943268,26.642746792296602],[89.52114024241361,26.6406957990142],[89.52131830281411,26.638169798075502],[89.5206784079238,26.63387177814],[89.5202064550709,26.631962765635702],[89.51966047552911,26.631169753637103],[89.5189475108013,26.6297787373507],[89.5187605194542,26.6294387331226],[89.5187615210647,26.6293717330255],[89.5198381177459,26.6289824632813],[89.5223222742907,26.628868291385402],[89.5260484980864,26.628739873617203],[89.5283185027716,26.628725647733102],[89.52896904206611,26.628687640316702],[89.5290873409475,26.6291372134031],[89.5292158175653,26.629679736849802],[89.52928718673141,26.630122319011402],[89.5292871743564,26.6306362799097],[89.52924433140011,26.6311788000249],[89.5293014075673,26.6325779235809],[89.5293584995475,26.633320315989103],[89.529401314313,26.633948497920002],[89.5295297940222,26.6343625211427],[89.5296297241459,26.6347622737851],[89.52967254097321,26.6353047955665],[89.5296725258439,26.635932976664503],[89.5297153464531,26.6363184481714],[89.5296725065877,26.636732478062],[89.52951542878131,26.637903167053302],[89.5294297555828,26.6384599663603],[89.5292584236295,26.638973923926002],[89.5291299226008,26.6394450522499],[89.5291013551319,26.6401731729669],[89.5291013379352,26.6408870142144],[89.5291727095027,26.6412296562018],[89.5292440790062,26.6416579583388],[89.5293011816408,26.6419577699738],[89.5293297253781,26.6422147609783],[89.5293439984633,26.6425002917552],[89.5293060944733,26.6430848720396]]]},"properties":{"compartment":"S RVBK BL8","division":"BTR_W","range":"WestRajabhatkhawa","beat":"WestRajabhatkhawa","DIVISION":"BTR_W","BEAT_NAME":"WestRajabhatkhawa"},"id":"comptt.100"},
{"type":"Feature","geometry":{"type":"Polygon","coordinates":[[[89.5551014795806,26.627345436155203],[89.5550614489057,26.6286234376327],[89.5547303868211,26.631235435804],[89.55426733625501,26.633382430586],[89.55303128903981,26.6354694102233],[89.55224422110031,26.6383704000274],[89.5520361460805,26.6415054015065],[89.5519941377991,26.6418534013027],[89.5497061408363,26.6419623569763],[89.54647114487601,26.642127294323],[89.5429771496155,26.6422902266279],[89.5396101512548,26.6425691616082],[89.5361171588071,26.6426160937309],[89.5326231621798,26.642837026140302],[89.5302281627265,26.6430619799385],[89.5293060944733,26.6430848720396],[89.5293439984633,26.6425002917552],[89.5293297253781,26.6422147609783],[89.5293011816408,26.6419577699738],[89.5292440790062,26.6416579583388],[89.5291727095027,26.6412296562018],[89.5291013379352,26.6408870142144],[89.5291013551319,26.6401731729669],[89.5291299226008,26.6394450522499],[89.5292584236295,26.638973923926002],[89.5294297555828,26.6384599663603],[89.52951542878131,26.637903167053302],[89.5296725065877,26.636732478062],[89.5297153464531,26.6363184481714],[89.5296725258439,26.635932976664503],[89.52967254097321,26.6353047955665],[89.5296297241459,26.6347622737851],[89.5295297940222,26.6343625211427],[89.529401314313,26.633948497920002],[89.5293584995475,26.633320315989103],[89.5293014075673,26.6325779235809],[89.52924433140011,26.6311788000249],[89.5292871743564,26.6306362799097],[89.52928718673141,26.630122319011402],[89.5292158175653,26.629679736849802],[89.5290873409475,26.6291372134031],[89.52896904206611,26.628687640316702],[89.53051712038871,26.6285972002618],[89.5343147347201,26.628440223835],[89.5375698290363,26.6283403469595],[89.5417529117465,26.628211938081602],[89.545707574006,26.628126354838702],[89.5492482059279,26.6280978736461],[89.5533884635979,26.6277695835882],[89.5541451341349,26.627669668128],[89.5551014795806,26.627345436155203]]]},"properties":{"compartment":"S RVBK BL7","division":"BTR_W","range":"WestRajabhatkhawa","beat":"WestRajabhatkhawa","DIVISION":"BTR_W","BEAT_NAME":"WestRajabhatkhawa"},"id":"comptt.99"},
{"type":"Feature","geometry":{"type":"Polygon","coordinates":[[[89.5245128220937,26.6187610663413],[89.5234351424387,26.618858385562902],[89.5196660825695,26.6192437829717],[89.5181812918124,26.619429354433702],[89.5160826108743,26.6196862940874],[89.5147976992781,26.6198861494594],[89.5132129784339,26.620085989003602],[89.5107288177831,26.6203714812139],[89.5090441582255,26.6205284887412],[89.5068312575903,26.6207854261745],[89.50550351782961,26.6209138905899],[89.5025053957379,26.621313583008103],[89.50104916630501,26.621442044926102],[89.4990646957975,26.621670436749802],[89.4970516763957,26.6218559979446],[89.4959965779727,26.6219008075149],[89.4962707778192,26.6210472813706],[89.4950758382794,26.6186592540251],[89.4950879007693,26.616060249774],[89.492446964976,26.6136671943295],[89.4912459941435,26.612580169121102],[89.491504082033,26.6088981677895],[89.4915750991898,26.608177167926403],[89.4916800981559,26.6082091700213],[89.49492209622271,26.6079502325558],[89.5001240973812,26.6073583325924],[89.5046402889926,26.6068291612799],[89.50476609881291,26.606814421832702],[89.505178098934,26.6067664297537],[89.5087210946495,26.606575498255],[89.5129430902645,26.6063185798344],[89.5187450801712,26.6061356922415],[89.5225900768097,26.6058767664959],[89.5235110733844,26.605923784472402],[89.5240230714836,26.6059497944657],[89.5284480675862,26.6056538799265],[89.5288470672431,26.605626887632003],[89.5290167669491,26.6056164489122],[89.5289165833792,26.6057803792511],[89.5287452576256,26.606037356371402],[89.5285739280952,26.6064513837661],[89.5285025303763,26.606779742952803],[89.5283312008456,26.6071937703474],[89.52815987200171,26.6075792376919],[89.52798854590431,26.6078504948369],[89.5278457652721,26.608307352860802],[89.5279314157883,26.6086928251989],[89.5281455573578,26.609021199934002],[89.5284882010114,26.6092496269917],[89.5289307651029,26.6094495159414],[89.52967315535841,26.6097778909424],[89.5300157866082,26.6101062681751],[89.5303013018186,26.610691624747503],[89.530529717514,26.611262700185403],[89.530672471705,26.6119051540837],[89.5307438391637,26.6124191263699],[89.53081522005671,26.6127903184065],[89.5308437607127,26.6131757896356],[89.53078664501591,26.6134184989502],[89.5304297345297,26.6134756021132],[89.5300014238779,26.6135469739136],[89.5292733081332,26.6138610503113],[89.5286594024483,26.6141608489038],[89.52793127086551,26.6147176257249],[89.52706037517291,26.615460010095102],[89.5262323066262,26.6163165954963],[89.5257611564643,26.616787727161302],[89.5250901316483,26.617472995314802],[89.5248474240088,26.6178156311951],[89.52460470568211,26.6181868271251],[89.5245128220937,26.6187610663413]]]},"properties":{"compartment":"S RVBK BL16","division":"BTR_W","range":"WestRajabhatkhawa","beat":"WestRajabhatkhawa","DIVISION":"BTR_W","BEAT_NAME":"WestRajabhatkhawa"},"id":"comptt.75"}
]}
WRVK
