{"type":"FeatureCollection", "features": [
{"type":"Feature","geometry":{"type":"Polygon","coordinates":[[[89.4561478993892,26.6315841792999],[89.4534242732306,26.6317138165928],[89.4508306612788,26.6320706867977],[89.4481180779202,26.6324989348112],[89.4437874598624,26.6328795713024],[89.4421932188013,26.6330936906852],[89.4339127060769,26.6332600900664],[89.429352817086,26.633290561518],[89.4294817931922,26.6330229135744],[89.4300578224504,26.6317449226195],[89.4308228532165,26.630383935196],[89.4315868758064,26.6293629483233],[89.4324509104279,26.6278309625332],[89.4334999445477,26.6262999803369],[89.4335989627376,26.62553298097],[89.4338909886301,26.6244249847783],[89.4345680565454,26.6215279930542],[89.4346680767962,26.6206749935611],[89.4350601372826,26.6181169968694],[89.4357301621468,26.6170110080194],[89.4368802185371,26.6145420261941],[89.4375892344057,26.6138060387219],[89.4399441802203,26.6158090878299],[89.4423471266067,26.6177831378282],[89.443621092281,26.6190751647532],[89.4438470884082,26.619212169374],[89.4456580885044,26.6190152042159],[89.4501070881046,26.6185582898559],[89.4566680886532,26.6178384160726],[89.4620190890986,26.6172525190142],[89.4612730675576,26.6182275061817],[89.4605530345527,26.6196764946591],[89.4600279954458,26.6213584873193],[89.4600199507608,26.6232174903231],[89.4596899097309,26.6249584868704],[89.4587748702383,26.6266974720469],[89.4578618377381,26.6281454567662],[89.4569538163859,26.6291294407934],[89.4564277884282,26.6303474326396],[89.4561997647843,26.6313544299178],[89.4561478993892,26.6315841792999]]]},"properties":{"compartment":"Nimati BL7","division":"BTR_W","range":"Nimati","beat":"WestNimati"},"id":"comptt.86"},
{"type":"Feature","geometry":{"type":"Polygon","coordinates":[[[89.4550004174254,26.6459144313113],[89.4535191023922,26.646280903133],[89.4516393326222,26.6464712269092],[89.4498785319775,26.6466853430387],[89.4476656307761,26.6469708404993],[89.4451433998,26.6472801219862],[89.4422404569432,26.6477083662722],[89.4386474595668,26.6483983375837],[89.4364583525966,26.6489217759066],[89.4353513922375,26.6490550546103],[89.4354654088214,26.648354055647],[89.4357444492231,26.6466460581961],[89.435501502375,26.6444640498],[89.4352645455169,26.6426970422195],[89.4345635702827,26.6417430269893],[89.4336226138353,26.6400340058257],[89.4324936681675,26.6378969802912],[89.4310726863377,26.6372939516634],[89.4302287358148,26.6353279319601],[89.4291927796237,26.6336179089582],[89.4292557824924,26.6334919099708],[89.429352817086,26.633290561518],[89.4339127060769,26.6332600900664],[89.4421932188013,26.6330936906852],[89.4437874598624,26.6328795713024],[89.4481180779202,26.6324989348112],[89.4508306612788,26.6320706867977],[89.4534242732306,26.6317138165928],[89.4561478993892,26.6315841792999],[89.4560997543816,26.6317974287262],[89.4558347257297,26.6330164256447],[89.4553096838085,26.6348144184918],[89.4544586399499,26.6367274051967],[89.4539315896516,26.638873398592],[89.4538585507028,26.6404993999295],[89.4540445152525,26.6419524060083],[89.454486462341,26.6441034182475],[89.4550004174254,26.6459144313113]]]},"properties":{"compartment":"Nimati BL2","division":"BTR_W","range":"Nimati","beat":"WestNimati"},"id":"comptt.101"},
{"type":"Feature","geometry":{"type":"Polygon","coordinates":[[[89.4550004174254,26.6459144313113],[89.4552764176824,26.6458744366094],[89.4528223720759,26.6480293925506],[89.4517053526153,26.6489563724028],[89.4491383024357,26.6513133264798],[89.4494412712661,26.6525753345069],[89.4502092075657,26.6551383537793],[89.4508941379267,26.6579563718716],[89.4521540405396,26.6618644029972],[89.4529049610913,26.6650814230561],[89.4499659716661,26.6649553656673],[89.4472839787922,26.6649453134759],[89.4425569913758,26.664927221491],[89.4407659961527,26.6649201866397],[89.4382099941312,26.6652771375212],[89.4380819940272,26.6652951350616],[89.4375639943737,26.6653361250544],[89.4375399971585,26.6652231243973],[89.437321021964,26.6642171184433],[89.4372500293998,26.6639161165553],[89.4364931654952,26.6583480924574],[89.4368272498046,26.6548120929992],[89.4358413544013,26.6505740666933],[89.4353513922375,26.6490550546103],[89.4364583525966,26.6489217759066],[89.4386474595668,26.6483983375837],[89.4422404569432,26.6477083662722],[89.4451433998,26.6472801219862],[89.4476656307761,26.6469708404993],[89.4498785319775,26.6466853430387],[89.4516393326222,26.6464712269092],[89.4535191023922,26.646280903133],[89.4550004174254,26.6459144313113]]]},"properties":{"compartment":"Nimati BL1","division":"BTR_W","range":"Nimati","beat":"WestNimati"},"id":"comptt.113"}
]}