{"type":"FeatureCollection", "features": [
{"type":"Feature","geometry":{"type":"Polygon","coordinates":[[[89.5564217538875,26.621345360575],[89.5547895468665,26.621389088921],[89.5516772166591,26.6217173989946],[89.5496499172095,26.6219029499101],[89.547508396672,26.6221456187057],[89.5439534848333,26.6225881303762],[89.5414407641972,26.6228736120308],[89.5367294369694,26.6232447210963],[89.5317182984459,26.6237014844844],[89.5298480417314,26.6237585482291],[89.5287128220937,26.6238610663413],[89.5288047056821,26.6232868271251],[89.5290474240088,26.6229156311951],[89.5292901316483,26.6225729953148],[89.5299611564643,26.6218877271613],[89.5304323066262,26.6214165954963],[89.5312603751729,26.6205600100951],[89.5321312708655,26.6198176257249],[89.5328594024483,26.6192608489038],[89.5334733081332,26.6189610503113],[89.5342014238779,26.6186469739136],[89.5346297345297,26.6185756021132],[89.5349866450159,26.6185184989502],[89.5350437607127,26.6182757896356],[89.5350152200567,26.6178903184065],[89.5349438391637,26.6175191263699],[89.534872471705,26.6170051540837],[89.534729717514,26.6163627001854],[89.5345013018186,26.6157916247475],[89.5342157866082,26.6152062681751],[89.5338731553584,26.6148778909424],[89.5331307651029,26.6145495159414],[89.5326882010114,26.6143496269917],[89.5323455573578,26.614121199934],[89.5321314157883,26.6137928251989],[89.5320457652721,26.6134073528608],[89.5321885459043,26.6129504948369],[89.5323598720017,26.6126792376919],[89.5325312008456,26.6122937703474],[89.5327025303763,26.6118797429528],[89.5327739280952,26.6115513837661],[89.5329452576256,26.6111373563714],[89.5331165833792,26.6108803792511],[89.5332167669491,26.6107164489122],[89.5414150588448,26.6102120493263],[89.5470440518718,26.6099221581969],[89.5475970511765,26.6098941688935],[89.5483500476298,26.6099641836487],[89.5506700472065,26.6097432283425],[89.5522319853113,26.6121562629437],[89.5541578868103,26.6160533072391],[89.5557607975105,26.6196003446489],[89.5564217538875,26.621345360575]]]},"properties":{"compartment":"S RVBK BL15","division":"BTR_W","range":"WestRajabhatkhawa","beat":"WRVK"},"id":"comptt.74"},
{"type":"Feature","geometry":{"type":"Polygon","coordinates":[[[89.5287128220937,26.6238610663413],[89.5276351424387,26.6239583855629],[89.5238660825695,26.6243437829717],[89.5223812918124,26.6245293544337],[89.5202826108743,26.6247862940874],[89.5189976992781,26.6249861494594],[89.5174129784339,26.6251859890036],[89.5149288177831,26.6254714812139],[89.5132441582255,26.6256284887412],[89.5110312575903,26.6258854261745],[89.5097035178296,26.6260138905899],[89.5067053957379,26.6264135830081],[89.505249166305,26.6265420449261],[89.5032646957975,26.6267704367498],[89.5012516763957,26.6269559979446],[89.5001965779727,26.6270008075149],[89.5004707778192,26.6261472813706],[89.4992758382794,26.6237592540251],[89.4992879007693,26.621160249774],[89.496646964976,26.6187671943295],[89.4954459941435,26.6176801691211],[89.495704082033,26.6139981677895],[89.4957750991898,26.6132771679264],[89.4958800981559,26.6133091700213],[89.4991220962227,26.6130502325558],[89.5043240973812,26.6124583325924],[89.5088402889926,26.6119291612799],[89.5089660988129,26.6119144218327],[89.509378098934,26.6118664297537],[89.5129210946495,26.611675498255],[89.5171430902645,26.6114185798344],[89.5229450801712,26.6112356922415],[89.5267900768097,26.6109767664959],[89.5277110733844,26.6110237844724],[89.5282230714836,26.6110497944657],[89.5326480675862,26.6107538799265],[89.5330470672431,26.610726887632],[89.5332167669491,26.6107164489122],[89.5331165833792,26.6108803792511],[89.5329452576256,26.6111373563714],[89.5327739280952,26.6115513837661],[89.5327025303763,26.6118797429528],[89.5325312008456,26.6122937703474],[89.5323598720017,26.6126792376919],[89.5321885459043,26.6129504948369],[89.5320457652721,26.6134073528608],[89.5321314157883,26.6137928251989],[89.5323455573578,26.614121199934],[89.5326882010114,26.6143496269917],[89.5331307651029,26.6145495159414],[89.5338731553584,26.6148778909424],[89.5342157866082,26.6152062681751],[89.5345013018186,26.6157916247475],[89.534729717514,26.6163627001854],[89.534872471705,26.6170051540837],[89.5349438391637,26.6175191263699],[89.5350152200567,26.6178903184065],[89.5350437607127,26.6182757896356],[89.5349866450159,26.6185184989502],[89.5346297345297,26.6185756021132],[89.5342014238779,26.6186469739136],[89.5334733081332,26.6189610503113],[89.5328594024483,26.6192608489038],[89.5321312708655,26.6198176257249],[89.5312603751729,26.6205600100951],[89.5304323066262,26.6214165954963],[89.5299611564643,26.6218877271613],[89.5292901316483,26.6225729953148],[89.5290474240088,26.6229156311951],[89.5288047056821,26.6232868271251],[89.5287128220937,26.6238610663413]]]},"properties":{"compartment":"S RVBK BL16","division":"BTR_W","range":"WestRajabhatkhawa","beat":"WRVK"},"id":"comptt.75"},
{"type":"Feature","geometry":{"type":"Polygon","coordinates":[[[89.5593014795806,26.6324454361552],[89.5583451341349,26.632769668128],[89.5575884635979,26.6328695835882],[89.5534482059279,26.6331978736461],[89.549907574006,26.6332263548387],[89.5459529117465,26.6333119380816],[89.5417698290363,26.6334403469595],[89.5385147347201,26.633540223835],[89.5347171203887,26.6336972002618],[89.5331690420661,26.6337876403167],[89.5331445843649,26.6336946896786],[89.5331017706262,26.6330236776732],[89.5329875822202,26.6321385139056],[89.5330018614642,26.6317530435095],[89.5329304912652,26.631353291423],[89.5327020755811,26.6307822159836],[89.5325735962111,26.6303539127369],[89.5324451168407,26.6299256094904],[89.5319454462989,26.6291689284533],[89.5315171607678,26.6286121191537],[89.5311602533403,26.6281267013669],[89.5307319623106,26.6277983324668],[89.5303893314113,26.6274556752072],[89.5299324838887,26.6269845355032],[89.5296469576569,26.6264420090052],[89.52931861428,26.6257852714758],[89.5289759909382,26.6251285336691],[89.5287475759368,26.6245289081824],[89.5286904787903,26.6240006661506],[89.5287128220937,26.6238610663413],[89.5298480417314,26.6237585482291],[89.5317182984459,26.6237014844844],[89.5367294369694,26.6232447210963],[89.5414407641972,26.6228736120308],[89.5439534848333,26.6225881303762],[89.547508396672,26.6221456187057],[89.5496499172095,26.6219029499101],[89.5516772166591,26.6217173989946],[89.5547895468665,26.621389088921],[89.5564217538875,26.621345360575],[89.5571027088395,26.623147376992],[89.558443596396,26.6276814110634],[89.5593365088453,26.6312264346845],[89.5593014795806,26.6324454361552]]]},"properties":{"compartment":"S RVBK BL10","division":"BTR_W","range":"WestRajabhatkhawa","beat":"WRVK"},"id":"comptt.87"},
{"type":"Feature","geometry":{"type":"Polygon","coordinates":[[[89.5229615210647,26.6344717330255],[89.522207521385,26.6345367184776],[89.5208895231646,26.6345996929596],[89.5189655256922,26.6346946557144],[89.5167425289958,26.634788612654],[89.5144045317735,26.6349165674172],[89.5117467662836,26.6350065762544],[89.5116895363684,26.6350085147882],[89.5113175358574,26.6350685076593],[89.509201533033,26.6354064671034],[89.5062595300737,26.6358364106465],[89.5045605246928,26.6362373783065],[89.5037405227355,26.6364043626519],[89.5037115259139,26.6362753618652],[89.5033265670835,26.6346053514942],[89.5006886469417,26.6315632949567],[89.499493707395,26.6291762676084],[89.5001167521952,26.6272492763923],[89.5001965779727,26.6270008075149],[89.5012516763957,26.6269559979446],[89.5032646957975,26.6267704367498],[89.505249166305,26.6265420449261],[89.5067053957379,26.6264135830081],[89.5097035178296,26.6260138905899],[89.5110312575903,26.6258854261745],[89.5132441582255,26.6256284887412],[89.5149288177831,26.6254714812139],[89.5174129784339,26.6251859890036],[89.5189976992781,26.6249861494594],[89.5202826108743,26.6247862940874],[89.5223812918124,26.6245293544337],[89.5238660825695,26.6243437829717],[89.5276351424387,26.6239583855629],[89.5287128220937,26.6238610663413],[89.5286904787903,26.6240006661506],[89.5287475759368,26.6245289081824],[89.5289759909382,26.6251285336691],[89.52931861428,26.6257852714758],[89.5296469576569,26.6264420090052],[89.5299324838887,26.6269845355032],[89.5303893314113,26.6274556752072],[89.5307319623106,26.6277983324668],[89.5311602533403,26.6281267013669],[89.5315171607678,26.6286121191537],[89.5319454462989,26.6291689284533],[89.5324451168407,26.6299256094904],[89.5325735962111,26.6303539127369],[89.5327020755811,26.6307822159836],[89.5329304912652,26.631353291423],[89.5330018614642,26.6317530435095],[89.5329875822202,26.6321385139056],[89.5331017706262,26.6330236776732],[89.5331445843649,26.6336946896786],[89.5331690420661,26.6337876403167],[89.5325185027716,26.6338256477331],[89.5302484980864,26.6338398736172],[89.5265222742907,26.6339682913854],[89.5240381177459,26.6340824632813],[89.5229615210647,26.6344717330255]]]},"properties":{"compartment":"S RVBK BL9","division":"BTR_W","range":"WestRajabhatkhawa","beat":"WRVK"},"id":"comptt.88"},
{"type":"Feature","geometry":{"type":"Polygon","coordinates":[[[89.5335060944733,26.6481848720396],[89.5334621645565,26.6481859611869],[89.5333711647353,26.64818795942],[89.532359166657,26.6482129397753],[89.529252173255,26.6482608794135],[89.5267301741585,26.6484848307403],[89.5247231779475,26.6485357917848],[89.524655178238,26.6485307904533],[89.5248111943268,26.6478467922966],[89.5253402424136,26.6457957990142],[89.5255183028141,26.6432697980755],[89.5248784079238,26.63897177814],[89.5244064550709,26.6370627656357],[89.5238604755291,26.6362697536371],[89.5231475108013,26.6348787373507],[89.5229605194542,26.6345387331226],[89.5229615210647,26.6344717330255],[89.5240381177459,26.6340824632813],[89.5265222742907,26.6339682913854],[89.5302484980864,26.6338398736172],[89.5325185027716,26.6338256477331],[89.5331690420661,26.6337876403167],[89.5332873409475,26.6342372134031],[89.5334158175653,26.6347797368498],[89.5334871867314,26.6352223190114],[89.5334871743564,26.6357362799097],[89.5334443314001,26.6362788000249],[89.5335014075673,26.6376779235809],[89.5335584995475,26.6384203159891],[89.533601314313,26.63904849792],[89.5337297940222,26.6394625211427],[89.5338297241459,26.6398622737851],[89.5338725409732,26.6404047955665],[89.5338725258439,26.6410329766645],[89.5339153464531,26.6414184481714],[89.5338725065877,26.641832478062],[89.5337154287813,26.6430031670533],[89.5336297555828,26.6435599663603],[89.5334584236295,26.644073923926],[89.5333299226008,26.6445450522499],[89.5333013551319,26.6452731729669],[89.5333013379352,26.6459870142144],[89.5333727095027,26.6463296562018],[89.5334440790062,26.6467579583388],[89.5335011816408,26.6470577699738],[89.5335297253781,26.6473147609783],[89.5335439984633,26.6476002917552],[89.5335060944733,26.6481848720396]]]},"properties":{"compartment":"S RVBK BL8","division":"BTR_W","range":"WestRajabhatkhawa","beat":"WRVK"},"id":"comptt.100"},
{"type":"Feature","geometry":{"type":"Polygon","coordinates":[[[89.5593014795806,26.6324454361552],[89.5592614489057,26.6337234376327],[89.5589303868211,26.636335435804],[89.558467336255,26.638482430586],[89.5572312890398,26.6405694102233],[89.5564442211003,26.6434704000274],[89.5562361460805,26.6466054015065],[89.5561941377991,26.6469534013027],[89.5539061408363,26.6470623569763],[89.550671144876,26.647227294323],[89.5471771496155,26.6473902266279],[89.5438101512548,26.6476691616082],[89.5403171588071,26.6477160937309],[89.5368231621798,26.6479370261403],[89.5344281627265,26.6481619799385],[89.5335060944733,26.6481848720396],[89.5335439984633,26.6476002917552],[89.5335297253781,26.6473147609783],[89.5335011816408,26.6470577699738],[89.5334440790062,26.6467579583388],[89.5333727095027,26.6463296562018],[89.5333013379352,26.6459870142144],[89.5333013551319,26.6452731729669],[89.5333299226008,26.6445450522499],[89.5334584236295,26.644073923926],[89.5336297555828,26.6435599663603],[89.5337154287813,26.6430031670533],[89.5338725065877,26.641832478062],[89.5339153464531,26.6414184481714],[89.5338725258439,26.6410329766645],[89.5338725409732,26.6404047955665],[89.5338297241459,26.6398622737851],[89.5337297940222,26.6394625211427],[89.533601314313,26.63904849792],[89.5335584995475,26.6384203159891],[89.5335014075673,26.6376779235809],[89.5334443314001,26.6362788000249],[89.5334871743564,26.6357362799097],[89.5334871867314,26.6352223190114],[89.5334158175653,26.6347797368498],[89.5332873409475,26.6342372134031],[89.5331690420661,26.6337876403167],[89.5347171203887,26.6336972002618],[89.5385147347201,26.633540223835],[89.5417698290363,26.6334403469595],[89.5459529117465,26.6333119380816],[89.549907574006,26.6332263548387],[89.5534482059279,26.6331978736461],[89.5575884635979,26.6328695835882],[89.5583451341349,26.632769668128],[89.5593014795806,26.6324454361552]]]},"properties":{"compartment":"S RVBK BL7","division":"BTR_W","range":"WestRajabhatkhawa","beat":"WRVK"},"id":"comptt.99"}
]}