{"type":"FeatureCollection", "features": [
{"type":"Feature","geometry":{"type":"Polygon","coordinates":[[[89.4290859888028,26.8202369500637],[89.4295202600351,26.8205512290822],[89.4320682057239,26.8225132821976],[89.4344961796391,26.8233263310435],[89.4370481420827,26.8245983830898],[89.4394771160016,26.8254114319629],[89.4398591038055,26.8258724402102],[89.4394660630342,26.8275924354189],[89.4398460396876,26.8285124444003],[89.4420170198672,26.829095487848],[89.4422180173026,26.8291794919212],[89.4455939739847,26.8306005603573],[89.4491729503925,26.8311886313652],[89.4504769648961,26.8304526556315],[89.4506729626859,26.8305226595842],[89.4508839603153,26.8305976638388],[89.4511879569011,26.8307056699687],[89.4540579245649,26.8317297278491],[89.4508048407,26.8355266706266],[89.4476327820541,26.838277613208],[89.4438007223318,26.8411435430578],[89.440604714242,26.8418184816525],[89.4347467853041,26.8395243631662],[89.4339337951587,26.8392063467245],[89.4311298438149,26.8375062890094],[89.4254189686953,26.8329831697066],[89.4201670700587,26.8293780609525],[89.4192270866159,26.8287980415998],[89.419063087386,26.8287840383689],[89.418779087426,26.8288130328631],[89.4186380871154,26.8288410301523],[89.4182502616094,26.8286979223286],[89.4208816575948,26.8265214401535],[89.4218524944758,26.8257219578025],[89.4239083807143,26.8240087851399],[89.4265924590109,26.8221433345018],[89.4280011216856,26.8210583202281],[89.4290859888028,26.8202369500637]]]},"properties":{"compartment":"Rangamati BL 1"},"id":"comptt.217"}
]}