{"type":"FeatureCollection", "features": [
{"type":"Feature","geometry":{"type":"Polygon","coordinates":[[[89.4233077350827,26.8123641739106],[89.4207059191486,26.812477033242],[89.41458595594,26.8128576342541],[89.4117305995038,26.8130193787131],[89.4059437506136,26.8135998565719],[89.4024031193018,26.8140376080966],[89.399842815417,26.8144753787815],[89.3952456825855,26.815503220633],[89.39389595218,26.8160785652042],[89.3937434647686,26.815988522075],[89.3927054824401,26.8153735007709],[89.3893915314213,26.8137164332665],[89.3852826025819,26.8112323488729],[89.3835736446983,26.8096833129275],[89.3828986989251,26.807522296181],[89.3822267830521,26.8041282774656],[89.3824718447003,26.8015602780248],[89.3822528976486,26.7994012701933],[89.3823459086806,26.7989362712445],[89.3846558904897,26.7994343171846],[89.3878478706021,26.7999063803127],[89.3919348538177,26.8001534605557],[89.3966598269718,26.8007465538389],[89.401257808847,26.8009946440757],[89.405854787952,26.8013577344885],[89.4101977733206,26.8014908195613],[89.4114297699912,26.8014948436389],[89.4115721996101,26.8014954746852],[89.4141577625473,26.8015068969594],[89.4162077569821,26.801514937027],[89.4161787505312,26.8017839369091],[89.4169367038983,26.8036239547902],[89.4184586328844,26.8063859891424],[89.4197295959906,26.8077690162913],[89.4208725511039,26.8094950415141],[89.4228675210758,26.8105170822156],[89.4238075069166,26.8109991013951],[89.4237765002245,26.811278101256],[89.4236764793887,26.8121471007552],[89.4235524779649,26.8122190984518],[89.4233077350827,26.8123641739106]]]},"properties":{"compartment":"Rangamati BL3"},"id":"comptt.215"}
]}