{"type":"FeatureCollection", "features": [
{"type":"Feature","geometry":{"type":"Polygon","coordinates":[[[89.4290859888028,26.8202369500637],[89.4280011216856,26.8210583202281],[89.4265924590109,26.8221433345018],[89.4239083807143,26.8240087851399],[89.4218524944758,26.8257219578025],[89.4208816575948,26.8265214401535],[89.4182502616094,26.8286979223286],[89.4176840981701,26.8284890109074],[89.4149771295452,26.8274899563022],[89.4101791950362,26.8253128588529],[89.4074412524443,26.8232458018799],[89.4033263110969,26.8212767181577],[89.400583348558,26.8200316624689],[89.3947714473179,26.8165955431714],[89.39389595218,26.8160785652042],[89.3952456825855,26.815503220633],[89.399842815417,26.8144753787815],[89.4024031193018,26.8140376080966],[89.4059437506136,26.8135998565719],[89.4117305995038,26.8130193787131],[89.41458595594,26.8128576342541],[89.4207059191486,26.812477033242],[89.4233077350827,26.8123641739106],[89.4221354612773,26.8130590721584],[89.4226414264473,26.8144390843573],[89.4242953801617,26.816167119582],[89.4269683115626,26.8187041760886],[89.4285902788108,26.8198782097696],[89.4290859888028,26.8202369500637]]]},"properties":{"compartment":"Rangamati BL 2"},"id":"comptt.216"}
]}