{"type":"FeatureCollection", "features": [
{"type":"Feature","geometry":{"type":"Polygon","coordinates":[[[89.4552764176824,26.6458744366094],[89.4528223720759,26.6480293925506],[89.4517053526153,26.6489563724028],[89.4491383024357,26.6513133264798],[89.4494412712661,26.6525753345069],[89.4502092075657,26.6551383537793],[89.4508941379267,26.6579563718716],[89.4521540405396,26.6618644029972],[89.4529049610913,26.6650814230561],[89.4499659716661,26.6649553656673],[89.4472839787922,26.6649453134759],[89.4425569913758,26.664927221491],[89.4407659961527,26.6649201866397],[89.4382099941312,26.6652771375212],[89.4380819940272,26.6652951350616],[89.4375639943737,26.6653361250544],[89.4375399971585,26.6652231243973],[89.437321021964,26.6642171184433],[89.4372500293998,26.6639161165553],[89.4364931654952,26.6583480924574],[89.4368272498046,26.6548120929992],[89.4358413544013,26.6505740666933],[89.4353513922375,26.6490550546103],[89.4364583525966,26.6489217759066],[89.4386474595668,26.6483983375837],[89.4422404569432,26.6477083662722],[89.4451433998,26.6472801219862],[89.4476656307761,26.6469708404993],[89.4498785319775,26.6466853430387],[89.4516393326222,26.6464712269092],[89.4535191023922,26.646280903133],[89.4550004174254,26.6459144313113],[89.4552764176824,26.6458744366094]]]},"properties":{"compartment":"Nimati BL1"},"id":"comptt.113"}
]}