{"type":"FeatureCollection", "features": [
{"type":"Feature","geometry":{"type":"Polygon","coordinates":[[[89.4550004174254,26.6459144313113],[89.4535191023922,26.646280903133],[89.4516393326222,26.6464712269092],[89.4498785319775,26.6466853430387],[89.4476656307761,26.6469708404993],[89.4451433998,26.6472801219862],[89.4422404569432,26.6477083662722],[89.4386474595668,26.6483983375837],[89.4364583525966,26.6489217759066],[89.4353513922375,26.6490550546103],[89.4354654088214,26.648354055647],[89.4357444492231,26.6466460581961],[89.435501502375,26.6444640498],[89.4352645455169,26.6426970422195],[89.4345635702827,26.6417430269893],[89.4336226138353,26.6400340058257],[89.4324936681675,26.6378969802912],[89.4310726863377,26.6372939516634],[89.4302287358148,26.6353279319601],[89.4291927796237,26.6336179089582],[89.4292557824924,26.6334919099708],[89.429352817086,26.633290561518],[89.4339127060769,26.6332600900664],[89.4421932188013,26.6330936906852],[89.4437874598624,26.6328795713024],[89.4481180779202,26.6324989348112],[89.4508306612788,26.6320706867977],[89.4534242732306,26.6317138165928],[89.4561478993892,26.6315841792999],[89.4560997543816,26.6317974287262],[89.4558347257297,26.6330164256447],[89.4553096838085,26.6348144184918],[89.4544586399499,26.6367274051967],[89.4539315896516,26.638873398592],[89.4538585507028,26.6404993999295],[89.4540445152525,26.6419524060083],[89.454486462341,26.6441034182475],[89.4550004174254,26.6459144313113]]]},"properties":{"compartment":"Nimati BL2"},"id":"comptt.101"}
]}