{"type":"FeatureCollection", "features": [
{"type":"Feature","geometry":{"type":"Polygon","coordinates":[[[89.4561478993892,26.6315841792999],[89.4534242732306,26.6317138165928],[89.4508306612788,26.6320706867977],[89.4481180779202,26.6324989348112],[89.4437874598624,26.6328795713024],[89.4421932188013,26.6330936906852],[89.4339127060769,26.6332600900664],[89.429352817086,26.633290561518],[89.4294817931922,26.6330229135744],[89.4300578224504,26.6317449226195],[89.4308228532165,26.630383935196],[89.4315868758064,26.6293629483233],[89.4324509104279,26.6278309625332],[89.4334999445477,26.6262999803369],[89.4335989627376,26.62553298097],[89.4338909886301,26.6244249847783],[89.4345680565454,26.6215279930542],[89.4346680767962,26.6206749935611],[89.4350601372826,26.6181169968694],[89.4357301621468,26.6170110080194],[89.4368802185371,26.6145420261941],[89.4375892344057,26.6138060387219],[89.4399441802203,26.6158090878299],[89.4423471266067,26.6177831378282],[89.443621092281,26.6190751647532],[89.4438470884082,26.619212169374],[89.4456580885044,26.6190152042159],[89.4501070881046,26.6185582898559],[89.4566680886532,26.6178384160726],[89.4620190890986,26.6172525190142],[89.4612730675576,26.6182275061817],[89.4605530345527,26.6196764946591],[89.4600279954458,26.6213584873193],[89.4600199507608,26.6232174903231],[89.4596899097309,26.6249584868704],[89.4587748702383,26.6266974720469],[89.4578618377381,26.6281454567662],[89.4569538163859,26.6291294407934],[89.4564277884282,26.6303474326396],[89.4561997647843,26.6313544299178],[89.4561478993892,26.6315841792999]]]},"properties":{"compartment":"Nimati BL7"},"id":"comptt.86"}
]}